{"type":"FeatureCollection","name":"Landslides","crs":{"type":"name","properties":{"name":"urn:ogc:def:crs:OGC:1.3:CRS84"}},"features":[
{"type":"Feature","properties":{"No.":8,"GN Division No.":"63B","GN Division":"Diyathalawa","Landslides":"Landsliding - The starting point of Gaswatta water source","N":6.806355,"E":80.958383,"NBRO Recommendation N/A":"NBRO is aware","Proposed Measures":"Since it is high-risk area, construction should be planned in consultation with NBRO","photopath":"https://raw.githubusercontent.com/MWS003-GIS/MWS003-GIS.github.io/main/IWWRMP/Data/EXD/200_photo/MWS_066/Landsliding Gaswththa water source (2).jpg"},"geometry":{"type":"Point","coordinates":[80.958383,6.806355]}}
]}