{"type":"FeatureCollection","name":"MI","crs":{"type":"name","properties":{"name":"urn:ogc:def:crs:OGC:1.3:CRS84"}},"features":[
{"type":"Feature","properties":{"No":29,"GND No.":"63D","Scheme":"Thisarana canal","N":6.809373,"E":80.928496,"Observation":"Existing Earthen canal, some places Constructed of rectangular concrete lining(600mm x 600mm)     Water from this canal is used to grow  Vegetable and paddy on an area of about 83 acres.","Description":"Canal lining and protection including Earth work and  tree planting\n\nCanal reservation protection by concrete lining  For  150 mm thick , 600 mm  wide  and 500 mm high canal -double banking\n\nStream / canal  reservation protection by earth filling of  str","Amount (Rs.)":1445400,"photopath":"https://raw.githubusercontent.com/MWS003-GIS/MWS003-GIS.github.io/main/IWWRMP/Data/EXD/200_photo/MWS_066/Thisarana canal.jpg"},"geometry":{"type":"Point","coordinates":[80.928496,6.809373]}},
{"type":"Feature","properties":{"No":30,"GND No.":"63K","Scheme":"Pitapola Yaya canal","N":6.829591,"E":80.944377,"Observation":"Existing Earthen canal, some places Constructed of rectangular concrete lining(450mm x 450mm)     Water from this canal is used to grow  Vegetable and paddy on an area of about 25 acres.","Description":"Construction of 5.0 m long retaining wall of total height 2.0 m\n\nConstruction of 2.0m high 1:3:6 (40mm) cement concrete Retaining Wall \n\nTransporting of earth moving machinery\n\nMiscellaneous\n\nContingencies 10%","Amount (Rs.)":341000,"photopath":"https://raw.githubusercontent.com/MWS003-GIS/MWS003-GIS.github.io/main/IWWRMP/Data/EXD/200_photo/MWS_066/Pitapola Yaya canal.jpg"},"geometry":{"type":"Point","coordinates":[80.944377,6.829591]}},
{"type":"Feature","properties":{"No":31,"GND No.":"63K","Scheme":"Mahabogoda canal","N":6.829601,"E":80.943234,"Observation":"Existing Earthen canal, some places Constructed of rectangular concrete lining(450mm x 450mm)     Water from this canal is used to grow  Vegetable and paddy on an area of about 40 acres. There is a house located above the nearby the canal. It is at a ris","Description":"Construction of 24.0 m long retaining wall of total height 2.5 m\n\nConstruction of 2.5m high 1:3:6 (40mm) cement concrete Retaining Wall \n\nTransporting of earth moving machinery\n\nMiscellaneous\n\nContingencies 10%","Amount (Rs.)":2046000,"photopath":"https://raw.githubusercontent.com/MWS003-GIS/MWS003-GIS.github.io/main/IWWRMP/Data/EXD/200_photo/MWS_066/Mahabogoda canal.jpg"},"geometry":{"type":"Point","coordinates":[80.943234,6.829601]}},
{"type":"Feature","properties":{"No":32,"GND No.":"63K","Scheme":"Galakumbura canal","N":6.835396,"E":80.947919,"Observation":"Existing Earthen canal, some places Constructed of rectangular concrete lining(450mm x 450mm)     Water from this canal is used to grow  Vegetable and paddy on an area of about 38 acres.one of the place in the canal has been eroded.","Description":"Construction of 24.0 m long retaining wall of total height 2.5 m\n\nConstruction of 2.5m high 1:3:6 (40mm) cement concrete Retaining Wall \n\nTransporting of earth moving machinery\n\nMiscellaneous\n\nContingencies 10%\n\nCanal concrete lining \n\nCanals reservation","Amount (Rs.)":2684000,"photopath":"https://raw.githubusercontent.com/MWS003-GIS/MWS003-GIS.github.io/main/IWWRMP/Data/EXD/200_photo/MWS_066/Galakumbura canal.jpg"},"geometry":{"type":"Point","coordinates":[80.947919,6.835396]}},
{"type":"Feature","properties":{"No":33,"GND No.":"63K","Scheme":"Amuna Arawa canal","N":6.824898,"E":80.944532,"Observation":"Existing Earthen canal, some places Constructed of rectangular concrete lining(600mm x 600mm)     Water from this canal is used to grow  Vegetable and paddy on an area of about 80 acres.450mm hume pipes have been laid at the beginning of the canal and a","Description":"Canal Concrete lining \n\nRemoving the existing and damaged pipe line\n\nCanal reservation protection by concrete lining  For  150 mm thick , 600 mm  wide  and 500 mm high canal -double banking\n\nTransporting of earth moving machinery\n\nMiscellaneous\n\nContinge","Amount (Rs.)":578600,"photopath":"https://raw.githubusercontent.com/MWS003-GIS/MWS003-GIS.github.io/main/IWWRMP/Data/EXD/200_photo/MWS_066/Amuna Arawa canal.jpg"},"geometry":{"type":"Point","coordinates":[80.944532,6.824898]}},
{"type":"Feature","properties":{"No":34,"GND No.":"64H","Scheme":"Dikulpatha","N":6.814846,"E":80.945071,"Observation":"Existing Earthen canal, some places Constructed of rectangular concrete lining(450mm x 500mm)     Water from this canal is used to grow  Vegetable and paddy on an area of about 20 acres.","Description":"Canal lining and protection including Earth work and  tree planting\n\nCanal reservation protection by concrete lining  For  100 mm thick , 300 mm  wide  and 300 mm high canal -double banking\n\nStream / canal  reservation protection by earth filling of  str","Amount (Rs.)":770000,"photopath":"https://raw.githubusercontent.com/MWS003-GIS/MWS003-GIS.github.io/main/IWWRMP/Data/EXD/200_photo/MWS_066/Dikulpatha.jpg"},"geometry":{"type":"Point","coordinates":[80.945071,6.814846]}},
{"type":"Feature","properties":{"No":35,"GND No.":"64H","Scheme":"Hena Ulpatha canal","N":6.821622,"E":80.943696,"Observation":"Existing Earthen canal,      Water from this canal is used to grow  Vegetable and paddy on an area of about 10 acres. In some places  canal breaks and water is obtained  through 100mm double  Pvc pipes.","Description":"Canal lining and protection including Earth work and  tree planting\n\nCanal reservation protection by concrete lining  For  100 mm thick , 300 mm  wide  and 300 mm high canal -double banking\n\nStream / canal  reservation protection by earth filling of  str","Amount (Rs.)":889900,"photopath":"https://raw.githubusercontent.com/MWS003-GIS/MWS003-GIS.github.io/main/IWWRMP/Data/EXD/200_photo/MWS_066/Hena Ulpatha canal.jpg"},"geometry":{"type":"Point","coordinates":[80.943696,6.821622]}}
]}