{"type":"FeatureCollection","name":"SR","crs":{"type":"name","properties":{"name":"urn:ogc:def:crs:OGC:1.3:CRS84"}},"features":[
{"type":"Feature","properties":{"No":14,"GND No.":"63B","Scheme":"The canal starts from the Gaswatta and flows across the Gaswatta reservation","N":6.806419,"E":80.958225,"Observation":"During the rainy season when too much water flows, Bank erosion occurs","Description":"Canal protection including Earth work and  tree planting\n\nStream / canal  reservation protection by earth filling of  strip   of 1.5m to 2m wide  and average Depth of 0.5m\n\nVegetative cover improving for narrow strips (1.5m-2.0m wide) with Arecanut seedl","Amount (Rs.)":1410200,"photopath":"https://raw.githubusercontent.com/MWS003-GIS/MWS003-GIS.github.io/main/IWWRMP/Data/EXD/200_photo/MWS_066/Gaswatta water reserve.jpg"},"geometry":{"type":"Point","coordinates":[80.958225,6.806419]}},
{"type":"Feature","properties":{"No":15,"GND No.":"63B","Scheme":"The canal flows from Suhadagama to Dodamwatta","N":6.806492,"E":80.961601,"Observation":"During the rainy season when too much water flows, Bank erosion occurs","Description":"Canal protection including Earth work and  tree planting\n\nStream / canal  reservation protection by earth filling of  strip   of 1.5m to 2m wide  and average Depth of 0.5m\n\nVegetative cover improving for narrow strips (1.5m-2.0m wide) with Arecanut seedl","Amount (Rs.)":1410200,"photopath":"https://raw.githubusercontent.com/MWS003-GIS/MWS003-GIS.github.io/main/IWWRMP/Data/EXD/200_photo/MWS_066/Suhadagama water reserve (3).jpg"},"geometry":{"type":"Point","coordinates":[80.961601,6.806492]}},
{"type":"Feature","properties":{"No":16,"GND No.":"63D","Scheme":"Meeyan Arawa anicut and the canal","N":6.805778,"E":80.926679,"Observation":"Existing Earthen canal,     Water from this canal is used to grow  Vegetable and paddy on an area of about 10 acres. In some places a canal breaks and water is obtained 225mm through pipes.","Description":"Canal concrete lining \n\nCanal reservation protection by concrete lining  For  100 mm thick , 300 mm  wide  and 300 mm high canal -double banking\n\nTransporting of earth moving machinery\n\nMiscellaneous\n\nContingencies 10%","Amount (Rs.)":722700,"photopath":"https://raw.githubusercontent.com/MWS003-GIS/MWS003-GIS.github.io/main/IWWRMP/Data/EXD/200_photo/MWS_066/Meeyan Arawa anicut and the canal.jpg"},"geometry":{"type":"Point","coordinates":[80.926679,6.805778]}},
{"type":"Feature","properties":{"No":17,"GND No.":"63D","Scheme":"Hivinillliya anicut and the canal","N":6.804671,"E":80.926472,"Observation":"Existing Earthen canal,     Water from this canal is used to grow  Vegetable and paddy on an area of about 20 acres. In some places  canal breaks and water is obtained  through 225mm pipes.","Description":"Construction of  30 m long Trough (with 0.30m x 0.30m section), 14 nos of piers (3.5 m total hight)\n\nSite preparation & setting out\n\nEarth excavation for foundation or quarry materials and haul the surplus materials up to 30m by Manually.\n\nPlywood form w","Amount (Rs.)":1646700,"photopath":"https://raw.githubusercontent.com/MWS003-GIS/MWS003-GIS.github.io/main/IWWRMP/Data/EXD/200_photo/MWS_066/Hivinillliya  canal (3).jpg"},"geometry":{"type":"Point","coordinates":[80.926472,6.804671]}},
{"type":"Feature","properties":{"No":18,"GND No.":"63K","Scheme":"Aanda Ela","N":6.823266,"E":80.945948,"Observation":"During the rainy season when too much water flows, Bank erosion occurs","Description":"Canal protection including Earth work and  tree planting\n\nStream / canal  reservation protection by earth filling of  strip   of 1.5m to 2m wide  and average Depth of 0.5m\n\nVegetative cover improving for narrow strips (1.5m-2.0m wide) with Arecanut seedl","Amount (Rs.)":1410200,"photopath":"https://raw.githubusercontent.com/MWS003-GIS/MWS003-GIS.github.io/main/IWWRMP/Data/EXD/200_photo/MWS_066/Aanda Ela.jpg"},"geometry":{"type":"Point","coordinates":[80.945948,6.823266]}}
]}