{"type":"FeatureCollection","name":"DWS","crs":{"type":"name","properties":{"name":"urn:ogc:def:crs:OGC:1.3:CRS84"}},"features":[
{"type":"Feature","properties":{"No":6,"GND No.":156,"Scheme":"Tube well at Mr. Chandupa's land","N":7.287209,"E":80.550931,"Observation":null,"Description":"Repairing existing tube well\n\nContingencies 10%","Estimated Cost":33000,"photopath":"https://raw.githubusercontent.com/MWS003-GIS/MWS003-GIS.github.io/main/IWWRMP/Data/EXD/200_photo/MWS_120/jayawikram tube well (3).jpg"},"geometry":{"type":"Point","coordinates":[80.550931,7.287209]}},
{"type":"Feature","properties":{"No":7,"GND No.":159,"Scheme":"Tube well of Guruge Mulla Colony","N":7.302059,"E":80.556941,"Observation":"no any issues","Description":"Suplying and installing of 5000 l capacity fiber tank\n\nContingencies 10%","Estimated Cost":27500,"photopath":"https://raw.githubusercontent.com/MWS003-GIS/MWS003-GIS.github.io/main/IWWRMP/Data/EXD/200_photo/MWS_120/Tube well of Guruge Mulla Colony.jpg"},"geometry":{"type":"Point","coordinates":[80.556941,7.302059]}}
]}