{"type":"FeatureCollection","name":"Landslides","crs":{"type":"name","properties":{"name":"urn:ogc:def:crs:OGC:1.3:CRS84"}},"features":[
{"type":"Feature","properties":{"No.":11,"GN Division No.":144,"GN Division":"Dehigama North","Landslides":"Bank collapsing - Dehigama North Muslim School's Road","N":7.295547,"E":80.569241,"NBRO Recommendation N/A":"Needs NBRO concern","Proposed Measures":"Revisit landuse planning. Construct a retaining wall (20 m x 3 m). Follow recommendations of NBRO having consulted.","photopath":"https://raw.githubusercontent.com/MWS003-GIS/MWS003-GIS.github.io/main/IWWRMP/Data/EXD/200_photo/MWS_120/Dehigama North Muslim School_s road.jpg"},"geometry":{"type":"Point","coordinates":[80.569241,7.295547]}},
{"type":"Feature","properties":{"No.":12,"GN Division No.":145,"GN Division":"Dehigama South","Landslides":"1. Landsliding - Near Saralankara Building","N":7.292881,"E":80.566994,"NBRO Recommendation N/A":"Needs NBRO concern","Proposed Measures":"Construct a retaining wall (10 m x 3 m). Follow recommendations of NBRO having consulted.","photopath":"https://raw.githubusercontent.com/MWS003-GIS/MWS003-GIS.github.io/main/IWWRMP/Data/EXD/200_photo/MWS_120/near saranankara building.jpg"},"geometry":{"type":"Point","coordinates":[80.566994,7.292881]}},
{"type":"Feature","properties":{"No.":13,"GN Division No.":145,"GN Division":"Dehigama South","Landslides":"2. Landsliding - Road near Mrs. Karunawathi's house","N":7.292683,"E":80.567691,"NBRO Recommendation N/A":"Needs NBRO concern","Proposed Measures":"Construct a retaining wall (10 m x 3 m). Follow recommendations of NBRO having consulted.","photopath":"https://raw.githubusercontent.com/MWS003-GIS/MWS003-GIS.github.io/main/IWWRMP/Data/EXD/200_photo/MWS_120/Disaster near to karunawathi haouse.jpg"},"geometry":{"type":"Point","coordinates":[80.567691,7.292683]}},
{"type":"Feature","properties":{"No.":14,"GN Division No.":146,"GN Division":"Mangalagama","Landslides":"Bank collapsing - Near Jayawardanarama Temple","N":7.275793,"E":80.560579,"NBRO Recommendation N/A":null,"Proposed Measures":"Construct a retaining wall (10 m x 3 m). Follow recommendations of NBRO having consulted.","photopath":"https://raw.githubusercontent.com/MWS003-GIS/MWS003-GIS.github.io/main/IWWRMP/Data/EXD/200_photo/MWS_120/Disaster at Guruketiya Temple.jpg"},"geometry":{"type":"Point","coordinates":[80.560579,7.275793]}},
{"type":"Feature","properties":{"No.":15,"GN Division No.":149,"GN Division":"Malgammana","Landslides":"1. Landsliding - Near the old post office near Mr. C.M.V.G. Thilan's house","N":7.276487,"E":80.56065,"NBRO Recommendation N/A":"Needs NBRO concern","Proposed Measures":"Soil  conservation with retaining walls, live hedges etc. is needed. Follow recommendations of NBRO having consulted.","photopath":"https://raw.githubusercontent.com/MWS003-GIS/MWS003-GIS.github.io/main/IWWRMP/Data/EXD/200_photo/MWS_120/Old post office.jpg"},"geometry":{"type":"Point","coordinates":[80.56065,7.276487]}},
{"type":"Feature","properties":{"No.":16,"GN Division No.":149,"GN Division":"Malgammana","Landslides":"2. Landsliding - Near the Bo tree of Gurukete Temple","N":7.277944,"E":80.56065,"NBRO Recommendation N/A":"NBRO is aware","Proposed Measures":"Soil  conservation with retaining walls, live hedges etc. is needed. Follow recommendations of NBRO.","photopath":"https://raw.githubusercontent.com/MWS003-GIS/MWS003-GIS.github.io/main/IWWRMP/Data/EXD/200_photo/MWS_120/Disaster at Guruketiya Temple.jpg"},"geometry":{"type":"Point","coordinates":[80.56065,7.277944]}},
{"type":"Feature","properties":{"No.":17,"GN Division No.":158,"GN Division":"Gurugama","Landslides":"Bank erosion - Sanka Mawatha","N":7.293677,"E":80.553373,"NBRO Recommendation N/A":"Needs NBRO concern","Proposed Measures":"Construct a retaining wall (50 m x 3 m). Follow recommendations of NBRO having consulted.","photopath":"https://raw.githubusercontent.com/MWS003-GIS/MWS003-GIS.github.io/main/IWWRMP/Data/EXD/200_photo/MWS_120/Sanaka mawatha_8253.jpg"},"geometry":{"type":"Point","coordinates":[80.553373,7.293677]}},
{"type":"Feature","properties":{"No.":18,"GN Division No.":165,"GN Division":"Arambegama West","Landslides":"Bank collapsing - Kudaoya canal nearby areas","N":7.271928,"E":80.544492,"NBRO Recommendation N/A":"Needs NBRO concern","Proposed Measures":"Practice soil conservation methods to protect the houses. Follow recommendations of NBRO having consulted.","photopath":"https://raw.githubusercontent.com/MWS003-GIS/MWS003-GIS.github.io/main/IWWRMP/Data/EXD/200_photo/MWS_120/06-04-2026_12-25-59_7911.jpg"},"geometry":{"type":"Point","coordinates":[80.544492,7.271928]}}
]}