{
"type": "FeatureCollection",
"name": "WSP",
"crs": { "type": "name", "properties": { "name": "urn:ogc:def:crs:OGC:1.3:CRS84" } },
"features": [
{ "type": "Feature", "properties": { "No": 46, "GND No.": 155, "Name of the Tank": "Sikurapotha Wewa", "N": 7.292768, "E": 80.540597, "Observation": "no any issues", "Description": "Vegetative cover improving around the water source with Areca nut seedling in 1.5m x 1.5m grid, Kumbuk/ Mee/ Godapara/ Kaduru/ Aththikka/ Wal Del/ Kekuna/ randomly mixed seedlings and planting at 3.5m x 3.5 m grid interval\n\nConstruct a wall to enhance th", "Amount (Rs.)": 82500, "photopath": "https://raw.githubusercontent.com/MWS003-GIS/MWS003-GIS.github.io/main/IWWRMP/Data/EXD/200_photo/MWS_120/Sikurapotha Tank_8219.jpg" }, "geometry": { "type": "Point", "coordinates": [ 80.540597, 7.292768 ] } },
{ "type": "Feature", "properties": { "No": 47, "GND No.": 156, "Name of the Tank": "Well near Batugoda Gedara", "N": 7.291962, "E": 80.551354, "Observation": "small damages can be seen in walls", "Description": "Repair the well walls\n\nContingencies (10%)", "Amount (Rs.)": 55000, "photopath": "https://raw.githubusercontent.com/MWS003-GIS/MWS003-GIS.github.io/main/IWWRMP/Data/EXD/200_photo/MWS_120/Kumbuke well_8246.jpg" }, "geometry": { "type": "Point", "coordinates": [ 80.551354, 7.291962 ] } },
{ "type": "Feature", "properties": { "No": 48, "GND No.": 157, "Name of the Tank": "Near Sikurupotha Wewa", "N": 7.292768, "E": 80.540597, "Observation": "not issues can be seen", "Description": "Vegetative cover improving around the water source with Areca nut seedling in 1.5m x 1.5m grid, Kumbuk/ Mee/ Godapara/ Kaduru/ Aththikka/ Wal Del/ Kekuna/ randomly mixed seedlings and planting at 3.5m x 3.5 m grid interval\n\nDemarcate the boundaries aroun", "Amount (Rs.)": 33000, "photopath": "https://raw.githubusercontent.com/MWS003-GIS/MWS003-GIS.github.io/main/IWWRMP/Data/EXD/200_photo/MWS_120/Welipeliya anicut_8275.jpg" }, "geometry": { "type": "Point", "coordinates": [ 80.540597, 7.292768 ] } },
{ "type": "Feature", "properties": { "No": 49, "GND No.": 161, "Name of the Tank": "Well near the Lahiru Uyana (Public well)", "N": 7.279059, "E": 80.53547, "Observation": "not much issue can be seen", "Description": "Repair the well walls\n\nContingencies 10%", "Amount (Rs.)": 55000, "photopath": "https://raw.githubusercontent.com/MWS003-GIS/MWS003-GIS.github.io/main/IWWRMP/Data/EXD/200_photo/MWS_120/lahiru uyana well_8309.jpg" }, "geometry": { "type": "Point", "coordinates": [ 80.53547, 7.279059 ] } },
{ "type": "Feature", "properties": { "No": 50, "GND No.": 161, "Name of the Tank": "Tube well of Danthure town", "N": 7.281895, "E": 80.53323, "Observation": "Repair the well walls", "Description": "Repair the well walls\n\nContingencies 10%\n", "Amount (Rs.)": 55000, "photopath": "https://raw.githubusercontent.com/MWS003-GIS/MWS003-GIS.github.io/main/IWWRMP/Data/EXD/200_photo/MWS_120/tube well.jpg" }, "geometry": { "type": "Point", "coordinates": [ 80.53323, 7.281895 ] } },
{ "type": "Feature", "properties": { "No": 51, "GND No.": 168, "Name of the Tank": "Galpoththe Linda", "N": 7.26439, "E": 80.54124, "Observation": "in good condition", "Description": "Fabricating & fixing security weld mesh in open type buildings in GI weld mesh 50mm x 50mm SWG 10, welded on 40mm x 40mm x 5mm angle frame complete with application of two coats enamel paint over two coats of anticorrosive paint and complete. All as per", "Amount (Rs.)": 102300, "photopath": "https://raw.githubusercontent.com/MWS003-GIS/MWS003-GIS.github.io/main/IWWRMP/Data/EXD/200_photo/MWS_120/Galpoththa well.jpg" }, "geometry": { "type": "Point", "coordinates": [ 80.54124, 7.26439 ] } },
{ "type": "Feature", "properties": { "No": 52, "GND No.": 170, "Name of the Tank": "Well near the Banshow timber sawmill", "N": 7.272567, "E": 80.54311, "Observation": "damaged and flooded in the disaster times .now not using polluted", "Description": "damaged and flooded in the disaster times .now not using polluted\n\nMake the access road to the well\n\nConstruct the well\n\nContingencies (10%)\n", "Amount (Rs.)": 110000, "photopath": "https://raw.githubusercontent.com/MWS003-GIS/MWS003-GIS.github.io/main/IWWRMP/Data/EXD/200_photo/MWS_120/09-04-2026_02-55-38_5809.jpg" }, "geometry": { "type": "Point", "coordinates": [ 80.54311, 7.272567 ] } },
{ "type": "Feature", "properties": { "No": 53, "GND No.": 170, "Name of the Tank": "Gal Linda", "N": 7.267005, "E": 80.540722, "Observation": "in a privet land but they are okay to develop", "Description": "Fabricating & fixing security weld mesh in open type buildings in GI weld mesh 50mm x 50mm SWG 10, welded on 40mm x 40mm x 5mm angle frame complete with application of two coats enamel paint over two coats of anticorrosive paint and complete. All as per", "Amount (Rs.)": 47300, "photopath": "https://raw.githubusercontent.com/MWS003-GIS/MWS003-GIS.github.io/main/IWWRMP/Data/EXD/200_photo/MWS_120/09-04-2026_02-08-53_2637.jpg" }, "geometry": { "type": "Point", "coordinates": [ 80.540722, 7.267005 ] } },
{ "type": "Feature", "properties": { "No": 54, "GND No.": 179, "Name of the Tank": "Aludeniya Pihilla", "N": 7.295472, "E": 80.533333, "Observation": "there is no stock tank for drinking water", "Description": "Construction of Concrete water storage tank of 20 cum ? size internal t 3mx3mx2.5\n\nContingencies (10%)", "Amount (Rs.)": 742500, "photopath": "https://raw.githubusercontent.com/MWS003-GIS/MWS003-GIS.github.io/main/IWWRMP/Data/EXD/200_photo/MWS_120/Pelawa Pahala Raja Pihilla.jpg" }, "geometry": { "type": "Point", "coordinates": [ 80.533333, 7.295472 ] } },
{ "type": "Feature", "properties": { "No": 56, "GND No.": 181, "Name of the Tank": "Parakatawella Wewa", "N": 7.284571, "E": 80.544277, "Observation": "The sluice gate was blocked and damaged,  water get from a pipeline", "Description": "Construct a sluice and a sluice gate \n\nVegetative cover improving around the water source with Areca nut seedling in 1.5m x 1.5m grid, Kumbuk/ Mee/ Godapara/ Kaduru/ Aththikka/ Wal Del/ Kekuna/ randomly mixed seedlings and planting at 3.5m x 3.5 m grid i", "Amount (Rs.)": 1678600, "photopath": "https://raw.githubusercontent.com/MWS003-GIS/MWS003-GIS.github.io/main/IWWRMP/Data/EXD/200_photo/MWS_120/parakata alla canal (1).jpg" }, "geometry": { "type": "Point", "coordinates": [ 80.544277, 7.284571 ] } },
{ "type": "Feature", "properties": { "No": 57, "GND No.": 211, "Name of the Tank": "Well at the Mr. Jayathilake's land", "N": 7.28415, "E": 80.52808, "Observation": "damaged walls and leakages", "Description": "Clean the well and Repair the well walls\n\nContingencies (10%)", "Amount (Rs.)": 71500, "photopath": "https://raw.githubusercontent.com/MWS003-GIS/MWS003-GIS.github.io/main/IWWRMP/Data/EXD/200_photo/MWS_120/09-04-2026_12-38-17_7050.jpg" }, "geometry": { "type": "Point", "coordinates": [ 80.52808, 7.28415 ] } },
{ "type": "Feature", "properties": { "No": 58, "GND No.": 211, "Name of the Tank": "Palkade  well", "N": 7.282386, "E": 80.528851, "Observation": "water is not clear , eutrophic water", "Description": "Clean the surrounding  and Repair the well walls\n\nContingencies (10%)", "Amount (Rs.)": 71500, "photopath": "https://raw.githubusercontent.com/MWS003-GIS/MWS003-GIS.github.io/main/IWWRMP/Data/EXD/200_photo/MWS_120/09-04-2026_12-49-15_1873.jpg" }, "geometry": { "type": "Point", "coordinates": [ 80.528851, 7.282386 ] } }
]
}
