{"type":"FeatureCollection","name":"DWS","crs":{"type":"name","properties":{"name":"urn:ogc:def:crs:OGC:1.3:CRS84"}},"features":[
{"type":"Feature","properties":{"No":1,"GND No.":210,"Scheme":"Tube well at the entrance of the cemetery","N":7.262906,"E":80.516317,"Observation":"damaged heavily. 30 families used this tube well.","Description":"Concrete around the tube well and Replcement a new tube well pump\n\nSite preparation and setting out\n\nConcrete around the tube well \n\nReplcement a new tube well pump\n\nMaterial Transport\n\nTyding up site after construction\n\nContingencies 10%","Estimated Cost":91000.0,"photopath":"https://raw.githubusercontent.com/MWS003-GIS/MWS003-GIS.github.io/main/IWWRMP/Data/EXD/200_photo/MWS_119_2/panabokka tube well (3).jpg"},"geometry":{"type":"Point","coordinates":[80.516317,7.262906]}},
{"type":"Feature","properties":{"No":2,"GND No.":217,"Scheme":"Dippitigoda tube well","N":7.289496,"E":80.502363,"Observation":"not working well","Description":"Site preparation and setting out\n\nRepairs to tube well \n\nMaterial Transport\n\nTyding up site after construction\n\nContingencies 10%","Estimated Cost":68000.0,"photopath":"https://raw.githubusercontent.com/MWS003-GIS/MWS003-GIS.github.io/main/IWWRMP/Data/EXD/200_photo/MWS_119_2/Dippitigoda tube well.jpg"},"geometry":{"type":"Point","coordinates":[80.502363,7.289496]}},
{"type":"Feature","properties":{"No":3,"GND No.":219,"Scheme":"Thismada GND","N":7.303633,"E":80.50091,"Observation":"15 families. no proper tank for 15 families.","Description":"Site preparation and setting out\n\nEarth excavation for foundation for rubble foundation ( foundation trench 1.5' height and 1.0' width and spoil to waste by manually \n\n150 mm- 225mm Random rubble masonary in 1:2 mortar in foundation \n\nPlywood formwork (","Estimated Cost":322000.004,"photopath":"https://raw.githubusercontent.com/MWS003-GIS/MWS003-GIS.github.io/main/IWWRMP/Data/EXD/200_photo/MWS_119_2/thismada canal (1).jpg"},"geometry":{"type":"Point","coordinates":[80.50091,7.303633]}},
{"type":"Feature","properties":{"No":4,"GND No.":219,"Scheme":"Thismada K. V.","N":7.291631,"E":80.511024,"Observation":"have a tank, but not fixed yet.","Description":"Site preparation and setting out\n\nConcerate 3\"  for place the tank.\n\nMaterial Transport\n\nTidying upsite\n\nContingencies 10%","Estimated Cost":15000.0,"photopath":"https://raw.githubusercontent.com/MWS003-GIS/MWS003-GIS.github.io/main/IWWRMP/Data/EXD/200_photo/MWS_119_2/thismada canal (1).jpg"},"geometry":{"type":"Point","coordinates":[80.511024,7.291631]}}
]}