{
"type": "FeatureCollection",
"name": "Landslides",
"crs": { "type": "name", "properties": { "name": "urn:ogc:def:crs:OGC:1.3:CRS84" } },
"features": [
{ "type": "Feature", "properties": { "No.": 7, "GN Division No.": 191, "GN Division": "Amunupura", "Landslides": "1. Sinking the road - The part of the Balana road between Mrs. Mallika Senarathna's house and Mr. Jayapala's house", "N": 7.271267, "E": 80.507179, "NBRO Recommendation N/A": "Needs NBRO concern", "Proposed Measures": "Construct a retaining wall (50 m x 3 m). Follow recommendations of NBRO having consulted.", "photopath": "https://raw.githubusercontent.com/MWS003-GIS/MWS003-GIS.github.io/main/IWWRMP/Data/EXD/200_photo/MWS_119_2/Balana Rd near Mallika house damage.jpg" }, "geometry": { "type": "Point", "coordinates": [ 80.507179, 7.271267 ] } },
{ "type": "Feature", "properties": { "No.": 8, "GN Division No.": 191, "GN Division": "Amunupura", "Landslides": "2. Earth fissures of the road - Surrounding area of Mrs. Nayana's house near Ulukade temple", "N": 7.275134, "E": 80.50457, "NBRO Recommendation N/A": "Needs NBRO concern", "Proposed Measures": "Construct a retaining wall (20 m x 3 m). Follow recommendations of NBRO having consulted.", "photopath": "https://raw.githubusercontent.com/MWS003-GIS/MWS003-GIS.github.io/main/IWWRMP/Data/EXD/200_photo/MWS_119_2/Gallena pansala soil.jpg" }, "geometry": { "type": "Point", "coordinates": [ 80.50457, 7.275134 ] } },
{ "type": "Feature", "properties": { "No.": 9, "GN Division No.": 196, "GN Division": "Udarathmeewala", "Landslides": "1. Bank collapsing, Cracking the walls of the house - Udarathmeewala Aluth Kanda Mr. H.P.G. Prabhath Premasekara's land", "N": 7.281445, "E": 80.505295, "NBRO Recommendation N/A": "Needs NBRO concern", "Proposed Measures": "Constructing the drain system of the road above the house (100 m).", "photopath": "https://raw.githubusercontent.com/MWS003-GIS/MWS003-GIS.github.io/main/IWWRMP/Data/EXD/200_photo/MWS_119_2/Prabhath Premasekara_s land disaster.jpg" }, "geometry": { "type": "Point", "coordinates": [ 80.505295, 7.281445 ] } },
{ "type": "Feature", "properties": { "No.": 10, "GN Division No.": 196, "GN Division": "Udarathmeewala", "Landslides": "3. Erosion of the road - The part of the Gal Anga - Raththepitiya carpet road near Mr. Nimal Wijesiri's house", "N": 7.279131, "E": 80.508045, "NBRO Recommendation N/A": "Needs NBRO concern", "Proposed Measures": "Constructing  a side wall (20 m x 3 m), adapt soil conservation practices", "photopath": "https://raw.githubusercontent.com/MWS003-GIS/MWS003-GIS.github.io/main/IWWRMP/Data/EXD/200_photo/MWS_119_2/Disaster near nimals house.jpg" }, "geometry": { "type": "Point", "coordinates": [ 80.508045, 7.279131 ] } }
]
}
