{"type":"FeatureCollection","name":"SR","crs":{"type":"name","properties":{"name":"urn:ogc:def:crs:OGC:1.3:CRS84"}},"features":[
{"type":"Feature","properties":{"No":27,"GND No.":166,"Scheme":"Nanu Oya","N":7.266236,"E":80.562213,"Observation":"damaged canal bank and water flow to near lands when raining season, and some waste accumulation could be seen","Description":"Replanting bamboo species around the damaged canal banks\n\nDisplay notice boards to prevent waste accumulation\n\nContingencies (10%)","Amount (Rs.)":363000,"photopath":"https://raw.githubusercontent.com/MWS003-GIS/MWS003-GIS.github.io/main/IWWRMP/Data/EXD/200_photo/MWS_119_2/06-04-2026_11-26-42_7305.jpg"},"geometry":{"type":"Point","coordinates":[80.562213,7.266236]}},
{"type":"Feature","properties":{"No":28,"GND No.":172,"Scheme":"Pilimathalawa GND","N":7.263503,"E":80.554435,"Observation":"5 acres paddy land, lake polluted by waste.","Description":"Demarcate the boundaries\n\nVegetative cover improving around the reservation (5m x 10m) with Areca nut seedling in 1.5m x 1.5m grid, Kumbuk/ Mee/ Godapara/ Kaduru/ Aththikka/ Wal Del/ Kekuna/ randomly mixed seedlings and planting at 3.5m x 3.5 m grid inte","Amount (Rs.)":770000,"photopath":"https://raw.githubusercontent.com/MWS003-GIS/MWS003-GIS.github.io/main/IWWRMP/Data/EXD/200_photo/MWS_119_2/pilimthalawa canal (3).jpg"},"geometry":{"type":"Point","coordinates":[80.554435,7.263503]}},
{"type":"Feature","properties":{"No":29,"GND No.":196,"Scheme":"Nanu Oya canal","N":7.27929,"E":80.509025,"Observation":"eroded river banks and water flow to cultivation lands in some locations","Description":"Display notice boards to prevent waste accumulation\n\nClean the area\n\nReplanting bamboo species around the canal banks to reduce the erosion\n\nContingencies (10%)","Amount (Rs.)":363000,"photopath":"https://raw.githubusercontent.com/MWS003-GIS/MWS003-GIS.github.io/main/IWWRMP/Data/EXD/200_photo/MWS_119_2/08-04-2026_02-55-34_3823.jpg"},"geometry":{"type":"Point","coordinates":[80.509025,7.27929]}},
{"type":"Feature","properties":{"No":30,"GND No.":197,"Scheme":"Nanu Oya, parallel to the Radapeththa Yaya","N":7.273923,"E":80.517179,"Observation":"damaged the canal bank and water flow to paddy filed","Description":"Construction of 1.5m high 0.15m thk RCC Retaining Wall  for the damaged canal banks\n\nContingencies (10%)","Amount (Rs.)":396000,"photopath":"https://raw.githubusercontent.com/MWS003-GIS/MWS003-GIS.github.io/main/IWWRMP/Data/EXD/200_photo/MWS_119_2/09-04-2026_10-11-52_6320.jpg"},"geometry":{"type":"Point","coordinates":[80.517179,7.273923]}},
{"type":"Feature","properties":{"No":31,"GND No.":205,"Scheme":"Kadugannawa railway station to Henwala","N":7.261379,"E":80.530475,"Observation":"CGR property canal bunds are damaged.","Description":"Replanting bamboo species around the damaged canal banks\n\nClean the area\n\nContingencies (10%)","Amount (Rs.)":544500,"photopath":"https://raw.githubusercontent.com/MWS003-GIS/MWS003-GIS.github.io/main/IWWRMP/Data/EXD/200_photo/MWS_119_2/nalla canal (2).jpg"},"geometry":{"type":"Point","coordinates":[80.530475,7.261379]}},
{"type":"Feature","properties":{"No":32,"GND No.":206,"Scheme":"Canal from Nanu Oya Paragaha Pahala to Kotambe ….... Atta","N":7.276694,"E":80.518537,"Observation":"damaged the canal bund and water flow to paddy field","Description":"Construction of 3.0m high 1:3:6 (40mm) cement concrete Retaining Wall - To replace the damaged side wall\n\nContingencies (10%)","Amount (Rs.)":3514500,"photopath":"https://raw.githubusercontent.com/MWS003-GIS/MWS003-GIS.github.io/main/IWWRMP/Data/EXD/200_photo/MWS_119_2/09-04-2026_10-41-07_8807.jpg"},"geometry":{"type":"Point","coordinates":[80.518537,7.276694]}},
{"type":"Feature","properties":{"No":33,"GND No.":207,"Scheme":"Alukumbura Yaya Pita Ela/ spill tail canal","N":7.274742598,"E":80.52022285,"Observation":"10 acres of paddy land.","Description":"Clean the canal\n\nVegetative cover improving around the reservation (5m x 10m) with Areca nut seedling in 1.5m x 1.5m grid, Kumbuk/ Mee/ Godapara/ Kaduru/ Aththikka/ Wal Del/ Kekuna/ randomly mixed seedlings and planting at 3.5m x 3.5 m grid interval\n\nCon","Amount (Rs.)":968000,"photopath":"https://raw.githubusercontent.com/MWS003-GIS/MWS003-GIS.github.io/main/IWWRMP/Data/EXD/200_photo/MWS_119_2/alukubura canal (3).jpg"},"geometry":{"type":"Point","coordinates":[80.52022285,7.274742598]}},
{"type":"Feature","properties":{"No":34,"GND No.":207,"Scheme":"Nanu Oya (Tributary of Mahaweli)","N":7.274742598,"E":80.52022285,"Observation":"Eroded canal bunds caused flooding.","Description":"Dry rubble packing (with locally found rubble, size over 225mm )-Along the river banks\n\nVegetative cover improving around the river bank with Areca nut seedling in 1.5m x 1.5m grid, Kumbuk/ Mee/ Godapara/ Kaduru/ Aththikka/ Wal Del/ Kekuna/ randomly mixe","Amount (Rs.)":695200,"photopath":"https://raw.githubusercontent.com/MWS003-GIS/MWS003-GIS.github.io/main/IWWRMP/Data/EXD/200_photo/MWS_119_2/nanu canal (1).jpg"},"geometry":{"type":"Point","coordinates":[80.52022285,7.274742598]}},
{"type":"Feature","properties":{"No":35,"GND No.":208,"Scheme":"Balawathwala canal","N":7.26772,"E":80.528273,"Observation":"damaged the canal banks ,12 ac is cultivated from this, but because of the damage only 2 ac is cultivated","Description":"Vegetative cover improving around the river bank with Areca nut seedling in 1.5m x 1.5m grid, Kumbuk/ Mee/ Godapara/ Kaduru/ Aththikka/ Wal Del/ Kekuna/ randomly mixed seedlings and planting at 3.5m x 3.5 m grid interval\n\nConstruction of 2.5m high 1:3:6","Amount (Rs.)":1265000,"photopath":"https://raw.githubusercontent.com/MWS003-GIS/MWS003-GIS.github.io/main/IWWRMP/Data/EXD/200_photo/MWS_119_2/Balawathwala migahapitiya canal.jpg"},"geometry":{"type":"Point","coordinates":[80.528273,7.26772]}},
{"type":"Feature","properties":{"No":36,"GND No.":209,"Scheme":"Canal from the Alagalla road to railway across the Illadora temple","N":7.26124,"E":80.526287,"Observation":"Canal banks are eroded.","Description":"Dry rubble packing (with locally found rubble, size over 225mm )-Along the river banks\n\nVegetative cover improving around the river bank with Areca nut seedling in 1.5m x 1.5m grid, Kumbuk/ Mee/ Godapara/ Kaduru/ Aththikka/ Wal Del/ Kekuna/ randomly mixe","Amount (Rs.)":543400,"photopath":"https://raw.githubusercontent.com/MWS003-GIS/MWS003-GIS.github.io/main/IWWRMP/Data/EXD/200_photo/MWS_119_2/alagalla canal (2).jpg"},"geometry":{"type":"Point","coordinates":[80.526287,7.26124]}},
{"type":"Feature","properties":{"No":37,"GND No.":215,"Scheme":"From Thismada boundary to Yakadella","N":7.288992,"E":80.512411,"Observation":"fully damaged the canal, due to a landslide water is going in another way","Description":"Construction of 1.8m high 1:3:6 (40mm) cement concrete Retaining Wall - To replace the damaged canal walls\n\nVegetative cover improving around the river bank with Areca nut seedling in 1.5m x 1.5m grid, Kumbuk/ Mee/ Godapara/ Kaduru/ Aththikka/ Wal Del/ K","Amount (Rs.)":2092440,"photopath":"https://raw.githubusercontent.com/MWS003-GIS/MWS003-GIS.github.io/main/IWWRMP/Data/EXD/200_photo/MWS_119_2/10-04-2026_11-04-07_2986.jpg"},"geometry":{"type":"Point","coordinates":[80.512411,7.288992]}},
{"type":"Feature","properties":{"No":38,"GND No.":215,"Scheme":"Kandedeniya canal,","N":7.290046,"E":80.512617,"Observation":"canal has been blocked due to a landslide ,10 ac is cultivated from this,paddy is cultivation is ina good condition","Description":"Remove the landslide soil including transport and machinery\n\nConstruction of 1.8m high 1:3:6 (40mm) cement concrete Retaining Wall - To replace the damaged canal walls\n\nContingencies (10%)","Amount (Rs.)":215050,"photopath":"https://raw.githubusercontent.com/MWS003-GIS/MWS003-GIS.github.io/main/IWWRMP/Data/EXD/200_photo/MWS_119_2/Kandededeniya canal.jpg"},"geometry":{"type":"Point","coordinates":[80.512617,7.290046]}},
{"type":"Feature","properties":{"No":39,"GND No.":215,"Scheme":"Hewendeniya canal","N":7.290025,"E":80.512752,"Observation":"damaged and water is flowing to paddy field ,5ac is cultivated","Description":"Construction of 2.0m high 1:3:6 (40mm) cement concrete Retaining Wall - To replace the damaged side walls of the canal\n\nContingencies (10%)","Amount (Rs.)":948750,"photopath":"https://raw.githubusercontent.com/MWS003-GIS/MWS003-GIS.github.io/main/IWWRMP/Data/EXD/200_photo/MWS_119_2/Hevendeniya canal.jpg"},"geometry":{"type":"Point","coordinates":[80.512752,7.290025]}},
{"type":"Feature","properties":{"No":40,"GND No.":216,"Scheme":"Canal from Kotakumbura to Theligoda","N":7.288616,"E":80.510729,"Observation":"49 acres of paddy lands.","Description":"Construct a 2 ft x 2ft concrete drain for 2 km\n\nContingencies (10%)","Amount (Rs.)":165000,"photopath":"https://raw.githubusercontent.com/MWS003-GIS/MWS003-GIS.github.io/main/IWWRMP/Data/EXD/200_photo/MWS_119_2/kotakubura canal (4).jpg"},"geometry":{"type":"Point","coordinates":[80.510729,7.288616]}},
{"type":"Feature","properties":{"No":41,"GND No.":216,"Scheme":"Pitawala canal","N":7.28885,"E":80.509961,"Observation":"Canal bunds were damaged heavily.","Description":"Construction of 1.8m high 1:3:6 (40mm) cement concrete Retaining Wall - To replace the damaged side wall\n\nContingencies (10%)","Amount (Rs.)":2145000,"photopath":"https://raw.githubusercontent.com/MWS003-GIS/MWS003-GIS.github.io/main/IWWRMP/Data/EXD/200_photo/MWS_119_2/pitawalayaya canal (1).jpg"},"geometry":{"type":"Point","coordinates":[80.509961,7.28885]}},
{"type":"Feature","properties":{"No":42,"GND No.":216,"Scheme":"Canal from Thotawilla to Hunupotha","N":7.288963,"E":80.510849,"Observation":"47 acres of paddy lands.  canal banks were damaged.","Description":"Construction of 1.5m high 1:3:6 (40mm) cement concrete Retaining Wall for damaged canal walls\n\nContingencies (10%)","Amount (Rs.)":1980000,"photopath":"https://raw.githubusercontent.com/MWS003-GIS/MWS003-GIS.github.io/main/IWWRMP/Data/EXD/200_photo/MWS_119_2/hunupatha canal (2).jpg"},"geometry":{"type":"Point","coordinates":[80.510849,7.288963]}},
{"type":"Feature","properties":{"No":43,"GND No.":217,"Scheme":"Palossa canal Menikdiwela Thaliyagoda Yaya","N":7.288437,"E":80.508546,"Observation":"damaged canal bank","Description":"Construction of 1.0m high 1:3:6 (40mm) cement concrete Retaining Wall - To replace the damaged side wall\n\nContingencies (10%)","Amount (Rs.)":5280000,"photopath":"https://raw.githubusercontent.com/MWS003-GIS/MWS003-GIS.github.io/main/IWWRMP/Data/EXD/200_photo/MWS_119_2/10-04-2026_10-28-01_3829.jpg"},"geometry":{"type":"Point","coordinates":[80.508546,7.288437]}},
{"type":"Feature","properties":{"No":44,"GND No.":217,"Scheme":"Happita canal from Welikele to Kapukotuewa anicut","N":7.288231,"E":80.509359,"Observation":"highly damaged side wall water flow to paddy field","Description":"Construction of 2.0m high 1:3:6 (40mm) cement concrete Retaining Wall - To replace the damaged side wall\n\nContingencies (10%)","Amount (Rs.)":948750,"photopath":"https://raw.githubusercontent.com/MWS003-GIS/MWS003-GIS.github.io/main/IWWRMP/Data/EXD/200_photo/MWS_119_2/Happitiya canal.jpg"},"geometry":{"type":"Point","coordinates":[80.509359,7.288231]}},
{"type":"Feature","properties":{"No":45,"GND No.":218,"Scheme":"Yakadella canal from Welipela to near Deldeniya temple","N":7.285287,"E":80.508256,"Observation":"damaged and water flow to paddy field, there is a tempory wall that need to replace","Description":"Construction of 1.8m high 1:3:6 (40mm) cement concrete Retaining Wall - To replace the damaged side wall\n\nContingencies (10%)","Amount (Rs.)":858000,"photopath":"https://raw.githubusercontent.com/MWS003-GIS/MWS003-GIS.github.io/main/IWWRMP/Data/EXD/200_photo/MWS_119_2/10-04-2026_12-09-42_6926.jpg"},"geometry":{"type":"Point","coordinates":[80.508256,7.285287]}},
{"type":"Feature","properties":{"No":46,"GND No.":219,"Scheme":"The canal flowing near the Old post office passes through Mr. Mahinda's house, and near the paddy field and joins the main canal.","N":7.303166,"E":80.501832,"Observation":"no proper drainage.","Description":"Construction of 1.5m high 1:3:6 (40mm) cement concrete Retaining Wall as a side wall\n\nContingencies (10%)","Amount (Rs.)":11880000,"photopath":"https://raw.githubusercontent.com/MWS003-GIS/MWS003-GIS.github.io/main/IWWRMP/Data/EXD/200_photo/MWS_119_2/old post office  well (1).jpg"},"geometry":{"type":"Point","coordinates":[80.501832,7.303166]}}
]}