{
"type": "FeatureCollection",
"name": "SWC_ON",
"crs": { "type": "name", "properties": { "name": "urn:ogc:def:crs:OGC:1.3:CRS84" } },
"features": [
{ "type": "Feature", "properties": { "No.": 2, "GND No.": 191, "GND Name": "Amunupura", "Key Activities proposed for Soil and Water conservation": "1 Soil conservation practices -  Blana-Thepelpala Primary Medial Unit (65°-75°)", "Priority based on Soil Erosion Hazard": "1", "N": 7.27341, "E": 80.507622, "Quantity": "1 ha", "Proposed measure/s": "1. Establishing SALT  - 800 m\n2. Lock and spills - 100 m\n3. Stone terracing - 100 m\n4. Agronomic practices should be adapted at optimum level (conservation tillage, crop rotation and diversification, cover crops, mulching, contour farming, windbreaks and", "Uniti_Cost": "250.00 m-1\n400.00 m-1\n2500.00 m-1", "Total_Cost": 490000, "Contribution (Local Community, LA, and the project)": "Labour and other basic services by the Local community", "Time frame for the implementation": "0.25 Years", "photopath": "https://raw.githubusercontent.com/MWS003-GIS/MWS003-GIS.github.io/main/IWWRMP/Data/EXD/200_photo/MWS_119_2/08-04-2026_01-32-38_6634.jpg" }, "geometry": { "type": "Point", "coordinates": [ 80.507622, 7.27341 ] } },
{ "type": "Feature", "properties": { "No.": 3, "GND No.": 191, "GND Name": "Amunupura", "Key Activities proposed for Soil and Water conservation": "2. Soil conservation practices -  Sri Rajasinghe Cave Temple (70°-80°)", "Priority based on Soil Erosion Hazard": "-", "N": 7.271974, "E": 80.495441, "Quantity": "1 ha", "Proposed measure/s": "1. Establishing SALT  - 800 m\n2. Lock and spills - 100 m\n3. Stone terracing - 100 m\n4. Agronomic practices should be adapted at optimum level (conservation tillage, crop rotation and diversification, cover crops, mulching, contour farming, windbreaks and", "Uniti_Cost": "250.00 m-1\n400.00 m-1\n2500.00 m-1", "Total_Cost": 490000, "Contribution (Local Community, LA, and the project)": "Labour and other basic services by the Local community", "Time frame for the implementation": "0.25 Years", "photopath": "https://raw.githubusercontent.com/MWS003-GIS/MWS003-GIS.github.io/main/IWWRMP/Data/EXD/200_photo/MWS_119_2/08-04-2026_01-11-55_9383.jpg" }, "geometry": { "type": "Point", "coordinates": [ 80.495441, 7.271974 ] } },
{ "type": "Feature", "properties": { "No.": 4, "GND No.": 191, "GND Name": "Amunupura", "Key Activities proposed for Soil and Water conservation": "3. Soil conservation practices -  Amunupura tea plantations (55°-65°)", "Priority based on Soil Erosion Hazard": "1", "N": 7.268499, "E": 80.499323, "Quantity": "4 ha", "Proposed measure/s": "1. Establishing SALT  - 2000 m\n2. Lock and spills - 1000 m\n3. Stone terracing - 1000 m\n4. Agronomic practices should be adapted at optimum level (conservation tillage, crop rotation and diversification, cover crops, mulching, contour farming, windbreaks", "Uniti_Cost": "250.00 m-1\n400.00 m-1\n2500.00 m-1", "Total_Cost": 3400000, "Contribution (Local Community, LA, and the project)": "Labour and other basic services by the Local community", "Time frame for the implementation": "0.25 Years", "photopath": "https://raw.githubusercontent.com/MWS003-GIS/MWS003-GIS.github.io/main/IWWRMP/Data/EXD/200_photo/MWS_119_2/Tea Cultivated Soil.jpg" }, "geometry": { "type": "Point", "coordinates": [ 80.499323, 7.268499 ] } },
{ "type": "Feature", "properties": { "No.": 5, "GND No.": 191, "GND Name": "Amunupura", "Key Activities proposed for Soil and Water conservation": "4. Soil conservation practices -  Amunupura coconut plantations (65°-75°)", "Priority based on Soil Erosion Hazard": "2", "N": 7.270148, "E": 80.50648, "Quantity": "1 ha", "Proposed measure/s": "1. Establishing SALT  - 800 m\n2. Lock and spills - 100 m\n3. Stone terracing - 100 m\n4. Agronomic practices should be adapted at optimum level (conservation tillage, crop rotation and diversification, cover crops, mulching, contour farming, windbreaks and", "Uniti_Cost": "250.00 m-1\n400.00 m-1\n2500.00 m-1", "Total_Cost": 490000, "Contribution (Local Community, LA, and the project)": "Labour and other basic services by the Local community", "Time frame for the implementation": "0.25 Years", "photopath": "https://raw.githubusercontent.com/MWS003-GIS/MWS003-GIS.github.io/main/IWWRMP/Data/EXD/200_photo/MWS_119_2/Coconut Cultivated soil.jpg" }, "geometry": { "type": "Point", "coordinates": [ 80.50648, 7.270148 ] } },
{ "type": "Feature", "properties": { "No.": 6, "GND No.": 191, "GND Name": "Amunupura", "Key Activities proposed for Soil and Water conservation": "5. Soil conservation practices -  Amunupura homegardens (55°-65°)", "Priority based on Soil Erosion Hazard": "4", "N": 7.270874, "E": 80.507407, "Quantity": "1 ha", "Proposed measure/s": "1. Establishing SALT  - 800 m\n2. Lock and spills - 100 m\n3. Stone terracing - 100 m\n4. Agronomic practices should be adapted at optimum level (conservation tillage, crop rotation and diversification, cover crops, mulching, contour farming, windbreaks and", "Uniti_Cost": "250.00 m-1\n400.00 m-1\n2500.00 m-1", "Total_Cost": 490000, "Contribution (Local Community, LA, and the project)": "Labour and other basic services by the Local community", "Time frame for the implementation": "0.25 Years", "photopath": "https://raw.githubusercontent.com/MWS003-GIS/MWS003-GIS.github.io/main/IWWRMP/Data/EXD/200_photo/MWS_119_2/08-04-2026_12-20-36_2728.jpg" }, "geometry": { "type": "Point", "coordinates": [ 80.507407, 7.270874 ] } },
{ "type": "Feature", "properties": { "No.": 7, "GND No.": 196, "GND Name": "Udarathmeewala", "Key Activities proposed for Soil and Water conservation": "Soil conservation practices -  Udarathmeewala homegardens  (35°-60°)", "Priority based on Soil Erosion Hazard": "1", "N": 7.279486, "E": 80.508844, "Quantity": "3 ha", "Proposed measure/s": "1. Establishing SALT  - 1000 m\n2. Live fencing - 1000 m\n3. Lock and spills - 500 m\n4. Stone terracing - 500 m\n5. Agronomic practices should be adapted at optimum level (conservation tillage, crop rotation and diversification, cover crops, mulching, conto", "Uniti_Cost": "250.00 m-1\n120.00 m-1\n400.00 m-1\n2500.00 m-1", "Total_Cost": 1820000, "Contribution (Local Community, LA, and the project)": "Labour and other basic services by the Local community", "Time frame for the implementation": "0.25 Years", "photopath": "https://raw.githubusercontent.com/MWS003-GIS/MWS003-GIS.github.io/main/IWWRMP/Data/EXD/200_photo/MWS_119_2/Home Gardens Udarathmiwala .jpg" }, "geometry": { "type": "Point", "coordinates": [ 80.508844, 7.279486 ] } },
{ "type": "Feature", "properties": { "No.": 8, "GND No.": 197, "GND Name": "Pahala Rathmeewala", "Key Activities proposed for Soil and Water conservation": "Soil conservation practices -  Pahala Rathmeewala homegardens (30°-50°)", "Priority based on Soil Erosion Hazard": "1", "N": 7.274547, "E": 80.510762, "Quantity": "25 ha", "Proposed measure/s": "1. Establishing SALT  - 10000 m\n2. Live fencing - 10000 m\n3. Lock and spills - 2500 m\n4. Stone terracing - 2500 m\n5. Agronomic practices should be adapted at optimum level (conservation tillage, crop rotation and diversification, cover crops, mulching, c", "Uniti_Cost": "250.00 m-1\n120.00 m-1\n400.00 m-1\n2500.00 m-1", "Total_Cost": 10950000, "Contribution (Local Community, LA, and the project)": "Labour and other basic services by the Local community", "Time frame for the implementation": "0.25 Years", "photopath": "https://raw.githubusercontent.com/MWS003-GIS/MWS003-GIS.github.io/main/IWWRMP/Data/EXD/200_photo/MWS_119_2/Rathmiwala soil.jpg" }, "geometry": { "type": "Point", "coordinates": [ 80.510762, 7.274547 ] } },
{ "type": "Feature", "properties": { "No.": 9, "GND No.": 201, "GND Name": "Mamudawala", "Key Activities proposed for Soil and Water conservation": "Soil conservation practices - Mamudawala Naththaranpotha (40°-60°)", "Priority based on Soil Erosion Hazard": "1", "N": 7.2765037, "E": 80.530128, "Quantity": "4 ha", "Proposed measure/s": "1. Establishing SALT  - 2000 m\n2. Lock and spills - 1000 m\n3. Stone terracing - 1000 m\n4. Agronomic practices should be adapted at optimum level (conservation tillage, crop rotation and diversification, cover crops, mulching, contour farming, windbreaks", "Uniti_Cost": "250.00 m-1\n400.00 m-1\n2500.00 m-1", "Total_Cost": 3400000, "Contribution (Local Community, LA, and the project)": "Labour and other basic services by the Local community", "Time frame for the implementation": "0.25 Years", "photopath": "https://raw.githubusercontent.com/MWS003-GIS/MWS003-GIS.github.io/main/IWWRMP/Data/EXD/200_photo/MWS_119_2/Soil.jpg" }, "geometry": { "type": "Point", "coordinates": [ 80.530128, 7.2765037 ] } },
{ "type": "Feature", "properties": { "No.": 10, "GND No.": 207, "GND Name": "Kavudupana", "Key Activities proposed for Soil and Water conservation": "Soil conservation practices -  Kavudupana Village (25°-60°)", "Priority based on Soil Erosion Hazard": "1", "N": 7.271342, "E": 80.526683, "Quantity": "6 ha", "Proposed measure/s": "1. Establishing SALT  - 2000 m\n2. Live fencing  - 2000 m\n3. Lock and spills - 1000 m\n4. Stone terracing - 1000 m\n5. Agronomic practices should be adapted at optimum level (conservation tillage, crop rotation and diversification, cover crops, mulching, co", "Uniti_Cost": "250.00 m-1\n120.00 m-1\n400.00 m-1\n2500.00 m-1", "Total_Cost": 3640000, "Contribution (Local Community, LA, and the project)": "Labour and other basic services by the Local community", "Time frame for the implementation": "0.25 Years", "photopath": "https://raw.githubusercontent.com/MWS003-GIS/MWS003-GIS.github.io/main/IWWRMP/Data/EXD/200_photo/MWS_119_2/Home Garden Soil 2.jpg" }, "geometry": { "type": "Point", "coordinates": [ 80.526683, 7.271342 ] } },
{ "type": "Feature", "properties": { "No.": 11, "GND No.": 215, "GND Name": "Kotaligoda North", "Key Activities proposed for Soil and Water conservation": "1 Soil conservation practices -  Kotaligoda Village (35°-65°)", "Priority based on Soil Erosion Hazard": "2", "N": 7.294126, "E": 80.515457, "Quantity": "10 ha", "Proposed measure/s": "1. Establishing SALT  - 7000 m\n2. Lock and spills - 2000 m\n3. Stone terracing - 1000 m\n4. Agronomic practices should be adapted at optimum level (conservation tillage, crop rotation and diversification, cover crops, mulching, contour farming, windbreaks", "Uniti_Cost": "250.00 m-1\n400.00 m-1\n2500.00 m-1", "Total_Cost": 5050000, "Contribution (Local Community, LA, and the project)": "Labour and other basic services by the Local community", "Time frame for the implementation": "0.25 Years", "photopath": "https://raw.githubusercontent.com/MWS003-GIS/MWS003-GIS.github.io/main/IWWRMP/Data/EXD/200_photo/MWS_119_2/Soil consevation .jpg" }, "geometry": { "type": "Point", "coordinates": [ 80.515457, 7.294126 ] } }
]
}
