{"type":"FeatureCollection","name":"MI","crs":{"type":"name","properties":{"name":"urn:ogc:def:crs:OGC:1.3:CRS84"}},"features":[
{"type":"Feature","properties":{"No":1,"GND No.":862,"Scheme":"Minuwangamuwa canal bund","N":7.267118,"E":80.91224,"Observation":"The total length of the canal is about3500m, Existing is a Earthen canal. .Only some places are 450 x 300 rectangular concreted. Water from this canal is used to grow paddy on an area of about 30 acres.During the rainy season when too much water flows, B","Description":"Canals reservation protection by concrete lining  For  125mm thick , 500 mm  wide  and 400 mm high canal -double banking\n\nStream / canal  reservation protection by earthfilling of  strip   of 1.5m to 2m wide  and average Depth of 0.5m\n\nVegetative cover i","Amount (Rs.)":"1,322,200.00","photopath":"https://raw.githubusercontent.com/MWS003-GIS/MWS003-GIS.github.io/main/IWWRMP/Data/EXD/200_photo/MWS_077/Minuwangamuwa canl.jpg"},"geometry":{"type":"Point","coordinates":[80.91224,7.267118]}},
{"type":"Feature","properties":{"No":2,"GND No.":862,"Scheme":"Kewulgama canal","N":7.261132,"E":80.91212,"Observation":"The total length of the canal is about3000m, Existing is a Earthen canal. .Only some places are 450 x 300 rectangular concreted. Water from this canal is used to grow paddy on an area of about 30 acres.During the rainy season when too much water flows, B","Description":"Canals reservation protection by concrete lining  For  125mm thick , 500 mm  wide  and 400 mm high canal -double banking\n\nStream / canal  reservation protection by earthfilling of  strip   of 1.5m to 2m wide  and average Depth of 0.5m\n\nVegetative cover i","Amount (Rs.)":"1,807,300.00","photopath":"https://raw.githubusercontent.com/MWS003-GIS/MWS003-GIS.github.io/main/IWWRMP/Data/EXD/200_photo/MWS_077/Kiulgama canal (2).jpg"},"geometry":{"type":"Point","coordinates":[80.91212,7.261132]}},
{"type":"Feature","properties":{"No":3,"GND No.":863,"Scheme":"Rambukwella canal","N":7.268019,"E":80.91298,"Observation":"The total length of the canal is about3000m, Existing is a Earthen canal. .Only some places are 450 x 300 rectangular concreted. Water from this canal is used to grow paddy on an area of about 40 acres.During the rainy season when too much water flows, B","Description":"Canals reservation protection by concrete lining  For  125mm thick , 500 mm  wide  and 400 mm high canal -double banking  (with the approval of NBRO)\n\nStream / canal  reservation protection by earthfilling of  strip   of 1.5m to 2m wide  and average Dept","Amount (Rs.)":"1,807,300.00","photopath":"https://raw.githubusercontent.com/MWS003-GIS/MWS003-GIS.github.io/main/IWWRMP/Data/EXD/200_photo/MWS_077/Rambukwella canal.jpg"},"geometry":{"type":"Point","coordinates":[80.91298,7.268019]}},
{"type":"Feature","properties":{"No":4,"GND No.":863,"Scheme":"Balagolla canal and anicut","N":7.253186,"E":80.91066,"Observation":"The anicut wall is leaking and the canal has broken in places.Water from this canal is used to grow paddy on an area of about 10 acres.","Description":"Construction of curtain wall (0.075mm thk) with 1:2:4 (3/4\") concrete, 1/2\" dowels at 600mm x 600mm intervals and embedded with chicken mesh\n\nCanal reservation protection by concrete lining  For  100 mm thick , 300 mm  wide  and 300 mm high canal -double","Amount (Rs.)":"646,800.00","photopath":"https://raw.githubusercontent.com/MWS003-GIS/MWS003-GIS.github.io/main/IWWRMP/Data/EXD/200_photo/MWS_077/Balagolla anicut.jpg"},"geometry":{"type":"Point","coordinates":[80.91066,7.253186]}}
]}