{"type":"FeatureCollection","name":"MI","crs":{"type":"name","properties":{"name":"urn:ogc:def:crs:OGC:1.3:CRS84"}},"features":[
{"type":"Feature","properties":{"No":1,"GND No.":"58","Scheme":"Ambagaha Ulpatha anicut","N":6.895893,"E":80.939561,"Observation":"The anicut is covered with thorny bushes. Famers are requested to raise the existing 23m length (Top width = 0.45m, App. H=1.2m and 2 opening -1.2m x 1.2m) concrete wall to collect water for use during dry season. 15 Acres of paddy is cultivated from thi","Description":"Raising of the existing Concrete Anicut\n\nScarifying existing rock surface to receive new concrete\n\nSupplying and fixing M.S. dowels spliced and dovetailed with wedge at one end 16mm dia. And 300 mm long, boring holes to 0.15 depth in fixing\n\n1:2:4 (20mm)","Amount (Rs.)":1476200,"photopath":"https://raw.githubusercontent.com/MWS003-GIS/MWS003-GIS.github.io/main/IWWRMP/Data/EXD/200_photo/MWS_058/Minor Irrigation - Ambagaha Ulpatha anicut (3).jpg"},"geometry":{"type":"Point","coordinates":[80.939561,6.895893]}},
{"type":"Feature","properties":{"No":2,"GND No.":"58","Scheme":"Badalin pahala canal","N":6.902254,"E":80.942497,"Observation":"Some sections of this canal, which is about 600 m long, have been developed (W=0.3m, H=0.3m). Other sections remain as an earthen canal.  some sections are in severely dilapidated due to farmers encroaching on the canal  reserve and the canal being broke","Description":"Construction of 35 m long Trough (with 0.30m x 0.30m section), 12 nos of piers (1.50 m high)\n\nSite preparation & setting out\n\nEarth excavation for foundation or quarry materials and haul the surplus materials up to 30m by Manually.\n\nPlywood form work inc","Amount (Rs.)":1127500,"photopath":"https://raw.githubusercontent.com/MWS003-GIS/MWS003-GIS.github.io/main/IWWRMP/Data/EXD/200_photo/MWS_058/Minor Irrigation - Badalin pahala canal.jpg"},"geometry":{"type":"Point","coordinates":[80.942497,6.902254]}},
{"type":"Feature","properties":{"No":3,"GND No.":"58","Scheme":"Arawe Anicut and canal","N":6.900395,"E":80.941597,"Observation":"This anicut was built using soil and stones.  5 Acres of paddy is cultivated from this anicut and canal. Some sections of this canal, which is about 800 m long, have been developed (W=0.3m, H=0.3m). Other sections remain as an earthen canal.  some sectio","Description":"Construction of Concrete anicut of 4.5 m length and height 1.2 m.\n\nClearing the site\n\nCommon excavation for foundation or quarry materials and haul the surplus up to 30m by Manually. \n\nPlywood form work including making, fixing & removing for structure -","Amount (Rs.)":778800,"photopath":"https://raw.githubusercontent.com/MWS003-GIS/MWS003-GIS.github.io/main/IWWRMP/Data/EXD/200_photo/MWS_058/Minor Irrigation - Arawe Anicut.jpg"},"geometry":{"type":"Point","coordinates":[80.941597,6.900395]}},
{"type":"Feature","properties":{"No":4,"GND No.":"58","Scheme":"Ovila canal","N":6.916164,"E":80.939479,"Observation":"Located in Puhulpola GND. Due to the rupture of a part of this earthen canal, farmers have been experiencing great inconvenience due to the inability to obtain water for cultivation.  30 Acres of paddy is cultivated from this canal.","Description":"Construction of Trough structure\n\nClearing and Setting out works  \n\nExcavate for pad footings, ordinary soil up to 0.60 m depth, Keep excavated soil for back filling\n\nLean concrete blinding 50 mm under footings\n\nConcrete (C 25) in pad footings ( 1m x 1 m","Amount (Rs.)":2358400,"photopath":"https://raw.githubusercontent.com/MWS003-GIS/MWS003-GIS.github.io/main/IWWRMP/Data/EXD/200_photo/MWS_058/Medium Irrigation - Ovila canal.jpg"},"geometry":{"type":"Point","coordinates":[80.939479,6.916164]}},
{"type":"Feature","properties":{"No":5,"GND No.":"58B","Scheme":"Wewpahaliya","N":6.899493,"E":80.936445,"Observation":"Some sections of this canal, which is about 1.5 Km long, have been developed (W=0.45m, H=0.45m). Other sections remain as an earthen canal.  some sections are in severely dilapidated due to farmers encroaching on the canal  reserve and the canal being br","Description":"Canal lining, Earth work, tree planting and construction of a side wall\n\nCanals reservation protection by concrete lining  For  125mm thick , 500 mm  wide  and 400 mm high canal -double banking\n\nStream / canal  reservation protection by earth filling of","Amount (Rs.)":1807300,"photopath":"https://raw.githubusercontent.com/MWS003-GIS/MWS003-GIS.github.io/main/IWWRMP/Data/EXD/200_photo/MWS_058/Minor Irrigation - Wewpahaliya.jpg"},"geometry":{"type":"Point","coordinates":[80.936445,6.899493]}},
{"type":"Feature","properties":{"No":6,"GND No.":"58B","Scheme":"Palugedara Wela","N":6.901634,"E":80.93435,"Observation":"This is sub canal of wewpahaliya canal and the total length of canal is 400m. This canal remain an earthen canal.  30 acres of paddy is cultivated from this canal. Villagers say that a large amount of water flows during the rainy season.","Description":"Canal lining and protection including EW & tree planting\n\nCanal reservation protection by concrete lining  For  100 mm thick , 300 mm  wide  and 300 mm high canal -double banking\n\nStream / canal  reservation protection by earth filling of  strip   of 1.5","Amount (Rs.)":1116500,"photopath":"https://raw.githubusercontent.com/MWS003-GIS/MWS003-GIS.github.io/main/IWWRMP/Data/EXD/200_photo/MWS_058/Minor Irrigation - Palugedara Wela.jpg"},"geometry":{"type":"Point","coordinates":[80.93435,6.901634]}},
{"type":"Feature","properties":{"No":7,"GND No.":"58B","Scheme":"Werawa canal","N":6.904845,"E":80.933064,"Observation":"The total length of canal is 400m. This canal remain an earthen canal.  20 acres of paddy is cultivated from this canal. Villagers say that a large amount of water flows during the rainy season.","Description":"Canal lining and protection including EW & tree planting\n\nCanal reservation protection by concrete lining  For  100 mm thick , 300 mm  wide  and 300 mm high canal -double banking\n\nStream / canal  reservation protection by earth filling of  strip   of 1.5","Amount (Rs.)":1116500,"photopath":"https://raw.githubusercontent.com/MWS003-GIS/MWS003-GIS.github.io/main/IWWRMP/Data/EXD/200_photo/MWS_058/Minor Irrigation - Werawa canal.jpg"},"geometry":{"type":"Point","coordinates":[80.933064,6.904845]}},
{"type":"Feature","properties":{"No":8,"GND No.":"58B","Scheme":"Meda Hulawa","N":6.909756,"E":80.931181,"Observation":"The total length of canal is 500m. This canal remain an earthen canal.  5 acres of paddy is cultivated from this canal. Villagers say that a large amount of water flows during the rainy season.","Description":"Canal lining and protection including EW & tree planting\n\nCanal reservation protection by concrete lining  For  100 mm thick , 300 mm  wide  and 300 mm high canal -double banking\n\nStream / canal  reservation protection by earth filling of  strip   of 1.5","Amount (Rs.)":864600,"photopath":"https://raw.githubusercontent.com/MWS003-GIS/MWS003-GIS.github.io/main/IWWRMP/Data/EXD/200_photo/MWS_058/Minor Irrigation - Meda Hulawa Canal.jpg"},"geometry":{"type":"Point","coordinates":[80.931181,6.909756]}},
{"type":"Feature","properties":{"No":9,"GND No.":"58C","Scheme":"Ambagaha Arawa","N":6.901672,"E":80.947635,"Observation":"Some sections of this canal, which is about 600 m long, have been developed (W=0.5m, H=0.5m). Other sections remain as an earthen canal.  some sections are in severely dilapidated due to farmers encroaching on the canal  reserve and the canal being broke","Description":"Canal lining and protection including EW & tree planting\n\nCanal reservation protection by concrete lining  For  100 mm thick , 300 mm  wide  and 300 mm high canal -double banking\n\nStream / canal  reservation protection by earth filling of  strip   of 1.5","Amount (Rs.)":1047200,"photopath":"https://raw.githubusercontent.com/MWS003-GIS/MWS003-GIS.github.io/main/IWWRMP/Data/EXD/200_photo/MWS_058/Minor Irrigation - Ambagaha Arawa canal.jpg"},"geometry":{"type":"Point","coordinates":[80.947635,6.901672]}},
{"type":"Feature","properties":{"No":10,"GND No.":"58C","Scheme":"Kandekubura Anicut","N":6.902773,"E":80.949369,"Observation":"The anicut used to collect water has been completely destroyed. 6 Acres of paddy is cultivated from this anicut.","Description":"Construction of Concrete anicut of 10.0 m length and height 1.2 m.\n\nClearing the site\n\nCommon excavation for foundation or quarry materials and haul the surplus up to 30m by Manually.\n\nPlywood form work including making, fixing & removing for structure -","Amount (Rs.)":451000,"photopath":"https://raw.githubusercontent.com/MWS003-GIS/MWS003-GIS.github.io/main/IWWRMP/Data/EXD/200_photo/MWS_058/Minor Irrigation - Kande arawa Anicut (2).jpg"},"geometry":{"type":"Point","coordinates":[80.949369,6.902773]}},
{"type":"Feature","properties":{"No":11,"GND No.":"58C","Scheme":"Palle thanna canal","N":6.90449,"E":80.944442,"Observation":"Some sections of this canal, which is about 1 Km long, have been developed (W=0.45m, H=0.45m). Other sections remain as an earthen canal.  some sections are in severely dilapidated due to farmers encroaching on the canal  reserve and the canal being brok","Description":"Canal lining and protection including EW & tree planting\n\nCanal reservation protection by concrete lining  For  100 mm thick , 300 mm  wide  and 300 mm high canal -double banking\n\nStream / canal  reservation protection by earth filling of  strip   of 1.5","Amount (Rs.)":795300,"photopath":"https://raw.githubusercontent.com/MWS003-GIS/MWS003-GIS.github.io/main/IWWRMP/Data/EXD/200_photo/MWS_058/Minor Irrigation - Pallethanna canal.jpg"},"geometry":{"type":"Point","coordinates":[80.944442,6.90449]}}
]}