{"type":"FeatureCollection","name":"SR","crs":{"type":"name","properties":{"name":"urn:ogc:def:crs:OGC:1.3:CRS84"}},"features":[
{"type":"Feature","properties":{"No":1,"GND No.":"58C","Scheme":"Amune arawa kandura","N":6.90497,"E":80.944856,"Observation":"There are large trees at some places on both sides of the bank. But banks are eroded. Too much water flows in rainy season. In some places, small amounts of garbage have been dumped into streams, and in some places, reserved lands are being misused.","Description":"Arrange stone packing-rubble packing-to prevent bank erosion\n\nVegetative cover improving along the river banks Areca nut seedling in 1.5m x 1.5m grid, Kumbuk/ Mee/ Godapara/ Kaduru/ Aththikka/ Wal Del/ Kekuna randomly mixed seedling and planti","Amount (Rs.)":639100,"photopath":"https://raw.githubusercontent.com/MWS003-GIS/MWS003-GIS.github.io/main/IWWRMP/Data/EXD/200_photo/MWS_058/Streams - Amune arawa kandura.jpg"},"geometry":{"type":"Point","coordinates":[80.944856,6.90497]}}
]}