{"type":"FeatureCollection","name":"WSP","crs":{"type":"name","properties":{"name":"urn:ogc:def:crs:OGC:1.3:CRS84"}},"features":[
{"type":"Feature","properties":{"No":1,"GND No.":"58","Name of the Tank":"Dikulpatha reservation Ampitigoda Dikkapitiya","N":6.894007,"E":80.940167,"Observation":"Reserve land is being illegally acquired because the boundaries are not marked. This area may be about  3 hectare of which about 70% are large trees.","Description":"Marking boundaries-around the reservation\n\nVegetative cover improving around the reservation Areca nut seedling in 1.5m x 1.5m grid, Kumbuk/ Mee/ Godapara/ Kaduru/ Aththikka/ Wal Del/ Kekuna randomly mixed seedling and planting at 3.5 m x 3.5","Amount (Rs.)":576400,"photopath":"https://raw.githubusercontent.com/MWS003-GIS/MWS003-GIS.github.io/main/IWWRMP/Data/EXD/200_photo/MWS_058/Regularization of Community Water Schemes - Dikkapitiya water project.jpg"},"geometry":{"type":"Point","coordinates":[80.940167,6.894007]}},
{"type":"Feature","properties":{"No":2,"GND No.":"58","Name of the Tank":"Pella Kele reservation","N":6.904068,"E":80.938841,"Observation":"Reserve land is being illegally acquired because the boundaries are not marked. This area may be about  2 acres of which about 40% are large trees.","Description":"Marking boundaries-around the reservation\n\nVegetative cover improving around the reservation Areca nut seedling in 1.5m x 1.5m grid, Kumbuk/ Mee/ Godapara/ Kaduru/ Aththikka/ Wal Del/ Kekuna randomly mixed seedling and planting at 3.5 m x 3.5","Amount (Rs.)":433400,"photopath":"https://raw.githubusercontent.com/MWS003-GIS/MWS003-GIS.github.io/main/IWWRMP/Data/EXD/200_photo/MWS_058/Water Catchment Area Conservation - Pella Kele reservation (6).jpg"},"geometry":{"type":"Point","coordinates":[80.938841,6.904068]}},
{"type":"Feature","properties":{"No":3,"GND No.":"58B","Name of the Tank":"Wew Pahaliya","N":6.898,"E":80.936489,"Observation":"Reserve land is being illegally acquired because the boundaries are not marked. This area may be about  3 acres of which about 70% are large trees.","Description":"Marking boundaries-around the reservation\n\nVegetative cover improving around the reservation Areca nut seedling in 1.5m x 1.5m grid, Kumbuk/ Mee/ Godapara/ Kaduru/ Aththikka/ Wal Del/ Kekuna randomly mixed seedling and planting at 3.5 m x 3.5","Amount (Rs.)":465300,"photopath":"https://raw.githubusercontent.com/MWS003-GIS/MWS003-GIS.github.io/main/IWWRMP/Data/EXD/200_photo/MWS_058/Water Catchment Area Conservation - Wewpahaliya.jpg"},"geometry":{"type":"Point","coordinates":[80.936489,6.898]}},
{"type":"Feature","properties":{"No":4,"GND No.":"58C","Name of the Tank":"Elamallanda","N":6.896943,"E":80.947832,"Observation":"Reserve land is being illegally acquired because the boundaries are not marked. This area may be about  8 hectare of which about 65% are large trees.","Description":"Marking boundaries-around the reservation\n\nVegetative cover improving around the reservation Areca nut seedling in 1.5m x 1.5m grid, Kumbuk/ Mee/ Godapara/ Kaduru/ Aththikka/ Wal Del/ Kekuna randomly mixed seedling and planting at 3.5 m x 3.5","Amount (Rs.)":683100,"photopath":"https://raw.githubusercontent.com/MWS003-GIS/MWS003-GIS.github.io/main/IWWRMP/Data/EXD/200_photo/MWS_058/Minor Tanks - Elamal kanda reserve (10).jpg"},"geometry":{"type":"Point","coordinates":[80.947832,6.896943]}},
{"type":"Feature","properties":{"No":5,"GND No.":"58C","Name of the Tank":"Kandearawa","N":6.902805,"E":80.949408,"Observation":"Reserve land is being illegally acquired because the boundaries are not marked. This area may be about  3.5 acres of which about 30% are large trees.","Description":"Marking boundaries-around the reservation\n\nVegetative cover improving around the reservation Areca nut seedling in 1.5m x 1.5m grid, Kumbuk/ Mee/ Godapara/ Kaduru/ Aththikka/ Wal Del/ Kekuna randomly mixed seedling and planting at 3.5 m x 3.5","Amount (Rs.)":572000,"photopath":"https://raw.githubusercontent.com/MWS003-GIS/MWS003-GIS.github.io/main/IWWRMP/Data/EXD/200_photo/MWS_058/Minor Irrigation - Kande arawa Anicut (3).jpg"},"geometry":{"type":"Point","coordinates":[80.949408,6.902805]}},
{"type":"Feature","properties":{"No":6,"GND No.":"58C","Name of the Tank":"Dikulpatha","N":6.894007,"E":80.940167,"Observation":"Located in Dikkapitiya GND. Reserve land is being illegally acquired because the boundaries are not marked. This area may be about  3 hectare of which about 70% are large trees.","Description":"Marking boundaries-around the reservation\n\nVegetative cover improving around the reservation Areca nut seedling in 1.5m x 1.5m grid, Kumbuk/ Mee/ Godapara/ Kaduru/ Aththikka/ Wal Del/ Kekuna randomly mixed seedling and planting at 3.5 m x 3.5","Amount (Rs.)":677600,"photopath":"Not_Available"},"geometry":{"type":"Point","coordinates":[80.940167,6.894007]}},
{"type":"Feature","properties":{"No":7,"GND No.":"58C","Name of the Tank":"Kurullanulpatha","N":6.896577,"E":80.94402,"Observation":"Located in Dyraba GND. Reserve land is being illegally acquired because the boundaries are not marked. This area may be about  2 hectare of which about 30% are large trees.","Description":"Marking boundaries-around the reservation\n\nVegetative cover improving around the reservation Areca nut seedling in 1.5m x 1.5m grid, Kumbuk/ Mee/ Godapara/ Kaduru/ Aththikka/ Wal Del/ Kekuna randomly mixed seedling and planting at 3.5 m x 3.5","Amount (Rs.)":572000,"photopath":"https://raw.githubusercontent.com/MWS003-GIS/MWS003-GIS.github.io/main/IWWRMP/Data/EXD/200_photo/MWS_058/Water Catchment Area Conservation - Kurullanulpatha (2).jpg"},"geometry":{"type":"Point","coordinates":[80.94402,6.896577]}},
{"type":"Feature","properties":{"No":8,"GND No.":"58C","Name of the Tank":"Alakola Arawa","N":6.905312,"E":80.94823,"Observation":"Reserve land is being illegally acquired because the boundaries are not marked. This area may be about  2 hectare of which about 60% are large trees.","Description":"Marking boundaries-around the reservation\n\nVegetative cover improving around the reservation Areca nut seedling in 1.5m x 1.5m grid, Kumbuk/ Mee/ Godapara/ Kaduru/ Aththikka/ Wal Del/ Kekuna randomly mixed seedling and planting at 3.5 m x 3.5","Amount (Rs.)":572000,"photopath":"https://raw.githubusercontent.com/MWS003-GIS/MWS003-GIS.github.io/main/IWWRMP/Data/EXD/200_photo/MWS_058/Water Catchment Area Conservation - Alakola Arawa (Pambe Arawa).jpg"},"geometry":{"type":"Point","coordinates":[80.94823,6.905312]}},
{"type":"Feature","properties":{"No":9,"GND No.":"58C","Name of the Tank":"Pabe Kele","N":6.890565,"E":80.949531,"Observation":"Located in Dyraba GND. Reserve land is being illegally acquired because the boundaries are not marked. This area may be about  10 acres of which about 60% are large trees.","Description":"Marking boundaries-around the reservation\n\nVegetative cover improving around the reservation Areca nut seedling in 1.5m x 1.5m grid, Kumbuk/ Mee/ Godapara/ Kaduru/ Aththikka/ Wal Del/ Kekuna randomly mixed seedling and planting at 3.5 m x 3.5","Amount (Rs.)":683100,"photopath":"https://raw.githubusercontent.com/MWS003-GIS/MWS003-GIS.github.io/main/IWWRMP/Data/EXD/200_photo/MWS_058/Water Catchment Area Conservation - Pabe kele (5).jpg"},"geometry":{"type":"Point","coordinates":[80.949531,6.890565]}},
{"type":"Feature","properties":{"No":10,"GND No.":"58D","Name of the Tank":"Chunamandiya reservation","N":6.88327,"E":80.940642,"Observation":"Reserve land is being illegally acquired because the boundaries are not marked. This area may be about  1 acres of which about 30% are large trees.","Description":"Marking boundaries-around the reservation\n\nVegetative cover improving around the reservation Areca nut seedling in 1.5m x 1.5m grid, Kumbuk/ Mee/ Godapara/ Kaduru/ Aththikka/ Wal Del/ Kekuna randomly mixed seedling and planting at 3.5 m x 3.5","Amount (Rs.)":321200,"photopath":"https://raw.githubusercontent.com/MWS003-GIS/MWS003-GIS.github.io/main/IWWRMP/Data/EXD/200_photo/MWS_058/Water Catchment Area Conservation - Chunamandiya reservation.jpg"},"geometry":{"type":"Point","coordinates":[80.940642,6.88327]}},
{"type":"Feature","properties":{"No":11,"GND No.":"58D","Name of the Tank":"Uda Kotasa reservation","N":6.892094,"E":80.939012,"Observation":"Reserve land is being illegally acquired because the boundaries are not marked. This area may be about  2 acres of which about 30% are large trees.","Description":"Marking boundaries-around the reservation\n\nVegetative cover improving around the reservation Areca nut seedling in 1.5m x 1.5m grid, Kumbuk/ Mee/ Godapara/ Kaduru/ Aththikka/ Wal Del/ Kekuna randomly mixed seedling and planting at 3.5 m x 3.5","Amount (Rs.)":347600,"photopath":"https://raw.githubusercontent.com/MWS003-GIS/MWS003-GIS.github.io/main/IWWRMP/Data/EXD/200_photo/MWS_058/Water Catchment Area Conservation - Uda Kotasa reservation.jpg"},"geometry":{"type":"Point","coordinates":[80.939012,6.892094]}},
{"type":"Feature","properties":{"No":12,"GND No.":"58D","Name of the Tank":"Kurundugasdowa reservation","N":6.88555,"E":80.938746,"Observation":"This area has been completely illegally occupied and is being cultivated.","Description":"Marking boundaries-around the reservation\n\nVegetative cover improving around the reservation Areca nut seedling in 1.5m x 1.5m grid, Kumbuk/ Mee/ Godapara/ Kaduru/ Aththikka/ Wal Del/ Kekuna randomly mixed seedling and planting at 3.5 m x 3.5","Amount (Rs.)":683100,"photopath":"https://raw.githubusercontent.com/MWS003-GIS/MWS003-GIS.github.io/main/IWWRMP/Data/EXD/200_photo/MWS_058/Water Catchment Area Conservation -  Kurundugasdowa reservation (3).jpg"},"geometry":{"type":"Point","coordinates":[80.938746,6.88555]}},
{"type":"Feature","properties":{"No":13,"GND No.":"58D","Name of the Tank":"Dikulpatha reservation","N":6.894007,"E":80.940167,"Observation":"Located in Dikkapitiya GND. Reserve land is being illegally acquired because the boundaries are not marked. This area may be about  3 hectare of which about 70% are large trees.","Description":"Marking boundaries-around the reservation\n\nVegetative cover improving around the reservation Areca nut seedling in 1.5m x 1.5m grid, Kumbuk/ Mee/ Godapara/ Kaduru/ Aththikka/ Wal Del/ Kekuna randomly mixed seedling and planting at 3.5 m x 3.5","Amount (Rs.)":576400,"photopath":"https://raw.githubusercontent.com/MWS003-GIS/MWS003-GIS.github.io/main/IWWRMP/Data/EXD/200_photo/MWS_058/Water Catchment Area Conservation - Dikulpatha reservation.jpg"},"geometry":{"type":"Point","coordinates":[80.940167,6.894007]}},
{"type":"Feature","properties":{"No":14,"GND No.":"58D","Name of the Tank":"Pabe kele","N":6.890565,"E":80.949531,"Observation":"Reserve land is being illegally acquired because the boundaries are not marked. This area may be about  10 acres of which about 60% are large trees.","Description":"Marking boundaries-around the reservation\n\nVegetative cover improving around the reservation Areca nut seedling in 1.5m x 1.5m grid, Kumbuk/ Mee/ Godapara/ Kaduru/ Aththikka/ Wal Del/ Kekuna randomly mixed seedling and planting at 3.5 m x 3.5","Amount (Rs.)":523600,"photopath":"https://raw.githubusercontent.com/MWS003-GIS/MWS003-GIS.github.io/main/IWWRMP/Data/EXD/200_photo/MWS_058/Water Catchment Area Conservation - Pabe kele (5).jpg"},"geometry":{"type":"Point","coordinates":[80.949531,6.890565]}},
{"type":"Feature","properties":{"No":15,"GND No.":"58D","Name of the Tank":"Elamallanda reservation","N":6.894842,"E":80.947828,"Observation":"Located in Dikkapitiya GND. Reserve land is being illegally acquired because the boundaries are not marked. This area may be about  8 hectare of which about 65% are large trees.","Description":"Marking boundaries-around the reservation\n\nVegetative cover improving around the reservation Areca nut seedling in 1.5m x 1.5m grid, Kumbuk/ Mee/ Godapara/ Kaduru/ Aththikka/ Wal Del/ Kekuna randomly mixed seedling and planting at 3.5 m x 3.5","Amount (Rs.)":737000,"photopath":"https://raw.githubusercontent.com/MWS003-GIS/MWS003-GIS.github.io/main/IWWRMP/Data/EXD/200_photo/MWS_058/Water Catchment Area Conservation - Elamallanda reservation.jpg"},"geometry":{"type":"Point","coordinates":[80.947828,6.894842]}},
{"type":"Feature","properties":{"No":16,"GND No.":"58D","Name of the Tank":"Kurullanulpatha reservation","N":6.896577,"E":80.94402,"Observation":"Reserve land is being illegally acquired because the boundaries are not marked. This area may be about  2 hectare of which about 30% are large trees.","Description":"Marking boundaries-around the reservation\n\nVegetative cover improving around the reservation Areca nut seedling in 1.5m x 1.5m grid, Kumbuk/ Mee/ Godapara/ Kaduru/ Aththikka/ Wal Del/ Kekuna randomly mixed seedling and planting at 3.5 m x 3.5","Amount (Rs.)":572000,"photopath":"https://raw.githubusercontent.com/MWS003-GIS/MWS003-GIS.github.io/main/IWWRMP/Data/EXD/200_photo/MWS_058/Water Catchment Area Conservation - Kurullanulpatha reservation (5).jpg"},"geometry":{"type":"Point","coordinates":[80.94402,6.896577]}},
{"type":"Feature","properties":{"No":17,"GND No.":"58D","Name of the Tank":"Unapadura reservation","N":6.889139,"E":80.940839,"Observation":"Located in Dikkapitiya GND. Reserve land is being illegally acquired because the boundaries are not marked. This area may be about  1 hectare of which about 30% are large trees.","Description":"Marking boundaries-around the reservation\n\nVegetative cover improving around the reservation Areca nut seedling in 1.5m x 1.5m grid, Kumbuk/ Mee/ Godapara/ Kaduru/ Aththikka/ Wal Del/ Kekuna randomly mixed seedling and planting at 3.5 m x 3.5","Amount (Rs.)":566500,"photopath":"https://raw.githubusercontent.com/MWS003-GIS/MWS003-GIS.github.io/main/IWWRMP/Data/EXD/200_photo/MWS_058/Water Catchment Area Conservation - Unapadura reservation.jpg"},"geometry":{"type":"Point","coordinates":[80.940839,6.889139]}}
]}