{
"type": "FeatureCollection",
"name": "SR",
"crs": { "type": "name", "properties": { "name": "urn:ogc:def:crs:OGC:1.3:CRS84" } },
"features": [
{ "type": "Feature", "properties": { "No": 15, "GND No.": "476C", "Scheme": "Nanuoya Oya at Bangalahatha", "N": 6.944082, "E": 80.745034, "Observation": "There are trees at some places on both sides of the bank. However, the stream banks are subject to erosion due to the heavy flow of water during the rainy season. In some places, small amounts of garbage have been dumped into streams, and in some places,", "Description": "Paving available stone in the river banks and Planting trees\n\nDry rubble packing (with locally found rubble, size over 225mm )-Along the river banks\n\nVegetative cover improving for narrow strips (1.5m?2.0m wide) with Arecanut seedlings at 1.5m spacing in", "Amount (Rs.)": 1841400, "photopath": "https://raw.githubusercontent.com/MWS003-GIS/MWS003-GIS.github.io/main/IWWRMP/Data/EXD/200_photo/MWS_164/Streams - Nanuoya.jpg" }, "geometry": { "type": "Point", "coordinates": [ 80.745034, 6.944082 ] } },
{ "type": "Feature", "properties": { "No": 16, "GND No.": "535B", "Scheme": "A part of Nanuoya Oya", "N": 6.948259, "E": 80.778064, "Observation": "There are trees at some places on both sides of the bank. However, the stream banks are subject to erosion due to the heavy flow of water during the rainy season. In some places, garbage have been dumped into streams, and in some places, reserved lands a", "Description": "Paving available stone in the river banks and Planting trees\n\nDry rubble packing (with locally found rubble, size over 225mm )-Along the river banks\n\nVegetative cover improving for narrow strips (1.5m?2.0m wide) with Arecanut seedlings at 1.5m spacing in", "Amount (Rs.)": 1786400, "photopath": "https://raw.githubusercontent.com/MWS003-GIS/MWS003-GIS.github.io/main/IWWRMP/Data/EXD/200_photo/MWS_164/Stream - Nanu oya (3).jpg" }, "geometry": { "type": "Point", "coordinates": [ 80.778064, 6.948259 ] } },
{ "type": "Feature", "properties": { "No": 17, "GND No.": "535N", "Scheme": "Olifant Estate", "N": 6.972647, "E": 80.749546, "Observation": "There are trees at some places on both sides of the bank. However, the stream banks are subject to erosion due to the heavy flow of water during the rainy season. In some places, garbage have been dumped into streams, and in some places, reserved lands a", "Description": "Paving available stone in the river banks and Planting trees\n\nDry rubble packing (with locally found rubble, size over 225mm )-Along the river banks\n\nVegetative cover improving for narrow strips (1.5m?2.0m wide) with Arecanut seedlings at 1.5m spacing in", "Amount (Rs.)": 1786400, "photopath": "https://raw.githubusercontent.com/MWS003-GIS/MWS003-GIS.github.io/main/IWWRMP/Data/EXD/200_photo/MWS_164/Streams - Olifant Estate (6).jpg" }, "geometry": { "type": "Point", "coordinates": [ 80.749546, 6.972647 ] } }
]
}
