{"type":"FeatureCollection","name":"Landslides","crs":{"type":"name","properties":{"name":"urn:ogc:def:crs:OGC:1.3:CRS84"}},"features":[
{"type":"Feature","properties":{"No.":1,"GN Division No.":129,"GN Division":"Kiribathkumbura East","Landslides":"Bank erosion - Molagoda Rajamaha Viharaya","N":7.270051,"E":80.578647,"NBRO Recommendation N/A":"NBRO is aware","Proposed Measures":"Soil  conservation with a retaining wall (15 m x 3 m), live hedges etc. is needed. Follow recommendations of NBRO.","photopath":"https://raw.githubusercontent.com/MWS003-GIS/MWS003-GIS.github.io/main/IWWRMP/Data/EXD/200_photo/MWS_118_2/Kandeduwawa Hena area.jpg"},"geometry":{"type":"Point","coordinates":[80.578647,7.270051]}},
{"type":"Feature","properties":{"No.":2,"GN Division No.":131,"GN Division":"Edanduwawa East","Landslides":"Erosion of the road - Starting of the Edanduwawa Keselwatta Road","N":7.260458,"E":80.58451,"NBRO Recommendation N/A":"Needs NBRO concern","Proposed Measures":"Soil  conservation with a retaining wall (100 m x 3 m), live hedges etc. is needed. Follow recommendations of NBRO having consulted.","photopath":"https://raw.githubusercontent.com/MWS003-GIS/MWS003-GIS.github.io/main/IWWRMP/Data/EXD/200_photo/MWS_118_2/Starting of the Edanduwawa Keselwatta Road.jpg"},"geometry":{"type":"Point","coordinates":[80.58451,7.260458]}},
{"type":"Feature","properties":{"No.":3,"GN Division No.":132,"GN Division":"Edanduwawa West","Landslides":"1. Landsliding - Near Mr. A. Jayasinghe's house 282/A/1 Edanduwawa","N":7.261671,"E":80.579291,"NBRO Recommendation N/A":"NBRO is aware","Proposed Measures":"Follow recommendations of NBRO. A retaining wall should be constructed (10 m x 3 m)","photopath":"https://raw.githubusercontent.com/MWS003-GIS/MWS003-GIS.github.io/main/IWWRMP/Data/EXD/200_photo/MWS_118_2/Lower part of the Miriweldeniya road.jpg"},"geometry":{"type":"Point","coordinates":[80.579291,7.261671]}},
{"type":"Feature","properties":{"No.":4,"GN Division No.":132,"GN Division":"Edanduwawa West","Landslides":"2. Landsliding - Lower part of the Miriweldeniya Road","N":7.259894,"E":80.582496,"NBRO Recommendation N/A":"Needs NBRO concern","Proposed Measures":"Follow recommendations of NBRO, having consulted. A retaining wall should be constructed (8 m x 3 m)","photopath":"https://raw.githubusercontent.com/MWS003-GIS/MWS003-GIS.github.io/main/IWWRMP/Data/EXD/200_photo/MWS_118_2/Near Mr. A Jayasinghe_s house 282A1 Edanduwawa.jpg"},"geometry":{"type":"Point","coordinates":[80.582496,7.259894]}},
{"type":"Feature","properties":{"No.":5,"GN Division No.":150,"GN Division":"Ranawana","Landslides":"Bank collapsing - Ranawana Temple Road","N":7.271559,"E":80.565039,"NBRO Recommendation N/A":"NBRO is aware","Proposed Measures":"Construct a retaining wall (20 m x 3 m). Follow recommendations of NBRO.","photopath":"https://raw.githubusercontent.com/MWS003-GIS/MWS003-GIS.github.io/main/IWWRMP/Data/EXD/200_photo/MWS_118_2/Disaster at Ranawana temple road_8158.jpg"},"geometry":{"type":"Point","coordinates":[80.565039,7.271559]}},
{"type":"Feature","properties":{"No.":6,"GN Division No.":153,"GN Division":"Dehideniya East","Landslides":"Landsliding - Bank behind Mr. Jayantha Wanasinghe's house at Warathenna","N":7.278117,"E":80.584858,"NBRO Recommendation N/A":"Needs NBRO concern","Proposed Measures":"Construct a retaining wall (20 m x 3 m). Follow recommendations of NBRO having consulted.","photopath":"https://raw.githubusercontent.com/MWS003-GIS/MWS003-GIS.github.io/main/IWWRMP/Data/EXD/200_photo/MWS_118_2/Disaster_8185.jpg"},"geometry":{"type":"Point","coordinates":[80.584858,7.278117]}}
]}