{"type":"FeatureCollection","name":"MI","crs":{"type":"name","properties":{"name":"urn:ogc:def:crs:OGC:1.3:CRS84"}},"features":[
{"type":"Feature","properties":{"No":2,"GND No.":125,"Scheme":"Namale canal","N":7.274036,"E":80.56988,"Observation":"This canal is now blocked after road construction. Need to re dig canal.","Description":"Forming the canal including deepening\n\nCommon excavation in deepening the canal and haul the surplus materials up to 30m. by Machinery. (This rate is excluding of transporting of machinery)\n\nStream / canal  reservation protection by earthfilling of  stri","Amount (Rs.)":513700,"photopath":"https://raw.githubusercontent.com/MWS003-GIS/MWS003-GIS.github.io/main/IWWRMP/Data/EXD/200_photo/MWS_118_2/Namale canal.jpg"},"geometry":{"type":"Point","coordinates":[80.56988,7.274036]}},
{"type":"Feature","properties":{"No":3,"GND No.":125,"Scheme":"Bulumulla canal","N":7.27429,"E":80.571853,"Observation":"Canal has soil filled from several places. No pLantation is reservation.","Description":"Canal Protection works\n\nCanals reservation protection by concrete lining - 150mm thick , 0.6m  wide  and 0.5m high canal -double banking (U - section)\n\nStream / canal  reservation protection by earthfilling of  strip   of 1.5m to 2m wide  and average Dep","Amount (Rs.)":711700,"photopath":"https://raw.githubusercontent.com/MWS003-GIS/MWS003-GIS.github.io/main/IWWRMP/Data/EXD/200_photo/MWS_118_2/Bulumulla canal.jpg"},"geometry":{"type":"Point","coordinates":[80.571853,7.27429]}},
{"type":"Feature","properties":{"No":4,"GND No.":125,"Scheme":"Bulumulla Yaya canal","N":7.269753,"E":80.574876,"Observation":"Part of the retaining wall is not copleted. So soil erosion of canal bank observed.","Description":"Construction of a Retaining wall of Height 2.5 m.\n\nConstruction of 2.5m high 1:3:6 (40mm) cement concrete Retaining Wall\n\nStream / canal  reservation protection by earthfilling of  strip   of 1.5m to 2.0 m wide  and average Depth of 0.5m\n\nVegetative cove","Amount (Rs.)":1259500,"photopath":"https://raw.githubusercontent.com/MWS003-GIS/MWS003-GIS.github.io/main/IWWRMP/Data/EXD/200_photo/MWS_118_2/Bulumulla Yaya canal.jpg"},"geometry":{"type":"Point","coordinates":[80.574876,7.269753]}},
{"type":"Feature","properties":{"No":5,"GND No.":126,"Scheme":"Rambukmotawa canal","N":7.276402,"E":80.574277,"Observation":"Canal has soil filled from several places. No pLantation is reservation.","Description":"Forming the canal including deepening\n\nCommon excavation in deepening the canal and haul the surplus materials up to 30m. by Machinery. (This rate is excluding of transporting of machinery)\n\nStream / canal  reservation protection by earthfilling of  stri","Amount (Rs.)":513700,"photopath":"https://raw.githubusercontent.com/MWS003-GIS/MWS003-GIS.github.io/main/IWWRMP/Data/EXD/200_photo/MWS_118_2/Rambukmotawa canal.jpg"},"geometry":{"type":"Point","coordinates":[80.574277,7.276402]}},
{"type":"Feature","properties":{"No":6,"GND No.":126,"Scheme":"Udupadeniya Yaya","N":7.275893,"E":80.573682,"Observation":"The joining place of two canals has no protection for soil erosion.","Description":"Canal Protection works\n\nCanals reservation protection by concrete lining - 150mm thick , 0.6m  wide  and 0.5m high canal -double banking (U - section)\n\nVegetative cover improving for narrow strips (1.5m-2.0m wide) with Arecanut seedlings at 1.5m spacing","Amount (Rs.)":1104400,"photopath":"https://raw.githubusercontent.com/MWS003-GIS/MWS003-GIS.github.io/main/IWWRMP/Data/EXD/200_photo/MWS_118_2/Udupadeniya Yaya.jpg"},"geometry":{"type":"Point","coordinates":[80.573682,7.275893]}},
{"type":"Feature","properties":{"No":7,"GND No.":126,"Scheme":"Siyambalawe anicut","N":7.2688,"E":80.576676,"Observation":"Sand accumulation is basin area at the anicut.","Description":"Removing of accumulated silts inside the Anicut \n\nSilt removing from the anicut beds and haul the surplus materials up to 30m. distance by Manually.\n\nMinor repairs to the structure\n\nContingencies 10%","Amount (Rs.)":58300,"photopath":"https://raw.githubusercontent.com/MWS003-GIS/MWS003-GIS.github.io/main/IWWRMP/Data/EXD/200_photo/MWS_118_2/Siyambalawe anicut.jpg"},"geometry":{"type":"Point","coordinates":[80.576676,7.2688]}},
{"type":"Feature","properties":{"No":8,"GND No.":129,"Scheme":"Canal of the Owala Pinnagolla main road","N":7.271383,"E":80.578983,"Observation":"Drainage path is not connected to the culvert. this cause erosion of road enbankments","Description":"Canal Protection works\n\nCanals reservation protection by concrete lining - 150mm thick , 0.6m  wide  and 0.5m high canal -double banking (U - section)\n\nVegetative cover improving for narrow strips (1.5m-2.0m wide) with Arecanut seedlings at 1.5m spacing","Amount (Rs.)":415800,"photopath":"https://raw.githubusercontent.com/MWS003-GIS/MWS003-GIS.github.io/main/IWWRMP/Data/EXD/200_photo/MWS_118_2/Canal of the Owala Pinnagolla main road.jpg"},"geometry":{"type":"Point","coordinates":[80.578983,7.271383]}},
{"type":"Feature","properties":{"No":9,"GND No.":129,"Scheme":"Canal that connects to the canal that flowing from Pansal deniya to Owala Piingolla","N":7.270271,"E":80.579118,"Observation":"Canal has blocked from several places,  few blockages were obsereved","Description":"Canal Protection works.\n\nCanals reservation protection by concrete lining - 150mm thick , 0.6m  wide  and 0.5m high canal -double banking (U - section)\n\nVegetative cover improving for narrow strips (1.5m-2.0m wide) with Arecanut seedlings at 1.5m spacing","Amount (Rs.)":828300,"photopath":"https://raw.githubusercontent.com/MWS003-GIS/MWS003-GIS.github.io/main/IWWRMP/Data/EXD/200_photo/MWS_118_2/Canal that connects to the canal that flowing from Pansal deniya to Owala Piingol.jpg"},"geometry":{"type":"Point","coordinates":[80.579118,7.270271]}},
{"type":"Feature","properties":{"No":10,"GND No.":130,"Scheme":"From Watagoda to Kiribathkumbura Yaya","N":7.263748,"E":80.570358,"Observation":"Since this canal has no lining banks damaged and affected to near by buildings.","Description":"Canal Protection works.\n\nCanals reservation protection by concrete lining - 150mm thick , 0.6m  wide  and 0.5m high canal -double banking (U - section)\n\nVegetative cover improving for narrow strips (1.5m-2.0m wide) with Arecanut seedlings at 1.5m spacing","Amount (Rs.)":828300,"photopath":"https://raw.githubusercontent.com/MWS003-GIS/MWS003-GIS.github.io/main/IWWRMP/Data/EXD/200_photo/MWS_118_2/From Watagoda to Kiribathkumbura Yaya.jpg"},"geometry":{"type":"Point","coordinates":[80.570358,7.263748]}},
{"type":"Feature","properties":{"No":11,"GND No.":131,"Scheme":"Canal from the paddy field of Atuwagawa Kamatha road to Financewatta junction","N":7.260808,"E":80.584027,"Observation":"Canal has blocked from several places,  few blockages were obsereved","Description":"Canal Protection works\n\nCanal reservation protection by concrete lining  For  100 mm thick , 300 mm  wide  and 300 mm high canal -double banking\n\nStream / canal  reservation protection by earthfilling of  strip   of 1.5m to 2.0 m wide  and average Depth","Amount (Rs.)":908600,"photopath":"https://raw.githubusercontent.com/MWS003-GIS/MWS003-GIS.github.io/main/IWWRMP/Data/EXD/200_photo/MWS_118_2/Canal from the paddy field of Atuwagawa Kamatha road to Financewatta junctio.jpg"},"geometry":{"type":"Point","coordinates":[80.584027,7.260808]}},
{"type":"Feature","properties":{"No":12,"GND No.":131,"Scheme":"Canal of Polwatta area","N":7.256133,"E":80.581445,"Observation":"Canal has blocked from several places,  few blockages were obsereved and path has changed.","Description":"Canal Protection works\n\nCanal reservation protection by concrete lining  For  200 mm thick , 1.2 m  wide  and 1.0 m high canal -double banking\n\nStream / canal  reservation protection by earthfilling of  strip   of 1.5m to 2.0 m wide  and average Depth of","Amount (Rs.)":3747700,"photopath":"https://raw.githubusercontent.com/MWS003-GIS/MWS003-GIS.github.io/main/IWWRMP/Data/EXD/200_photo/MWS_118_2/Canal of Polwatta area.jpg"},"geometry":{"type":"Point","coordinates":[80.581445,7.256133]}},
{"type":"Feature","properties":{"No":13,"GND No.":132,"Scheme":"Bopurissa canal","N":7.264244,"E":80.578312,"Observation":"Canal has blocked from several locations.","Description":"Canal Protection works\n\nCanals reservation protection by concrete lining - 150mm thick , 0.6m  wide  and 0.5m high canal -double banking (U - section)\n\nStream / canal  reservation protection by earthfilling of  strip   of 1.5m to 2.0 m wide  and average","Amount (Rs.)":1562000,"photopath":"https://raw.githubusercontent.com/MWS003-GIS/MWS003-GIS.github.io/main/IWWRMP/Data/EXD/200_photo/MWS_118_2/Bopurissa canal.jpg"},"geometry":{"type":"Point","coordinates":[80.578312,7.264244]}},
{"type":"Feature","properties":{"No":14,"GND No.":135,"Scheme":"Anicut near Hunubemma well","N":7.295188,"E":80.580522,"Observation":"Depth of the anicut is not enough,","Description":"Removing debris, sediments and Canal Protection works\n \t\t\nStream / canal  reservation protection by earthfilling of  strip   of 1.5m to 2.0 m wide  and average Depth of 0.5m\n\nVegetative cover improving for narrow strips (1.5m-2.0m wide) with Arecanut see","Amount (Rs.)":209000,"photopath":"https://raw.githubusercontent.com/MWS003-GIS/MWS003-GIS.github.io/main/IWWRMP/Data/EXD/200_photo/MWS_118_2/Anicut near Hunubemma wel.jpg"},"geometry":{"type":"Point","coordinates":[80.580522,7.295188]}},
{"type":"Feature","properties":{"No":15,"GND No.":135,"Scheme":"Kumbuk Gahamula anicut","N":7.289575,"E":80.584883,"Observation":"Depth of the anicut is not enough,","Description":"Removing debris, sediments and Canal Protection works\n\nStream / canal  reservation protection by earthfilling of  strip   of 1.5m to 2.0 m wide  and average Depth of 0.5m\n\nVegetative cover improving for narrow strips (1.5m-2.0m wide) with Arecanut seedli","Amount (Rs.)":209000,"photopath":"https://raw.githubusercontent.com/MWS003-GIS/MWS003-GIS.github.io/main/IWWRMP/Data/EXD/200_photo/MWS_118_2/Kumbuk Gahamula anicut.jpg"},"geometry":{"type":"Point","coordinates":[80.584883,7.289575]}},
{"type":"Feature","properties":{"No":16,"GND No.":137,"Scheme":"Anicut near the Ambalama","N":7.301808,"E":80.572081,"Observation":"No sluice gate for the anicut. People request a sluice gate.","Description":"Providing planks for the opening of the Anicut\n\nClearing the side including preparation of groves for the planks\n\n75mm tk. Stop planks (Mee) with 10mm dia. 2nos. M. S. Iron hooks and applies 2 coats of hot tar.\n\nContingencies 10%","Amount (Rs.)":77000,"photopath":"https://raw.githubusercontent.com/MWS003-GIS/MWS003-GIS.github.io/main/IWWRMP/Data/EXD/200_photo/MWS_118_2/Anicut near the Ambalama.jpg"},"geometry":{"type":"Point","coordinates":[80.572081,7.301808]}},
{"type":"Feature","properties":{"No":17,"GND No.":139,"Scheme":"Canal of Yamandiwela Yaya","N":7.305422,"E":80.568908,"Observation":"Canal bank collapse observed in several places.","Description":"Providing mass concrete retaining wall of total height 1.5 m and protection of the canal  bund\n\nConstruction of 1.5m high 1:3:6 (40mm) cement concrete Retaining Wall \n\nStream / canal  reservation protection by earthfilling of  strip   of 1.5m to 2.0 m wi","Amount (Rs.)":1259500,"photopath":"https://raw.githubusercontent.com/MWS003-GIS/MWS003-GIS.github.io/main/IWWRMP/Data/EXD/200_photo/MWS_118_2/Canal of Yamandiwela Yaya.jpg"},"geometry":{"type":"Point","coordinates":[80.568908,7.305422]}},
{"type":"Feature","properties":{"No":18,"GND No.":139,"Scheme":"Canal of Paluwatta Yaya","N":7.304242,"E":80.570282,"Observation":"No canal linig, no proper path for drainage.","Description":"Canal Protection works\n\nCanal reservation protection by concrete lining  For  100 mm thick , 300 mm  wide  and 300 mm high canal -double banking\n\nStream / canal  reservation protection by earthfilling of  strip   of 1.5m to 2.0 m wide  and average Depth","Amount (Rs.)":839300,"photopath":"https://raw.githubusercontent.com/MWS003-GIS/MWS003-GIS.github.io/main/IWWRMP/Data/EXD/200_photo/MWS_118_2/Canal of Paluwatta Yaya.jpg"},"geometry":{"type":"Point","coordinates":[80.570282,7.304242]}},
{"type":"Feature","properties":{"No":19,"GND No.":148,"Scheme":"Dombewatta anicut","N":7.273928,"E":80.561862,"Observation":"during rainy season damaged to anicut and soil errosion happen","Description":"Rehabilitation of the Anicut and the Canal \n\nSilt removing from the anicut beds and haul the surplus materials up to 30m. distance by Manually.\n\nMinor repairs to the masonry section of the anicut\n\nStream / canal  reservation protection by earthfilling of","Amount (Rs.)":162800,"photopath":"https://raw.githubusercontent.com/MWS003-GIS/MWS003-GIS.github.io/main/IWWRMP/Data/EXD/200_photo/MWS_118_2/Dombawala anicut_8152.jpg"},"geometry":{"type":"Point","coordinates":[80.561862,7.273928]}},
{"type":"Feature","properties":{"No":20,"GND No.":152,"Scheme":"Gallella Meda Ela","N":7.27947,"E":80.586827,"Observation":"sever bank erossion happen. soil accumilated in canal","Description":"Providing mass concrete retaining wall of total height 1.5 m and protection of the canal  bund\n\nConstruction of 1.5m high 1:3:6 (40mm) cement concrete Retaining Wall \n\nStream / canal  reservation protection by earthfilling of  strip   of 1.5m to 2.0 m wi","Amount (Rs.)":1328800,"photopath":"https://raw.githubusercontent.com/MWS003-GIS/MWS003-GIS.github.io/main/IWWRMP/Data/EXD/200_photo/MWS_118_2/Gallella Canal_8173.jpg"},"geometry":{"type":"Point","coordinates":[80.586827,7.27947]}}
]}