{"type":"FeatureCollection","name":"SR","crs":{"type":"name","properties":{"name":"urn:ogc:def:crs:OGC:1.3:CRS84"}},"features":[
{"type":"Feature","properties":{"No":4,"GND No.":126,"Scheme":"Pallanga canal","N":7.275756,"E":80.573732,"Observation":"Canal banks are eroded. need  side wall for road side.","Description":"Construction of 1.0m high 1:3:6 (40mm) cement concrete Retaining Wall as 20 m long side wall\n\nVegetative cover improving for narrow strips (1.5m?2.0m wide) with Arecanut seedlings at 1.5m spacing in 2 rows, Betel plants VP at 3m spacing in 1 row, Green g","Amount (Rs.)":702240,"photopath":"https://raw.githubusercontent.com/MWS003-GIS/MWS003-GIS.github.io/main/IWWRMP/Data/EXD/200_photo/MWS_118_2/Pallanga canal.jpg"},"geometry":{"type":"Point","coordinates":[80.573732,7.275756]}},
{"type":"Feature","properties":{"No":5,"GND No.":127,"Scheme":"Nadeniya canal","N":7.284811,"E":80.570361,"Observation":"Original canal path has changed due to Blocks.","Description":"Re-align the canal for 300 m to achieve 600mm*600mm cross section\n\nVegetative cover improving for narrow strips (1.5m?2.0m wide) with Arecanut seedlings at 1.5m spacing in 2 rows, Betel plants VP at 3m spacing in 1 row, Green gram as a cover crop around","Amount (Rs.)":455400,"photopath":"https://raw.githubusercontent.com/MWS003-GIS/MWS003-GIS.github.io/main/IWWRMP/Data/EXD/200_photo/MWS_118_2/Nadeniya canal.jpg"},"geometry":{"type":"Point","coordinates":[80.570361,7.284811]}},
{"type":"Feature","properties":{"No":6,"GND No.":127,"Scheme":"Keradara canal","N":7.279925,"E":80.569077,"Observation":"No protection of reservation & heavy water flow damages the canal banks.","Description":"Supply and install 300 mm * 300 mm, 100 m long U drains - To construct the damaged parts of the canal\n\nVegetative cover improving for narrow strips (1.5m?2.0m wide) with Arecanut seedlings at 1.5m spacing in 2 rows, Betel plants VP at 3m spacing in 1 row","Amount (Rs.)":507320,"photopath":"https://raw.githubusercontent.com/MWS003-GIS/MWS003-GIS.github.io/main/IWWRMP/Data/EXD/200_photo/MWS_118_2/Keradara canal.jpg"},"geometry":{"type":"Point","coordinates":[80.569077,7.279925]}},
{"type":"Feature","properties":{"No":7,"GND No.":127,"Scheme":"Nadeniya Ihala canal","N":7.283383,"E":80.570452,"Observation":"Part of the canal need re aligning. No protective plants in reservation.","Description":"Re-align the canal for 300 m to achieve 600mm*600mm cross section\n\nVegetative cover improving for narrow strips (1.5m?2.0m wide) with Arecanut seedlings at 1.5m spacing in 2 rows, Betel plants VP at 3m spacing in 1 row, Green gram as a cover crop around","Amount (Rs.)":513480,"photopath":"https://raw.githubusercontent.com/MWS003-GIS/MWS003-GIS.github.io/main/IWWRMP/Data/EXD/200_photo/MWS_118_2/Nadeniya Ihala canal.jpg"},"geometry":{"type":"Point","coordinates":[80.570452,7.283383]}},
{"type":"Feature","properties":{"No":8,"GND No.":127,"Scheme":"Berawanga canal","N":7.282499,"E":80.571552,"Observation":"No protection of reservation & heavy water flow damages the canal banks.","Description":"Supply and install 300 mm * 300 mm, 100 m long U drains - To construct the damaged parts of the canal\n\nVegetative cover improving for narrow strips (1.5m?2.0m wide) with Arecanut seedlings at 1.5m spacing in 2 rows, Betel plants VP at 3m spacing in 1 row","Amount (Rs.)":507320,"photopath":"https://raw.githubusercontent.com/MWS003-GIS/MWS003-GIS.github.io/main/IWWRMP/Data/EXD/200_photo/MWS_118_2/Berawanga canal.jpg"},"geometry":{"type":"Point","coordinates":[80.571552,7.282499]}},
{"type":"Feature","properties":{"No":9,"GND No.":128,"Scheme":"Kande Kumbura canal","N":7.285481,"E":80.579431,"Observation":"Canal banks are damaged and soil filled. no protection in reservation.","Description":"Rehabilitate the canal for 200 m to achieve 300mm*300mm cross section\n\nContingencies 10%\n","Amount (Rs.)":110000,"photopath":"https://raw.githubusercontent.com/MWS003-GIS/MWS003-GIS.github.io/main/IWWRMP/Data/EXD/200_photo/MWS_118_2/Kande Kumbura canal.jpg"},"geometry":{"type":"Point","coordinates":[80.579431,7.285481]}},
{"type":"Feature","properties":{"No":10,"GND No.":130,"Scheme":"Nanu oya from Pilimathalawa to Mahaweli River","N":7.266346,"E":80.572088,"Observation":"river banks are eroded and affected to near by buildings.","Description":"Construction of Gabion Wall (4 m x100 m)\n\nSite preparationn and setting out\n\nEarth excavation for foundation or quarry materials and haul the surplus materials up to 30m by Manually.\n\nProvide arecanut plants as protective plant in reservation along rest","Amount (Rs.)":6677000,"photopath":"https://raw.githubusercontent.com/MWS003-GIS/MWS003-GIS.github.io/main/IWWRMP/Data/EXD/200_photo/MWS_118_2/Nanu oya from Pilimathalawa to Mahaweli River.jpg"},"geometry":{"type":"Point","coordinates":[80.572088,7.266346]}},
{"type":"Feature","properties":{"No":11,"GND No.":133,"Scheme":"Gannoruwa Meda Ela","N":7.278826,"E":80.590881,"Observation":"canal banks are eroded. No plats in reservation.","Description":"Construction of 1.0m high 1:3:6 (40mm) cement concrete Retaining Wall as 50 m long side wall\n\nVegetative cover improving for narrow strips (1.5m?2.0m wide) with Arecanut seedlings at 1.5m spacing in 2 rows, Betel plants VP at 3m spacing in 1 row, Green g","Amount (Rs.)":1610400,"photopath":"https://raw.githubusercontent.com/MWS003-GIS/MWS003-GIS.github.io/main/IWWRMP/Data/EXD/200_photo/MWS_118_2/Gannoruwa Meda Ela.jpg"},"geometry":{"type":"Point","coordinates":[80.590881,7.278826]}},
{"type":"Feature","properties":{"No":12,"GND No.":133,"Scheme":"Mahaweli river reservation","N":7.277833,"E":80.592361,"Observation":"canal banks are eroded. No plats in reservation.","Description":"Replanting bamboo species around the reservation\n\nContingencies 10%","Amount (Rs.)":660000,"photopath":"https://raw.githubusercontent.com/MWS003-GIS/MWS003-GIS.github.io/main/IWWRMP/Data/EXD/200_photo/MWS_118_2/Mahaweli river reservation.jpg"},"geometry":{"type":"Point","coordinates":[80.592361,7.277833]}},
{"type":"Feature","properties":{"No":13,"GND No.":135,"Scheme":"Silumina canal","N":7.290115,"E":80.584036,"Observation":"Several places need canal re aligning.","Description":"Re-align the canal for 50 m \n\nVegetative cover improving for narrow strips (1.5m?2.0m wide) with Arecanut seedlings at 1.5m spacing in 2 rows, Betel plants VP at 3m spacing in 1 row, Green gram as a cover crop around the reservation\n\nContingencies 10%","Amount (Rs.)":490600,"photopath":"https://raw.githubusercontent.com/MWS003-GIS/MWS003-GIS.github.io/main/IWWRMP/Data/EXD/200_photo/MWS_118_2/Silumina canal.jpg"},"geometry":{"type":"Point","coordinates":[80.584036,7.290115]}},
{"type":"Feature","properties":{"No":14,"GND No.":136,"Scheme":"Silumina canal","N":7.289018,"E":80.591678,"Observation":"canal banks are eroded. No plats in reservation.","Description":"Construction of 1.0m high 1:3:6 (40mm) cement concrete Retaining Wall as 50 m long side wall\n\nVegetative cover improving for narrow strips (1.5m?2.0m wide) with Arecanut seedlings at 1.5m spacing in 2 rows, Betel plants VP at 3m spacing in 1 row, Green g","Amount (Rs.)":1813680,"photopath":"https://raw.githubusercontent.com/MWS003-GIS/MWS003-GIS.github.io/main/IWWRMP/Data/EXD/200_photo/MWS_118_2/Silumina canal.jpg"},"geometry":{"type":"Point","coordinates":[80.591678,7.289018]}},
{"type":"Feature","properties":{"No":15,"GND No.":137,"Scheme":"Maha Ela","N":7.300118,"E":80.576506,"Observation":"canal banks are eroded. No plats in reservation.","Description":"Construction of 1.0m high 1:3:6 (40mm) cement concrete Retaining Wall as 50 m long side wall\n\nReplanting bamboo species around the reservation\n\nContingencies 10%","Amount (Rs.)":1485000,"photopath":"https://raw.githubusercontent.com/MWS003-GIS/MWS003-GIS.github.io/main/IWWRMP/Data/EXD/200_photo/MWS_118_2/Maha Ela.jpg"},"geometry":{"type":"Point","coordinates":[80.576506,7.300118]}},
{"type":"Feature","properties":{"No":16,"GND No.":137,"Scheme":"Canal of Dodam Pela paddy field","N":7.299537,"E":80.571907,"Observation":"No protection for canal banks so canal banks are eroded.","Description":"Construction of 1.0m high 1:3:6 (40mm) cement concrete Retaining Wall as 50 m long side wall\n\nReplanting bamboo species around the reservation\n\nContingencies 10%","Amount (Rs.)":1485000,"photopath":"https://raw.githubusercontent.com/MWS003-GIS/MWS003-GIS.github.io/main/IWWRMP/Data/EXD/200_photo/MWS_118_2/Canal of Dodam Pela paddy field.jpg"},"geometry":{"type":"Point","coordinates":[80.571907,7.299537]}},
{"type":"Feature","properties":{"No":17,"GND No.":137,"Scheme":"Canal of Thunpela paddy field","N":7.299561,"E":80.572765,"Observation":"Need to re habilitate canal, no clear reservation.","Description":"Re-excavate the canal for 200 m \n\nVegetative cover improving for narrow strips (1.5m?2.0m wide) with Arecanut seedlings at 1.5m spacing in 2 rows, Betel plants VP at 3m spacing in 1 row, Green gram as a cover crop around the reservation\n\nContingencies 10","Amount (Rs.)":690800,"photopath":"https://raw.githubusercontent.com/MWS003-GIS/MWS003-GIS.github.io/main/IWWRMP/Data/EXD/200_photo/MWS_118_2/Canal of Thunpela paddy field.jpg"},"geometry":{"type":"Point","coordinates":[80.572765,7.299561]}},
{"type":"Feature","properties":{"No":18,"GND No.":137,"Scheme":"Canal of Gal Anga paddy field","N":7.299805,"E":80.578273,"Observation":"Need to re habilitate canal, no clear reservation.","Description":"Re-excavate the canal for 350 m \n\nVegetative cover improving for narrow strips (1.5m?2.0m wide) with Arecanut seedlings at 1.5m spacing in 2 rows, Betel plants VP at 3m spacing in 1 row, Green gram as a cover crop around the reservation\n\nContingencies 10","Amount (Rs.)":981200,"photopath":"https://raw.githubusercontent.com/MWS003-GIS/MWS003-GIS.github.io/main/IWWRMP/Data/EXD/200_photo/MWS_118_2/Canal of Othuluwawa paddy field.jpg"},"geometry":{"type":"Point","coordinates":[80.578273,7.299805]}},
{"type":"Feature","properties":{"No":19,"GND No.":137,"Scheme":"Canal of Othuluwawa paddy field","N":7.297694,"E":80.578069,"Observation":"canal banks are eroded. No plats in reservation, sand accumulation observed in the canal","Description":"Supply and install 600 mm * 600 mm, 30 m long U drains - To construct the damaged parts of the canal\n\nRe-excavate the canal for 350 m \n\nVegetative cover improving for narrow strips (1.5m?2.0m wide) with Arecanut seedlings at 1.5m spacing in 2 rows, Betel","Amount (Rs.)":603680,"photopath":"https://raw.githubusercontent.com/MWS003-GIS/MWS003-GIS.github.io/main/IWWRMP/Data/EXD/200_photo/MWS_118_2/Canal of Othuluwawa paddy field.jpg"},"geometry":{"type":"Point","coordinates":[80.578069,7.297694]}},
{"type":"Feature","properties":{"No":20,"GND No.":138,"Scheme":"Pelawa main canal (Maha Ela)","N":7.309047,"E":80.567853,"Observation":"Need to re habilitate canal, no clear reservation.","Description":"Re-excavate the canal for 350 m \n\nVegetative cover improving for narrow strips (1.5m?2.0m wide) with Arecanut seedlings at 1.5m spacing in 2 rows, Betel plants VP at 3m spacing in 1 row, Green gram as a cover crop around the reservation\n\nContingencies 10","Amount (Rs.)":458480,"photopath":"https://raw.githubusercontent.com/MWS003-GIS/MWS003-GIS.github.io/main/IWWRMP/Data/EXD/200_photo/MWS_118_2/Pelawa main canal (Maha Ela).jpg"},"geometry":{"type":"Point","coordinates":[80.567853,7.309047]}},
{"type":"Feature","properties":{"No":21,"GND No.":139,"Scheme":"Maha Ela","N":7.305001,"E":80.569124,"Observation":"canal bank erosion observed along several places of the canal.","Description":"Construction of 1.0m high 1:3:6 (40mm) cement concrete Retaining Wall as 50 m long side wall\n\nReplanting bamboo species around the reservation\n\nContingencies (10%)","Amount (Rs.)":1485000,"photopath":"Not_Available"},"geometry":{"type":"Point","coordinates":[80.569124,7.305001]}},
{"type":"Feature","properties":{"No":22,"GND No.":139,"Scheme":"Kosgollanga canal","N":7.302903,"E":80.568706,"Observation":"Canal lining need to prevent cank collapse.","Description":"Supply and install 300 mm * 300 mm, 50 m long U drains - To construct the damaged parts of the canal\n\nVegetative cover improving for narrow strips (1.5m?2.0m wide) with Arecanut seedlings at 1.5m spacing in 2 rows, Betel plants VP at 3m spacing in 1 row,","Amount (Rs.)":342320,"photopath":"https://raw.githubusercontent.com/MWS003-GIS/MWS003-GIS.github.io/main/IWWRMP/Data/EXD/200_photo/MWS_118_2/Kosgollanga canal.jpg"},"geometry":{"type":"Point","coordinates":[80.568706,7.302903]}},
{"type":"Feature","properties":{"No":23,"GND No.":139,"Scheme":"Canal of Pissa paddy fields","N":7.305387,"E":80.568244,"Observation":"banks are eroded and collapsed in several places.","Description":"Re-align the canal for 250 m \n\nVegetative cover improving for narrow strips (1.5m?2.0m wide) with Arecanut seedlings at 1.5m spacing in 2 rows, Betel plants VP at 3m spacing in 1 row, Green gram as a cover crop around the reservation\n\nContingencies (10%)","Amount (Rs.)":458480,"photopath":"https://raw.githubusercontent.com/MWS003-GIS/MWS003-GIS.github.io/main/IWWRMP/Data/EXD/200_photo/MWS_118_2/Canal of Pissa paddy fields.jpg"},"geometry":{"type":"Point","coordinates":[80.568244,7.305387]}},
{"type":"Feature","properties":{"No":24,"GND No.":148,"Scheme":"Canal from Malgammana","N":7.273928,"E":80.561862,"Observation":"there can be seen some bank erosion happen in some places. but is canal not used to now cultivation","Description":"Vegetative cover improving for narrow strips (1.5m?2.0m wide) with Arecanut seedlings at 1.5m spacing in 2 rows, Betel plants VP at 3m spacing in 1 row, Green gram as a cover crop along the canal banks\n\nReplanting bamboo species along the canal banks\n\nCo","Amount (Rs.)":728640,"photopath":"https://raw.githubusercontent.com/MWS003-GIS/MWS003-GIS.github.io/main/IWWRMP/Data/EXD/200_photo/MWS_118_2/Maha Ela.jpg"},"geometry":{"type":"Point","coordinates":[80.561862,7.273928]}},
{"type":"Feature","properties":{"No":25,"GND No.":148,"Scheme":"Field canals (drain system) of Welpathe Dawake Dandeniya canal","N":7.277925,"E":80.567433,"Observation":"there can not seen the canal due to over grown","Description":"Clean around the canal and repair the damaged parts of the canal\n\nContingencies (10%)","Amount (Rs.)":110000,"photopath":"https://raw.githubusercontent.com/MWS003-GIS/MWS003-GIS.github.io/main/IWWRMP/Data/EXD/200_photo/MWS_118_2/Dandeniya canal_8151.jpg"},"geometry":{"type":"Point","coordinates":[80.567433,7.277925]}},
{"type":"Feature","properties":{"No":26,"GND No.":152,"Scheme":"At the border of the Uda Eriyagama East & West GNDs","N":7.270706,"E":80.5861,"Observation":"sever bank erossion happen","Description":"Construction of 1.0m high 1:3:6 (40mm) cement concrete Retaining Wall as 50 m long side wall\n\nVegetative cover improving for narrow strips (1.5m?2.0m wide) with Arecanut seedlings at 1.5m spacing in 2 rows, Betel plants VP at 3m spacing in 1 row, Green g","Amount (Rs.)":1214400,"photopath":"https://raw.githubusercontent.com/MWS003-GIS/MWS003-GIS.github.io/main/IWWRMP/Data/EXD/200_photo/MWS_118_2/At the border of the Uda Eriyagama East & West GNDs_8169.jpg"},"geometry":{"type":"Point","coordinates":[80.5861,7.270706]}}
]}