{
"type": "FeatureCollection",
"name": "WSP",
"crs": { "type": "name", "properties": { "name": "urn:ogc:def:crs:OGC:1.3:CRS84" } },
"features": [
{ "type": "Feature", "properties": { "No": 6, "GND No.": 135, "Name of the Tank": "Springfield spring", "N": 7.291915, "E": 80.585465, "Observation": "No storage tank is located.", "Description": "Construction of a Water Store Tank ( 2.0m x 2.0 m 1.0 m)\n\nSite preparation & setting out\n\nPlywood form work including making, fixing & removing for structure ?05 uses\n\nCutting, Bending & Placing tor steel reinforcement bars\n\n1:2:4 concrete with concr", "Amount (Rs.)": 257400, "photopath": "https://raw.githubusercontent.com/MWS003-GIS/MWS003-GIS.github.io/main/IWWRMP/Data/EXD/200_photo/MWS_118_2/Sprinfield spring.jpg" }, "geometry": { "type": "Point", "coordinates": [ 80.585465, 7.291915 ] } },
{ "type": "Feature", "properties": { "No": 7, "GND No.": 135, "Name of the Tank": "Eeriyagahapihilla spring", "N": 7.292786, "E": 80.581015, "Observation": "Surface area 2m*2m. people ask net for protection", "Description": "Fabricating & fixing security weld mesh in OpenType buildings in GI weld mesh 50mm x 50mm  SWG 10, welded on 40mm x 40mm x 5mm  angle frame complete with application of two  coats enamel paint over two coats of  ant", "Amount (Rs.)": 47300, "photopath": "https://raw.githubusercontent.com/MWS003-GIS/MWS003-GIS.github.io/main/IWWRMP/Data/EXD/200_photo/MWS_118_2/Eeriyagahapihilla spring.jpg" }, "geometry": { "type": "Point", "coordinates": [ 80.581015, 7.292786 ] } },
{ "type": "Feature", "properties": { "No": 8, "GND No.": 135, "Name of the Tank": "Spring in the middle of the Egodawatta paddy field", "N": 7.292789, "E": 80.581028, "Observation": "Surface area 2m*2m. people ask net for protection", "Description": "Fabricating & fixing security weld mesh in OpenType buildings in GI weld mesh 50mm x 50mm  SWG 10, welded on 40mm x 40mm x 5mm  angle frame complete with application of two  coats enamel paint over two coats of  ant", "Amount (Rs.)": 47300, "photopath": "https://raw.githubusercontent.com/MWS003-GIS/MWS003-GIS.github.io/main/IWWRMP/Data/EXD/200_photo/MWS_118_2/Sprinfield spring.jpg" }, "geometry": { "type": "Point", "coordinates": [ 80.581028, 7.292789 ] } },
{ "type": "Feature", "properties": { "No": 9, "GND No.": 138, "Name of the Tank": "Yaka Pihilla", "N": 7.309232, "E": 80.567918, "Observation": "Surface area 3m*2m. people ask net for protection", "Description": "Fabricating & fixing security weld mesh in OpenType buildings in GI weld mesh 50mm x 50mm  SWG 10, welded on 40mm x 40mm x 5mm  angle frame complete with application of two  coats enamel paint over two coats of  ant", "Amount (Rs.)": 70400, "photopath": "https://raw.githubusercontent.com/MWS003-GIS/MWS003-GIS.github.io/main/IWWRMP/Data/EXD/200_photo/MWS_118_2/Yaka Pihilla.jpg" }, "geometry": { "type": "Point", "coordinates": [ 80.567918, 7.309232 ] } },
{ "type": "Feature", "properties": { "No": 10, "GND No.": 138, "Name of the Tank": "Gamebuluwa canal", "N": 7.311685, "E": 80.566347, "Observation": "Canal path has been changed. Need to re align canal path", "Description": "Re-excavate the canal for 200 m to achieve 300mm*300mm cross section\n\nContingencies 10%\n", "Amount (Rs.)": 110000, "photopath": "https://raw.githubusercontent.com/MWS003-GIS/MWS003-GIS.github.io/main/IWWRMP/Data/EXD/200_photo/MWS_118_2/Gamebuluwa canal.jpg" }, "geometry": { "type": "Point", "coordinates": [ 80.566347, 7.311685 ] } },
{ "type": "Feature", "properties": { "No": 11, "GND No.": 138, "Name of the Tank": "Galpoththa Pihilla", "N": 7.311785, "E": 80.566251, "Observation": "Existing storage tank is damaged. Need to repair it.", "Description": "Repair the Tank Bottom of the Tank\n\nClean the tank bed\n\nPlaster 12mm thick in 1:3 cement and sand, finished smooth with gray cement floating - For the damaged parts of the tank\n\nTyding up\n\nContingencies 10%", "Amount (Rs.)": 7700, "photopath": "https://raw.githubusercontent.com/MWS003-GIS/MWS003-GIS.github.io/main/IWWRMP/Data/EXD/200_photo/MWS_118_2/Galpoththa Pihilla.jpg" }, "geometry": { "type": "Point", "coordinates": [ 80.566251, 7.311785 ] } },
{ "type": "Feature", "properties": { "No": 12, "GND No.": 139, "Name of the Tank": "Kekiriwatta well", "N": 7.3029, "E": 80.568707, "Observation": "People request for safety net.", "Description": "Fabricating & fixing security weld mesh in OpenType buildings in GI weld mesh 50mm x 50mm  SWG 10, welded on 40mm x 40mm x 5mm  angle frame complete with application of two  coats enamel paint over two coats of  ant", "Amount (Rs.)": 47300, "photopath": "https://raw.githubusercontent.com/MWS003-GIS/MWS003-GIS.github.io/main/IWWRMP/Data/EXD/200_photo/MWS_118_2/Kekiriwatta well.jpg" }, "geometry": { "type": "Point", "coordinates": [ 80.568707, 7.3029 ] } },
{ "type": "Feature", "properties": { "No": 13, "GND No.": 139, "Name of the Tank": "Buluthenna well", "N": 7.307835, "E": 80.570987, "Observation": "People request for safety net.", "Description": "Fabricating & fixing security weld mesh in OpenType buildings in GI weld mesh 50mm x 50mm  SWG 10, welded on 40mm x 40mm x 5mm  angle frame complete with application of two  coats enamel paint over two coats of  ant", "Amount (Rs.)": 47300, "photopath": "https://raw.githubusercontent.com/MWS003-GIS/MWS003-GIS.github.io/main/IWWRMP/Data/EXD/200_photo/MWS_118_2/Buluthenna well.jpg" }, "geometry": { "type": "Point", "coordinates": [ 80.570987, 7.307835 ] } },
{ "type": "Feature", "properties": { "No": 14, "GND No.": 140, "Name of the Tank": "Water tank of Kalugala Yaya", "N": 7.318304, "E": 80.566626, "Observation": "No current users for well.", "Description": "Fabricating & fixing security weld mesh in OpenType buildings in GI weld mesh 50mm x 50mm  SWG 10, welded on 40mm x 40mm x 5mm  angle frame complete with application of two  coats enamel paint over two coats of  ant", "Amount (Rs.)": 47300, "photopath": "https://raw.githubusercontent.com/MWS003-GIS/MWS003-GIS.github.io/main/IWWRMP/Data/EXD/200_photo/MWS_118_2/Water tank of Kalugala Yaya.jpg" }, "geometry": { "type": "Point", "coordinates": [ 80.566626, 7.318304 ] } },
{ "type": "Feature", "properties": { "No": 15, "GND No.": 140, "Name of the Tank": "Two springs at Welimadiththa Yaya", "N": 7.311599, "E": 80.573421, "Observation": "People ask about protection net", "Description": "Fabricating & fixing security weld mesh in OpenType buildings in GI weld mesh 50mm x 50mm  SWG 10, welded on 40mm x 40mm x 5mm  angle frame complete with application of two  coats enamel paint over two coats of  ant", "Amount (Rs.)": 24200, "photopath": "https://raw.githubusercontent.com/MWS003-GIS/MWS003-GIS.github.io/main/IWWRMP/Data/EXD/200_photo/MWS_118_2/Two springs at Welimadiththa Yaya.jpg" }, "geometry": { "type": "Point", "coordinates": [ 80.573421, 7.311599 ] } },
{ "type": "Feature", "properties": { "No": 16, "GND No.": 140, "Name of the Tank": "Spring near the Bamboo bush of Palkade Yaya", "N": 7.313951, "E": 80.574885, "Observation": "RE align canal banks. Plant areca nut in reservation", "Description": "Wet Silt removing from Canal or Tank beds and haul the surplus materials up to 1.6 km distance by machinery.(This rate is excluding of transporting of machinery)\n\nVegetative cover improving for narrow strips (1.5m?2.0m wide) with Arecanut seedlings at 1.", "Amount (Rs.)": 132000, "photopath": "https://raw.githubusercontent.com/MWS003-GIS/MWS003-GIS.github.io/main/IWWRMP/Data/EXD/200_photo/MWS_118_2/Spring near the Bamboo bush of Palkade Yaya.jpg" }, "geometry": { "type": "Point", "coordinates": [ 80.574885, 7.313951 ] } },
{ "type": "Feature", "properties": { "No": 17, "GND No.": 148, "Name of the Tank": "Kiriwadeniya spring", "N": 7.27975, "E": 80.566138, "Observation": "no any issues can be seen", "Description": "Cover the tank top with a net\n\nContingencies (10%)", "Amount (Rs.)": 11000, "photopath": "https://raw.githubusercontent.com/MWS003-GIS/MWS003-GIS.github.io/main/IWWRMP/Data/EXD/200_photo/MWS_118_2/Kiriwadeniya spring.jpg" }, "geometry": { "type": "Point", "coordinates": [ 80.566138, 7.27975 ] } },
{ "type": "Feature", "properties": { "No": 18, "GND No.": 148, "Name of the Tank": "Geta Gahata well", "N": 7.272306, "E": 80.563377, "Observation": "not much issues can be seen.", "Description": "Construction of a safety wall\n\nContingencies (10%)", "Amount (Rs.)": 110000, "photopath": "https://raw.githubusercontent.com/MWS003-GIS/MWS003-GIS.github.io/main/IWWRMP/Data/EXD/200_photo/MWS_118_2/Gatagahata well_8156.jpg" }, "geometry": { "type": "Point", "coordinates": [ 80.563377, 7.272306 ] } },
{ "type": "Feature", "properties": { "No": 19, "GND No.": 150, "Name of the Tank": "Kumbukgahamula well of Ranawana Pansala Yaya", "N": 7.269175, "E": 80.565977, "Observation": "in rainy season water overflows to the well", "Description": "Increase the wall hieght of the well to prevent overflow\n\nContingencies (10%)", "Amount (Rs.)": 55000, "photopath": "https://raw.githubusercontent.com/MWS003-GIS/MWS003-GIS.github.io/main/IWWRMP/Data/EXD/200_photo/MWS_118_2/Kumbukgahamula well of Ranawana Pansala Yaya_8166.jpg" }, "geometry": { "type": "Point", "coordinates": [ 80.565977, 7.269175 ] } },
{ "type": "Feature", "properties": { "No": 20, "GND No.": 154, "Name of the Tank": "Upper area of Kalu Diya Ela Kumbukgaha", "N": 7.280591, "E": 80.582096, "Observation": "sever damaged happen to canal bank during rainy season", "Description": "Construction of 2.5m high 1:3:6 (40mm) cement concrete Retaining Wall as 15 m long side wall\n\nContingencies (10%)", "Amount (Rs.)": 1262250, "photopath": "https://raw.githubusercontent.com/MWS003-GIS/MWS003-GIS.github.io/main/IWWRMP/Data/EXD/200_photo/MWS_118_2/Kalu diya ella canal_8178.jpg" }, "geometry": { "type": "Point", "coordinates": [ 80.582096, 7.280591 ] } },
{ "type": "Feature", "properties": { "No": 21, "GND No.": 154, "Name of the Tank": "Galpihilla Oluwatta Janapadaya", "N": 7.273893, "E": 80.583389, "Observation": "no much issues of the well", "Description": "Construction of a side wall for stock tank\n\nContingencies (10%)", "Amount (Rs.)": 110000, "photopath": "https://raw.githubusercontent.com/MWS003-GIS/MWS003-GIS.github.io/main/IWWRMP/Data/EXD/200_photo/MWS_118_2/Galpihilla Oluwatta Janapadaya_8188.jpg" }, "geometry": { "type": "Point", "coordinates": [ 80.583389, 7.273893 ] } }
]
}
