{"type":"FeatureCollection","name":"MI","crs":{"type":"name","properties":{"name":"urn:ogc:def:crs:OGC:1.3:CRS84"}},"features":[
{"type":"Feature","properties":{"No":1,"GND No.":835,"Scheme":"Kolongasgawa canal","N":7.256645,"E":80.865034,"Observation":"The anicut wall is leaking and the canal has broken in places.Water from this canal is used to grow paddy on an area of about 5 acres.","Description":"Providing a curtain wall to arrest leaks\n\nConstruction of curtain wall (0.075mm thk) with 1:2:4 (3/4\") concrete, 1/2\" dowels at 600mm x 600mm intervals and embedded with chicken mesh\n\nRepairs to the Anicut reconstructing the collapsed section\n\nCleaning t","Amount (Rs.)":"156,200.00","photopath":"https://raw.githubusercontent.com/MWS003-GIS/MWS003-GIS.github.io/main/IWWRMP/Data/EXD/200_photo/MWS_081/Kolongaha canal (3).jpg"},"geometry":{"type":"Point","coordinates":[80.865034,7.256645]}},
{"type":"Feature","properties":{"No":2,"GND No.":835,"Scheme":"Pallege canal","N":7.263593,"E":80.860493,"Observation":"Existing Earthen canal,  some places Constructed of rectangular concrete lining   Water from this canal is used to grow paddy on an area of about 4.5acres.","Description":"Canal reservation protection by concrete lining  For  100 mm thick , 300 mm  wide  and 300 mm high canal -double banking\n\nStream / canal  reservation protection by earthfilling of  strip   of 1.5m to 2.0 m wide  and average Depth of 0.5m\n\nVegetative cove","Amount (Rs.)":"393,800.00","photopath":"https://raw.githubusercontent.com/MWS003-GIS/MWS003-GIS.github.io/main/IWWRMP/Data/EXD/200_photo/MWS_081/Pallege canal.jpg"},"geometry":{"type":"Point","coordinates":[80.860493,7.263593]}},
{"type":"Feature","properties":{"No":3,"GND No.":836,"Scheme":"Gedara Kumbura anicut and canal","N":7.252334,"E":80.851205,"Observation":"Existing Earthen canal,  s Water from this canal is used to grow paddy on an area of about 5.0acres.","Description":"Construction of 15 m long Trough (with 0.30m x 0.30m section), 04 nos of piers (1.50 m high)\n\nRemoval of existing 300 mm dia. concrete pipe line.\n\nSite preparation & setting out\n\nEarth excavation for foundation or quarry materials and haul the surplus ma","Amount (Rs.)":"288,200.00","photopath":"https://raw.githubusercontent.com/MWS003-GIS/MWS003-GIS.github.io/main/IWWRMP/Data/EXD/200_photo/MWS_081/Gedarakumbure canal.jpg"},"geometry":{"type":"Point","coordinates":[80.851205,7.252334]}},
{"type":"Feature","properties":{"No":4,"GND No.":836,"Scheme":"Siyambalagahapitiya canal","N":7.253249,"E":80.849961,"Observation":"Existing Earthen canal,  s Water from this canal is used to grow paddy on an area of about 4.0acres.","Description":"Construction of 15 m long Trough (with 0.30m x 0.30m section), 04 nos of piers (1.30 m high)\n\nRemoval of existing 300 mm dia. concrete pipe line.\n\nSite preparation & setting out\n\nEarth excavation for foundation or quarry materials and haul the surplus ma","Amount (Rs.)":"288,200.00","photopath":"https://raw.githubusercontent.com/MWS003-GIS/MWS003-GIS.github.io/main/IWWRMP/Data/EXD/200_photo/MWS_081/Siyabalagahapitiya canal.jpg"},"geometry":{"type":"Point","coordinates":[80.849961,7.253249]}},
{"type":"Feature","properties":{"No":6,"GND No.":837,"Scheme":"Canal of  Aluthgedara Kumbura","N":7.246521,"E":80.852969,"Observation":"The anicut wall is built irregularly with  rubble stones, Existing Earthen canal, Water from this canal is used to grow paddy on an area of about 10 acres.","Description":"Construction of Concrete anicut of 9.0 m length and height 2.0 m.\n\nClearing the site \n\nCommon excavation for foundation or quarry materials and haul the surplus up to 30m by Manually.\n\nPlywood form work including making, fixing & removing for structure -","Amount (Rs.)":"715,000.00","photopath":"https://raw.githubusercontent.com/MWS003-GIS/MWS003-GIS.github.io/main/IWWRMP/Data/EXD/200_photo/MWS_081/Aluthgedarakumbure  canal.jpg"},"geometry":{"type":"Point","coordinates":[80.852969,7.246521]}},
{"type":"Feature","properties":{"No":7,"GND No.":837,"Scheme":"Anicut of Kiriwallagolla Wela","N":7.246729,"E":80.85361,"Observation":"The anicut wall is built irregularly with  rock boelders, Existing Earthen canal, Water from this canal is used to grow paddy on an area of about 12 acres.","Description":"Construction of Concrete anicut of 9.0 m length and height 1.0 m.\n\nClearing the site \n\nCommon excavation for foundation or quarry materials and haul the surplus up to 30m by Manually.\n\nPlywood form work including making, fixing & removing for structure -","Amount (Rs.)":"557,700.00","photopath":"https://raw.githubusercontent.com/MWS003-GIS/MWS003-GIS.github.io/main/IWWRMP/Data/EXD/200_photo/MWS_081/Kiriwallagolla wele Amuna.jpg"},"geometry":{"type":"Point","coordinates":[80.85361,7.246729]}},
{"type":"Feature","properties":{"No":8,"GND No.":838,"Scheme":"Canal of Godakumbura","N":7.260095,"E":80.852248,"Observation":"The anicut wall is built of earth.Farmers are requesting a concrete wall for this pepurpose.Water from this canal is used to grow paddy on an area of about 8 acres","Description":"Construction of Concrete anicut of 7.5 m length and height 1.2 m.\n\nClearing the site \n\nCommon excavation for foundation or quarry materials and haul the surplus up to 30m by Manually.\n\nPlywood form work including making, fixing & removing for structure -","Amount (Rs.)":"217,800.00","photopath":"https://raw.githubusercontent.com/MWS003-GIS/MWS003-GIS.github.io/main/IWWRMP/Data/EXD/200_photo/MWS_081/Godakumbura anicut and canal.jpg"},"geometry":{"type":"Point","coordinates":[80.852248,7.260095]}}
]}