{"type":"FeatureCollection","name":"SWC_OFF","crs":{"type":"name","properties":{"name":"urn:ogc:def:crs:OGC:1.3:CRS84"}},"features":[
{"type":"Feature","properties":{"No.":1,"GND No.":835,"GND Name":"Pamunethenna","Key Activities proposed for Soil and Water conservation":"1. Establishing a retaining wall","Priority based on Soil Erosion Hazard":3,"N":7.264928,"E":80.8623,"Quantity":"3 m x 2 m","Proposed measure/s":"Retaining Wall (Masonary)","Total_Cost":132000,"Contribution (Local Community, LA, and the project)":"By the project","Time frame for the implementation":"0.25 Years","photopath":"Not_Available"},"geometry":{"type":"Point","coordinates":[80.8623,7.264928]}}
]}