{"type":"FeatureCollection","name":"WP","crs":{"type":"name","properties":{"name":"urn:ogc:def:crs:OGC:1.3:CRS84"}},"features":[
{"type":"Feature","properties":{"No.":2,"GND No.":836,"GN Division":"Bambarabedda East","Non-point sources of pollution":"Potential to add human waste - Bambarabedda East","N":7.2506604,"E":80.8511243,"Point sources of pollution":"-","Add. N ":"-","Add. E ":"-","Recommended water quality improvement measures":"-","Unit Cost (Rs.)":"-","Total Cost (Rs.)":"-","Contributions (Local Community, LA, Project)":"-","Time frame for the implementation":"-","photopath":"Not_Available"},"geometry":{"type":"Point","coordinates":[80.8511243,7.2506604]}},
{"type":"Feature","properties":{"No.":3,"GND No.":836,"GN Division":"Bambarabedda East","Non-point sources of pollution":"Informal disposal of houshold wastes/garbage","N":7.2506604,"E":80.8511243,"Point sources of pollution":"-","Add. N ":"-","Add. E ":"-","Recommended water quality improvement measures":"Preparing a separate place in homegardens for disposing houshold waste,Awareness programme on how to disposal household waste properly and converting them to usable products such as compost,Facilitating garbage collection","Unit Cost (Rs.)":"-","Total Cost (Rs.)":"50,000.00","Contributions (Local Community, LA, Project)":"Local/Central governments","Time frame for the implementation":"0.5 Years","photopath":"Not_Available"},"geometry":{"type":"Point","coordinates":[80.8511243,7.2506604]}},
{"type":"Feature","properties":{"No.":4,"GND No.":837,"GN Division":"Bambarabedda West","Non-point sources of pollution":"Potential to add human waste - Bambarabedda West","N":7.2450977,"E":80.851148,"Point sources of pollution":"-","Add. N ":"-","Add. E ":"-","Recommended water quality improvement measures":"-","Unit Cost (Rs.)":"-","Total Cost (Rs.)":"-","Contributions (Local Community, LA, Project)":"-","Time frame for the implementation":"-","photopath":"Not_Available"},"geometry":{"type":"Point","coordinates":[80.851148,7.2450977]}},
{"type":"Feature","properties":{"No.":5,"GND No.":837,"GN Division":"Bambarabedda West","Non-point sources of pollution":"Informal disposal of houshold wastes/garbage","N":7.2450977,"E":80.851148,"Point sources of pollution":"-","Add. N ":"-","Add. E ":"-","Recommended water quality improvement measures":"Preparing a separate place in homegardens for disposing houshold waste,Awareness programme on how to disposal household waste properly and converting them to usable products such as compost,Facilitating garbage collection","Unit Cost (Rs.)":"-","Total Cost (Rs.)":"50,000.00","Contributions (Local Community, LA, Project)":"Local/Central governments","Time frame for the implementation":"0.5 Years","photopath":"Not_Available"},"geometry":{"type":"Point","coordinates":[80.851148,7.2450977]}},
{"type":"Feature","properties":{"No.":6,"GND No.":838,"GN Division":"Devinnegama","Non-point sources of pollution":"Potential to add human waste - Devinnegama Wataketiya Village","N":7.2607313,"E":80.8491521,"Point sources of pollution":"-","Add. N ":"-","Add. E ":"-","Recommended water quality improvement measures":"-","Unit Cost (Rs.)":"-","Total Cost (Rs.)":"-","Contributions (Local Community, LA, Project)":"-","Time frame for the implementation":"-","photopath":"Not_Available"},"geometry":{"type":"Point","coordinates":[80.8491521,7.2607313]}}
]}