{"type":"FeatureCollection","name":"MI","crs":{"type":"name","properties":{"name":"urn:ogc:def:crs:OGC:1.3:CRS84"}},"features":[
{"type":"Feature","properties":{"No":1,"GND No.":"39C","Scheme":"Pambeyaya","N":6.966376,"E":80.954955,"Observation":"An earthen canal about 600m long.. Command area 15.0 acres","Description":"Canal lining and protection including EW & tree planting\n\nCanal reservation protection by concrete lining  For  100 mm thick , 300 mm  wide  and 300 mm high canal -double banking\n\nStream / canal  reservation protection by earth filling of  strip   of 1.5","Amount (Rs.)":"1,047,200","photopath":"https://raw.githubusercontent.com/MWS003-GIS/MWS003-GIS.github.io/main/IWWRMP/Data/EXD/200_photo/MWS_046/Pambe Yaya Canal.jpg"},"geometry":{"type":"Point","coordinates":[80.954955,6.966376]}},
{"type":"Feature","properties":{"No":2,"GND No.":"39C","Scheme":"Gewattayaya","N":6.966138,"E":80.958998,"Observation":"Total length of canal about 1000m, part of canal has been concreted, Command area 10.0 acres","Description":"Canal lining and protection including EW & tree planting\n\nCanal reservation protection by concrete lining  For  100 mm thick , 300 mm  wide  and 300 mm high canal -double banking\n\nStream / canal  reservation protection by earth filling of  strip   of 1.5","Amount (Rs.)":"1,060,400","photopath":"https://raw.githubusercontent.com/MWS003-GIS/MWS003-GIS.github.io/main/IWWRMP/Data/EXD/200_photo/MWS_046/Gewatta Yaya Canal.jpg"},"geometry":{"type":"Point","coordinates":[80.958998,6.966138]}},
{"type":"Feature","properties":{"No":3,"GND No.":"39C","Scheme":"Gonwilayaya canal","N":6.982491,"E":80.959972,"Observation":"Total length of canal about 800m, part of canal has been concreted, Command area 8.0 acres","Description":"Canal lining and protection including EW & tree planting\n\nCanal reservation protection by concrete lining  For  100 mm thick , 300 mm  wide  and 300 mm high canal -double banking\n\nStream / canal  reservation protection by earth filling of  strip   of 1.5","Amount (Rs.)":"727,100","photopath":"https://raw.githubusercontent.com/MWS003-GIS/MWS003-GIS.github.io/main/IWWRMP/Data/EXD/200_photo/MWS_046/Gonavila Yaya Canal Location 2.jpg"},"geometry":{"type":"Point","coordinates":[80.959972,6.982491]}},
{"type":"Feature","properties":{"No":4,"GND No.":"40","Scheme":"Kiriwella canal","N":6.975665,"E":80.986086,"Observation":"Total length of canal about 1.5km, part of canal has been concreted and some places along the canal, side wall have been built along the right bank. The side walls, built of rubble, are in a dilapidated condition, Command area 40.0 acres","Description":"Canal lining and protection including EW & tree planting\n\nCanals reservation protection by concrete lining  For  125mm thick , 500 mm  wide  and 400 mm high canal -double banking\n\nStream / canal  reservation protection by earth filling of  strip   of 1.5","Amount (Rs.)":"2,729,100","photopath":"https://raw.githubusercontent.com/MWS003-GIS/MWS003-GIS.github.io/main/IWWRMP/Data/EXD/200_photo/MWS_046/Kiriwelle Canal Location 1.jpg"},"geometry":{"type":"Point","coordinates":[80.986086,6.975665]}},
{"type":"Feature","properties":{"No":5,"GND No.":"40","Scheme":"Aladu Paya canal","N":6.974681,"E":80.986421,"Observation":"An earthen canal about 800m long. A concrete trough about 20m long has been constructed at the start of the canal, and it is in a very dilapidated condition. Water leaks from many places in the earthen canal. Command area 11.0 acres","Description":"Construction of 20 m long Trough (with 0.30m x 0.30m section), 10 nos of piers (3.5 m high)\n\nSite preparation & setting out\n\nEarth excavation for foundation or quarry materials and haul the surplus materials up to 30m by Manually.\n\nCutting, Bending & Pla","Amount (Rs.)":"2,501,400","photopath":"https://raw.githubusercontent.com/MWS003-GIS/MWS003-GIS.github.io/main/IWWRMP/Data/EXD/200_photo/MWS_046/Alandupaya Canal Location 1.jpg"},"geometry":{"type":"Point","coordinates":[80.986421,6.974681]}},
{"type":"Feature","properties":{"No":6,"GND No.":"40","Scheme":"Pathana Kumbura canal","N":6.977753,"E":80.988213,"Observation":"An earthen canal about 800m long. Water leaks from many places in the earthen canal. Command area 30.0 acres","Description":"Canal lining and protection including EW & tree planting\n\nCanal reservation protection by concrete lining  For  100 mm thick , 300 mm  wide  and 300 mm high canal -double banking\n\nStream / canal  reservation protection by earth filling of  strip   of 1.5","Amount (Rs.)":"1,060,400","photopath":"https://raw.githubusercontent.com/MWS003-GIS/MWS003-GIS.github.io/main/IWWRMP/Data/EXD/200_photo/MWS_046/Pathanakumbura Canal.jpg"},"geometry":{"type":"Point","coordinates":[80.988213,6.977753]}},
{"type":"Feature","properties":{"No":7,"GND No.":"40A","Scheme":"Ihala Panagoda canal","N":6.984473,"E":80.967296,"Observation":"An earthen canal about 600m long.. Command area 15.0 acres","Description":"Canal lining and protection including EW & tree planting\n\nCanal reservation protection by concrete lining  For  100 mm thick , 300 mm  wide  and 300 mm high canal -double banking\n\nStream / canal  reservation protection by earth filling of  strip   of 1.5","Amount (Rs.)":"865,700","photopath":"Not_Available"},"geometry":{"type":"Point","coordinates":[80.967296,6.984473]}},
{"type":"Feature","properties":{"No":8,"GND No.":"40A","Scheme":"Walli arawa canal","N":6.981832,"E":80.965851,"Observation":"An earthen canal about 800m long.. Command area 8.0 acres","Description":"Canal lining and protection including EW & tree planting\n\nCanal reservation protection by concrete lining  For  100 mm thick , 300 mm  wide  and 300 mm high canal -double banking\n\nStream / canal  reservation protection by earth filling of  strip   of 1.5","Amount (Rs.)":"657,800","photopath":"https://raw.githubusercontent.com/MWS003-GIS/MWS003-GIS.github.io/main/IWWRMP/Data/EXD/200_photo/MWS_046/Walliarawa Canal.jpg"},"geometry":{"type":"Point","coordinates":[80.965851,6.981832]}},
{"type":"Feature","properties":{"No":9,"GND No.":"40A","Scheme":"Uduthure canal","N":6.983204,"E":80.964419,"Observation":"An earthen canal about 300m long. A 36.0m long section of canal has landslide. Command area 8.0 acres","Description":"Canal lining, Earth work, tree planting and construction of a side wall\n\nCanal reservation protection by concrete lining  For  100 mm thick , 300 mm  wide  and 300 mm high canal -double banking\n\nStream / canal  reservation protection by earth filling of","Amount (Rs.)":"1,249,600","photopath":"https://raw.githubusercontent.com/MWS003-GIS/MWS003-GIS.github.io/main/IWWRMP/Data/EXD/200_photo/MWS_046/Uduthura Canal.jpg"},"geometry":{"type":"Point","coordinates":[80.964419,6.983204]}},
{"type":"Feature","properties":{"No":10,"GND No.":"40A","Scheme":"Pahala Panagoda canal","N":6.984855,"E":80.966786,"Observation":"Total length of canal about 800m, part of canal has been concreted and some places along the canal, side wall have been built along the right bank. The side walls, built of rubble, are in a dilapidated condition, Command area 15.0 acres","Description":"Canal lining, Earth work, tree planting and construction of a side wall\n\nCanal reservation protection by concrete lining  For  100 mm thick , 300 mm  wide  and 300 mm high canal -double banking\n\nStream / canal  reservation protection by earth filling of","Amount (Rs.)":"1,595,000","photopath":"Not_Available"},"geometry":{"type":"Point","coordinates":[80.966786,6.984855]}},
{"type":"Feature","properties":{"No":11,"GND No.":"40A","Scheme":"Ihala Karade canal","N":6.984955,"E":80.965842,"Observation":"An earthen canal about 600m long.. Command area 15.0 acres","Description":"Canal lining and protection including EW & tree planting\n\nCanal reservation protection by concrete lining  For  100 mm thick , 300 mm  wide  and 300 mm high canal -double banking\n\nStream / canal  reservation protection by earth filling of  strip   of 1.5","Amount (Rs.)":"865,700","photopath":"Not_Available"},"geometry":{"type":"Point","coordinates":[80.965842,6.984955]}},
{"type":"Feature","properties":{"No":12,"GND No.":"40A","Scheme":"Pahala Karade canal","N":6.985373,"E":80.96627,"Observation":"An earthen canal about 700m long.. Command area 15.0 acres","Description":"Canal lining and protection including EW & tree planting\n\nCanal reservation protection by concrete lining  For  100 mm thick , 300 mm  wide  and 300 mm high canal -double banking\n\nStream / canal  reservation protection by earth filling of  strip   of 1.5","Amount (Rs.)":"727,100","photopath":"https://raw.githubusercontent.com/MWS003-GIS/MWS003-GIS.github.io/main/IWWRMP/Data/EXD/200_photo/MWS_046/Pahala Karande Canal.jpg"},"geometry":{"type":"Point","coordinates":[80.96627,6.985373]}},
{"type":"Feature","properties":{"No":13,"GND No.":"41A","Scheme":"Pannalawela Welipeliya anicut and the canal","N":6.964692,"E":80.938017,"Observation":"A 6.0m long, 450mm wide wall has been built of rubble as anicut. Water is leaking from the base of the dam.","Description":"Scarifying existing rock or concrete surface\n\nConstruction of curtain wall (0.075mm thk) with 1:2:4 (3/4\") concrete, 1/2\" dowels at 600mm x 600mm intervals and embedded with chicken mesh in the US side of the anicut\n\n75mm tk. Stop planks (Mee) with 10mm","Amount (Rs.)":"77,000","photopath":"https://raw.githubusercontent.com/MWS003-GIS/MWS003-GIS.github.io/main/IWWRMP/Data/EXD/200_photo/MWS_046/Wlipeliya Anicut.jpg"},"geometry":{"type":"Point","coordinates":[80.938017,6.964692]}},
{"type":"Feature","properties":{"No":14,"GND No.":"41A","Scheme":"Welipeliya  canal 1 (RB)","N":6.964506,"E":80.938264,"Observation":"Total length of canal about 700m. A section about a 100m long has been concreted, but it is in a dilapidated condition. Command area 15.0 acres","Description":"Canal lining and protection including tree planting\n\nCanal reservation protection by concrete lining  For  100 mm thick , 300 mm  wide  and 300 mm high canal -double banking\n\nStream / canal  reservation protection by earth filling of  strip   of 1.5m to","Amount (Rs.)":"935,000","photopath":"https://raw.githubusercontent.com/MWS003-GIS/MWS003-GIS.github.io/main/IWWRMP/Data/EXD/200_photo/MWS_046/Welipeliya RB Canal.jpg"},"geometry":{"type":"Point","coordinates":[80.938264,6.964506]}},
{"type":"Feature","properties":{"No":15,"GND No.":"41A","Scheme":"Welipeliya canal 2 (LB)","N":6.964672,"E":80.938198,"Observation":"An earthen canal about 200m long.. Command area 5.0 acres","Description":"Canal lining and protection including EW & tree planting\n\nCanal reservation protection by concrete lining  For  100 mm thick , 300 mm  wide  and 300 mm high canal -double banking\n\nStream / canal  reservation protection by earth filling of  strip   of 1.5","Amount (Rs.)":"519,200","photopath":"https://raw.githubusercontent.com/MWS003-GIS/MWS003-GIS.github.io/main/IWWRMP/Data/EXD/200_photo/MWS_046/Welipeliya LB Canal.jpg"},"geometry":{"type":"Point","coordinates":[80.938198,6.964672]}},
{"type":"Feature","properties":{"No":16,"GND No.":"41A","Scheme":"Hakurugedara anicut","N":6.966442,"E":80.936821,"Observation":"A 5.0m long, 450mm wide wall has been built of rubble as anicut. Command area 15.0 acres","Description":"75mm tk. Stop planks (Mee) with 10mm dia. 2nos. M. S. Iron hooks and applies 2 coats of hot tar.\n\nMiscellaneous\n\nContingencies 10%","Amount (Rs.)":"16,500","photopath":"https://raw.githubusercontent.com/MWS003-GIS/MWS003-GIS.github.io/main/IWWRMP/Data/EXD/200_photo/MWS_046/Hakurugedara Anicut.jpg"},"geometry":{"type":"Point","coordinates":[80.936821,6.966442]}},
{"type":"Feature","properties":{"No":17,"GND No.":"41D","Scheme":"Deeyakola main canal","N":6.961551,"E":80.943321,"Observation":"The total length of the canal is about 6km, and concrete side walls have been built some places on the RHS of the Canal. Command area 112.0 acres","Description":"\nStream / canal  reservation protection by earth filling of  strip   of 1.5m to 2.0 m wide  and average Depth of 0.5m\n\nVegetative cover improving for narrow strips (1.5m-2.0m wide) with Arecanut seedlings at 1.5m spacing in 2 rows, Betel plants VP at 3m","Amount (Rs.)":"1,468,500","photopath":"https://raw.githubusercontent.com/MWS003-GIS/MWS003-GIS.github.io/main/IWWRMP/Data/EXD/200_photo/MWS_046/Deeyakola Main Canal Location 2.jpg"},"geometry":{"type":"Point","coordinates":[80.943321,6.961551]}},
{"type":"Feature","properties":{"No":18,"GND No.":"41D","Scheme":"Deeyakola Ella canal","N":6.957942,"E":80.960445,"Observation":"This section of the canal, which is the last section of the Deeyakola Main Canal, has not been used for paddy cultivation since it was damaged about 20 years ago. These paddy fields are located close to Uma Oya and have a slope of about 70 degrees. Some","Description":"Canal lining and protection including EW & tree planting\n\nCanal reservation protection by concrete lining  For  100 mm thick , 300 mm  wide  and 300 mm high canal -double banking\n\nStream / canal  reservation protection by earth filling of  strip   of 1.5","Amount (Rs.)":"1,325,500","photopath":"https://raw.githubusercontent.com/MWS003-GIS/MWS003-GIS.github.io/main/IWWRMP/Data/EXD/200_photo/MWS_046/Deeyakola Elle Canal.jpg"},"geometry":{"type":"Point","coordinates":[80.960445,6.957942]}},
{"type":"Feature","properties":{"No":19,"GND No.":"53","Scheme":"Sapugahakumbura canal","N":6.948434,"E":80.932135,"Observation":"The total length of the canal is about 1.5km, and concrete lining have been built some places  of the Canal. Command area 13.0 acres","Description":"Canal lining and protection including EW & tree planting\n\nCanal reservation protection by concrete lining  For  100 mm thick , 300 mm  wide  and 300 mm high canal -double banking\n\nStream / canal  reservation protection by earth filling of  strip   of 1.5","Amount (Rs.)":"921,800","photopath":"Not_Available"},"geometry":{"type":"Point","coordinates":[80.932135,6.948434]}},
{"type":"Feature","properties":{"No":20,"GND No.":"53","Scheme":"Pathahabokka canal","N":6.940938,"E":80.943104,"Observation":"The total length of the canal is about 2km, and concrete side walls have been built some places on the LHS of the Canal. Command area 40.0 acres","Description":"Scarifying existing rock or concrete surface\n\nConstruction of curtain wall (0.075mm thk) with 1:2:4 (3/4\") concrete, 1/2\" dowels at 600mm x 600mm intervals and embedded with chicken mesh in the US side of the anicut\n\nCanals reservation protection by conc","Amount (Rs.)":"1,650,000","photopath":"Not_Available"},"geometry":{"type":"Point","coordinates":[80.943104,6.940938]}},
{"type":"Feature","properties":{"No":21,"GND No.":"53B","Scheme":"Canal form Udumulla Wewa","N":6.933941,"E":80.943694,"Observation":"An earthen canal about 2km long.. Command area 17.0 acres","Description":"Canal lining and protection including EW & tree planting\n\nCanal reservation protection by concrete lining  For  100 mm thick , 300 mm  wide  and 300 mm high canal -double banking\n\nStream / canal  reservation protection by earth filling of  strip   of 1.5","Amount (Rs.)":"1,060,400","photopath":"https://raw.githubusercontent.com/MWS003-GIS/MWS003-GIS.github.io/main/IWWRMP/Data/EXD/200_photo/MWS_046/Canal From Udumulla Wewa 1.jpg"},"geometry":{"type":"Point","coordinates":[80.943694,6.933941]}},
{"type":"Feature","properties":{"No":22,"GND No.":"53C","Scheme":"Udumulla canal","N":6.927044,"E":80.939678,"Observation":"An earthen canal about 750m long.. Command area 15.0 acres","Description":"Canal lining and protection including EW & tree planting\n\nCanal reservation protection by concrete lining  For  100 mm thick , 300 mm  wide  and 300 mm high canal -double banking\n\nStream / canal  reservation protection by earth filling of  strip   of 1.5","Amount (Rs.)":"921,800","photopath":"https://raw.githubusercontent.com/MWS003-GIS/MWS003-GIS.github.io/main/IWWRMP/Data/EXD/200_photo/MWS_046/Udumulle Canal.jpg"},"geometry":{"type":"Point","coordinates":[80.939678,6.927044]}},
{"type":"Feature","properties":{"No":23,"GND No.":"53C","Scheme":"Ulle  canal","N":6.933669,"E":80.941319,"Observation":"An earthen canal about 500m long.. Command area 15.0 acres","Description":"Canal lining and protection including tree planting\n\nCanal reservation protection by concrete lining  For  100 mm thick , 300 mm  wide  and 300 mm high canal -double banking\n\nStream / canal  reservation protection by earth filling of  strip   of 1.5m to","Amount (Rs.)":"921,800","photopath":"https://raw.githubusercontent.com/MWS003-GIS/MWS003-GIS.github.io/main/IWWRMP/Data/EXD/200_photo/MWS_046/Ulle Canal.jpg"},"geometry":{"type":"Point","coordinates":[80.941319,6.933669]}},
{"type":"Feature","properties":{"No":24,"GND No.":"53C","Scheme":"Uda arawe canal","N":6.928471,"E":80.939919,"Observation":"An earthen canal about 600m long.. Command area 10.0 acres","Description":"Canal lining and protection including EW & tree planting\n\nCanal reservation protection by concrete lining  For  100 mm thick , 300 mm  wide  and 300 mm high canal -double banking\n\nStream / canal  reservation protection by earth filling of  strip   of 1.5","Amount (Rs.)":"783,200","photopath":"https://raw.githubusercontent.com/MWS003-GIS/MWS003-GIS.github.io/main/IWWRMP/Data/EXD/200_photo/MWS_046/Uda Arawa Canal.jpg"},"geometry":{"type":"Point","coordinates":[80.939919,6.928471]}},
{"type":"Feature","properties":{"No":25,"GND No.":"54","Scheme":"Udaperuwa Maha Ela","N":6.945495,"E":80.950874,"Observation":"The total length of the canal is about 2.0km, part of canal have been concreted,  Command area 80.0 acres","Description":"Canal lining and protection including EW & tree planting\n\nCanals reservation protection by concrete lining  For  125mm thick , 500 mm  wide  and 400 mm high canal -double banking\n\nStream / canal  reservation protection by earth filling of  strip   of 1.5","Amount (Rs.)":"1,595,000","photopath":"https://raw.githubusercontent.com/MWS003-GIS/MWS003-GIS.github.io/main/IWWRMP/Data/EXD/200_photo/MWS_046/Udaperuwa Main Canal 1.jpg"},"geometry":{"type":"Point","coordinates":[80.950874,6.945495]}},
{"type":"Feature","properties":{"No":26,"GND No.":"54","Scheme":"Udaperuwa Maha Ela Anicut","N":6.944078,"E":80.949113,"Observation":"A 12.5m long and 300mm wide concrete wall has been constructed as an anicut across the stream.","Description":"Scarifying existing rock or concrete surface\n\nSupplying and fixing M.S. dowels spliced and dovetailed with wedge at one end 16mm dia. And 600mm long, boring holes to 0.3m depth in fixing\n\n1:2:4 (20mm) concrete manual mix  (volume batching)\n\nMiscellaneous","Amount (Rs.)":"67,100","photopath":"https://raw.githubusercontent.com/MWS003-GIS/MWS003-GIS.github.io/main/IWWRMP/Data/EXD/200_photo/MWS_046/Udaperuwa Main Canal Anicut.jpg"},"geometry":{"type":"Point","coordinates":[80.949113,6.944078]}},
{"type":"Feature","properties":{"No":27,"GND No.":"54","Scheme":"Ambagolle Meda Ela (Middle Canal)","N":6.945073,"E":80.951361,"Observation":"An earthen canal about 1.5m long.. Command area 10.0 acres","Description":"Canal lining and protection including EW & tree planting\n\nCanal reservation protection by concrete lining  For  100 mm thick , 300 mm  wide  and 300 mm high canal -double banking\n\nStream / canal  reservation protection by earth filling of  strip   of 1.5","Amount (Rs.)":"921,800","photopath":"https://raw.githubusercontent.com/MWS003-GIS/MWS003-GIS.github.io/main/IWWRMP/Data/EXD/200_photo/MWS_046/Ambagahalanda Middle Canal.jpg"},"geometry":{"type":"Point","coordinates":[80.951361,6.945073]}},
{"type":"Feature","properties":{"No":28,"GND No.":"54A","Scheme":"Hapugodawela Anicut","N":6.961491,"E":80.939295,"Observation":"A 12.0m long and 300mm wide concrete wall has been constructed as an anicut across the Hal Oya.","Description":"Scarifying existing rock or concrete surface\n\nSupplying and fixing M.S. dowels spliced and dovetailed with wedge at one end 16mm dia. And 600mm long, boring holes to 0.3m depth in fixing\n\n1:2:4 (20mm) concrete manual mix  (volume batching)\n\nMiscellaneous","Amount (Rs.)":"90,200","photopath":"https://raw.githubusercontent.com/MWS003-GIS/MWS003-GIS.github.io/main/IWWRMP/Data/EXD/200_photo/MWS_046/Hapugadawela Anicut 2.jpg"},"geometry":{"type":"Point","coordinates":[80.939295,6.961491]}},
{"type":"Feature","properties":{"No":29,"GND No.":"54A","Scheme":"Hapugodawela canal","N":6.957839,"E":80.943248,"Observation":"The total length of the canal is about 1.0km, of which about 500m have been concreted, but about 300m of these are in a dilapidated condition. A trough 12.0m long, 450mm wide, and 300mm high is made of steel plate. The water is overflow because the heigh","Description":"Canal lining and protection including EW & tree planting and raising of the steel trough by 150 mm.\n\nCanals reservation protection by concrete lining  For  125mm thick , 500 mm  wide  and 400 mm high canal -double banking\n\nStream / canal  reservation pro","Amount (Rs.)":"1,734,700","photopath":"https://raw.githubusercontent.com/MWS003-GIS/MWS003-GIS.github.io/main/IWWRMP/Data/EXD/200_photo/MWS_046/Hapugodawela Canal Location 1.jpg"},"geometry":{"type":"Point","coordinates":[80.943248,6.957839]}},
{"type":"Feature","properties":{"No":30,"GND No.":"54A","Scheme":"Weliulla Uda Ela","N":6.957072,"E":80.942874,"Observation":"The total length of the canal is about 1.0km, and a section of about 250m is constructed by rubble walls on the left side of the canal. Water is leaking from these rubble walls that have been constructed. Command area 24.0 acres","Description":"Scarifying existing rock or concrete surface\n\nConstruction of curtain wall (0.075mm thk) with 1:2:4 (3/4\") concrete, 1/2\" dowels at 600mm x 600mm intervals and embedded with chicken mesh in the US side of the anicut\n\nConstruction of 1.0m high 1:3:6 (40mm","Amount (Rs.)":"3,250,500","photopath":"https://raw.githubusercontent.com/MWS003-GIS/MWS003-GIS.github.io/main/IWWRMP/Data/EXD/200_photo/MWS_046/Weliulla Uda Ela Canal Location 1.jpg"},"geometry":{"type":"Point","coordinates":[80.942874,6.957072]}}
]}