{"type":"FeatureCollection","name":"WP","crs":{"type":"name","properties":{"name":"urn:ogc:def:crs:OGC:1.3:CRS84"}},"features":[
{"type":"Feature","properties":{"No.":1,"GND No.":"39C","GN Division":"Pitiyakumbura","Non-point sources of pollution":"Potential to add human waste - Saralapathana","N":6.9721668,"E":80.9564433,"Point sources of pollution":"-","Add. N ":"-","Add. E ":"-","Recommended water quality improvement measures":"-","Unit Cost (Rs.)":"-","Total Cost (Rs.)":"-","Contributions (Local Community, LA, Project)":"-","Time frame for the implementation":"-","photopath":"Not_Available"},"geometry":{"type":"Point","coordinates":[80.9564433,6.9721668]}},
{"type":"Feature","properties":{"No.":2,"GND No.":"39C","GN Division":"Pitiyakumbura","Non-point sources of pollution":"Informal disposal of houshold wastes/garbage including plastic bottles, polythene etc.","N":6.9721668,"E":80.9564433,"Point sources of pollution":"-","Add. N ":"-","Add. E ":"-","Recommended water quality improvement measures":"Preparing a separate place in homegardens for disposing houshold waste/Awareness programme on how to disposal household waste properly and converting them to usable products such as compost/Facilitating garbage collection","Unit Cost (Rs.)":"-","Total Cost (Rs.)":"50,000.00","Contributions (Local Community, LA, Project)":"Local/Central governments","Time frame for the implementation":"0.5 Years","photopath":"Not_Available"},"geometry":{"type":"Point","coordinates":[80.9564433,6.9721668]}},
{"type":"Feature","properties":{"No.":4,"GND No.":"40A","GN Division":"Panagoda","Non-point sources of pollution":"Potential to add human waste - Bulathwatta (Panagoda GND)","N":6.9754458,"E":80.9700919,"Point sources of pollution":"-","Add. N ":"-","Add. E ":"-","Recommended water quality improvement measures":"-","Unit Cost (Rs.)":"-","Total Cost (Rs.)":"-","Contributions (Local Community, LA, Project)":"-","Time frame for the implementation":"-","photopath":"Not_Available"},"geometry":{"type":"Point","coordinates":[80.9700919,6.9754458]}},
{"type":"Feature","properties":{"No.":5,"GND No.":"40A","GN Division":"Panagoda","Non-point sources of pollution":"Informal disposal of houshold wastes/garbage including plastic bottles, polythene etc.","N":6.9754458,"E":80.9700919,"Point sources of pollution":"-","Add. N ":"-","Add. E ":"-","Recommended water quality improvement measures":"Preparing a separate place in homegardens for disposing houshold waste/Awareness programme on how to disposal household waste properly and converting them to usable products such as compost/Facilitating garbage collection","Unit Cost (Rs.)":"-","Total Cost (Rs.)":"50,000.00","Contributions (Local Community, LA, Project)":"Local/Central governments","Time frame for the implementation":"0.5 Years","photopath":"Not_Available"},"geometry":{"type":"Point","coordinates":[80.9700919,6.9754458]}},
{"type":"Feature","properties":{"No.":7,"GND No.":"41D","GN Division":"Rahupola","Non-point sources of pollution":"Informal disposal of houshold wastes/garbage including plastic bottles, polythene etc.","N":6.9625268,"E":80.9521103,"Point sources of pollution":"-","Add. N ":"-","Add. E ":"-","Recommended water quality improvement measures":"Preparing a separate place in homegardens for disposing houshold waste/Awareness programme on how to disposal household waste properly and converting them to usable products such as compost/Facilitating garbage collection","Unit Cost (Rs.)":"-","Total Cost (Rs.)":"50,000.00","Contributions (Local Community, LA, Project)":"Local/Central governments","Time frame for the implementation":"0.5 Years","photopath":"Not_Available"},"geometry":{"type":"Point","coordinates":[80.9521103,6.9625268]}},
{"type":"Feature","properties":{"No.":9,"GND No.":"53B","GN Division":"Ulugala","Non-point sources of pollution":"Potential to add human waste - Ketapitiya Watta","N":6.9273164,"E":80.9450014,"Point sources of pollution":"-","Add. N ":"-","Add. E ":"-","Recommended water quality improvement measures":"-","Unit Cost (Rs.)":"-","Total Cost (Rs.)":"-","Contributions (Local Community, LA, Project)":"-","Time frame for the implementation":"-","photopath":"Not_Available"},"geometry":{"type":"Point","coordinates":[80.9450014,6.9273164]}},
{"type":"Feature","properties":{"No.":10,"GND No.":"53B","GN Division":"Ulugala","Non-point sources of pollution":"Informal disposal of houshold wastes/garbage including plastic bottles, polythene etc.","N":6.9273164,"E":80.9450014,"Point sources of pollution":"-","Add. N ":"-","Add. E ":"-","Recommended water quality improvement measures":"Preparing a separate place in homegardens for disposing houshold waste/Awareness programme on how to disposal household waste properly and converting them to usable products such as compost/Facilitating garbage collection","Unit Cost (Rs.)":"-","Total Cost (Rs.)":"50,000.00","Contributions (Local Community, LA, Project)":"Local/Central governments","Time frame for the implementation":"0.5 Years","photopath":"Not_Available"},"geometry":{"type":"Point","coordinates":[80.9450014,6.9273164]}},
{"type":"Feature","properties":{"No.":11,"GND No.":"53C","GN Division":"Yahala Arawa","Non-point sources of pollution":"Informal disposal of houshold wastes/garbage including plastic bottles, polythene etc.","N":6.9335839,"E":80.9356159,"Point sources of pollution":"-","Add. N ":"-","Add. E ":"-","Recommended water quality improvement measures":"Preparing a separate place in homegardens for disposing houshold waste/Awareness programme on how to disposal household waste properly and converting them to usable products such as compost/Facilitating garbage collection","Unit Cost (Rs.)":"-","Total Cost (Rs.)":"50,000.00","Contributions (Local Community, LA, Project)":"Local/Central governments","Time frame for the implementation":"0.5 Years","photopath":"Not_Available"},"geometry":{"type":"Point","coordinates":[80.9356159,6.9335839]}},
{"type":"Feature","properties":{"No.":12,"GND No.":"54","GN Division":"Udaperuwa","Non-point sources of pollution":"Informal disposal of houshold wastes/garbage including plastic bottles, polythene etc.","N":6.9523462,"E":80.9543783,"Point sources of pollution":"-","Add. N ":"-","Add. E ":"-","Recommended water quality improvement measures":"Preparing a separate place in homegardens for disposing houshold waste/Awareness programme on how to disposal household waste properly and converting them to usable products such as compost/Facilitating garbage collection","Unit Cost (Rs.)":"-","Total Cost (Rs.)":"50,000.00","Contributions (Local Community, LA, Project)":"Local/Central governments","Time frame for the implementation":"0.5 Years","photopath":"Not_Available"},"geometry":{"type":"Point","coordinates":[80.9543783,6.9523462]}},
{"type":"Feature","properties":{"No.":13,"GND No.":"54A","GN Division":"Weliulla","Non-point sources of pollution":"Informal disposal of houshold wastes/garbage including plastic bottles, polythene etc.","N":6.9543276,"E":80.943243,"Point sources of pollution":"-","Add. N ":"-","Add. E ":"-","Recommended water quality improvement measures":"Preparing a separate place in homegardens for disposing houshold waste/Awareness programme on how to disposal household waste properly and converting them to usable products such as compost/Facilitating garbage collection","Unit Cost (Rs.)":"-","Total Cost (Rs.)":"50,000.00","Contributions (Local Community, LA, Project)":"Local/Central governments","Time frame for the implementation":"0.5 Years","photopath":"Not_Available"},"geometry":{"type":"Point","coordinates":[80.943243,6.9543276]}}
]}