{"type":"FeatureCollection","name":"MI","crs":{"type":"name","properties":{"name":"urn:ogc:def:crs:OGC:1.3:CRS84"}},"features":[
{"type":"Feature","properties":{"No":1,"GND No.":"496 A","Scheme":"Kanitiye Ela","N":7.17514,"E":80.766582,"Observation":"Seepages towards the field side. (L- 30m)","Description":"1. Concrete lining of the canal\n2. Earth filling the reservation\n3. Vegetative cover and tree planting ","Amount (Rs.)":"88,000.00","photopath":"https://raw.githubusercontent.com/MWS003-GIS/MWS003-GIS.github.io/main/IWWRMP/Data/EXD/200_photo/MWS_012/ab3.jpg"},"geometry":{"type":"Point","coordinates":[80.766582,7.17514]}},
{"type":"Feature","properties":{"No":2,"GND No.":"496 A","Scheme":"Yatahalgama anicut","N":7.175849,"E":80.766296,"Observation":"Currently distributing water by constructing a temporary anicut.","Description":"1. Construct a new anicut with anicut planks\n2. Construct a sluice\n3. Vegetative cover and tree planting ","Amount (Rs.)":"436,700.00","photopath":"https://raw.githubusercontent.com/MWS003-GIS/MWS003-GIS.github.io/main/IWWRMP/Data/EXD/200_photo/MWS_012/ab4.jpg"},"geometry":{"type":"Point","coordinates":[80.766296,7.175849]}},
{"type":"Feature","properties":{"No":3,"GND No.":"496 A","Scheme":"Yatahalgama canal","N":7.175895,"E":80.765512,"Observation":"Seepages towards the field side.","Description":"1. Concrete lining of the canal\n2. Earth filling the reservation\n3. Vegetative cover and tree planting ","Amount (Rs.)":"211,900.00","photopath":"https://raw.githubusercontent.com/MWS003-GIS/MWS003-GIS.github.io/main/IWWRMP/Data/EXD/200_photo/MWS_012/ab5.jpg"},"geometry":{"type":"Point","coordinates":[80.765512,7.175895]}},
{"type":"Feature","properties":{"No":4,"GND No.":"496 A","Scheme":"Aththanameya canal","N":7.178909,"E":80.766521,"Observation":"A part of canal is not concrete lined.","Description":"1. Concrete lining of the canal\n2. Earth filling the reservation\n3. Vegetative cover and tree planting ","Amount (Rs.)":"582,300.00","photopath":"https://raw.githubusercontent.com/MWS003-GIS/MWS003-GIS.github.io/main/IWWRMP/Data/EXD/200_photo/MWS_012/ab6.jpg"},"geometry":{"type":"Point","coordinates":[80.766521,7.178909]}},
{"type":"Feature","properties":{"No":5,"GND No.":"496 A","Scheme":"Aththanameya canal","N":7.178909,"E":80.766521,"Observation":"Seepages towards the field side.","Description":"1. Concrete lining of the canal\n2. Earth filling the reservation\n3. Vegetative cover and tree planting ","Amount (Rs.)":"441,300.00","photopath":"https://raw.githubusercontent.com/MWS003-GIS/MWS003-GIS.github.io/main/IWWRMP/Data/EXD/200_photo/MWS_012/ab7.jpg"},"geometry":{"type":"Point","coordinates":[80.766521,7.178909]}},
{"type":"Feature","properties":{"No":6,"GND No.":"496 B","Scheme":"Mithel Arawe Ela","N":7.178642,"E":80.767304,"Observation":"Seepages towards the field side.","Description":"1. Concrete lining of the canal\n2. Earth filling the reservation\n3. Vegetative cover and tree planting ","Amount (Rs.)":"499,400.00","photopath":"https://raw.githubusercontent.com/MWS003-GIS/MWS003-GIS.github.io/main/IWWRMP/Data/EXD/200_photo/MWS_012/A (04)1.jpg"},"geometry":{"type":"Point","coordinates":[80.767304,7.178642]}},
{"type":"Feature","properties":{"No":7,"GND No.":"496 B","Scheme":"Viharawala Ela","N":7.176625,"E":80.769499,"Observation":"Seepages from a part of the canal's side wall. (L- 7m)","Description":"1. Concrete lining of the canal\n2. Vegetative cover and tree planting ","Amount (Rs.)":"48,200.00","photopath":"https://raw.githubusercontent.com/MWS003-GIS/MWS003-GIS.github.io/main/IWWRMP/Data/EXD/200_photo/MWS_012/A (04)2.jpg"},"geometry":{"type":"Point","coordinates":[80.769499,7.176625]}},
{"type":"Feature","properties":{"No":8,"GND No.":"496 B","Scheme":"Polgaharawa Ela","N":7.178317,"E":80.769454,"Observation":"Water cannot be conveyed from spring to the canal.","Description":"1. Construct a canal over crossing\n2. Concrete lining of the canal\n3. Vegetative cover establishment ","Amount (Rs.)":"224,400.00","photopath":"https://raw.githubusercontent.com/MWS003-GIS/MWS003-GIS.github.io/main/IWWRMP/Data/EXD/200_photo/MWS_012/A (04)3.jpg "},"geometry":{"type":"Point","coordinates":[80.769454,7.178317]}},
{"type":"Feature","properties":{"No":9,"GND No.":"496 B","Scheme":"Thiththa Pannala Ela","N":7.17838,"E":80.767989,"Observation":"Seepages towards the field side.","Description":"1. Concrete lining of the canal\n2. Earth filling the reservation\n3. Vegetative cover and tree planting ","Amount (Rs.)":"157,900.00","photopath":"https://raw.githubusercontent.com/MWS003-GIS/MWS003-GIS.github.io/main/IWWRMP/Data/EXD/200_photo/MWS_012/A (04)4.jpg"},"geometry":{"type":"Point","coordinates":[80.767989,7.17838]}},
{"type":"Feature","properties":{"No":10,"GND No.":"496 C","Scheme":"Uduwe Ela","N":7.18508,"E":80.757302,"Observation":"Seepages towards the field side and overflow from the canal because absence of a bank.","Description":"1. Concrete lining of the canal\n2. Earth filling the reservation\n3. Vegetative cover and tree planting ","Amount (Rs.)":"899,100.00","photopath":"https://raw.githubusercontent.com/MWS003-GIS/MWS003-GIS.github.io/main/IWWRMP/Data/EXD/200_photo/MWS_012/DP (04)1.jpg"},"geometry":{"type":"Point","coordinates":[80.757302,7.18508]}},
{"type":"Feature","properties":{"No":11,"GND No.":"496 C","Scheme":"Malana canal","N":7.175988,"E":80.761213,"Observation":"Seepages towards the field side.\nWater overflows from the canal because the absence of the side walls.","Description":"1. Concrete lining of the canal\n2. Earth filling the reservation\n3. Vegetative cover and tree planting ","Amount (Rs.)":"346,700.00","photopath":"https://raw.githubusercontent.com/MWS003-GIS/MWS003-GIS.github.io/main/IWWRMP/Data/EXD/200_photo/MWS_012/DP (04)4.jpg"},"geometry":{"type":"Point","coordinates":[80.761213,7.175988]}},
{"type":"Feature","properties":{"No":12,"GND No.":"496 C","Scheme":"Heenatimulla canal","N":7.175251,"E":80.759483,"Observation":"Seepages towards the field side and overflow from the canal.","Description":"1. Concrete lining of the canal\n2. Earth filling the reservation\n3. Vegetative cover and tree planting ","Amount (Rs.)":"325,900.00","photopath":"https://raw.githubusercontent.com/MWS003-GIS/MWS003-GIS.github.io/main/IWWRMP/Data/EXD/200_photo/MWS_012/DP (04)5.jpg"},"geometry":{"type":"Point","coordinates":[80.759483,7.175251]}},
{"type":"Feature","properties":{"No":13,"GND No.":"496 C","Scheme":"Kajugas Kella Ela","N":7.178919,"E":80.757196,"Observation":"The canal is not in proper condition to distribute water.\n51% of the total land area is cultivated, but only in one season.","Description":"1. Concrete lining of the canal\n2. Earth filling the reservation\n3. Vegetative cover and tree planting ","Amount (Rs.)":"448,250.00","photopath":"https://raw.githubusercontent.com/MWS003-GIS/MWS003-GIS.github.io/main/IWWRMP/Data/EXD/200_photo/MWS_012/DP (04)6.jpg"},"geometry":{"type":"Point","coordinates":[80.757196,7.178919]}},
{"type":"Feature","properties":{"No":14,"GND No.":"494","Scheme":"Madawela canal","N":7.168989,"E":80.776328,"Observation":"Seepages towards the field side.","Description":"1. Concrete lining of the canal\n2. Earth filling the reservation\n3. Vegetative cover and tree planting ","Amount (Rs.)":"440,700.00","photopath":"https://raw.githubusercontent.com/MWS003-GIS/MWS003-GIS.github.io/main/IWWRMP/Data/EXD/200_photo/MWS_012/Dy4.jpg"},"geometry":{"type":"Point","coordinates":[80.776328,7.168989]}},
{"type":"Feature","properties":{"No":15,"GND No.":"494 E","Scheme":"Gedara Kubura canal","N":7.173422,"E":80.775183,"Observation":"Seepages from a concrete lined part of the canal.\nSeepages towards the field side.","Description":"1. Concrete lining of the canal\n2. Earth filling the reservation\n3. Vegetative cover and tree planting ","Amount (Rs.)":"117,600.00","photopath":"https://raw.githubusercontent.com/MWS003-GIS/MWS003-GIS.github.io/main/IWWRMP/Data/EXD/200_photo/MWS_012/DU (04)1.jpg"},"geometry":{"type":"Point","coordinates":[80.775183,7.173422]}},
{"type":"Feature","properties":{"No":16,"GND No.":"494 E","Scheme":"Gedara Kubura canal","N":7.17417,"E":80.774036,"Observation":"Seepages from the concrete side wall of the canal. (L- 20m)","Description":"1. Concrete lining of the canal\n2. Earth filling the reservation.\n3. Vegetative cover and tree planting ","Amount (Rs.)":"63,200.00","photopath":"https://raw.githubusercontent.com/MWS003-GIS/MWS003-GIS.github.io/main/IWWRMP/Data/EXD/200_photo/MWS_012/DU (04)3a.jpg"},"geometry":{"type":"Point","coordinates":[80.774036,7.17417]}},
{"type":"Feature","properties":{"No":17,"GND No.":"494 E","Scheme":"Gedara Kubura canal","N":7.175489,"E":80.77245,"Observation":"A part of canal is not concrete lined. (L- 100m)?","Description":"1. Canal reservation protection by concrete lining.\n2. Earth filling the reservation\n3. Vegetative cover and tree planting ","Amount (Rs.)":"293,500.00","photopath":"https://raw.githubusercontent.com/MWS003-GIS/MWS003-GIS.github.io/main/IWWRMP/Data/EXD/200_photo/MWS_012/DU (04)4.jpg"},"geometry":{"type":"Point","coordinates":[80.77245,7.175489]}},
{"type":"Feature","properties":{"No":18,"GND No.":"494 E","Scheme":"Neelawathura Meda Ela","N":7.178791,"E":80.772804,"Observation":"Seepages towards the field side.","Description":"1. Canal reservation protection by concrete lining.\n2. Earth filling the reservation\n3. Vegetative cover and tree planting ","Amount (Rs.)":"158,000.00","photopath":"https://raw.githubusercontent.com/MWS003-GIS/MWS003-GIS.github.io/main/IWWRMP/Data/EXD/200_photo/MWS_012/DU (04)5.jpg"},"geometry":{"type":"Point","coordinates":[80.772804,7.178791]}},
{"type":"Feature","properties":{"No":19,"GND No.":"494 E","Scheme":"Neelawathura canal","N":7.177897,"E":80.773304,"Observation":"Seepages from several places in the canal.","Description":"1. Concrete curtain wall to arrest leaking","Amount (Rs.)":"121,200.00","photopath":"https://raw.githubusercontent.com/MWS003-GIS/MWS003-GIS.github.io/main/IWWRMP/Data/EXD/200_photo/MWS_012/DU (04)6.jpg"},"geometry":{"type":"Point","coordinates":[80.773304,7.177897]}},
{"type":"Feature","properties":{"No":21,"GND No.":"495 D","Scheme":"Liyan Oluwa Ela","N":7.18271,"E":80.773819,"Observation":"A part of canal is not concrete lined.","Description":"1. Canal reservation protection by concrete lining.\n2. Earth filling the reservation\n3. Vegetative cover and tree planting ","Amount (Rs.)":"453,600.00","photopath":"https://raw.githubusercontent.com/MWS003-GIS/MWS003-GIS.github.io/main/IWWRMP/Data/EXD/200_photo/MWS_012/d1.jpg"},"geometry":{"type":"Point","coordinates":[80.773819,7.18271]}},
{"type":"Feature","properties":{"No":22,"GND No.":"495 D","Scheme":"Pallerawa Udu Ela","N":7.185517,"E":80.772622,"Observation":"Seepages towards the field side and silting of the canal.","Description":"1. Canal reservation protection by concrete lining.\n2. Earth filling the reservation and desilting\n3. Vegetative cover and tree planting ","Amount (Rs.)":"212,000.00","photopath":"https://raw.githubusercontent.com/MWS003-GIS/MWS003-GIS.github.io/main/IWWRMP/Data/EXD/200_photo/MWS_012/d2.jpg"},"geometry":{"type":"Point","coordinates":[80.772622,7.185517]}},
{"type":"Feature","properties":{"No":23,"GND No.":"494 D","Scheme":"Ma Ela","N":7.172949,"E":80.770413,"Observation":"A part of canal is not concrete lined. (L- 400m)","Description":"1. Canal reservation protection by concrete lining.\n2. Earth filling the reservation\n3. Vegetative cover and tree planting ","Amount (Rs.)":"1,115,800.00","photopath":"https://raw.githubusercontent.com/MWS003-GIS/MWS003-GIS.github.io/main/IWWRMP/Data/EXD/200_photo/MWS_012/Dw9.jpg"},"geometry":{"type":"Point","coordinates":[80.770413,7.172949]}},
{"type":"Feature","properties":{"No":24,"GND No.":"494 D","Scheme":"Panaliyadda canal","N":7.174625,"E":80.770797,"Observation":"Seepages towards the field side.","Description":"1. Canal reservation protection by concrete lining.\n2. Earth filling the reservation\n3. Vegetative cover and tree planting ","Amount (Rs.)":"567,000.00","photopath":"https://raw.githubusercontent.com/MWS003-GIS/MWS003-GIS.github.io/main/IWWRMP/Data/EXD/200_photo/MWS_012/Dw10.jpg"},"geometry":{"type":"Point","coordinates":[80.770797,7.174625]}},
{"type":"Feature","properties":{"No":25,"GND No.":"492","Scheme":"Bataketiya canal","N":7.159743,"E":80.790455,"Observation":"Seepages towards the field side.","Description":"1. Canal reservation protection by concrete lining.\n2. Earth filling the reservation           \n3. Vegetative cover and tree planting ","Amount (Rs.)":"295,600.00","photopath":"https://raw.githubusercontent.com/MWS003-GIS/MWS003-GIS.github.io/main/IWWRMP/Data/EXD/200_photo/MWS_012/DU (04)1a.jpg"},"geometry":{"type":"Point","coordinates":[80.790455,7.159743]}},
{"type":"Feature","properties":{"No":26,"GND No.":"492","Scheme":"Aluthenna canal","N":7.15769,"E":80.794127,"Observation":"The canal is insufficient to distribute water.","Description":"1. Canal reservation protection by concrete lining.\n2. Earth filling the reservation\n3. Vegetative cover and tree planting ","Amount (Rs.)":"291,100.00","photopath":"https://raw.githubusercontent.com/MWS003-GIS/MWS003-GIS.github.io/main/IWWRMP/Data/EXD/200_photo/MWS_012/DU (04)4a.jpg"},"geometry":{"type":"Point","coordinates":[80.794127,7.15769]}},
{"type":"Feature","properties":{"No":27,"GND No.":"492","Scheme":"Galagawa Waththa canal","N":7.156901,"E":80.795383,"Observation":"A part of canal is not concrete lined.","Description":"1. Canal reservation protection by concrete lining.\n2. Earth filling the reservation\n3. Vegetative cover and tree planting ","Amount (Rs.)":"212,000.00","photopath":"https://raw.githubusercontent.com/MWS003-GIS/MWS003-GIS.github.io/main/IWWRMP/Data/EXD/200_photo/MWS_012/DU (04)5a.jpg"},"geometry":{"type":"Point","coordinates":[80.795383,7.156901]}},
{"type":"Feature","properties":{"No":28,"GND No.":"492","Scheme":"Hinnarawa canal","N":7.159397,"E":80.783084,"Observation":"The canal needs to be concrete lined with drainage crossings.","Description":"1. Canal reservation protection by concrete lining.\n2. Construction of canal over crossings\n3. Earth filling the reservation\n4. Vegetative cover and tree planting ","Amount (Rs.)":"637,800.00","photopath":"https://raw.githubusercontent.com/MWS003-GIS/MWS003-GIS.github.io/main/IWWRMP/Data/EXD/200_photo/MWS_012/DU (04)6a.jpg"},"geometry":{"type":"Point","coordinates":[80.783084,7.159397]}},
{"type":"Feature","properties":{"No":29,"GND No.":"492","Scheme":"Ma Ela","N":7.15769,"E":80.783519,"Observation":"Water overflows from the canal.","Description":"1. Canal reservation protection by concrete lining.\n2. Earth filling the reservation\n3. Vegetative cover and tree planting ","Amount (Rs.)":"314,100.00","photopath":"https://raw.githubusercontent.com/MWS003-GIS/MWS003-GIS.github.io/main/IWWRMP/Data/EXD/200_photo/MWS_012/DU (04)7.jpg"},"geometry":{"type":"Point","coordinates":[80.783519,7.15769]}},
{"type":"Feature","properties":{"No":30,"GND No.":"492","Scheme":"Pol Ambagaha Ela","N":7.160162,"E":80.783376,"Observation":"The canal is silted and unable to distribute water to the fields.","Description":"1. Desilting of the canal,\n2. Construction of drainage under crossing\n3. Construction of canal over crossing.\n4. Concrete lining of canal\n5. Canal reservation protection by earth filling.\n6. Vegetative cover and tree planting","Amount (Rs.)":"571,800.00","photopath":"https://raw.githubusercontent.com/MWS003-GIS/MWS003-GIS.github.io/main/IWWRMP/Data/EXD/200_photo/MWS_012/DU (04)8.jpg"},"geometry":{"type":"Point","coordinates":[80.783376,7.160162]}},
{"type":"Feature","properties":{"No":31,"GND No.":"492 B","Scheme":"Gorakadanda Pahala Canal","N":7.151744,"E":80.790178,"Observation":"Seepages towards the field side.","Description":"1. Canal reservation protection by concrete lining.\n2. Earth filling the reservation\n3. Vegetative cover and tree planting ","Amount (Rs.)":"158,000.00","photopath":"https://raw.githubusercontent.com/MWS003-GIS/MWS003-GIS.github.io/main/IWWRMP/Data/EXD/200_photo/MWS_012/DK (04)2.jpg"},"geometry":{"type":"Point","coordinates":[80.790178,7.151744]}},
{"type":"Feature","properties":{"No":32,"GND No.":"492 B","Scheme":"Kirimetta Pahala Ela","N":7.151735,"E":80.787976,"Observation":"Erosion at field side. (L- 200m)","Description":"1. Canal reservation protection by concrete lining.\n2. Earth filling the reservation\n3. Vegetative cover and tree planting ","Amount (Rs.)":"258,800.00","photopath":"https://raw.githubusercontent.com/MWS003-GIS/MWS003-GIS.github.io/main/IWWRMP/Data/EXD/200_photo/MWS_012/DK (04)3.jpg"},"geometry":{"type":"Point","coordinates":[80.787976,7.151735]}},
{"type":"Feature","properties":{"No":33,"GND No.":"492 B","Scheme":"Daranu Panuwa canal","N":7.153856,"E":80.788111,"Observation":"Seepages towards the field side.","Description":"1. Canal reservation protection by concrete lining.\n2. Earth filling the reservation\n3. Vegetative cover and tree planting ","Amount (Rs.)":"315,900.00","photopath":"https://raw.githubusercontent.com/MWS003-GIS/MWS003-GIS.github.io/main/IWWRMP/Data/EXD/200_photo/MWS_012/DK (04)5.jpg"},"geometry":{"type":"Point","coordinates":[80.788111,7.153856]}},
{"type":"Feature","properties":{"No":34,"GND No.":"492 B","Scheme":"Meda Panguwa canal","N":7.154313,"E":80.788219,"Observation":"Seepages towards the field side.","Description":"1. Canal reservation protection by concrete lining.\n2. Earth filling the reservation\n3. Vegetative cover and tree planting ","Amount (Rs.)":"158,000.00","photopath":"https://raw.githubusercontent.com/MWS003-GIS/MWS003-GIS.github.io/main/IWWRMP/Data/EXD/200_photo/MWS_012/DK (04)6.jpg"},"geometry":{"type":"Point","coordinates":[80.788219,7.154313]}},
{"type":"Feature","properties":{"No":35,"GND No.":"492 B","Scheme":"Uggal Arawa canal","N":7.155161,"E":80.787334,"Observation":"Seepages towards the field side.","Description":"1. Canal reservation protection by concrete lining.\n2. Earth filling the reservation\n3. Vegetative cover and tree planting ","Amount (Rs.)":"315,900.00","photopath":"https://raw.githubusercontent.com/MWS003-GIS/MWS003-GIS.github.io/main/IWWRMP/Data/EXD/200_photo/MWS_012/DK (04)7.jpg"},"geometry":{"type":"Point","coordinates":[80.787334,7.155161]}},
{"type":"Feature","properties":{"No":36,"GND No.":"492 B","Scheme":"Ampitigala Pahala canal","N":7.15706,"E":80.788566,"Observation":"The canal is insufficient to distribute water.","Description":"1. Earth filling the reservation\n2. Vegetative cover and tree planting ","Amount (Rs.)":"45,900.00","photopath":"https://raw.githubusercontent.com/MWS003-GIS/MWS003-GIS.github.io/main/IWWRMP/Data/EXD/200_photo/MWS_012/DK (04)11.jpg"},"geometry":{"type":"Point","coordinates":[80.788566,7.15706]}},
{"type":"Feature","properties":{"No":37,"GND No.":"492 B","Scheme":"Sellajja Kubura Pahala Ela","N":7.156074,"E":80.790356,"Observation":"Seepages towards the field side.","Description":"1. Canal reservation protection by concrete lining.\n2. Earth filling the reservation\n3. Vegetative cover and tree planting ","Amount (Rs.)":"198,700.00","photopath":"https://raw.githubusercontent.com/MWS003-GIS/MWS003-GIS.github.io/main/IWWRMP/Data/EXD/200_photo/MWS_012/DK (04)12.jpg"},"geometry":{"type":"Point","coordinates":[80.790356,7.156074]}},
{"type":"Feature","properties":{"No":38,"GND No.":"492 B","Scheme":"Weralugahapitiya canal","N":7.156024,"E":80.79138,"Observation":"Seepages towards the field side.","Description":"1. Canal reservation protection by concrete lining.\n2. Earth filling the reservation\n3. Vegetative cover and tree planting ","Amount (Rs.)":"63,200.00","photopath":"https://raw.githubusercontent.com/MWS003-GIS/MWS003-GIS.github.io/main/IWWRMP/Data/EXD/200_photo/MWS_012/DK (04)13.jpg"},"geometry":{"type":"Point","coordinates":[80.79138,7.156024]}},
{"type":"Feature","properties":{"No":39,"GND No.":"494 A","Scheme":"Rathmetiya Ela","N":7.152838,"E":80.77689,"Observation":"Seepages towards the field side and the canal's volume is insufficient to distribute water.","Description":"1. Canal reservation protection by concrete lining.\n2. Earth filling the reservation\n3. Vegetative cover and tree planting ","Amount (Rs.)":"635,900.00","photopath":"Not_Available"},"geometry":{"type":"Point","coordinates":[80.77689,7.152838]}},
{"type":"Feature","properties":{"No":40,"GND No.":"495","Scheme":"Newandeniya Pita Ela","N":7.176716,"E":80.775165,"Observation":"Seepages towards the field side.\nUnable to connect with the main canal.","Description":"1. Canal reservation protection by concrete lining.\n2. Earth filling the reservation\n3. Vegetative cover and tree planting ","Amount (Rs.)":"212,000.00","photopath":"https://raw.githubusercontent.com/MWS003-GIS/MWS003-GIS.github.io/main/IWWRMP/Data/EXD/200_photo/MWS_012/Hk2.jpg"},"geometry":{"type":"Point","coordinates":[80.775165,7.176716]}},
{"type":"Feature","properties":{"No":41,"GND No.":"495","Scheme":"Walliwela canal","N":7.176306,"E":80.775435,"Observation":"Unable to distribute water from a part the canal. (L- 12m)","Description":"1. Canal reservation protection by concrete lining.\n2. Earth filling the reservation","Amount (Rs.)":"145,500.00","photopath":"https://raw.githubusercontent.com/MWS003-GIS/MWS003-GIS.github.io/main/IWWRMP/Data/EXD/200_photo/MWS_012/Hk3.jpg"},"geometry":{"type":"Point","coordinates":[80.775435,7.176306]}},
{"type":"Feature","properties":{"No":43,"GND No.":"495","Scheme":"Ethiliyawela canal","N":7.174391,"E":80.778918,"Observation":"The canal is not concrete lined.","Description":"1. Canal reservation protection by concrete lining.\n2. Earth filling the reservation\n3. Vegetative cover and tree planting ","Amount (Rs.)":"201,700.00","photopath":"https://raw.githubusercontent.com/MWS003-GIS/MWS003-GIS.github.io/main/IWWRMP/Data/EXD/200_photo/MWS_012/Hk10.jpg"},"geometry":{"type":"Point","coordinates":[80.778918,7.174391]}},
{"type":"Feature","properties":{"No":44,"GND No.":"495","Scheme":"Uyanwaththa canal","N":7.172487,"E":80.780544,"Observation":"The canal is not concrete lined.","Description":"1. Canal reservation protection by concrete lining.\n2. Earth filling the reservation\n3. Vegetative cover and tree planting ","Amount (Rs.)":"178,700.00","photopath":"https://raw.githubusercontent.com/MWS003-GIS/MWS003-GIS.github.io/main/IWWRMP/Data/EXD/200_photo/MWS_012/Hk12.jpg"},"geometry":{"type":"Point","coordinates":[80.780544,7.172487]}},
{"type":"Feature","properties":{"No":45,"GND No.":"495","Scheme":"Uyanwaththa Pita Ela","N":7.17328,"E":80.780611,"Observation":"The canal has blocked due to collapse of up stream side bank.","Description":"1. Construction of a retaining wall\n2. Earth filling the reservation\n3. Vegetative cover and tree planting","Amount (Rs.)":"254,600.00","photopath":"https://raw.githubusercontent.com/MWS003-GIS/MWS003-GIS.github.io/main/IWWRMP/Data/EXD/200_photo/MWS_012/Hk13.jpg"},"geometry":{"type":"Point","coordinates":[80.780611,7.17328]}},
{"type":"Feature","properties":{"No":46,"GND No.":"495","Scheme":"Wadanapaya Ela","N":7.17313,"E":80.780034,"Observation":"Seepages towards the field side.","Description":"1. Construction of a retaining wall\n2. Earth filling the reservation\n3. Vegetative cover and tree planting","Amount (Rs.)":"90,200.00","photopath":"https://raw.githubusercontent.com/MWS003-GIS/MWS003-GIS.github.io/main/IWWRMP/Data/EXD/200_photo/MWS_012/Hk14.jpg"},"geometry":{"type":"Point","coordinates":[80.780034,7.17313]}},
{"type":"Feature","properties":{"No":47,"GND No.":"493 A","Scheme":"Bathgala Rubber Gahamula Ela","N":7.164607,"E":80.782703,"Observation":"Absence of a canal. Cannot distribute water.","Description":"1. Construction of canal with machine\n2. Earth filling the reservation\n3. Vegetative cover and tree planting","Amount (Rs.)":"114,600.00","photopath":"https://raw.githubusercontent.com/MWS003-GIS/MWS003-GIS.github.io/main/IWWRMP/Data/EXD/200_photo/MWS_012/K (04)1.jpg"},"geometry":{"type":"Point","coordinates":[80.782703,7.164607]}},
{"type":"Feature","properties":{"No":48,"GND No.":"493 A","Scheme":"Canal from Bathgala main anicut to Heen Kadura","N":7.165759,"E":80.782906,"Observation":"Seepages towards the field side  and the side wall is dilapidated in field side.","Description":" 1. Construction of a curtain wall to prevent leaks.\n2. Earth filling the reservation\n3. Vegetative cover and tree planting","Amount (Rs.)":"498,300.00","photopath":"https://raw.githubusercontent.com/MWS003-GIS/MWS003-GIS.github.io/main/IWWRMP/Data/EXD/200_photo/MWS_012/K (04)2.jpg"},"geometry":{"type":"Point","coordinates":[80.782906,7.165759]}},
{"type":"Feature","properties":{"No":49,"GND No.":"493 A","Scheme":"Ma Ela","N":7.167063,"E":80.784751,"Observation":"Absence of a reservation at field side.","Description":"1. Stream / canal  reservation protection by earth filling.  \n2. Vegetative cover improving and tree planting. ","Amount (Rs.)":"458,900.00","photopath":"https://raw.githubusercontent.com/MWS003-GIS/MWS003-GIS.github.io/main/IWWRMP/Data/EXD/200_photo/MWS_012/K (04)5.jpg"},"geometry":{"type":"Point","coordinates":[80.784751,7.167063]}},
{"type":"Feature","properties":{"No":50,"GND No.":"493 A","Scheme":"Palleha Panguwa Field Canal","N":7.167569,"E":80.784278,"Observation":"Seepages towards the both sides from the canal. )","Description":"1. Canal reservation protection by concrete lining.\n2. Earth filling the reservation\n3. Vegetative cover and tree planting ","Amount (Rs.)":"293,000.00","photopath":"https://raw.githubusercontent.com/MWS003-GIS/MWS003-GIS.github.io/main/IWWRMP/Data/EXD/200_photo/MWS_012/K (04)7.jpg"},"geometry":{"type":"Point","coordinates":[80.784278,7.167569]}},
{"type":"Feature","properties":{"No":51,"GND No.":"493","Scheme":"Kurulu Mulla canal","N":7.163209,"E":80.78022,"Observation":"The canal is silted.","Description":"1. Canal reservation protection by concrete lining.\n2. Removing silt from canal bed\n2. Earth filling the reservation\n3. Vegetative cover and tree planting ","Amount (Rs.)":"113,500.00","photopath":"https://raw.githubusercontent.com/MWS003-GIS/MWS003-GIS.github.io/main/IWWRMP/Data/EXD/200_photo/MWS_012/M (04)1.jpg"},"geometry":{"type":"Point","coordinates":[80.78022,7.163209]}},
{"type":"Feature","properties":{"No":52,"GND No.":"495 C","Scheme":"Poodagoda canal","N":7.182045,"E":80.772507,"Observation":"The canal is not concrete lined.","Description":"1. Canal reservation protection by concrete lining.\n2. Earth filling the reservation\n3. Vegetative cover and tree planting ","Amount (Rs.)":"407,700.00","photopath":"https://raw.githubusercontent.com/MWS003-GIS/MWS003-GIS.github.io/main/IWWRMP/Data/EXD/200_photo/MWS_012/Pm4.jpg"},"geometry":{"type":"Point","coordinates":[80.772507,7.182045]}},
{"type":"Feature","properties":{"No":53,"GND No.":"495 C","Scheme":"Poodagoda Meda Ela","N":7.182266,"E":80.772228,"Observation":"Currently distributing water through pipes due to absence of a canal.","Description":"Construction of 0.3m Dia half round RCC pipe trough","Amount (Rs.)":"306,000.00","photopath":"https://raw.githubusercontent.com/MWS003-GIS/MWS003-GIS.github.io/main/IWWRMP/Data/EXD/200_photo/MWS_012/Pm5.jpg"},"geometry":{"type":"Point","coordinates":[80.772228,7.182266]}},
{"type":"Feature","properties":{"No":54,"GND No.":"495 C","Scheme":"Ambe Ela","N":7.18163,"E":80.77353,"Observation":"A part of canal is not concrete lined.","Description":"1. Canal reservation protection by concrete lining.\n2. Earth filling the reservation\n3. Vegetative cover and tree planting ","Amount (Rs.)":"497,300.00","photopath":"https://raw.githubusercontent.com/MWS003-GIS/MWS003-GIS.github.io/main/IWWRMP/Data/EXD/200_photo/MWS_012/Pm8.jpg"},"geometry":{"type":"Point","coordinates":[80.77353,7.18163]}},
{"type":"Feature","properties":{"No":55,"GND No.":"495 A","Scheme":"Kibulliyadda canal","N":7.18621,"E":80.76907,"Observation":"A part of canal is not concrete lined.","Description":"1. Canal reservation protection by concrete lining.\n2. Earth filling the reservation\n3. Vegetative cover and tree planting ","Amount (Rs.)":"293,000.00","photopath":"https://raw.githubusercontent.com/MWS003-GIS/MWS003-GIS.github.io/main/IWWRMP/Data/EXD/200_photo/MWS_012/p4.jpg"},"geometry":{"type":"Point","coordinates":[80.76907,7.18621]}},
{"type":"Feature","properties":{"No":56,"GND No.":"495 A","Scheme":"Gannila canal","N":7.18581,"E":80.768962,"Observation":"Unable to distribute water to the paddy fields from the canal.","Description":"1. Canal reservation protection by concrete lining.\n2. Earth filling the reservation\n3. Vegetative cover and tree planting ","Amount (Rs.)":"252,700.00","photopath":"https://raw.githubusercontent.com/MWS003-GIS/MWS003-GIS.github.io/main/IWWRMP/Data/EXD/200_photo/MWS_012/p5.jpg"},"geometry":{"type":"Point","coordinates":[80.768962,7.18581]}},
{"type":"Feature","properties":{"No":57,"GND No.":"495 A","Scheme":"Gannila canal","N":7.18623,"E":80.7684,"Observation":"A part of canal is not concrete lined.","Description":"1. Canal reservation protection by concrete lining.\n2. Vegetative cover and tree planting ","Amount (Rs.)":"148,600.00","photopath":"https://raw.githubusercontent.com/MWS003-GIS/MWS003-GIS.github.io/main/IWWRMP/Data/EXD/200_photo/MWS_012/p7.jpg"},"geometry":{"type":"Point","coordinates":[80.7684,7.18623]}},
{"type":"Feature","properties":{"No":58,"GND No.":"495 A","Scheme":"Agalakubura canal","N":7.190124,"E":80.763502,"Observation":"The canal need to be rehabilitated.","Description":"1. Canal reservation protection by concrete lining.\n2. Earth filling the reservation\n3. Vegetative cover and tree planting ","Amount (Rs.)":"361,800.00","photopath":"https://raw.githubusercontent.com/MWS003-GIS/MWS003-GIS.github.io/main/IWWRMP/Data/EXD/200_photo/MWS_012/p9.jpg"},"geometry":{"type":"Point","coordinates":[80.763502,7.190124]}},
{"type":"Feature","properties":{"No":59,"GND No.":"497 A","Scheme":"Canal from the main road to Oyarawa","N":7.174399,"E":80.75086,"Observation":"Unable to distribute water from a part the canal.","Description":"1. Canal reservation protection by concrete lining.\n2. Earth filling the reservation\n3. Vegetative cover and tree planting","Amount (Rs.)":"1,348,300.00","photopath":"https://raw.githubusercontent.com/MWS003-GIS/MWS003-GIS.github.io/main/IWWRMP/Data/EXD/200_photo/MWS_012/R3.jpg"},"geometry":{"type":"Point","coordinates":[80.75086,7.174399]}},
{"type":"Feature","properties":{"No":62,"GND No.":"497 A","Scheme":"Kade Kubura Ela","N":7.173411,"E":80.749274,"Observation":"The canal is silted.","Description":"1. Canal reservation protection by concrete lining.\n2. Desilting the canal\n3. Earth filling the reservation\n4. Vegetative cover and tree planting","Amount (Rs.)":"473,900.00","photopath":"https://raw.githubusercontent.com/MWS003-GIS/MWS003-GIS.github.io/main/IWWRMP/Data/EXD/200_photo/MWS_012/R6.jpg"},"geometry":{"type":"Point","coordinates":[80.749274,7.173411]}},
{"type":"Feature","properties":{"No":66,"GND No.":"497 A","Scheme":"Kola Pelessa sub field canal","N":7.170689,"E":80.749359,"Observation":"The canal is not concrete lined and  is also silted.","Description":"1. Canal reservation protection by concrete lining.\n2. Desilting the canal\n3. Earth filling the reservation\n4. Vegetative cover and tree planting","Amount (Rs.)":"1,348,300.00","photopath":"https://raw.githubusercontent.com/MWS003-GIS/MWS003-GIS.github.io/main/IWWRMP/Data/EXD/200_photo/MWS_012/R13.jpg"},"geometry":{"type":"Point","coordinates":[80.749359,7.170689]}},
{"type":"Feature","properties":{"No":70,"GND No.":"492 A","Scheme":"Naaya Ela","N":7.147777,"E":80.783382,"Observation":"Seepages towards the field side.","Description":"1. Canal reservation protection by concrete lining.\n2. Earth filling the reservation\n3. Vegetative cover and tree planting","Amount (Rs.)":"324,000.00","photopath":"https://raw.githubusercontent.com/MWS003-GIS/MWS003-GIS.github.io/main/IWWRMP/Data/EXD/200_photo/MWS_012/Rg2.jpg"},"geometry":{"type":"Point","coordinates":[80.783382,7.147777]}},
{"type":"Feature","properties":{"No":73,"GND No.":"492 A","Scheme":"Canal near the road of diyabubula","N":7.147324,"E":80.783533,"Observation":"Water cannot be distributed due to absence of a proper canal.","Description":"1. Canal reservation protection by concrete lining.\n2. Canal excavation\n3. Earth filling the reservation\n4. Vegetative cover and tree planting","Amount (Rs.)":"197,500.00","photopath":"https://raw.githubusercontent.com/MWS003-GIS/MWS003-GIS.github.io/main/IWWRMP/Data/EXD/200_photo/MWS_012/Rg5.jpg"},"geometry":{"type":"Point","coordinates":[80.783533,7.147324]}},
{"type":"Feature","properties":{"No":77,"GND No.":"492 A","Scheme":"Kumbukgaha Ela","N":7.14759,"E":80.784025,"Observation":"A part of canal is not in a proper condition to distribute water. (L- 200m)","Description":"1. Canal reservation protection by concrete lining.\n2. Earth filling the reservation\n3. Vegetative cover and tree planting ","Amount (Rs.)":"423,900.00","photopath":"https://raw.githubusercontent.com/MWS003-GIS/MWS003-GIS.github.io/main/IWWRMP/Data/EXD/200_photo/MWS_012/Rg4.jpg"},"geometry":{"type":"Point","coordinates":[80.784025,7.14759]}},
{"type":"Feature","properties":{"No":78,"GND No.":"492 A","Scheme":"Naaya Ela starting point","N":7.146658,"E":80.783861,"Observation":"Water cannot be distributed to the canal which is near the anicut .","Description":"1. Construction of  culvert / drainage under crossing.  \n2. Improvements to the existing anicut\n3. Vegetative cover with tree planting","Amount (Rs.)":"150,000.00","photopath":"https://raw.githubusercontent.com/MWS003-GIS/MWS003-GIS.github.io/main/IWWRMP/Data/EXD/200_photo/MWS_012/Rg9.jpg"},"geometry":{"type":"Point","coordinates":[80.783861,7.146658]}},
{"type":"Feature","properties":{"No":79,"GND No.":"492 A","Scheme":"Feed spring of diyabubula","N":7.147143,"E":80.784206,"Observation":"Absence of a reservation.","Description":"1. Mark reservation and establish vegetative cover with tree planting.","Amount (Rs.)":"402,000.00","photopath":"https://raw.githubusercontent.com/MWS003-GIS/MWS003-GIS.github.io/main/IWWRMP/Data/EXD/200_photo/MWS_012/Rg7.jpg"},"geometry":{"type":"Point","coordinates":[80.784206,7.147143]}},
{"type":"Feature","properties":{"No":80,"GND No.":"492 C","Scheme":"Ange canal","N":7.153922,"E":80.779947,"Observation":"Seepages towards the field side.","Description":"1. Canal reservation protection by concrete lining.\n2. Earth filling the reservation\n3. Vegetative cover and tree planting ","Amount (Rs.)":"423,900.00","photopath":"https://raw.githubusercontent.com/MWS003-GIS/MWS003-GIS.github.io/main/IWWRMP/Data/EXD/200_photo/MWS_012/Ww4.jpg"},"geometry":{"type":"Point","coordinates":[80.779947,7.153922]}},
{"type":"Feature","properties":{"No":81,"GND No.":"492 C","Scheme":"Iluk Arawa canal","N":7.156778,"E":80.77833,"Observation":"Seepages towards the field side.","Description":"1. Canal reservation protection by concrete lining.\n2. Earth filling the reservation\n3. Vegetative cover and tree planting ","Amount (Rs.)":"355,100.00","photopath":"https://raw.githubusercontent.com/MWS003-GIS/MWS003-GIS.github.io/main/IWWRMP/Data/EXD/200_photo/MWS_012/Ww5.jpg"},"geometry":{"type":"Point","coordinates":[80.77833,7.156778]}},
{"type":"Feature","properties":{"No":82,"GND No.":"492 C","Scheme":"Epalanaya canal","N":7.157413,"E":80.778518,"Observation":"A part of canal is not in a proper condition to distribute water.","Description":"1. Canal reservation protection by concrete lining.\n2. Earth filling the reservation\n3. Vegetative cover and tree planting ","Amount (Rs.)":"423,900.00","photopath":"https://raw.githubusercontent.com/MWS003-GIS/MWS003-GIS.github.io/main/IWWRMP/Data/EXD/200_photo/MWS_012/Ww6.jpg"},"geometry":{"type":"Point","coordinates":[80.778518,7.157413]}},
{"type":"Feature","properties":{"No":83,"GND No.":"492 C","Scheme":"Gammanarawa canal","N":7.157873,"E":80.779202,"Observation":"Seepages towards the field side  and soil erosion .","Description":"1. Canal reservation protection by concrete lining.\n2. Earth filling the reservation\n3. Vegetative cover and tree planting ","Amount (Rs.)":"667,000.00","photopath":"https://raw.githubusercontent.com/MWS003-GIS/MWS003-GIS.github.io/main/IWWRMP/Data/EXD/200_photo/MWS_012/Ww7.jpg"},"geometry":{"type":"Point","coordinates":[80.779202,7.157873]}},
{"type":"Feature","properties":{"No":84,"GND No.":"495 B","Scheme":"Wadalawela canal","N":7.188793,"E":80.762717,"Observation":"A part of canal is not concrete lined. (L- 300m)","Description":"1. Canal reservation protection by concrete lining.\n2. Earth filling the reservation\n3. Vegetative cover and tree planting ","Amount (Rs.)":"1,134,000.00","photopath":"https://raw.githubusercontent.com/MWS003-GIS/MWS003-GIS.github.io/main/IWWRMP/Data/EXD/200_photo/MWS_012/y2.jpg"},"geometry":{"type":"Point","coordinates":[80.762717,7.188793]}},
{"type":"Feature","properties":{"No":85,"GND No.":"495 B","Scheme":"Wadalawela canal","N":7.188346,"E":80.762324,"Observation":"Seepages towards the field side.","Description":"1. Canal reservation protection by concrete lining.\n2. Earth filling the reservation\n3. Vegetative cover and tree planting ","Amount (Rs.)":"310,500.00","photopath":"https://raw.githubusercontent.com/MWS003-GIS/MWS003-GIS.github.io/main/IWWRMP/Data/EXD/200_photo/MWS_012/y3.jpg"},"geometry":{"type":"Point","coordinates":[80.762324,7.188346]}},
{"type":"Feature","properties":{"No":86,"GND No.":"495 B","Scheme":"Wadalawela sub field canal","N":7.185606,"E":80.761048,"Observation":"Seepages towards the field side.","Description":"1. Canal reservation protection by concrete lining.\n2. Earth filling the reservation\n3. Vegetative cover and tree planting ","Amount (Rs.)":"148,800.00","photopath":"https://raw.githubusercontent.com/MWS003-GIS/MWS003-GIS.github.io/main/IWWRMP/Data/EXD/200_photo/MWS_012/y19.jpg"},"geometry":{"type":"Point","coordinates":[80.761048,7.185606]}},
{"type":"Feature","properties":{"No":87,"GND No.":"496 A","Scheme":"Kanitiye anicut","N":7.174195,"E":80.766896,"Observation":"Currently distributing water by constructing a temporary anicut.","Description":"1. Construction of 6.0m long x 0.9m high Anicut.\n2. Improving the vegetative cover","Amount (Rs.)":"310,300.00","photopath":"https://raw.githubusercontent.com/MWS003-GIS/MWS003-GIS.github.io/main/IWWRMP/Data/EXD/200_photo/MWS_012/Ab1.jpg"},"geometry":{"type":"Point","coordinates":[80.766896,7.174195]}},
{"type":"Feature","properties":{"No":88,"GND No.":"496 A","Scheme":"Aththanameya anicut","N":7.177713,"E":80.767113,"Observation":"Seepages from the anicut.","Description":"1. Construction of Curtain wall\n2. Improving vegetative cover","Amount (Rs.)":"94,000.00","photopath":"https://raw.githubusercontent.com/MWS003-GIS/MWS003-GIS.github.io/main/IWWRMP/Data/EXD/200_photo/MWS_012/ab8.jpg"},"geometry":{"type":"Point","coordinates":[80.767113,7.177713]}},
{"type":"Feature","properties":{"No":89,"GND No.":"496 C","Scheme":"Malana anicut","N":7.175941,"E":80.761233,"Observation":"The height of the anicut is insufficient, and there are no anicut gates.","Description":" 1. Construction of curtain wall\n2. Supplying and fixing anicut planks\n3. Improving vegetative cover","Amount (Rs.)":"130,000.00","photopath":"https://raw.githubusercontent.com/MWS003-GIS/MWS003-GIS.github.io/main/IWWRMP/Data/EXD/200_photo/MWS_012/DP (04)3.jpg"},"geometry":{"type":"Point","coordinates":[80.761233,7.175941]}},
{"type":"Feature","properties":{"No":90,"GND No.":"494","Scheme":"Madawela anicut","N":7.169086,"E":80.776263,"Observation":"Absence of an anicut. Unable to distribute water.","Description":"1. Construction of Anicut.\n2. Improving vegetative cover","Amount (Rs.)":"328,400.00","photopath":"https://raw.githubusercontent.com/MWS003-GIS/MWS003-GIS.github.io/main/IWWRMP/Data/EXD/200_photo/MWS_012/Dy5.jpg   "},"geometry":{"type":"Point","coordinates":[80.776263,7.169086]}},
{"type":"Feature","properties":{"No":91,"GND No.":"494","Scheme":"Gal Ketane anicut","N":7.16801,"E":80.776927,"Observation":"Absence of an anicut.","Description":"1. Construction of Anicut.\n2. Improving vegetative cover","Amount (Rs.)":"328,400.00","photopath":"https://raw.githubusercontent.com/MWS003-GIS/MWS003-GIS.github.io/main/IWWRMP/Data/EXD/200_photo/MWS_012/Dy7.jpg   "},"geometry":{"type":"Point","coordinates":[80.776927,7.16801]}},
{"type":"Feature","properties":{"No":92,"GND No.":"494 E","Scheme":"Gedara Kubura anicut","N":7.173196,"E":80.775296,"Observation":"The height of the anicut is insufficient.","Description":"1. Increasing the anicut height\n2. Improving vegetative cover","Amount (Rs.)":"142,400.00","photopath":"https://raw.githubusercontent.com/MWS003-GIS/MWS003-GIS.github.io/main/IWWRMP/Data/EXD/200_photo/MWS_012/DU (04)2.jpg"},"geometry":{"type":"Point","coordinates":[80.775296,7.173196]}},
{"type":"Feature","properties":{"No":93,"GND No.":"494 D","Scheme":"Walarawa anicut","N":7.171728,"E":80.769993,"Observation":"Absence of timber planks of anicut gates.","Description":"1. Supplying and fixing anicut planks\n2. Improving vegetative cover","Amount (Rs.)":"125,000.00","photopath":"https://raw.githubusercontent.com/MWS003-GIS/MWS003-GIS.github.io/main/IWWRMP/Data/EXD/200_photo/MWS_012/Dw2.jpg"},"geometry":{"type":"Point","coordinates":[80.769993,7.171728]}},
{"type":"Feature","properties":{"No":94,"GND No.":"494 D","Scheme":"Dehipe anicut","N":7.170245,"E":80.768403,"Observation":"Absence of an anicut. Unable to distribute water.","Description":"1. Construction of Anicut.\n2. Improving vegitative cover","Amount (Rs.)":"368,900.00","photopath":"https://raw.githubusercontent.com/MWS003-GIS/MWS003-GIS.github.io/main/IWWRMP/Data/EXD/200_photo/MWS_012/Dw6.jpg"},"geometry":{"type":"Point","coordinates":[80.768403,7.170245]}},
{"type":"Feature","properties":{"No":95,"GND No.":"494 D","Scheme":"Kadepe anicut","N":7.168665,"E":80.770759,"Observation":"Absence of an anicut. Distribute water trough a bamboo pipe.","Description":"1. Construction of Anicut.\n2. Improving vegitative cover","Amount (Rs.)":"256,900.00","photopath":"https://raw.githubusercontent.com/MWS003-GIS/MWS003-GIS.github.io/main/IWWRMP/Data/EXD/200_photo/MWS_012/Dw7.jpg"},"geometry":{"type":"Point","coordinates":[80.770759,7.168665]}},
{"type":"Feature","properties":{"No":96,"GND No.":"492","Scheme":"Bataketiya anicut","N":7.159743,"E":80.790455,"Observation":"Seepages from the anicut.","Description":" 1. Construction of curtain wall\n2. Supplying and fixing anicut planks\n3. Improving vegitative cover","Amount (Rs.)":"125,000.00","photopath":"https://raw.githubusercontent.com/MWS003-GIS/MWS003-GIS.github.io/main/IWWRMP/Data/EXD/200_photo/MWS_012/DU (04)2a.jpg"},"geometry":{"type":"Point","coordinates":[80.790455,7.159743]}},
{"type":"Feature","properties":{"No":97,"GND No.":"492 B","Scheme":"Gorakadanda Pahala anicut","N":7.151642,"E":80.790409,"Observation":"Absence of an anicut.","Description":"1. Construction of Anicut.\n2. Improving vegitative cover","Amount (Rs.)":"328,400.00","photopath":"https://raw.githubusercontent.com/MWS003-GIS/MWS003-GIS.github.io/main/IWWRMP/Data/EXD/200_photo/MWS_012/DK (04)1.jpg"},"geometry":{"type":"Point","coordinates":[80.790409,7.151642]}},
{"type":"Feature","properties":{"No":98,"GND No.":"492 B","Scheme":"Uggal Arawa anicut","N":7.155317,"E":80.7987506,"Observation":"Absence of an anicut.","Description":"1. Construction of Anicut.\n2. Improving vegitative cover","Amount (Rs.)":"328,400.00","photopath":"https://raw.githubusercontent.com/MWS003-GIS/MWS003-GIS.github.io/main/IWWRMP/Data/EXD/200_photo/MWS_012/DK (04)8.jpg"},"geometry":{"type":"Point","coordinates":[80.7987506,7.155317]}},
{"type":"Feature","properties":{"No":99,"GND No.":"492 B","Scheme":"Iluk Kotuwa anicut","N":7.155769,"E":80.788967,"Observation":"Absence of an anicut.","Description":"1. Construction of Rubble masonry wall.\n2. Plastering the wall.\n3. Improving vegitative cover","Amount (Rs.)":"115,600.00","photopath":"https://raw.githubusercontent.com/MWS003-GIS/MWS003-GIS.github.io/main/IWWRMP/Data/EXD/200_photo/MWS_012/DK (04)9.jpg"},"geometry":{"type":"Point","coordinates":[80.788967,7.155769]}},
{"type":"Feature","properties":{"No":100,"GND No.":"492 B","Scheme":"Ampitigala Pahala anicut","N":7.157066,"E":80.788578,"Observation":"Absence of an anicut.","Description":"1. Construction of Anicut.\n2. Improving vegitative cover","Amount (Rs.)":"328,400.00","photopath":"https://raw.githubusercontent.com/MWS003-GIS/MWS003-GIS.github.io/main/IWWRMP/Data/EXD/200_photo/MWS_012/DK (04)10.jpg"},"geometry":{"type":"Point","coordinates":[80.788578,7.157066]}},
{"type":"Feature","properties":{"No":101,"GND No.":"495","Scheme":"Uyanwaththa anicut","N":7.172487,"E":80.780544,"Observation":"Currently distributing water by constructing a temporary anicut.","Description":"1. Construction of Anicut.\n2. Improving vegitative cover","Amount (Rs.)":"330,400.00","photopath":"https://raw.githubusercontent.com/MWS003-GIS/MWS003-GIS.github.io/main/IWWRMP/Data/EXD/200_photo/MWS_012/Hk11.jpg"},"geometry":{"type":"Point","coordinates":[80.780544,7.172487]}},
{"type":"Feature","properties":{"No":102,"GND No.":"493 A","Scheme":"Bathgala Heen Kadura main anicut","N":7.167073,"E":80.783354,"Observation":"The anicut is dilapidated.","Description":"1. Construction of Anicut.\n2. Improving vegitative cover","Amount (Rs.)":"528,400.00","photopath":"https://raw.githubusercontent.com/MWS003-GIS/MWS003-GIS.github.io/main/IWWRMP/Data/EXD/200_photo/MWS_012/K (04)3.jpg"},"geometry":{"type":"Point","coordinates":[80.783354,7.167073]}},
{"type":"Feature","properties":{"No":103,"GND No.":"493 A","Scheme":"Kottala Maha Kadura irrigation anicut","N":7.166535,"E":80.785268,"Observation":"The anicut is dilapidated.","Description":"1. Construction of Anicut.\n2. Improving vegitative cover","Amount (Rs.)":"542,400.00","photopath":"https://raw.githubusercontent.com/MWS003-GIS/MWS003-GIS.github.io/main/IWWRMP/Data/EXD/200_photo/MWS_012/K (04)4.jpg"},"geometry":{"type":"Point","coordinates":[80.785268,7.166535]}},
{"type":"Feature","properties":{"No":104,"GND No.":"493","Scheme":"Arawe anicut 2","N":7.160342,"E":80.778476,"Observation":"The anicut to be rehabilitated","Description":"1. Construction of curtain wall\n2. Improving vegetative cover ","Amount (Rs.)":"140,000.00","photopath":"https://raw.githubusercontent.com/MWS003-GIS/MWS003-GIS.github.io/main/IWWRMP/Data/EXD/200_photo/MWS_012/M (04)2.jpg"},"geometry":{"type":"Point","coordinates":[80.778476,7.160342]}},
{"type":"Feature","properties":{"No":105,"GND No.":"493","Scheme":"Arawe anicut 1","N":7.159912,"E":80.778155,"Observation":"The anicut is dilapidated, and leaking.","Description":"1. Construction of curtain wall\n2. Improving vegetative cover ","Amount (Rs.)":"173,000.00","photopath":"https://raw.githubusercontent.com/MWS003-GIS/MWS003-GIS.github.io/main/IWWRMP/Data/EXD/200_photo/MWS_012/M (04)3.jpg"},"geometry":{"type":"Point","coordinates":[80.778155,7.159912]}},
{"type":"Feature","properties":{"No":106,"GND No.":"495 C","Scheme":"Poodagoda anicut","N":7.18225,"E":80.77383,"Observation":"Currently distributing water by constructing a temporary anicut.","Description":"1. Construction of Anicut.\n2. Improving vegitative cover","Amount (Rs.)":"328,400.00","photopath":"https://raw.githubusercontent.com/MWS003-GIS/MWS003-GIS.github.io/main/IWWRMP/Data/EXD/200_photo/MWS_012/Pm2.jpg"},"geometry":{"type":"Point","coordinates":[80.77383,7.18225]}},
{"type":"Feature","properties":{"No":107,"GND No.":"495 A","Scheme":"Agalakubura anicut","N":7.190285,"E":80.764471,"Observation":"Absence of an anicut.","Description":"1. Construction of Anicut.\n2. Improving vegitative cover","Amount (Rs.)":"328,400.00","photopath":"https://raw.githubusercontent.com/MWS003-GIS/MWS003-GIS.github.io/main/IWWRMP/Data/EXD/200_photo/MWS_012/p8.jpg"},"geometry":{"type":"Point","coordinates":[80.764471,7.190285]}},
{"type":"Feature","properties":{"No":108,"GND No.":"492 C","Scheme":"Ange anicut","N":7.153542,"E":80.780493,"Observation":"The anicut is dilapidated.","Description":"1. Construction of RCC wall\n2. Construction of a curtain wall\n3. Improving vegetative cover","Amount (Rs.)":"230,000.00","photopath":"https://raw.githubusercontent.com/MWS003-GIS/MWS003-GIS.github.io/main/IWWRMP/Data/EXD/200_photo/MWS_012/Ww3.jpg"},"geometry":{"type":"Point","coordinates":[80.780493,7.153542]}},
{"type":"Feature","properties":{"No":109,"GND No.":"495 B","Scheme":"Wadalawela anicut (Arattana GND)","N":7.1838,"E":80.76018,"Observation":"Absence of an anicut.","Description":"1. Construction of Anicut.\n2. Improving vegitative cover","Amount (Rs.)":"787,400.00","photopath":"https://raw.githubusercontent.com/MWS003-GIS/MWS003-GIS.github.io/main/IWWRMP/Data/EXD/200_photo/MWS_012/y6.jpg"},"geometry":{"type":"Point","coordinates":[80.76018,7.1838]}},
{"type":"Feature","properties":{"No":110,"GND No.":"495 B","Scheme":"Anicut of Monaragala Kadura","N":7.190092,"E":80.763655,"Observation":"Absence of an anicut.","Description":"1. Construction of Anicut.\n2. Improving vegitative cover","Amount (Rs.)":"632,400.00","photopath":"https://raw.githubusercontent.com/MWS003-GIS/MWS003-GIS.github.io/main/IWWRMP/Data/EXD/200_photo/MWS_012/y9.jpg"},"geometry":{"type":"Point","coordinates":[80.763655,7.190092]}}
]}