{"type":"FeatureCollection","name":"MT","crs":{"type":"name","properties":{"name":"urn:ogc:def:crs:OGC:1.3:CRS84"}},"features":[
{"type":"Feature","properties":{"Name_of_Tank":"Udamaluwa Wewa","Custodians":"ID","N":7.17886,"E":80.77713,"Remarks":"In good condition and no improvement is required.","photopath":"https://raw.githubusercontent.com/MWS003-GIS/MWS003-GIS.github.io/main/IWWRMP/Data/EXD/200_photo/MWS_012/B (02)2.jpg"},"geometry":{"type":"Point","coordinates":[80.77713,7.17886]}},
{"type":"Feature","properties":{"Name_of_Tank":"Elamullawa Wewa","Custodians":"DAD","N":7.17085,"E":80.78449,"Remarks":"Desilting and tree planting required","photopath":"https://raw.githubusercontent.com/MWS003-GIS/MWS003-GIS.github.io/main/IWWRMP/Data/EXD/200_photo/MWS_012/K (04)8.jpg"},"geometry":{"type":"Point","coordinates":[80.78449,7.17085]}},
{"type":"Feature","properties":{"Name_of_Tank":"Walugama Wewa","Custodians":"ID ","N":7.15506,"E":80.78549,"Remarks":"Desilting and tree planting required","photopath":"https://raw.githubusercontent.com/MWS003-GIS/MWS003-GIS.github.io/main/IWWRMP/Data/EXD/200_photo/MWS_012/DK (04)4.jpg"},"geometry":{"type":"Point","coordinates":[80.78549,7.15506]}},
{"type":"Feature","properties":{"Name_of_Tank":"Badaladeniya Wewa","Custodians":"DAD","N":7.15944,"E":80.79406,"Remarks":"Tree planting in forest land ","photopath":"https://raw.githubusercontent.com/MWS003-GIS/MWS003-GIS.github.io/main/IWWRMP/Data/EXD/200_photo/MWS_012/DU (04)3.jpg "},"geometry":{"type":"Point","coordinates":[80.79406,7.15944]}},
{"type":"Feature","properties":{"Name_of_Tank":"Katukenda Gommana Wewa (New tank)","Custodians":"DAD","N":7.16685,"E":80.76523,"Remarks":"Raising the well in the tank","photopath":"https://raw.githubusercontent.com/MWS003-GIS/MWS003-GIS.github.io/main/IWWRMP/Data/EXD/200_photo/MWS_012/B (02)2.jpg"},"geometry":{"type":"Point","coordinates":[80.76523,7.16685]}},
{"type":"Feature","properties":{"Name_of_Tank":"Nikaththala Wewa","Custodians":"DAD","N":7.16968,"E":80.75897,"Remarks":"Rehabilitation of the tank","photopath":"https://raw.githubusercontent.com/MWS003-GIS/MWS003-GIS.github.io/main/IWWRMP/Data/EXD/200_photo/MWS_012/hg1.jpg"},"geometry":{"type":"Point","coordinates":[80.75897,7.16968]}},
{"type":"Feature","properties":{"Name_of_Tank":"Narankandura Mahapitiya Wewa","Custodians":"DAD","N":7.17047,"E":80.75355,"Remarks":"Construct a new tank","photopath":"https://raw.githubusercontent.com/MWS003-GIS/MWS003-GIS.github.io/main/IWWRMP/Data/EXD/200_photo/MWS_012/R10.jpg"},"geometry":{"type":"Point","coordinates":[80.75355,7.17047]}},
{"type":"Feature","properties":{"Name_of_Tank":"Narankandura Wewa","Custodians":"DAD","N":7.17126,"E":80.75017,"Remarks":"Rehabilitation of the tank","photopath":"https://raw.githubusercontent.com/MWS003-GIS/MWS003-GIS.github.io/main/IWWRMP/Data/EXD/200_photo/MWS_012/R12.jpg"},"geometry":{"type":"Point","coordinates":[80.75017,7.17126]}},
{"type":"Feature","properties":{"Name_of_Tank":"Kingsway Watta Wewa","Custodians":"DAD","N":7.17589,"E":80.75381,"Remarks":"Rehabilitation of the tank","photopath":"https://raw.githubusercontent.com/MWS003-GIS/MWS003-GIS.github.io/main/IWWRMP/Data/EXD/200_photo/MWS_012/R1.jpg"},"geometry":{"type":"Point","coordinates":[80.75381,7.17589]}},
{"type":"Feature","properties":{"Name_of_Tank":"Rikillagaskada Wewa","Custodians":"DAD","N":7.14371,"E":80.78445,"Remarks":"Rehabilitation of the tank","photopath":"https://raw.githubusercontent.com/MWS003-GIS/MWS003-GIS.github.io/main/IWWRMP/Data/EXD/200_photo/MWS_012/rg11.jpg"},"geometry":{"type":"Point","coordinates":[80.78445,7.14371]}}
]}