{"type":"FeatureCollection","name":"SR","crs":{"type":"name","properties":{"name":"urn:ogc:def:crs:OGC:1.3:CRS84"}},"features":[
{"type":"Feature","properties":{"No":1,"GND No.":"492 B","Scheme":"Gorakadanda Kandura","N":7.151656,"E":80.79053,"Observation":"Soil erosion","Description":"1. Vegetative cover improving (1.5m-2.0m wide) with Areca nut seedlings at 1.5m spacing in two rows, Beetle creeper VP at 3m spacing in a single row, Green gram as a cover crop.\n2. Boulder /Rubble dams (SABO) across streams to trap sediment-Size 3m(L)x2m(W)x1m(H)","Amount (Rs.)":"231,000.00","photopath":"https://raw.githubusercontent.com/MWS003-GIS/MWS003-GIS.github.io/main/IWWRMP/Data/EXD/200_photo/MWS_012/DK (02)1.jpg"},"geometry":{"type":"Point","coordinates":[80.79053,7.151656]}},
{"type":"Feature","properties":{"No":2,"GND No.":"492 B","Scheme":"Sellajja Kumbura Kandura","N":7.15474,"E":80.78819,"Observation":"Soil erosion","Description":"1. Construction of leader drain across streams -1m(W)x1m(H).\n2. Vegetative cover improving, replanting bamboo species and vetiver grass or riparian species at 500mm grid interval ","Amount (Rs.)":"254,000.00","photopath":"https://raw.githubusercontent.com/MWS003-GIS/MWS003-GIS.github.io/main/IWWRMP/Data/EXD/200_photo/MWS_012/DK (02)2.jpg"},"geometry":{"type":"Point","coordinates":[80.78819,7.15474]}},
{"type":"Feature","properties":{"No":3,"GND No.":"492 B","Scheme":"Ampitigala Kandura","N":7.156907,"E":80.78831,"Observation":"Soil erosion","Description":"1. Vegetative cover improving (1.5m-2.0m wide) with Areca nut seedlings at 1.5m spacing in two rows, Beetle creeper VP at 3m spacing in a single row, Green gram as a cover crop.\n2. Boulder /Rubble dams (SABO) across streams to trap sediment-Size 3m(L)x2m(W).","Amount (Rs.)":"231,000.00","photopath":"https://raw.githubusercontent.com/MWS003-GIS/MWS003-GIS.github.io/main/IWWRMP/Data/EXD/200_photo/MWS_012/DK (02)3.jpg"},"geometry":{"type":"Point","coordinates":[80.78831,7.156907]}},
{"type":"Feature","properties":{"No":4,"GND No.":"492 C","Scheme":"Uda Oya","N":7.155091,"E":80.77932,"Observation":"bank erosion on both sides","Description":" Vegetative cover improving (1.5m-2.0m wide) with Areca nut seedlings at 1.5m spacing in two rows, Beetle creeper VP at 3m spacing in a single row, Green gram as a cover crop.","Amount (Rs.)":"70,500.00","photopath":"https://raw.githubusercontent.com/MWS003-GIS/MWS003-GIS.github.io/main/IWWRMP/Data/EXD/200_photo/MWS_012/Ww2.jpg"},"geometry":{"type":"Point","coordinates":[80.77932,7.155091]}},
{"type":"Feature","properties":{"No":5,"GND No.":"492","Scheme":"Bataketiya Kandura","N":7.16074,"E":80.79512,"Observation":"Soil erosion","Description":" Vegetative cover improving (1.5m-2.0m wide) with Areca nut seedlings at 1.5m spacing in two rows, Beetle creeper VP at 3m spacing in a single row, Green gram as a cover crop.","Amount (Rs.)":"94,000.00","photopath":"https://raw.githubusercontent.com/MWS003-GIS/MWS003-GIS.github.io/main/IWWRMP/Data/EXD/200_photo/MWS_012/DU (02)1a.jpg"},"geometry":{"type":"Point","coordinates":[80.79512,7.16074]}},
{"type":"Feature","properties":{"No":6,"GND No.":"492","Scheme":"Torrent near Balawadeniya Tank","N":7.15777,"E":80.79414,"Observation":"Soil erosion","Description":" Vegetative cover improving (1.5m-2.0m wide) with Areca nut seedlings at 1.5m spacing in two rows, Beetle creeper VP at 3m spacing in a single row, Green gram as a cover crop.","Amount (Rs.)":"141,000.00","photopath":"https://raw.githubusercontent.com/MWS003-GIS/MWS003-GIS.github.io/main/IWWRMP/Data/EXD/200_photo/MWS_012/DU (02)2a.jpg"},"geometry":{"type":"Point","coordinates":[80.79414,7.15777]}},
{"type":"Feature","properties":{"No":7,"GND No.":"492","Scheme":"Maa Pela waterfall","N":7.167978,"E":80.78349,"Observation":"Soil erosion","Description":"Vegetative cover improving (1.5m-2.0m wide) with Areca nut seedlings at 1.5m spacing in two rows, Beetle creeper VP at 3m spacing in a single row, Green gram as a cover crop.  ","Amount (Rs.)":"94,000.00","photopath":"https://raw.githubusercontent.com/MWS003-GIS/MWS003-GIS.github.io/main/IWWRMP/Data/EXD/200_photo/MWS_012/DU (02)3.jpg"},"geometry":{"type":"Point","coordinates":[80.78349,7.167978]}},
{"type":"Feature","properties":{"No":8,"GND No.":"492","Scheme":"Gorakgaha Kandura","N":7.160902,"E":80.78441,"Observation":"Soil erosion","Description":"Vegetative cover improving (1.5m-2.0m wide) with Areca nut seedlings at 1.5m spacing in two rows, Beetle creeper VP at 3m spacing in a single row, Green gram as a cover crop. ","Amount (Rs.)":"94,000.00","photopath":"https://raw.githubusercontent.com/MWS003-GIS/MWS003-GIS.github.io/main/IWWRMP/Data/EXD/200_photo/MWS_012/DU (02)4.jpg"},"geometry":{"type":"Point","coordinates":[80.78441,7.160902]}},
{"type":"Feature","properties":{"No":9,"GND No.":"493 A","Scheme":"Heen Kandura","N":7.166362,"E":80.78359,"Observation":"Soil erosion","Description":"1. Construction of leader drain across streams -1m(W)x1m(H).\n2. Vegetative cover improving (1.5m-2.0m wide) with Areca nut seedlings at 1.5m spacing in two rows, Beetle creeper VP at 3m spacing in a single row, Green gram as a cover crop.\n3. Boulder /Rubble dams (SABO) across streams to trap sediment-Size 3m(L)x2m(W)x1m(H)","Amount (Rs.)":"474,000.00","photopath":"https://raw.githubusercontent.com/MWS003-GIS/MWS003-GIS.github.io/main/IWWRMP/Data/EXD/200_photo/MWS_012/K (02)1.jpg"},"geometry":{"type":"Point","coordinates":[80.78359,7.166362]}},
{"type":"Feature","properties":{"No":10,"GND No.":"493 A","Scheme":"Kottala Kandura","N":7.166432,"E":80.78519,"Observation":"Soil erosion","Description":"1. Boulder /Rubble dams (SABO) across streams to trap sediment-Size 3m(L)x2m(W)x1m(H).\n2. Vegetative cover improving (1.5m-2.0m wide) with Areca nut seedlings at 1.5m spacing in two rows, Beetle creeper VP at 3m spacing in a single row, Green gram as a cover crop ","Amount (Rs.)":"415,000.00","photopath":"https://raw.githubusercontent.com/MWS003-GIS/MWS003-GIS.github.io/main/IWWRMP/Data/EXD/200_photo/MWS_012/K (02)2.jpg"},"geometry":{"type":"Point","coordinates":[80.78519,7.166432]}},
{"type":"Feature","properties":{"No":11,"GND No.":"493 A","Scheme":"Kottala Watta Kandura","N":7.167677,"E":80.78595,"Observation":"Soil erosion","Description":"1. Boulder /Rubble dams (SABO) across streams to trap sediment-Size 3m(L)x2m(W)x1m(H)\n2. Vegetative cover improving (1.5m-2.0m wide) with Areca nut seedlings at 1.5m spacing in two rows, Beetle creeper VP at 3m spacing in a single row, Green gram as a cover crop.","Amount (Rs.)":"137,000.00","photopath":"https://raw.githubusercontent.com/MWS003-GIS/MWS003-GIS.github.io/main/IWWRMP/Data/EXD/200_photo/MWS_012/K (02)3.jpg"},"geometry":{"type":"Point","coordinates":[80.78595,7.167677]}},
{"type":"Feature","properties":{"No":12,"GND No.":"493","Scheme":"Bath Nawuma Kandura","N":7.162464,"E":80.7809,"Observation":"Soil erosion and Madanwala Rajamaha Viharaya land area overflowing when it rains","Description":"1. Construction of 1:3:6 (1 1/2\") ct concrete retaining wall (height 0.9m, top width 0.15m, 0.45m high steps x 02, each of 0.15m step width & bottom width 0.45m).\n2. Construction of leader drain across streams -1m(W)x1m(H)","Amount (Rs.)":"425,000.00","photopath":"https://raw.githubusercontent.com/MWS003-GIS/MWS003-GIS.github.io/main/IWWRMP/Data/EXD/200_photo/MWS_012/M (02)1.jpg"},"geometry":{"type":"Point","coordinates":[80.7809,7.162464]}},
{"type":"Feature","properties":{"No":13,"GND No.":"493","Scheme":"Katugashinna Kandura","N":7.160395,"E":80.77847,"Observation":"Soil erosion","Description":"Vegetative cover improving (1.5m-2.0m wide) with Areca nut seedlings at 1.5m spacing in two rows, Beetle creeper VP at 3m spacing in a single row, Green gram as a cover crop.","Amount (Rs.)":"94,000.00","photopath":"https://raw.githubusercontent.com/MWS003-GIS/MWS003-GIS.github.io/main/IWWRMP/Data/EXD/200_photo/MWS_012/M (02)2.jpg"},"geometry":{"type":"Point","coordinates":[80.77847,7.160395]}},
{"type":"Feature","properties":{"No":14,"GND No.":"493","Scheme":"Walalawela Oya","N":7.159968,"E":80.77821,"Observation":"Soil erosion","Description":"1. Vegetative cover improving (1.5m-2.0m wide) with Areca nut seedlings at 1.5m spacing in two rows, Beetle creeper VP at 3m spacing in a single row, Green gram as a cover crop.\n2. Boulder /Rubble dams (SABO) across streams to trap sediment-Size 3m(L)x1m(W)","Amount (Rs.)":"284,400.00","photopath":"https://raw.githubusercontent.com/MWS003-GIS/MWS003-GIS.github.io/main/IWWRMP/Data/EXD/200_photo/MWS_012/M (02)3.jpg"},"geometry":{"type":"Point","coordinates":[80.77821,7.159968]}},
{"type":"Feature","properties":{"No":15,"GND No.":"494 C","Scheme":"Dodamgolla Mada kadura 1","N":7.159808,"E":80.76543,"Observation":"Land erosion on both sides of the torrent during rainy days","Description":"1. Construction of leader drain across streams -1m(W)x1m(H).\n2. Vegetative cover improving (1.5m-2.0m wide) with Areca nut seedlings at 1.5m spacing in two rows, Beetle creeper VP at 3m spacing in a single row, Green gram as a cover crop ","Amount (Rs.)":"247,000.00","photopath":"https://raw.githubusercontent.com/MWS003-GIS/MWS003-GIS.github.io/main/IWWRMP/Data/EXD/200_photo/MWS_012/Rm4.jpg"},"geometry":{"type":"Point","coordinates":[80.76543,7.159808]}},
{"type":"Feature","properties":{"No":16,"GND No.":"494 C","Scheme":"Torrent near Abeykoon's house","N":7.153821,"E":80.77277,"Observation":"A heavy stream of water flows through the torrent on rainy days","Description":"1. Construction of leader drain across streams -1m(W)x1m(H).\n2. Boulder /Rubble dams (SABO) across streams to trap sediment-Size 3m(L)x2m(W)x1m(H)","Amount (Rs.)":"490,000.00","photopath":"https://raw.githubusercontent.com/MWS003-GIS/MWS003-GIS.github.io/main/IWWRMP/Data/EXD/200_photo/MWS_012/Rm10.jpg"},"geometry":{"type":"Point","coordinates":[80.77277,7.153821]}},
{"type":"Feature","properties":{"No":17,"GND No.":"494 C","Scheme":"Bogahalanga Kandura","N":7.151489,"E":80.77395,"Observation":"Land erosion on both sides of the torrent during rainy days","Description":"1. Construction of leader drain across streams -1m(W)x1m(H).\n2. Boulder /Rubble dams (SABO) across streams to trap sediment-Size 3m(L)x2m(W)x1m(H).\n3. Vegetative cover improving with Areca nut seedling at 1.5m spacing in a single row, Kumbuk/ Mee/ Godapara/ Kaduru/ Aththikka/ Wal Del/ Kekuna/ randomly mixed seedlings and dense planting at 500mm grid interval,  \n4. Vegetative cover improving (1.5m-2.0m wide) with Areca nut seedlings at 1.5m spacing in two rows, Beetle creeper VP at 3m spacing in a single row, Green gram as a cover crop","Amount (Rs.)":"780,800.00","photopath":"https://raw.githubusercontent.com/MWS003-GIS/MWS003-GIS.github.io/main/IWWRMP/Data/EXD/200_photo/MWS_012/Rm15.jpg"},"geometry":{"type":"Point","coordinates":[80.77395,7.151489]}},
{"type":"Feature","properties":{"No":18,"GND No.":"494 C","Scheme":"Torrent in the boundary of Rathmetiya and Rikillagaskada","N":7.147793,"E":80.77772,"Observation":"Land erosion on both sides of the torrent during rainy days","Description":"1. Construction of 1.5m high x 0.15m thick RCC wall (0.8m base).\n2. Construction of leader drain across streams -1m(W)x1m(H).\n3. Vegetative cover improving (1.5m-2.0m wide) with Areca nut seedlings at 1.5m spacing in two rows, Beetle creeper VP at 3m spacing in a single row, Green gram as a cover crop","Amount (Rs.)":"860,000.00","photopath":"https://raw.githubusercontent.com/MWS003-GIS/MWS003-GIS.github.io/main/IWWRMP/Data/EXD/200_photo/MWS_012/Rm20.jpg"},"geometry":{"type":"Point","coordinates":[80.77772,7.147793]}},
{"type":"Feature","properties":{"No":19,"GND No.":"494","Scheme":"Dead torrent in Damunumeya Kotawegedara road","N":7.171749,"E":80.77752,"Observation":"A large earth embankment near the road has been breached and is highly eroded","Description":"1. Construction of leader drain across streams -1m(W)x1m(H).\n2. Construction of 2.1m high RR masonry  wall (with section 0.60x0.75, 0.45x0.75, 0.30x0.60) over 0.90m width x 0.15m thick screed  concrete, plastering with 1:3 Menet mortar and back filling.\n3. Vegetative cover improving (1.5m-2.0m wide) with Areca nut seedlings at 1.5m spacing in two rows, Beetle creeper VP at 3m spacing in a single row, Green gram as a cover crop.","Amount (Rs.)":"401,500.00","photopath":"https://raw.githubusercontent.com/MWS003-GIS/MWS003-GIS.github.io/main/IWWRMP/Data/EXD/200_photo/MWS_012/Dy2.jpg "},"geometry":{"type":"Point","coordinates":[80.77752,7.171749]}},
{"type":"Feature","properties":{"No":20,"GND No.":"494","Scheme":"Torrent near madawela Yaya","N":7.168947,"E":80.77641,"Observation":"bank erosion on both sides","Description":"1. Vegetative cover improving (1.5m-2.0m wide) with Areca nut seedlings at 1.5m spacing in two rows, Beetle creeper VP at 3m spacing in a single row, Green gram as a cover crop.\n2. Boulder /Rubble dams (SABO) across streams to trap sediment-Size 3m(L)x2m(W)x1m(H).\n3. Vegetative cover improving with Areca nut seedling at 1.5m spacing in a single row, Kumbuk/ Mee/ Godapara/ Kaduru/ Aththikka/ Wal Del/ Kekuna/ randomly mixed seedlings and dense planting at 500mm grid interval.","Amount (Rs.)":"331,400.00","photopath":"https://raw.githubusercontent.com/MWS003-GIS/MWS003-GIS.github.io/main/IWWRMP/Data/EXD/200_photo/MWS_012/Dy3.jpg"},"geometry":{"type":"Point","coordinates":[80.77641,7.168947]}},
{"type":"Feature","properties":{"No":21,"GND No.":"494","Scheme":"Randeniye Kandura","N":7.16801,"E":80.77693,"Observation":"bank erosion on both sides","Description":"1. Vegetative cover improving (1.5m-2.0m wide) with Areca nut seedlings at 1.5m spacing in two rows, Beetle creeper VP at 3m spacing in a single row, Green gram as a cover crop.","Amount (Rs.)":"70,500.00","photopath":"https://raw.githubusercontent.com/MWS003-GIS/MWS003-GIS.github.io/main/IWWRMP/Data/EXD/200_photo/MWS_012/Dy8.jpg"},"geometry":{"type":"Point","coordinates":[80.77693,7.16801]}},
{"type":"Feature","properties":{"No":22,"GND No.":"494 D","Scheme":"Kottagaha Wella Kandura","N":7.171728,"E":80.76999,"Observation":"bank erosion on both sides","Description":"Vegetative cover improving (1.5m-2.0m wide) with Areca nut seedlings at 1.5m spacing in two rows, Beetle creeper VP at 3m spacing in a single row, Green gram as a cover crop.","Amount (Rs.)":"94,000.00","photopath":"https://raw.githubusercontent.com/MWS003-GIS/MWS003-GIS.github.io/main/IWWRMP/Data/EXD/200_photo/MWS_012/Dw3.jpg"},"geometry":{"type":"Point","coordinates":[80.76999,7.171728]}},
{"type":"Feature","properties":{"No":23,"GND No.":"494 D","Scheme":"Dehipe Kandura","N":7.17057,"E":80.76877,"Observation":"River bank erosion and dumping of garbage","Description":"Vegetative cover improving (1.5m-2.0m wide) with Areca nut seedlings at 1.5m spacing in two rows, Beetle creeper VP at 3m spacing in a single row, Green gram as a cover crop.","Amount (Rs.)":"70,500.00","photopath":"https://raw.githubusercontent.com/MWS003-GIS/MWS003-GIS.github.io/main/IWWRMP/Data/EXD/200_photo/MWS_012/Dw4.jpg"},"geometry":{"type":"Point","coordinates":[80.76877,7.17057]}},
{"type":"Feature","properties":{"No":24,"GND No.":"494 E","Scheme":"Alawala Oya","N":7.173447,"E":80.77512,"Observation":"Soil erosion","Description":"1. Vegetative cover improving (1.5m-2.0m wide) with Areca nut seedlings at 1.5m spacing in two rows, Beetle creeper VP at 3m spacing in a single row, Green gram as a cover crop.\n2. Boulder /Rubble dams (SABO) across streams to trap sediment-Size 3m(L)x2m(W)x1m(H).\n3. Vegetative cover improving with Areca nut seedling at 1.5m spacing in a single row, Kumbuk/ Mee/ Godapara/ Kaduru/ Aththikka/ Wal Del/ Kekuna/ randomly mixed seedlings and dense planting at 500mm grid interval","Amount (Rs.)":"164,500.00","photopath":"https://raw.githubusercontent.com/MWS003-GIS/MWS003-GIS.github.io/main/IWWRMP/Data/EXD/200_photo/MWS_012/DU (02)1.jpg"},"geometry":{"type":"Point","coordinates":[80.77512,7.173447]}},
{"type":"Feature","properties":{"No":25,"GND No.":"494 E","Scheme":"Pilapitiya Kandura","N":7.17743,"E":80.77419,"Observation":"Soil erosion","Description":"1. Boulder /Rubble dams (SABO) across streams to trap sediment-Size 3m(L)x2m(W)x1m(H).\n2. Vegetative cover improving (1.5m-2.0m wide) with Areca nut seedlings at 1.5m spacing in two rows, Beetle creeper VP at 3m spacing in a single row, Green gram as a cover crop.\n3.  Vegetative cover improving with Areca nut seedling at 1.5m spacing in a single row, Kumbuk/ Mee/ Godapara/ Kaduru/ Aththikka/ Wal Del/ Kekuna/ randomly mixed seedlings and dense planting at 500mm grid interval. ","Amount (Rs.)":"521,800.00","photopath":"https://raw.githubusercontent.com/MWS003-GIS/MWS003-GIS.github.io/main/IWWRMP/Data/EXD/200_photo/MWS_012/DU (02)2.jpg"},"geometry":{"type":"Point","coordinates":[80.77419,7.17743]}},
{"type":"Feature","properties":{"No":26,"GND No.":"495 B","Scheme":"Monarapola Kandura","N":7.189584,"E":80.76394,"Observation":"bank erosion on both sides","Description":"Vegetative cover improving (1.5m-2.0m wide) with Areca nut seedlings at 1.5m spacing in two rows, Beetle creeper VP at 3m spacing in a single row, Green gram as a cover crop.","Amount (Rs.)":"70,500.00","photopath":"https://raw.githubusercontent.com/MWS003-GIS/MWS003-GIS.github.io/main/IWWRMP/Data/EXD/200_photo/MWS_012/y1.jpg"},"geometry":{"type":"Point","coordinates":[80.76394,7.189584]}},
{"type":"Feature","properties":{"No":27,"GND No.":"495 B","Scheme":"Ma Oya","N":7.190609,"E":80.76348,"Observation":"bank erosion on both sides","Description":"1. Boulder /Rubble dams (SABO) across streams to trap sediment-Size 3m(L)x2m(W)x1m(H),\n2. Vegetative cover improving (1.5m-2.0m wide) with Areca nut seedlings at 1.5m spacing in two rows, Beetle creeper VP at 3m spacing in a single row, Green gram as a cover crop.\n3.  Vegetative cover improving with Areca nut seedling at 1.5m spacing in a single row, Kumbuk/ Mee/ Godapara/ Kaduru/ Aththikka/ Wal Del/ Kekuna/ randomly mixed seedlings and dense planting at 500mm grid interval.","Amount (Rs.)":"2,073,600.00","photopath":"https://raw.githubusercontent.com/MWS003-GIS/MWS003-GIS.github.io/main/IWWRMP/Data/EXD/200_photo/MWS_012/y10.jpg"},"geometry":{"type":"Point","coordinates":[80.76348,7.190609]}},
{"type":"Feature","properties":{"No":28,"GND No.":"495 A","Scheme":"Torrent near Gannila paddy fields","N":7.186178,"E":80.7692,"Observation":"Excessive bank erosion on both sides","Description":"1. Boulder /Rubble dams (SABO) across streams to trap sediment-Size 3m(L)x2m(W)x1m(H).\n2. Vegetative cover improving (1.5m-2.0m wide) with Areca nut seedlings at 1.5m spacing in two rows, Beetle creeper VP at 3m spacing in a single row, Green gram as a cover crop.\n3. Vegetative cover improving with Areca nut seedling at 1.5m spacing in a single row, Kumbuk/ Mee/ Godapara/ Kaduru/ Aththikka/ Wal Del/ Kekuna/ randomly mixed seedlings and dense planting at 500mm grid interval.","Amount (Rs.)":"686,300.00","photopath":"https://raw.githubusercontent.com/MWS003-GIS/MWS003-GIS.github.io/main/IWWRMP/Data/EXD/200_photo/MWS_012/p2.jpg"},"geometry":{"type":"Point","coordinates":[80.7692,7.186178]}},
{"type":"Feature","properties":{"No":29,"GND No.":"495 C","Scheme":"Torrent near Poodagoda paddy fields","N":7.182251,"E":80.77346,"Observation":"bank erosion on both sides","Description":"1. Boulder /Rubble dams (SABO) across streams to trap sediment-Size 3m(L)x2m(W)x1m(H)\n2. Vegetative cover improving (1.5m-2.0m wide) with Areca nut seedlings at 1.5m spacing in two rows, Beetle creeper VP at 3m spacing in a single row, Green gram as a cover crop.\n3. Vegetative cover improving with Areca nut seedling at 1.5m spacing in a single row, Kumbuk/ Mee/ Godapara/ Kaduru/ Aththikka/ Wal Del/ Kekuna/ randomly mixed seedlings and dense planting at 500mm grid interval.","Amount (Rs.)":"521,800.00","photopath":"https://raw.githubusercontent.com/MWS003-GIS/MWS003-GIS.github.io/main/IWWRMP/Data/EXD/200_photo/MWS_012/Pm3.jpg"},"geometry":{"type":"Point","coordinates":[80.77346,7.182251]}},
{"type":"Feature","properties":{"No":30,"GND No.":"494 A","Scheme":"Dolugala Torrent No.1 (Dead torrent)","N":7.166891,"E":80.76513,"Observation":"Land erosion","Description":"1. Construction of leader drain across streams -1m(W)x1m(H).\n2. Boulder /Rubble dams (SABO) across streams to trap sediment-Size 3m(L)x2m(W)x1m(H).\n3. Vegetative cover improving with Areca nut seedling at 1.5m spacing in a single row, Kumbuk/ Mee/ Godapara/ Kaduru/ Aththikka/ Wal Del/ Kekuna/ randomly mixed seedlings and dense planting at 500mm grid interval","Amount (Rs.)":"740,800.00","photopath":"Not_Available"},"geometry":{"type":"Point","coordinates":[80.76513,7.166891]}},
{"type":"Feature","properties":{"No":31,"GND No.":"494 A","Scheme":"Torrent No.2","N":7.149433,"E":80.77832,"Observation":"Land erosion","Description":"1. Construction of leader drain across streams -1m(W)x1m(H).\n2. Boulder /Rubble dams (SABO) across streams to trap sediment-Size 3m(L)x2m(W)x1m(H).\n3. Vegetative cover improving with Areca nut seedling at 1.5m spacing in a single row, Kumbuk/ Mee/ Godapara/ Kaduru/ Aththikka/ Wal Del/ Kekuna/ randomly mixed seedlings and dense planting at 500mm grid interval.\n4. Vegetative cover improving (1.5m-2.0m wide) with Areca nut seedlings at 1.5m spacing in two rows, Beetle creeper VP at 3m spacing in a single row, Green gram as a cover crop.","Amount (Rs.)":"437,400.00","photopath":"Not_Available"},"geometry":{"type":"Point","coordinates":[80.77832,7.149433]}},
{"type":"Feature","properties":{"No":32,"GND No.":"494 A","Scheme":"Torrent No.3","N":7.14904,"E":80.77761,"Observation":"Land erosion","Description":"1. Construction of leader drain across streams -1m(W)x1m(H).\n2. Boulder /Rubble dams (SABO) across streams to trap sediment-Size 3m(L)x2m(W)x1m(H).\n3. Vegetative cover improving with Areca nut seedling at 1.5m spacing in a single row, Kumbuk/ Mee/ Godapara/ Kaduru/ Aththikka/ Wal Del/ Kekuna/ randomly mixed seedlings and dense planting at 500mm grid interval.\n4. Vegetative cover improving (1.5m-2.0m wide) with Areca nut seedlings at 1.5m spacing in two rows, Beetle creeper VP at 3m spacing in a single row, Green gram as a cover crop.","Amount (Rs.)":"390,400.00","photopath":"Not_Available"},"geometry":{"type":"Point","coordinates":[80.77761,7.14904]}},
{"type":"Feature","properties":{"No":33,"GND No.":"494 A","Scheme":"Torrent No.5","N":7.150561,"E":80.77535,"Observation":"Land erosion","Description":"1. Construction of leader drain across streams -1m(W)x1m(H).\n2. Boulder /Rubble dams (SABO) across streams to trap sediment-Size 3m(L)x2m(W)x1m(H).\n3. Vegetative cover improving (1.5m-2.0m wide) with Areca nut seedlings at 1.5m spacing in two rows, Beetle creeper VP at 3m spacing in a single row, Green gram as a cover crop.","Amount (Rs.)":"384,000.00","photopath":"Not_Available"},"geometry":{"type":"Point","coordinates":[80.77535,7.150561]}},
{"type":"Feature","properties":{"No":34,"GND No.":"494 A","Scheme":"Torrent No.7","N":7.151991,"E":80.77506,"Observation":"Land erosion","Description":"1. Construction of leader drain across streams -1m(W)x1m(H).\n2. Boulder /Rubble dams (SABO) across streams to trap sediment-Size 3m(L)x2m(W)x1m(H).\n3. Vegetative cover improving with Areca nut seedling at 1.5m spacing in a single row, Kumbuk/ Mee/ Godapara/ Kaduru/ Aththikka/ Wal Del/ Kekuna/ randomly mixed seedlings and dense planting at 500mm grid interval.\n4. Vegetative cover improving (1.5m-2.0m wide) with Areca nut seedlings at 1.5m spacing in two rows, Beetle creeper VP at 3m spacing in a single row, Green gram as a cover crop.","Amount (Rs.)":"437,400.00","photopath":"Not_Available"},"geometry":{"type":"Point","coordinates":[80.77506,7.151991]}},
{"type":"Feature","properties":{"No":35,"GND No.":"494 A","Scheme":"Torrent No.8","N":7.154145,"E":80.77519,"Observation":"Land erosion","Description":"1. Construction of leader drain across streams -1m(W)x1m(H).\n2. Boulder /Rubble dams (SABO) across streams to trap sediment-Size 3m(L)x2m(W)x1m(H).\n3. Vegetative cover improving with Areca nut seedling at 1.5m spacing in a single row, Kumbuk/ Mee/ Godapara/ Kaduru/ Aththikka/ Wal Del/ Kekuna/ randomly mixed seedlings and dense planting at 500mm grid interval.\n4. Vegetative cover improving (1.5m-2.0m wide) with Areca nut seedlings at 1.5m spacing in two rows, Beetle creeper VP at 3m spacing in a single row, Green gram as a cover crop.","Amount (Rs.)":"839,300.00","photopath":"Not_Available"},"geometry":{"type":"Point","coordinates":[80.77519,7.154145]}},
{"type":"Feature","properties":{"No":36,"GND No.":"494 A","Scheme":"Torrent No.9 (Keenagahawala Kandura)","N":7.154553,"E":80.77452,"Observation":"Land erosion","Description":"1. Construction of leader drain across streams -1m(W)x1m(H).\n2. Boulder /Rubble dams (SABO) across streams to trap sediment-Size 3m(L)x2m(W)x1m(H).\n3. Vegetative cover improving with Areca nut seedling at 1.5m spacing in a single row, Kumbuk/ Mee/ Godapara/ Kaduru/ Aththikka/ Wal Del/ Kekuna/ randomly mixed seedlings and dense planting at 500mm grid interval.\n4. Vegetative cover improving (1.5m-2.0m wide) with Areca nut seedlings at 1.5m spacing in two rows, Beetle creeper VP at 3m spacing in a single row, Green gram as a cover crop.","Amount (Rs.)":"390,400.00","photopath":"Not_Available"},"geometry":{"type":"Point","coordinates":[80.77452,7.154553]}},
{"type":"Feature","properties":{"No":37,"GND No.":"494 A","Scheme":"Torrent No.10","N":7.155676,"E":80.77378,"Observation":"Land erosion","Description":"1. Construction of leader drain across streams -1m(W)x1m(H).\n2. Boulder /Rubble dams (SABO) across streams to trap sediment-Size 3m(L)x2m(W)x1m(H).\n3. Vegetative cover improving with Areca nut seedling at 1.5m spacing in a single row, Kumbuk/ Mee/ Godapara/ Kaduru/ Aththikka/ Wal Del/ Kekuna/ randomly mixed seedlings and dense planting at 500mm grid interval.\n4. Vegetative cover improving (1.5m-2.0m wide) with Areca nut seedlings at 1.5m spacing in two rows, Beetle creeper VP at 3m spacing in a single row, Green gram as a cover crop.","Amount (Rs.)":"633,800.00","photopath":"Not_Available"},"geometry":{"type":"Point","coordinates":[80.77378,7.155676]}},
{"type":"Feature","properties":{"No":38,"GND No.":"494 A","Scheme":"Torrent No.11","N":7.15793,"E":80.77397,"Observation":"Land erosion","Description":"1. Construction of leader drain across streams -1m(W)x1m(H).\n2. Boulder /Rubble dams (SABO) across streams to trap sediment-Size 3m(L)x2m(W)x1m(H).\n3. Vegetative cover improving with Areca nut seedling at 1.5m spacing in a single row, Kumbuk/ Mee/ Godapara/ Kaduru/ Aththikka/ Wal Del/ Kekuna/ randomly mixed seedlings and dense planting at 500mm grid interval.\n4. Vegetative cover improving (1.5m-2.0m wide) with Areca nut seedlings at 1.5m spacing in two rows, Beetle creeper VP at 3m spacing in a single row, Green gram as a cover crop.","Amount (Rs.)":"780,800.00","photopath":"Not_Available"},"geometry":{"type":"Point","coordinates":[80.77397,7.15793]}},
{"type":"Feature","properties":{"No":39,"GND No.":"494 A","Scheme":"Torrent No.12","N":7.15803,"E":80.77308,"Observation":"Land erosion","Description":"1. Construction of leader drain across streams -1m(W)x1m(H).\n2. Vegetative cover improving (1.5m-2.0m wide) with Areca nut seedlings at 1.5m spacing in two rows, Beetle creeper VP at 3m spacing in a single row, Green gram as a cover crop","Amount (Rs.)":"147,000.00","photopath":"Not_Available"},"geometry":{"type":"Point","coordinates":[80.77308,7.15803]}},
{"type":"Feature","properties":{"No":40,"GND No.":"494 A","Scheme":"Torrent No.13","N":7.159503,"E":80.77264,"Observation":"Land erosion","Description":"1. Construction of leader drain across streams -1m(W)x1m(H).\n2. Boulder /Rubble dams (SABO) across streams to trap sediment-Size 3m(L)x2m(W)x1m(H).\n3. Vegetative cover improving with Areca nut seedling at 1.5m spacing in a single row, Kumbuk/ Mee/ Godapara/ Kaduru/ Aththikka/ Wal Del/ Kekuna/ randomly mixed seedlings and dense planting at 500mm grid interval.\n4. Vegetative cover improving (1.5m-2.0m wide) with Areca nut seedlings at 1.5m spacing in two rows, Beetle creeper VP at 3m spacing in a single row, Green gram as a cover crop.","Amount (Rs.)":"780,800.00","photopath":"Not_Available"},"geometry":{"type":"Point","coordinates":[80.77264,7.159503]}},
{"type":"Feature","properties":{"No":41,"GND No.":"494 A","Scheme":"Torrent No.14","N":7.159876,"E":80.77166,"Observation":"Land erosion","Description":"1. Construction of leader drain across streams -1m(W)x1m(H).\n2. Boulder /Rubble dams (SABO) across streams to trap sediment-Size 3m(L)x2m(W)x1m(H).\n3. Vegetative cover improving with Areca nut seedling at 1.5m spacing in a single row, Kumbuk/ Mee/ Godapara/ Kaduru/ Aththikka/ Wal Del/ Kekuna/ randomly mixed seedlings and dense planting at 500mm grid interval.\n4. Vegetative cover improving (1.5m-2.0m wide) with Areca nut seedlings at 1.5m spacing in two rows, Beetle creeper VP at 3m spacing in a single row, Green gram as a cover crop.","Amount (Rs.)":"637,400.00","photopath":"Not_Available"},"geometry":{"type":"Point","coordinates":[80.77166,7.159876]}},
{"type":"Feature","properties":{"No":42,"GND No.":"494 A","Scheme":"Torrent No.15","N":7.161479,"E":80.77095,"Observation":"Land erosion","Description":"1. Construction of leader drain across streams -1m(W)x1m(H).\n2. Boulder /Rubble dams (SABO) across streams to trap sediment-Size 3m(L)x2m(W)x1m(H).\n3. Vegetative cover improving with Areca nut seedling at 1.5m spacing in a single row, Kumbuk/ Mee/ Godapara/ Kaduru/ Aththikka/ Wal Del/ Kekuna/ randomly mixed seedlings and dense planting at 500mm grid interval.\n4. Vegetative cover improving (1.5m-2.0m wide) with Areca nut seedlings at 1.5m spacing in two rows, Beetle creeper VP at 3m spacing in a single row, Green gram as a cover crop.","Amount (Rs.)":"584,400.00","photopath":"Not_Available"},"geometry":{"type":"Point","coordinates":[80.77095,7.161479]}},
{"type":"Feature","properties":{"No":43,"GND No.":"494 A","Scheme":"Torrent No.16","N":7.161917,"E":80.7702,"Observation":"Land erosion","Description":"1. Construction of leader drain across streams -1m(W)x1m(H).\n2. Boulder /Rubble dams (SABO) across streams to trap sediment-Size 3m(L)x2m(W)x1m(H).\n3. Vegetative cover improving with Areca nut seedling at 1.5m spacing in a single row, Kumbuk/ Mee/ Godapara/ Kaduru/ Aththikka/ Wal Del/ Kekuna/ randomly mixed seedlings and dense planting at 500mm grid interval.\n4. Vegetative cover improving (1.5m-2.0m wide) with Areca nut seedlings at 1.5m spacing in two rows, Beetle creeper VP at 3m spacing in a single row, Green gram as a cover crop.","Amount (Rs.)":"780,800.00","photopath":"Not_Available"},"geometry":{"type":"Point","coordinates":[80.7702,7.161917]}},
{"type":"Feature","properties":{"No":44,"GND No.":"494 A","Scheme":"Torrent No.17","N":7.161183,"E":80.76923,"Observation":"Land erosion","Description":"1. Construction of leader drain across streams -1m(W)x1m(H).\n2. Boulder /Rubble dams (SABO) across streams to trap sediment-Size 3m(L)x2m(W)x1m(H).\n3. Vegetative cover improving with Areca nut seedling at 1.5m spacing in a single row, Kumbuk/ Mee/ Godapara/ Kaduru/ Aththikka/ Wal Del/ Kekuna/ randomly mixed seedlings and dense planting at 500mm grid interval.\n4. Vegetative cover improving (1.5m-2.0m wide) with Areca nut seedlings at 1.5m spacing in two rows, Beetle creeper VP at 3m spacing in a single row, Green gram as a cover crop.","Amount (Rs.)":"780,800.00","photopath":"Not_Available"},"geometry":{"type":"Point","coordinates":[80.76923,7.161183]}},
{"type":"Feature","properties":{"No":45,"GND No.":"494 A","Scheme":"Torrent No.18","N":7.16105,"E":80.76893,"Observation":"Land erosion","Description":"1. Construction of leader drain across streams -1m(W)x1m(H).\n2. Boulder /Rubble dams (SABO) across streams to trap sediment-Size 3m(L)x2m(W)x1m(H).\n3. Vegetative cover improving with Areca nut seedling at 1.5m spacing in a single row, Kumbuk/ Mee/ Godapara/ Kaduru/ Aththikka/ Wal Del/ Kekuna/ randomly mixed seedlings and dense planting at 500mm grid interval.\n4. Vegetative cover improving (1.5m-2.0m wide) with Areca nut seedlings at 1.5m spacing in two rows, Beetle creeper VP at 3m spacing in a single row, Green gram as a cover crop.","Amount (Rs.)":"437,400.00","photopath":"Not_Available"},"geometry":{"type":"Point","coordinates":[80.76893,7.16105]}},
{"type":"Feature","properties":{"No":46,"GND No.":"494 A","Scheme":"Torrent No.19","N":7.162448,"E":80.76679,"Observation":"Land erosion","Description":"1. Boulder /Rubble dams (SABO) across streams to trap sediment-Size 3m(L)x2m(W)x1m(H).\n2. Vegetative cover improving with Areca nut seedling at 1.5m spacing in a single row, Kumbuk/ Mee/ Godapara/ Kaduru/ Aththikka/ Wal Del/ Kekuna/ randomly mixed seedlings and dense planting at 500mm grid interval.\n3. Vegetative cover improving (1.5m-2.0m wide) with Areca nut seedlings at 1.5m spacing in two rows, Beetle creeper VP at 3m spacing in a single row, Green gram as a cover crop.","Amount (Rs.)":"380,800.00","photopath":"Not_Available"},"geometry":{"type":"Point","coordinates":[80.76679,7.162448]}},
{"type":"Feature","properties":{"No":47,"GND No.":"494 A","Scheme":"Torrent No.20 (Galpoththa Kandura)","N":7.162428,"E":80.76675,"Observation":"Land erosion","Description":"1. Construction of leader drain across streams -1m(W)x1m(H).\n2. Boulder /Rubble dams (SABO) across streams to trap sediment-Size 3m(L)x2m(W)x1m(H).\n3. Vegetative cover improving with Areca nut seedling at 1.5m spacing in a single row, Kumbuk/ Mee/ Godapara/ Kaduru/ Aththikka/ Wal Del/ Kekuna/ randomly mixed seedlings and dense planting at 500mm grid interval.\n4. Vegetative cover improving (1.5m-2.0m wide) with Areca nut seedlings at 1.5m spacing in two rows, Beetle creeper VP at 3m spacing in a single row, Green gram as a cover crop.","Amount (Rs.)":"437,400.00","photopath":"Not_Available"},"geometry":{"type":"Point","coordinates":[80.76675,7.162428]}},
{"type":"Feature","properties":{"No":48,"GND No.":"494 A","Scheme":"Torrent No.21","N":7.159868,"E":80.77165,"Observation":"Land erosion","Description":"1. Construction of leader drain across streams -1m(W)x1m(H).\n2. Boulder /Rubble dams (SABO) across streams to trap sediment-Size 3m(L)x2m(W)x1m(H).\n3. Vegetative cover improving with Areca nut seedling at 1.5m spacing in a single row, Kumbuk/ Mee/ Godapara/ Kaduru/ Aththikka/ Wal Del/ Kekuna/ randomly mixed seedlings and dense planting at 500mm grid interval.\n4. Vegetative cover improving (1.5m-2.0m wide) with Areca nut seedlings at 1.5m spacing in two rows, Beetle creeper VP at 3m spacing in a single row, Green gram as a cover crop.","Amount (Rs.)":"680,800.00","photopath":"Not_Available"},"geometry":{"type":"Point","coordinates":[80.77165,7.159868]}},
{"type":"Feature","properties":{"No":49,"GND No.":"495 D","Scheme":"Torrent flows from","N":7.180792,"E":80.775,"Observation":"bank erosion on both sides","Description":"1. Boulder /Rubble dams (SABO) across streams to trap sediment-Size 3m(L)x2m(W)x1m(H).\n2. Vegetative cover improving with Areca nut seedling at 1.5m spacing in a single row, Kumbuk/ Mee/ Godapara/ Kaduru/ Aththikka/ Wal Del/ Kekuna/ randomly mixed seedlings and dense planting at 500mm grid interval.\n3. Vegetative cover improving (1.5m-2.0m wide) with Areca nut seedlings at 1.5m spacing in two rows, Beetle creeper VP at 3m spacing in a single row, Green gram as a cover crop.","Amount (Rs.)":"380,800.00","photopath":"https://raw.githubusercontent.com/MWS003-GIS/MWS003-GIS.github.io/main/IWWRMP/Data/EXD/200_photo/MWS_012/d3.jpg"},"geometry":{"type":"Point","coordinates":[80.775,7.180792]}},
{"type":"Feature","properties":{"No":50,"GND No.":"495 D","Scheme":"Delgahapitiya Meda kandura","N":7.181831,"E":80.77472,"Observation":"bank erosion on both sides on rainy days","Description":"1. Boulder /Rubble dams (SABO) across streams to trap sediment-Size 3m(L)x2m(W)x1m(H).\n2. Vegetative cover improving with Areca nut seedling at 1.5m spacing in a single row, Kumbuk/ Mee/ Godapara/ Kaduru/ Aththikka/ Wal Del/ Kekuna/ randomly mixed seedlings and dense planting at 500mm grid interval.\n3. Vegetative cover improving (1.5m-2.0m wide) with Areca nut seedlings at 1.5m spacing in two rows, Beetle creeper VP at 3m spacing in a single row, Green gram as a cover crop.","Amount (Rs.)":"190,400.00","photopath":"https://raw.githubusercontent.com/MWS003-GIS/MWS003-GIS.github.io/main/IWWRMP/Data/EXD/200_photo/MWS_012/d5.jpg"},"geometry":{"type":"Point","coordinates":[80.77472,7.181831]}},
{"type":"Feature","properties":{"No":51,"GND No.":"495","Scheme":"Elamal Wewa Kandura","N":7.176542,"E":80.77848,"Observation":"Land erosion on both sides","Description":"1. Boulder /Rubble dams (SABO) across streams to trap sediment-Size 3m(L)x2m(W)x1m(H).\n2. Vegetative cover improving with Areca nut seedling at 1.5m spacing in a single row, Kumbuk/ Mee/ Godapara/ Kaduru/ Aththikka/ Wal Del/ Kekuna/ randomly mixed seedlings and dense planting at 500mm grid interval.\n3. Vegetative cover improving (1.5m-2.0m wide) with Areca nut seedlings at 1.5m spacing in two rows, Beetle creeper VP at 3m spacing in a single row, Green gram as a cover crop.","Amount (Rs.)":"237,400.00","photopath":"https://raw.githubusercontent.com/MWS003-GIS/MWS003-GIS.github.io/main/IWWRMP/Data/EXD/200_photo/MWS_012/Hk6.jpg"},"geometry":{"type":"Point","coordinates":[80.77848,7.176542]}},
{"type":"Feature","properties":{"No":52,"GND No.":"495","Scheme":"Dead torrent near Abeyrathne's house","N":7.172993,"E":80.78214,"Observation":"Land erosion on both sides","Description":"1. Construction of leader drain across streams -1m(W)x1m(H).\n2. Boulder /Rubble dams (SABO) across streams to trap sediment-Size 3m(L)x2m(W)x1m(H).\n3. Vegetative cover improving with Areca nut seedling at 1.5m spacing in a single row, Kumbuk/ Mee/ Godapara/ Kaduru/ Aththikka/ Wal Del/ Kekuna/ randomly mixed seedlings and dense planting at 500mm grid interval.\n4. Vegetative cover improving (1.5m-2.0m wide) with Areca nut seedlings at 1.5m spacing in two rows, Beetle creeper VP at 3m spacing in a single row, Green gram as a cover crop.","Amount (Rs.)":"390,400.00","photopath":"https://raw.githubusercontent.com/MWS003-GIS/MWS003-GIS.github.io/main/IWWRMP/Data/EXD/200_photo/MWS_012/Hk16.jpg"},"geometry":{"type":"Point","coordinates":[80.78214,7.172993]}},
{"type":"Feature","properties":{"No":53,"GND No.":"495","Scheme":"Torrent near Premarathne's house","N":7.172456,"E":80.78237,"Observation":"Land erosion on both sides","Description":"1. Construction of leader drain across streams -1m(W)x1m(H).\n2. Vegetative cover improving with Areca nut seedling at 1.5m spacing in a single row, Kumbuk/ Mee/ Godapara/ Kaduru/ Aththikka/ Wal Del/ Kekuna/ randomly mixed seedlings and dense planting at 500mm grid interval.\n3. Vegetative cover improving (1.5m-2.0m wide) with Areca nut seedlings at 1.5m spacing in two rows, Beetle creeper VP at 3m spacing in a single row, Green gram as a cover crop.","Amount (Rs.)":"300,400.00","photopath":"https://raw.githubusercontent.com/MWS003-GIS/MWS003-GIS.github.io/main/IWWRMP/Data/EXD/200_photo/MWS_012/Hk21.jpg"},"geometry":{"type":"Point","coordinates":[80.78237,7.172456]}},
{"type":"Feature","properties":{"No":54,"GND No.":"496 A","Scheme":"Kahitiye Oya","N":7.174264,"E":80.76702,"Observation":"bank erosion of paddy fields on both sides","Description":"1. Vegetative cover improving, replanting bamboo species and vetiver grass or riparian species at 500mm grid interval.\n2. Vegetative cover improving with Areca nut seedling at 1.5m spacing in a single row, Kumbuk/ Mee/ Godapara/ Kaduru/ Aththikka/ Wal Del/ Kekuna/ randomly mixed seedlings and dense planting at 500mm grid interval.","Amount (Rs.)":"308,100.00","photopath":"https://raw.githubusercontent.com/MWS003-GIS/MWS003-GIS.github.io/main/IWWRMP/Data/EXD/200_photo/MWS_012/Ab2.jpg"},"geometry":{"type":"Point","coordinates":[80.76702,7.174264]}},
{"type":"Feature","properties":{"No":55,"GND No.":"496 A","Scheme":"Alawala Oya","N":7.177713,"E":80.76711,"Observation":"bank erosion on both sides","Description":"1. Vegetative cover improving, replanting bamboo species and vetiver grass or riparian species at 500mm grid interval.\n2. Vegetative cover improving with Areca nut seedling at 1.5m spacing in a single row, Kumbuk/ Mee/ Godapara/ Kaduru/ Aththikka/ Wal Del/ Kekuna/ randomly mixed seedlings and dense planting at 500mm grid interval.","Amount (Rs.)":"740,000.00","photopath":"https://raw.githubusercontent.com/MWS003-GIS/MWS003-GIS.github.io/main/IWWRMP/Data/EXD/200_photo/MWS_012/ab9.jpg"},"geometry":{"type":"Point","coordinates":[80.76711,7.177713]}},
{"type":"Feature","properties":{"No":56,"GND No.":"496 B","Scheme":"Minegaharawa Kandura","N":7.177991,"E":80.76859,"Observation":"Soil erosion","Description":"1. Construction of leader drain across streams -1m(W)x1m(H).\n2. Vegetative cover improving (1.5m-2.0m wide) with Areca nut seedlings at 1.5m spacing in two rows, Beetle creeper VP at 3m spacing in a single row, Green gram as a cover crop.","Amount (Rs.)":"294,000.00","photopath":"https://raw.githubusercontent.com/MWS003-GIS/MWS003-GIS.github.io/main/IWWRMP/Data/EXD/200_photo/MWS_012/A (02)1.jpg"},"geometry":{"type":"Point","coordinates":[80.76859,7.177991]}},
{"type":"Feature","properties":{"No":57,"GND No.":"496 B","Scheme":"Torrent near Maha Vidyalaya","N":7.17887,"E":80.76715,"Observation":"Erosion of the canal","Description":"1. Construction of leader drain across streams -1m(W)x1m(H)\n2. Vegetative cover improving (1.5m-2.0m wide) with Areca nut seedlings at 1.5m spacing in two rows, Beetle creeper VP at 3m spacing in a single row, Green gram as a cover crop.","Amount (Rs.)":"294,000.00","photopath":"https://raw.githubusercontent.com/MWS003-GIS/MWS003-GIS.github.io/main/IWWRMP/Data/EXD/200_photo/MWS_012/A (02)2.jpg"},"geometry":{"type":"Point","coordinates":[80.76715,7.17887]}},
{"type":"Feature","properties":{"No":58,"GND No.":"496 B","Scheme":"Alawala Oya","N":7.178642,"E":80.7673,"Observation":"Soil erosion","Description":"Vegetative cover improving (1.5m-2.0m wide) with Areca nut seedlings at 1.5m spacing in two rows, Beetle creeper VP at 3m spacing in a single row, Green gram as a cover crop.","Amount (Rs.)":"47,000.00","photopath":"https://raw.githubusercontent.com/MWS003-GIS/MWS003-GIS.github.io/main/IWWRMP/Data/EXD/200_photo/MWS_012/A (02)3.jpg"},"geometry":{"type":"Point","coordinates":[80.7673,7.178642]}},
{"type":"Feature","properties":{"No":59,"GND No.":"496 C","Scheme":"Kirinde Kandura","N":7.171873,"E":80.76047,"Observation":"Soil erosion","Description":"Vegetative cover improving (1.5m-2.0m wide) with Areca nut seedlings at 1.5m spacing in two rows, Beetle creeper VP at 3m spacing in a single row, Green gram as a cover crop.","Amount (Rs.)":"235,000.00","photopath":"https://raw.githubusercontent.com/MWS003-GIS/MWS003-GIS.github.io/main/IWWRMP/Data/EXD/200_photo/MWS_012/DP (02)1.jpg"},"geometry":{"type":"Point","coordinates":[80.76047,7.171873]}},
{"type":"Feature","properties":{"No":60,"GND No.":"496 C","Scheme":"Pitala Kandura","N":7.175082,"E":80.76053,"Observation":"Soil erosion","Description":"1. Construction of leader drain across streams -1m(W)x1m(H)\n2. Vegetative cover improving (1.5m-2.0m wide) with Areca nut seedlings at 1.5m spacing in two rows, Beetle creeper VP at 3m spacing in a single row, Green gram as a cover crop.","Amount (Rs.)":"541,000.00","photopath":"https://raw.githubusercontent.com/MWS003-GIS/MWS003-GIS.github.io/main/IWWRMP/Data/EXD/200_photo/MWS_012/DP (02)2.jpg"},"geometry":{"type":"Point","coordinates":[80.76053,7.175082]}},
{"type":"Feature","properties":{"No":61,"GND No.":"496","Scheme":"Torrent 1","N":7.164555,"E":80.76242,"Observation":"The culvert across the road is blocked with soil","Description":"1. Removing silt from canal bed depth up to 9\"-18\"\n2. 1. Construction of leader drain across streams -1m(W)x1m(H)\n3. Vegetative cover improving (1.5m-2.0m wide) with Areca nut seedlings at 1.5m spacing in two rows, Beetle creeper VP at 3m spacing in a single row, Green gram as a cover crop.","Amount (Rs.)":"159,993.75","photopath":"https://raw.githubusercontent.com/MWS003-GIS/MWS003-GIS.github.io/main/IWWRMP/Data/EXD/200_photo/MWS_012/hg7.jpg"},"geometry":{"type":"Point","coordinates":[80.76242,7.164555]}},
{"type":"Feature","properties":{"No":62,"GND No.":"496","Scheme":"Dodamgolla Kandura","N":7.163908,"E":80.76353,"Observation":"Land erosion on both sides","Description":"1. Construction of leader drain across streams -1m(W)x1m(H)\n2. Vegetative cover improving (1.5m-2.0m wide) with Areca nut seedlings at 1.5m spacing in two rows, Beetle creeper VP at 3m spacing in a single row, Green gram as a cover crop.","Amount (Rs.)":"247,000.00","photopath":"https://raw.githubusercontent.com/MWS003-GIS/MWS003-GIS.github.io/main/IWWRMP/Data/EXD/200_photo/MWS_012/hg14.jpg"},"geometry":{"type":"Point","coordinates":[80.76353,7.163908]}},
{"type":"Feature","properties":{"No":63,"GND No.":"497 A","Scheme":"Kinsgway Watta Kandura (Aliya Watunu Dowa)","N":7.1776,"E":80.75481,"Observation":"Washing away paddy lands on both sides","Description":"1. Boulder /Rubble dams (SABO) across streams to trap sediment-Size 3m(L)x2m(W)x1m(H).\n2. Vegetative cover improving with Areca nut seedling at 1.5m spacing in a single row, Kumbuk/ Mee/ Godapara/ Kaduru/ Aththikka/ Wal Del/ Kekuna/ randomly mixed seedlings and dense planting at 500mm grid interval.\n3. Vegetative cover improving (1.5m-2.0m wide) with Areca nut seedlings at 1.5m spacing in two rows, Beetle creeper VP at 3m spacing in a single row, Green gram as a cover crop.","Amount (Rs.)":"519,400.00","photopath":"https://raw.githubusercontent.com/MWS003-GIS/MWS003-GIS.github.io/main/IWWRMP/Data/EXD/200_photo/MWS_012/R2.jpg"},"geometry":{"type":"Point","coordinates":[80.75481,7.1776]}},
{"type":"Feature","properties":{"No":64,"GND No.":"497 A","Scheme":"Narang Kandura","N":7.173411,"E":80.74927,"Observation":"bank erosion on both sides","Description":"1. Boulder /Rubble dams (SABO) across streams to trap sediment-Size 3m(L)x2m(W)x1m(H).\n2. Vegetative cover improving with Areca nut seedling at 1.5m spacing in a single row, Kumbuk/ Mee/ Godapara/ Kaduru/ Aththikka/ Wal Del/ Kekuna/ randomly mixed seedlings and dense planting at 500mm grid interval.\n3. Vegetative cover improving (1.5m-2.0m wide) with Areca nut seedlings at 1.5m spacing in two rows, Beetle creeper VP at 3m spacing in a single row, Green gram as a cover crop.","Amount (Rs.)":"472,400.00","photopath":"https://raw.githubusercontent.com/MWS003-GIS/MWS003-GIS.github.io/main/IWWRMP/Data/EXD/200_photo/MWS_012/R7.jpg"},"geometry":{"type":"Point","coordinates":[80.74927,7.173411]}},
{"type":"Feature","properties":{"No":65,"GND No.":"497 A","Scheme":"Torrent in the reservation","N":7.171012,"E":80.75324,"Observation":"Land erosion on both sides","Description":"Vegetative cover improving (1.5m-2.0m wide) with Areca nut seedlings at 1.5m spacing in two rows, Beetle creeper VP at 3m spacing in a single row, Green gram as a cover crop  ","Amount (Rs.)":"47,000.00","photopath":"https://raw.githubusercontent.com/MWS003-GIS/MWS003-GIS.github.io/main/IWWRMP/Data/EXD/200_photo/MWS_012/R8.jpg"},"geometry":{"type":"Point","coordinates":[80.75324,7.171012]}},
{"type":"Feature","properties":{"No":66,"GND No.":"492","Scheme":"Conserve the Diyathala Kanda reservation.","N":7.159561,"E":80.79413,"Observation":"Demarcate the boundaries and planting fruit crops and other trees. (Area- 100 acres)","Description":"1. Vegetative cover improving (1.5m-2.0m wide) with Areca nut seedlings at 1.5m spacing in two rows, Beetle creeper VP at 3m spacing in a single row, Green gram as a cover crop.\n2. Vegetative cover improving with Areca nut seedling at 1.5m spacing in a single row, Kumbuk/ Mee/ Godapara/ Kaduru/ Aththikka/ Wal Del/ Kekuna/ randomly mixed seedlings and dense planting at 500mm grid interval","Amount (Rs.)":"361,000.00","photopath":"https://raw.githubusercontent.com/MWS003-GIS/MWS003-GIS.github.io/main/IWWRMP/Data/EXD/200_photo/MWS_012/DU (14)1.jpg"},"geometry":{"type":"Point","coordinates":[80.79413,7.159561]}},
{"type":"Feature","properties":{"No":67,"GND No.":"492 B","Scheme":"Conservation the reservation of Gorakadanda torrent","N":7.151472,"E":80.7878,"Observation":"Protect the Gorakadanda torrent reservation from encroaching by people. ( Area- 1 acre)","Description":"Vegetative cover improving (1.5m-2.0m wide) with Areca nut seedlings at 1.5m spacing in two rows, Beetle creeper VP at 3m spacing in a single row, Green gram as a cover crop.","Amount (Rs.)":"282,000.00","photopath":"https://raw.githubusercontent.com/MWS003-GIS/MWS003-GIS.github.io/main/IWWRMP/Data/EXD/200_photo/MWS_012/DK (14)1.jpg"},"geometry":{"type":"Point","coordinates":[80.7878,7.151472]}},
{"type":"Feature","properties":{"No":68,"GND No.":"492 B","Scheme":"Conserve the reservation of Galkadulla spring.","N":7.156023,"E":80.79136,"Observation":"Demarcating the boundaries and planting areca nut, Kithul, and other forest crops are needed. (the land of 1 acre has already acquired by the DS)","Description":"1. Vegetative cover improving (1.5m-2.0m wide) with Areca nut seedlings at 1.5m spacing in two rows, Beetle creeper VP at 3m spacing in a single row, Green gram as a cover crop.\n2. Vegetative cover improving with Areca nut seedling at 1.5m spacing in a single row, Kumbuk/ Mee/ Godapara/ Kaduru/ Aththikka/ Wal Del/ Kekuna/ randomly mixed seedlings and dense planting at 500mm grid interval","Amount (Rs.)":"502,000.00","photopath":"https://raw.githubusercontent.com/MWS003-GIS/MWS003-GIS.github.io/main/IWWRMP/Data/EXD/200_photo/MWS_012/DK (14)2.jpg"},"geometry":{"type":"Point","coordinates":[80.79136,7.156023]}},
{"type":"Feature","properties":{"No":69,"GND No.":"492 B","Scheme":"Conservation of Dambagahapihilla reservation.","N":7.154117,"E":80.79188,"Observation":"Demarcate the boundaries of the reservation. (Area- 0.5 acres)","Description":"1. Vegetative cover improving (1.5m-2.0m wide) with Areca nut seedlings at 1.5m spacing in two rows, Beetle creeper VP at 3m spacing in a single row, Green gram as a cover crop.\n2. Vegetative cover improving with Areca nut seedling at 1.5m spacing in a single row, Kumbuk/ Mee/ Godapara/ Kaduru/ Aththikka/ Wal Del/ Kekuna/ randomly mixed seedlings and dense planting at 500mm grid interval","Amount (Rs.)":"153,800.00","photopath":"https://raw.githubusercontent.com/MWS003-GIS/MWS003-GIS.github.io/main/IWWRMP/Data/EXD/200_photo/MWS_012/DK (14)3.jpg"},"geometry":{"type":"Point","coordinates":[80.79188,7.154117]}},
{"type":"Feature","properties":{"No":70,"GND No.":"494 A","Scheme":"Develop the reservation of Katukenda Gommana (1 Acre).","N":7.166599,"E":80.76511,"Observation":"Soil erosion of the reservation and continuing the cultivations by encroaching lands.","Description":"1. Vegetative cover improving (1.5m-2.0m wide) with Areca nut seedlings at 1.5m spacing in two rows, Beetle creeper VP at 3m spacing in a single row, Green gram as a cover crop.\n2. Vegetative cover improving with Areca nut seedling at 1.5m spacing in a single row, Kumbuk/ Mee/ Godapara/ Kaduru/ Aththikka/ Wal Del/ Kekuna/ randomly mixed seedlings and dense planting at 500mm grid interval","Amount (Rs.)":"361,000.00","photopath":"Not_Available"},"geometry":{"type":"Point","coordinates":[80.76511,7.166599]}},
{"type":"Feature","properties":{"No":71,"GND No.":"493 A","Scheme":"Conserve the Diyathala Kanda reservation.","N":7.167521,"E":80.78795,"Observation":"Currently this is a forest reservation yet occurs human-caused fires annually. (Area- 100 acres)","Description":"1. Vegetative cover improving (1.5m-2.0m wide) with Areca nut seedlings at 1.5m spacing in two rows, Beetle creeper VP at 3m spacing in a single row, Green gram as a cover crop.\n2. Vegetative cover improving with Areca nut seedling at 1.5m spacing in a single row, Kumbuk/ Mee/ Godapara/ Kaduru/ Aththikka/ Wal Del/ Kekuna/ randomly mixed seedlings and dense planting at 500mm grid interval","Amount (Rs.)":"769,000.00","photopath":"https://raw.githubusercontent.com/MWS003-GIS/MWS003-GIS.github.io/main/IWWRMP/Data/EXD/200_photo/MWS_012/K (14)1.jpg"},"geometry":{"type":"Point","coordinates":[80.78795,7.167521]}},
{"type":"Feature","properties":{"No":72,"GND No.":"493 A","Scheme":"Conserve the Elamallawa Wewa reservation (10 Acres).","N":7.170654,"E":80.78421,"Observation":"The reservation, allocated at the community's request, is currently controlled and maintained by the Pradeshiya Sabha.(Area- 10 acres)","Description":"1. Vegetative cover improving (1.5m-2.0m wide) with Areca nut seedlings at 1.5m spacing in two rows, Beetle creeper VP at 3m spacing in a single row, Green gram as a cover crop.\n2. Vegetative cover improving with Areca nut seedling at 1.5m spacing in a single row, Kumbuk/ Mee/ Godapara/ Kaduru/ Aththikka/ Wal Del/ Kekuna/ randomly mixed seedlings and dense planting at 500mm grid interval.\n3. Vegetative cover improving, replanting bamboo species and vetiver grass or riparian species at 500mm grid interval","Amount (Rs.)":"254,800.00","photopath":"https://raw.githubusercontent.com/MWS003-GIS/MWS003-GIS.github.io/main/IWWRMP/Data/EXD/200_photo/MWS_012/K (14)2.jpg"},"geometry":{"type":"Point","coordinates":[80.78421,7.170654]}},
{"type":"Feature","properties":{"No":73,"GND No.":"494 C","Scheme":"Construction of side walls near the Podi Manike's house","N":7.147925,"E":80.77737,"Observation":"Soil erosion of nearby lands during the rainy days.","Description":"1. Construction of 1:3:6 (1 1/2\") ct concrete retaining wall (height 1.5m, top width 0.15m, 0.50m high)\n2. Vegetative cover improving, replanting bamboo species and vetiver grass or riparian species at 500mm grid interval.","Amount (Rs.)":"414,000.00","photopath":"https://raw.githubusercontent.com/MWS003-GIS/MWS003-GIS.github.io/main/IWWRMP/Data/EXD/200_photo/MWS_012/Rm19.jpg"},"geometry":{"type":"Point","coordinates":[80.77737,7.147925]}}
]}