{"type":"FeatureCollection","name":"WSP","crs":{"type":"name","properties":{"name":"urn:ogc:def:crs:OGC:1.3:CRS84"}},"features":[
{"type":"Feature","properties":{"No":1,"GND No.":"496 C","Name of the Tank":"Hitale Linda","N":7.175087,"E":80.76052,"Observation":"Leakage of water from spring tank","Description":"Construction of two Concrete water storage tank of 20 cum - size internal 3mx3mx2.5","Amount (Rs.)":"1,100,000.00","photopath":"https://raw.githubusercontent.com/MWS003-GIS/MWS003-GIS.github.io/main/IWWRMP/Data/EXD/200_photo/MWS_012/DP (01)1.jpg"},"geometry":{"type":"Point","coordinates":[80.76052,7.175087]}},
{"type":"Feature","properties":{"No":2,"GND No.":"496 C","Name of the Tank":"Madawela Linda","N":7.172989,"E":80.7597,"Observation":"The walls around the well are dilapidated\nWashing away the soil from the land above the spring","Description":"1. Construction of 1.5m high x 0.15m thick RCC wall (0.8m base).\n2. Improving vegetative cover and tree planting around the spring.","Amount (Rs.)":"134,600.00","photopath":"https://raw.githubusercontent.com/MWS003-GIS/MWS003-GIS.github.io/main/IWWRMP/Data/EXD/200_photo/MWS_012/DP (01)2.jpg"},"geometry":{"type":"Point","coordinates":[80.7597,7.172989]}},
{"type":"Feature","properties":{"No":3,"GND No.":"496 C","Name of the Tank":"Kinspe Watta Linda","N":7.1836,"E":80.76016,"Observation":"The wall of the well is dilapidated","Description":"1. Construction of concrete water tank.\n2. Improving vegetative cover with tree planting.","Amount (Rs.)":"586,100.00","photopath":"https://raw.githubusercontent.com/MWS003-GIS/MWS003-GIS.github.io/main/IWWRMP/Data/EXD/200_photo/MWS_012/DP (01)3.jpg"},"geometry":{"type":"Point","coordinates":[80.76016,7.1836]}},
{"type":"Feature","properties":{"No":4,"GND No.":"494","Name of the Tank":"Galketana Well","N":7.168454,"E":80.77694,"Observation":"The capacity of the tank is not enough\nWater leaks from the walls of the well","Description":"1.  Construction of a concrete tank.\n2. Plastering leaking sections to prevent leakages.\n3. Construction of a curtain wall.\n4. Improving vegetative cover with tree planting.","Amount (Rs.)":"77,500.00","photopath":"https://raw.githubusercontent.com/MWS003-GIS/MWS003-GIS.github.io/main/IWWRMP/Data/EXD/200_photo/MWS_012/Dy6.jpg"},"geometry":{"type":"Point","coordinates":[80.77694,7.168454]}},
{"type":"Feature","properties":{"No":5,"GND No.":"495 D","Name of the Tank":"Thissa pokuna","N":7.180792,"E":80.775,"Observation":"The reservation area is there, but the boundaries are not marked\nOn rainy days, the water flowing through the torrent fills the well ","Description":"1. Construction of 1:3:6 (1 1/2\") ct concrete retaining wall (height 0.9m, top width 0.15m, 0.45m high steps x 02, each of 0.15m step width & bottom width 0.45m)\n2. Vegetative cover improving with Areca nut seedling at 1.5m spacing in a single row, Kumbuk/ Mee/ Godapara/ Kaduru/ Aththikka/ Wal Del/ Kekuna/ randomly mixed seedlings and dense planting at 500mm grid interval, applying of compost manure, NPK fertilizer, mulching with straw/ banana tree skin and maintenance","Amount (Rs.)":"98,700.00","photopath":"https://raw.githubusercontent.com/MWS003-GIS/MWS003-GIS.github.io/main/IWWRMP/Data/EXD/200_photo/MWS_012/d4.jpg"},"geometry":{"type":"Point","coordinates":[80.775,7.180792]}},
{"type":"Feature","properties":{"No":6,"GND No.":"494 D","Name of the Tank":"Walabokka Spring","N":7.171822,"E":80.77012,"Observation":"No protection fence\nThe well is dilapidated","Description":"1. Providing barb wire fence with 07 nos of 14G barb wire rows fixed firmly between 7ft high concrete posts erected at 2.0m intervals along the fence\n2. Vegetative cover improving with Areca nut seedling at 1.5m spacing in a single row, Kumbuk/ Mee/ Godapara/ Kaduru/ Aththikka/ Wal Del/ Kekuna/ randomly mixed seedlings and dense planting at 500mm grid interval, applying of compost manure, NPK fertilizer, mulching with straw/ banana tree skin and maintenance","Amount (Rs.)":"174,500.00","photopath":"https://raw.githubusercontent.com/MWS003-GIS/MWS003-GIS.github.io/main/IWWRMP/Data/EXD/200_photo/MWS_012/Dw1.jpg"},"geometry":{"type":"Point","coordinates":[80.77012,7.171822]}},
{"type":"Feature","properties":{"No":7,"GND No.":"492 B","Name of the Tank":"Gal Kadulla Pihilla Ulpatha","N":7.156035,"E":80.79137,"Observation":"The reservation of the spring (About 1 acre) is not protected","Description":"1. Vegetative cover improving with Areca nut seedling at 1.5m spacing in a single row, Kumbuk/ Mee/ Godapara/ Kaduru/ Aththikka/ Wal Del/ Kekuna/ randomly mixed seedlings and dense planting at 500mm grid interval, applying of compost manure, NPK fertilizer, mulching with straw/ banana tree skin and maintenance\n2. Vegetative cover improving (1.5m-2.0m wide) with Areca nut seedlings at 1.5m spacing in two rows, Beetle creeper VP at 3m spacing in a single row, Green gram as a cover crop i","Amount (Rs.)":"65,100.00","photopath":"https://raw.githubusercontent.com/MWS003-GIS/MWS003-GIS.github.io/main/IWWRMP/Data/EXD/200_photo/MWS_012/DK (01)1.jpg"},"geometry":{"type":"Point","coordinates":[80.79137,7.156035]}},
{"type":"Feature","properties":{"No":8,"GND No.":"494 A","Name of the Tank":"Gorakgaha Kumbura Ulpatha","N":7.151634,"E":80.7755,"Observation":"Soil wash-offs above the spring","Description":"1. Construction of 2.1m high RR masonry wall (with section 0.60x0.75, 0.45x0.75, 0.30x0.60) over 0.90m width x 0.15m thick screed  concrete, plastering with 1:3 Menet motor and back filling.\n2. Vegetative cover improving with Areca nut seedling at 1.5m spacing in a single row, Kumbuk/ Mee/ Godapara/ Kaduru/ Aththikka/ Wal Del/ Kekuna/ randomly mixed seedlings and dense planting at 500mm grid interval, applying of compost manure, NPK fertilizer, mulching with straw/ banana tree skin and maintenance","Amount (Rs.)":"141,400.00","photopath":"Not_Available"},"geometry":{"type":"Point","coordinates":[80.7755,7.151634]}},
{"type":"Feature","properties":{"No":9,"GND No.":"494 A","Name of the Tank":"Heda Ulpatha","N":7.15101,"E":80.77762,"Observation":"Soil erosion above the spring ,Spring tank is dilapidated","Description":"Construction of 1.2m high RR masonry wall (with section 0.60x0.60, 0.45x0.60) over 0.75m width x 0.15m thick screed  concrete, plastering with 1:3 Menet mortar and back filling.\n2. Construction of Concrete water storage tank of 20 cum - size internal 3mx3mx2.5\n3. Vegetative cover improving (1.5m-2.0m wide) with Areca nut seedlings at 1.5m spacing in two rows, Beetle creeper VP at 3m spacing in a single row, Green gram as a cover crop","Amount (Rs.)":"794,600.00","photopath":"Not_Available"},"geometry":{"type":"Point","coordinates":[80.77762,7.15101]}},
{"type":"Feature","properties":{"No":10,"GND No.":"495","Name of the Tank":"Nawandeniya Linda","N":7.176707,"E":80.77514,"Observation":"No reservation area\nLeakage of water from tanks\nEndangerment of the area around the well","Description":"1. Construction of curtain wall (0.075mm thick) with 1:2:4 (3/4\") concrete, 1/2\" dowels at 600mm x 600mm intervals and embedded with chicken mesh.\n2. Vegetative cover improving with Areca nut seedling at 1.5m spacing in a single row, Kumbuk/ Mee/ Godapara/ Kaduru/ Aththikka/ Wal Del/ Kekuna/ randomly mixed seedlings and dense planting at 500mm grid interval. ","Amount (Rs.)":"98,700.00","photopath":"https://raw.githubusercontent.com/MWS003-GIS/MWS003-GIS.github.io/main/IWWRMP/Data/EXD/200_photo/MWS_012/Hk1.jpg"},"geometry":{"type":"Point","coordinates":[80.77514,7.176707]}},
{"type":"Feature","properties":{"No":11,"GND No.":"495","Name of the Tank":"Pansale Linda","N":7.177436,"E":80.77721,"Observation":"No reservation area\nLess capacity of the well","Description":"1. Construction of curtain wall (0.075mm thick) with 1:2:4 (3/4\") concrete, 1/2\" dowels at 600mm x 600mm intervals and embedded with chicken mesh\n2. Vegetative cover improving (1.5m-2.0m wide) with Areca nut seedlings at 1.5m spacing in two rows, Beetle creeper VP at 3m spacing in a single row, Green gram as a cover crop including applying of compost manure, NPK fertilizer and maintenance","Amount (Rs.)":"25,000.00","photopath":"https://raw.githubusercontent.com/MWS003-GIS/MWS003-GIS.github.io/main/IWWRMP/Data/EXD/200_photo/MWS_012/Hk4.jpg"},"geometry":{"type":"Point","coordinates":[80.77721,7.177436]}},
{"type":"Feature","properties":{"No":12,"GND No.":"495","Name of the Tank":"Oorugaha Linda","N":7.176619,"E":80.77864,"Observation":"No reservation area\nWater in the well is dirt\nLeakage of water through the side walls of the well\nNo place to bath\nLess capacity of the tank","Description":"1. Construction of Concrete water storage tank of 20 cum - size internal 3mx3mx2.5.\n2. 1/2\" thick 1:3 cement motor plastering to prevent leakages in lining\n3. Vegetative cover improving with Areca nut seedling at 1.5m spacing in a single row, Kumbuk/ Mee/ Godapara/ Kaduru/ Aththikka/ Wal Del/ Kekuna/ randomly mixed seedlings and dense planting at 500mm grid interval, applying of compost manure, NPK fertilizer, mulching with straw/ banana tree skin and maintenance","Amount (Rs.)":"625,000.00","photopath":"https://raw.githubusercontent.com/MWS003-GIS/MWS003-GIS.github.io/main/IWWRMP/Data/EXD/200_photo/MWS_012/Hk5.jpg"},"geometry":{"type":"Point","coordinates":[80.77864,7.176619]}},
{"type":"Feature","properties":{"No":13,"GND No.":"495","Name of the Tank":"Spring in the Sirimavo National School","N":7.174867,"E":80.77954,"Observation":"A reservation area is not allocated","Description":"Providing barb wire fence with 07 nos of 14G barb wire rows fixed firmly between 7ft high concrete posts erected at 2.0m intervals along the fence.\n2. Vegetative cover improving (1.5m-2.0m wide) with Areca nut seedlings at 1.5m spacing in two rows, Beetle creeper VP at 3m spacing in a single row, Green gram as a cover crop","Amount (Rs.)":"270,500.00","photopath":"https://raw.githubusercontent.com/MWS003-GIS/MWS003-GIS.github.io/main/IWWRMP/Data/EXD/200_photo/MWS_012/Hk8.jpg "},"geometry":{"type":"Point","coordinates":[80.77954,7.174867]}},
{"type":"Feature","properties":{"No":14,"GND No.":"496","Name of the Tank":"Hikanthale Wawe Linda","N":7.169648,"E":80.75903,"Observation":"Leakage of water through the side walls of the well","Description":"1. 1/2\" thick 1:3 cement mortar plastering to prevent leakages in lining\n2. Construction of curtain wall (0.075mm thick) with 1:2:4 (3/4\") concrete, 1/2\" dowels at 600mm x 600mm intervals and embedded with chicken mesh.3. Vegetative cover improving (1.5m-2.0m wide) with Areca nut seedlings at 1.5m spacing in two rows, Beetle creeper VP at 3m spacing in a single row, Green gram as a cover crop","Amount (Rs.)":"51,700.00","photopath":"https://raw.githubusercontent.com/MWS003-GIS/MWS003-GIS.github.io/main/IWWRMP/Data/EXD/200_photo/MWS_012/hg2.jpg"},"geometry":{"type":"Point","coordinates":[80.75903,7.169648]}},
{"type":"Feature","properties":{"No":15,"GND No.":"496","Name of the Tank":"Spring near the Community Hall","N":7.168845,"E":80.75805,"Observation":" The spring is located on a private land           The capacity of the tank is insufficient","Description":"1. Construction of Concrete water storage tank of 20 cum - size internal 3mx3mx2.5.\n2. Vegetative cover improving, replanting bamboo species and vetiver grass or riparian species at 500mm grid interval.","Amount (Rs.)":"600,500.00","photopath":"https://raw.githubusercontent.com/MWS003-GIS/MWS003-GIS.github.io/main/IWWRMP/Data/EXD/200_photo/MWS_012/hg4.1.jpg"},"geometry":{"type":"Point","coordinates":[80.75805,7.168845]}},
{"type":"Feature","properties":{"No":16,"GND No.":"493 A","Name of the Tank":"Bathgala well","N":7.164886,"E":80.7826,"Observation":"Water leaks from the walls of the well\nAccumulation of agrochemicals from surrounding paddy lands ","Description":"1. Construction of two Concrete water storage tank of 20 cum - size internal 3mx3mx2.5.\n2. Construction of 1:3:6 (1 1/2\") ct concrete retaining wall (height 0.9m, top width 0.15m, 0.45m high.\n3. Vegetative cover improving (1.5m-2.0m wide) with Areca nut seedlings at 1.5m spacing in two rows, Beetle creeper VP at 3m spacing in a single row, Green gram as a cover crop","Amount (Rs.)":"1,140,000.00","photopath":"https://raw.githubusercontent.com/MWS003-GIS/MWS003-GIS.github.io/main/IWWRMP/Data/EXD/200_photo/MWS_012/K (01)1.jpg"},"geometry":{"type":"Point","coordinates":[80.7826,7.164886]}},
{"type":"Feature","properties":{"No":17,"GND No.":"493","Name of the Tank":"Arawe Ulpatha","N":7.162165,"E":80.77862,"Observation":"The construction of the spring is dilapidated","Description":"1. Construction of Concrete water storage tank of 20 cum - size internal 3mx3mx2.5.\n2.  Vegetative cover improving (1.5m-2.0m wide) with Areca nut seedlings at 1.5m spacing in two rows, Beetle creeper VP at 3m spacing in a single row, Green gram as a cover crop","Amount (Rs.)":"1,111,700.00","photopath":"https://raw.githubusercontent.com/MWS003-GIS/MWS003-GIS.github.io/main/IWWRMP/Data/EXD/200_photo/MWS_012/M (01)1.jpg"},"geometry":{"type":"Point","coordinates":[80.77862,7.162165]}},
{"type":"Feature","properties":{"No":18,"GND No.":"495 C","Name of the Tank":"Hirage Pihilla Well","N":7.182268,"E":80.77287,"Observation":"Water leaks from the tank","Description":"1. 1/2\" thick 1:3 cement mortar plastering to prevent leakages in lining.\n2. Vegetative cover improving (1.5m-2.0m wide) with Areca nut seedlings at 1.5m spacing in two rows, Beetle creeper VP at 3m spacing in a single row, Green gram as a cover crop","Amount (Rs.)":"17,000.00","photopath":"https://raw.githubusercontent.com/MWS003-GIS/MWS003-GIS.github.io/main/IWWRMP/Data/EXD/200_photo/MWS_012/Pm1.jpg"},"geometry":{"type":"Point","coordinates":[80.77287,7.182268]}},
{"type":"Feature","properties":{"No":19,"GND No.":"495 C","Name of the Tank":"Gabada Linda","N":7.181292,"E":80.77478,"Observation":"Water leaks from the tank","Description":"1. 1/2\" thick 1:3 cement mortar plastering to prevent leakages in lining\n2. Providing PVC pipes, pipe joints, etc.. to convey water from tank exists at higher elevation.\n3. Vegetative cover improving (1.5m-2.0m wide) with Areca nut seedlings at 1.5m spacing in two rows, Beetle creeper VP at 3m spacing in a single row, Green gram as a cover crop","Amount (Rs.)":"37,200.00","photopath":"https://raw.githubusercontent.com/MWS003-GIS/MWS003-GIS.github.io/main/IWWRMP/Data/EXD/200_photo/MWS_012/Pm7.jpg"},"geometry":{"type":"Point","coordinates":[80.77478,7.181292]}},
{"type":"Feature","properties":{"No":20,"GND No.":"494 C","Name of the Tank":"Thamana Watershed","N":7.156648,"E":80.76806,"Observation":"No storage tank to store water\n Difficulty to get water for the houses in high elevations                         ","Description":"1. Construction of Concrete water storage tank of 20 cum - size internal 3mx3mx2.5.\n2. Vegetative cover improving (1.5m-2.0m wide) with Areca nut seedlings at 1.5m spacing in two rows, Beetle creeper VP at 3m spacing in a single row, Green gram as a cover crop.\n3. Vegetative cover improving with Areca nut seedling at 1.5m spacing in a single row, Kumbuk/ Mee/ Godapara/ Kaduru/ Aththikka/ Wal Del/ Kekuna/ randomly mixed seedlings and dense planting at 500mm grid interval.","Amount (Rs.)":"600,200.00","photopath":"https://raw.githubusercontent.com/MWS003-GIS/MWS003-GIS.github.io/main/IWWRMP/Data/EXD/200_photo/MWS_012/Rm1.jpg"},"geometry":{"type":"Point","coordinates":[80.76806,7.156648]}},
{"type":"Feature","properties":{"No":21,"GND No.":"494 C","Name of the Tank":"Nommara 1 well","N":7.159929,"E":80.7656,"Observation":"The boundary of the reservation is not demarcated","Description":"1.Construction of 1.2m high RR masonry  wall (with section 0.60x0.60, 0.45x0.60) over 0.75m width x 0.15m thick screed  concrete, plastering with 1:3 Menet mortar and back filling.\n2. Providing barb wire fence with 07 nos of 14G barb wire rows fixed firmly between 7ft high concrete posts erected at 2.0m intervals along the fence.\n3. Vegetative cover improving (1.5m-2.0m wide) with Areca nut seedlings at 1.5m spacing in two rows, Beetle creeper VP at 3m spacing in a single row, Green gram as a cover crop ","Amount (Rs.)":"506,100.00","photopath":"https://raw.githubusercontent.com/MWS003-GIS/MWS003-GIS.github.io/main/IWWRMP/Data/EXD/200_photo/MWS_012/Rm5.jpg"},"geometry":{"type":"Point","coordinates":[80.7656,7.159929]}},
{"type":"Feature","properties":{"No":22,"GND No.":"494 C","Name of the Tank":"Nommara 1 well","N":7.153821,"E":80.77277,"Observation":"No reservation area\nThe well is dilapidated\nOn rainy days, the water flowing through the torrent fills the well ","Description":"1. Construction of 1:3:6 (1 1/2\") ct concrete retaining wall (height 1.8m, top width 0.15m)\n2. Construction of 1.2m high RR masonry  wall (with section 0.60x0.60, 0.45x0.60)\n3. Vegetative cover improving (1.5m-2.0m wide) with Areca nut seedlings at 1.5m spacing in two rows, Beetle creeper VP at 3m spacing in a single row, Green gram as a cover crop ","Amount (Rs.)":"250,000.00","photopath":"https://raw.githubusercontent.com/MWS003-GIS/MWS003-GIS.github.io/main/IWWRMP/Data/EXD/200_photo/MWS_012/Rm10.jpg"},"geometry":{"type":"Point","coordinates":[80.77277,7.153821]}},
{"type":"Feature","properties":{"No":23,"GND No.":"494 C","Name of the Tank":"Nommara 1 drinking water well","N":7.159938,"E":80.7657,"Observation":"The spring is not conserved","Description":"1. Construction of 1.2m high RR masonry  wall (with section 0.60x0.60, 0.45x0.60) over 0.75m width x 0.15m thick screed  concrete, plastering with 1:3 Menet mortar and back filling\n2. Providing barb wire fence with 07 nos of 14G barb wire rows fixed firmly between 7ft high concrete posts erected at 2.0m intervals along the fence\n3. Vegetative cover improving (1.5m-2.0m wide) with Areca nut seedlings at 1.5m spacing in two rows, Beetle creeper VP at 3m spacing in a single row, Green gram as a cover crop ","Amount (Rs.)":"480,000.00","photopath":"https://raw.githubusercontent.com/MWS003-GIS/MWS003-GIS.github.io/main/IWWRMP/Data/EXD/200_photo/MWS_012/Rm1.jpg"},"geometry":{"type":"Point","coordinates":[80.7657,7.159938]}},
{"type":"Feature","properties":{"No":24,"GND No.":"494 C","Name of the Tank":"Common Well","N":7.15894,"E":80.76726,"Observation":"No reservation area\nThe well not repaired","Description":"1. Construction of Concrete water storage tank of 20 cum - size internal 3mx3mx2.5\n2. Providing barb wire fence with 07 nos of 14G barb wire rows fixed firmly between 7ft high concrete posts erected at 2.0m intervals along the fence.\n3. Vegetative cover improving (1.5m-2.0m wide) with Areca nut seedlings at 1.5m spacing in two rows, Beetle creeper VP at 3m spacing in a single row, Green gram as a cover crop ","Amount (Rs.)":"820,500.00","photopath":"https://raw.githubusercontent.com/MWS003-GIS/MWS003-GIS.github.io/main/IWWRMP/Data/EXD/200_photo/MWS_012/Rm7.jpg"},"geometry":{"type":"Point","coordinates":[80.76726,7.15894]}},
{"type":"Feature","properties":{"No":25,"GND No.":"494 C","Name of the Tank":"Forest Reserve near Kovil","N":7.15791,"E":80.7687,"Observation":"No reservation area","Description":"1. Construction of Concrete water storage tank of 20 cum - size internal 3mx3mx2.5\n2. Providing barb wire fence with 07 nos of 14G barb wire rows fixed firmly between 7ft high concrete posts erected at 2.0m intervals along the fence.\n3. Vegetative cover improving (1.5m-2.0m wide) with Areca nut seedlings at 1.5m spacing in two rows, Beetle creeper VP at 3m spacing in a single row, Green gram as a cover crop.","Amount (Rs.)":"844,000.00","photopath":"https://raw.githubusercontent.com/MWS003-GIS/MWS003-GIS.github.io/main/IWWRMP/Data/EXD/200_photo/MWS_012/Rm8.jpg"},"geometry":{"type":"Point","coordinates":[80.7687,7.15791]}},
{"type":"Feature","properties":{"No":26,"GND No.":"492A","Name of the Tank":"Diyabubula Ulpatha\n(Madugahamula)","N":7.147163,"E":80.78324,"Observation":"Reservation boundary is not separated","Description":"1. Providing barb wire fence with 07 nos of 14G barb wire rows fixed firmly between 7ft high concrete posts erected at 2.0m intervals along the fence.\n2. Vegetative cover improving (1.5m-2.0m wide) with Areca nut seedlings at 1.5m spacing in two rows, Beetle creeper VP at 3m spacing in a single row, Green gram as a cover crop ","Amount (Rs.)":"270,500.00","photopath":"https://raw.githubusercontent.com/MWS003-GIS/MWS003-GIS.github.io/main/IWWRMP/Data/EXD/200_photo/MWS_012/Rg1.jpg"},"geometry":{"type":"Point","coordinates":[80.78324,7.147163]}},
{"type":"Feature","properties":{"No":27,"GND No.":"492 A","Name of the Tank":"Diyabubula Watershed","N":7.147143,"E":80.78421,"Observation":"A reservation is not allocated","Description":"1. Construction of Concrete water storage tank of 20 cum - size internal 3mx3mx2.5.\n2. Removing silt from canal bed\n3. Construction of 1.2m high RR masonry  wall (with section 0.60x0.60, 0.45x0.60)\n4. 1/2\" thick 1:3 cement mortar plastering to prevent leakages in lining.\n5. Vegetative cover improving (1.5m-2.0m wide) with Areca nut seedlings at 1.5m spacing in two rows, Beetle creeper VP at 3m spacing in a single row, Green gram as a cover crop","Amount (Rs.)":"925,400.00","photopath":"https://raw.githubusercontent.com/MWS003-GIS/MWS003-GIS.github.io/main/IWWRMP/Data/EXD/200_photo/MWS_012/Rg7.jpg "},"geometry":{"type":"Point","coordinates":[80.78421,7.147143]}},
{"type":"Feature","properties":{"No":28,"GND No.":"492 C","Name of the Tank":"Uda Oya","N":7.155091,"E":80.77932,"Observation":"On rainy days, the water flowing through the torrent fills the well and there is a risk of damaging the pipes","Description":"Construction of 2.1m high RR masonry  wall (with section 0.60x0.75, 0.45x0.75, 0.30x0.60) over 0.90m width x 0.15m thick screed  concrete, plastering with 1:3 Menet mortar and back filling","Amount (Rs.)":"143,500.00","photopath":"https://raw.githubusercontent.com/MWS003-GIS/MWS003-GIS.github.io/main/IWWRMP/Data/EXD/200_photo/MWS_012/Ww1.jpg"},"geometry":{"type":"Point","coordinates":[80.77932,7.155091]}}
]}