{"type":"FeatureCollection","name":"SR","crs":{"type":"name","properties":{"name":"urn:ogc:def:crs:OGC:1.3:CRS84"}},"features":[
{"type":"Feature","properties":{"No":1,"GND No.":"60","Scheme":"Mathetilla Oya","N":6.866556,"E":80.953216,"Observation":"During the rainy season when too much water flows, Bank erosion occurs","Description":"Arrange stone packing-rubble packing-River bank\n\nVegetative cover improving along the river banks Areca nut seedling in 1.5m x 1.5m grid, Kumbuk/ Mee/ Godapara/ Kaduru/ Aththikka/ Wal Del/ Kekuna/ randomly mixed seedlings and planting at 3.5m x 3.5 m gri","Amount (Rs.)":"715,000","photopath":"https://raw.githubusercontent.com/MWS003-GIS/MWS003-GIS.github.io/main/IWWRMP/Data/EXD/200_photo/MWS_054/Mathetilla Oya.jpg"},"geometry":{"type":"Point","coordinates":[80.953216,6.866556]}},
{"type":"Feature","properties":{"No":2,"GND No.":"60A","Scheme":"Modaran Ulpatha Deniya","N":6.854846,"E":80.926436,"Observation":"Reserves have been set aside.","Description":"Remove unauthorized cultivation\n\nContingencies 10%","Amount (Rs.)":"33,000","photopath":"https://raw.githubusercontent.com/MWS003-GIS/MWS003-GIS.github.io/main/IWWRMP/Data/EXD/200_photo/MWS_054/Modaran Ulpatha Deniya.jpg"},"geometry":{"type":"Point","coordinates":[80.926436,6.854846]}},
{"type":"Feature","properties":{"No":3,"GND No.":"60D","Scheme":"Udowe canal","N":6.845865,"E":80.938703,"Observation":"Existing Earthen canal,  some places Constructed of rectangular concrete lining450mm x 450mm)   Water from this canal is used to grow paddy on an area of about 80 acres.","Description":"Construction of concrete canal\n\nSite preparation & setting out\n\nEarth excavation for foundation or quarry materials and haul the surplus materials up to 30m by Manually.\n\nPlywood form work including making, fixing & removing for concrete canals at ground","Amount (Rs.)":"368,500","photopath":"https://raw.githubusercontent.com/MWS003-GIS/MWS003-GIS.github.io/main/IWWRMP/Data/EXD/200_photo/MWS_054/Udowe canal.jpg"},"geometry":{"type":"Point","coordinates":[80.938703,6.845865]}}
]}