{"type":"FeatureCollection","name":"SWC_ON","crs":{"type":"name","properties":{"name":"urn:ogc:def:crs:OGC:1.3:CRS84"}},"features":[
{"type":"Feature","properties":{"No.":1,"GND No.":"60","GND Name":"Mirahawatta","Key Activities proposed for Soil and Water conservation":"1. Soil conservation practices -  Balathotella (50°-65°)","Priority based on Soil Erosion Hazard":1,"N":6.87276,"E":80.949342,"Quantity":"12 ha","Proposed measure/s":"1. Live fencing/SALT  - 9000 m","Uniti_Cost":"250.00 m-1","Total_Cost":2250000,"Contribution (Local Community, LA, and the project)":"Labour and other basic services by the Local community","Time frame for the implementation":"0.25 Years","photopath":"https://raw.githubusercontent.com/MWS003-GIS/MWS003-GIS.github.io/main/IWWRMP/Data/EXD/200_photo/MWS_054/Tea land.jpg"},"geometry":{"type":"Point","coordinates":[80.949342,6.87276]}},
{"type":"Feature","properties":{"No.":6,"GND No.":"60E","GND Name":"Hingurugamuwa","Key Activities proposed for Soil and Water conservation":"1. Soil conservation practices - Hingurugamuwa Ellegama (45°-50°)","Priority based on Soil Erosion Hazard":5,"N":6.83808,"E":80.930904,"Quantity":"20 ha","Proposed measure/s":"1. Live fencing/SALT  - 15,000 m","Uniti_Cost":"250.00 m-1","Total_Cost":3750000,"Contribution (Local Community, LA, and the project)":"Labour and other basic services by the Local community","Time frame for the implementation":"0.25 Years","photopath":"https://raw.githubusercontent.com/MWS003-GIS/MWS003-GIS.github.io/main/IWWRMP/Data/EXD/200_photo/MWS_054/Tea land.jpg"},"geometry":{"type":"Point","coordinates":[80.930904,6.83808]}}
]}