{"type":"FeatureCollection","name":"MI","crs":{"type":"name","properties":{"name":"urn:ogc:def:crs:OGC:1.3:CRS84"}},"features":[
{"type":"Feature","properties":{"No":1,"GND No.":1000,"Scheme":"Ihala aswedduma anicut","N":7.22274,"E":80.73184,"Observation":"-","Description":"Dilapidated anicut structure and inlet canal. Need 4mx1.5m high anicut and 10mX2m high retaining wall.","Amount (Rs.)":"273,600","photopath":"https://raw.githubusercontent.com/MWS003-GIS/MWS003-GIS.github.io/main/IWWRMP/Data/EXD/200_photo/MWS_006_1/Madadeniya/MD(04)1.jpg"},"geometry":{"type":"Point","coordinates":[80.73184,7.22274]}}
]}