{"type":"FeatureCollection","name":"WSP","crs":{"type":"name","properties":{"name":"urn:ogc:def:crs:OGC:1.3:CRS84"}},"features":[
{"type":"Feature","properties":{"No":1,"GND No.":1007,"Name of the Tank":"Arawa kandura kurudhumulla springs","N":7.221154,"E":80.734585,"Observation":null,"Description":"Spring location is difficult to access. Recommend 1. 100 sqm reservation and dense randomly mixed natural reforestation, and single row of Areca, Vetiver plantation. 2. To construct small pond structure and 50 long 40mm Diameter delivery pipe for free flow ","Amount (Rs.)":"94,600","photopath":"https://raw.githubusercontent.com/MWS003-GIS/MWS003-GIS.github.io/main/IWWRMP/Data/EXD/200_photo/MWS_006_1/Marassana/MRS0101.jpg"},"geometry":{"type":"Point","coordinates":[80.734585,7.221154]}},
{"type":"Feature","properties":{"No":2,"GND No.":1010,"Name of the Tank":"Hindagoda Kumbukgahamula well","N":7.212455,"E":80.73656,"Observation":null,"Description":"Reservation is drying. Surface water leak through protection wall. 1. Recommend 1:3 cement sand replastering and smooth finish with cement float after removing old plastering in to inner and outer surfaces. (35 Sq.m). 2. establish dense Kumbuk, Mee, Kekuna, Areca nut etc randomly mixed potential vegetation for 100 Sq.m reservation.","Amount (Rs.)":"70,700","photopath":"Not_Available"},"geometry":{"type":"Point","coordinates":[80.73656,7.212455]}},
{"type":"Feature","properties":{"No":3,"GND No.":1010,"Name of the Tank":"Well near the Ambalama","N":7.213628,"E":80.732178,"Observation":null,"Description":"Reservation is drying. Recommend establishing dense Kumbuk, Mee, Kekuna, Areca nut etc randomly mixed potential vegetation for 100 Sq.m reservation.","Amount (Rs.)":"28,700","photopath":"https://raw.githubusercontent.com/MWS003-GIS/MWS003-GIS.github.io/main/IWWRMP/Data/EXD/200_photo/MWS_006_1/Alikewala/AK13.jpg"},"geometry":{"type":"Point","coordinates":[80.732178,7.213628]}},
{"type":"Feature","properties":{"No":4,"GND No.":1012,"Name of the Tank":"Dangamuwa well","N":7.205697,"E":80.740327,"Observation":null,"Description":"Contaminated and not using currently. Recommend 1. dewatering to clean the well and fixed a net with a GI pipe frame. 2. Need 200 sqm reservation and plant dense randomly mixed natural reforestation, and single row of areca, vetiver plantation enrich with riparian species.","Amount (Rs.)":"150,000","photopath":"https://raw.githubusercontent.com/MWS003-GIS/MWS003-GIS.github.io/main/IWWRMP/Data/EXD/200_photo/MWS_006_1/Kirawanagoda/KI15.jpg"},"geometry":{"type":"Point","coordinates":[80.740327,7.205697]}},
{"type":"Feature","properties":{"No":5,"GND No.":1013,"Name of the Tank":"Yatale Well","N":7.215439,"E":80.72438,"Observation":null,"Description":"100 families / Protective wall surfaces are perishing. Recommended (to fully clean )chip off existing wall plastering and floor rendering in the pavement and completely re plaster with minimum 20mm thick 1:3 cement sand mortar finish smooth in cement float. (55 Sq.m)","Amount (Rs.)":"75,000","photopath":"https://raw.githubusercontent.com/MWS003-GIS/MWS003-GIS.github.io/main/IWWRMP/Data/EXD/200_photo/MWS_006_1/Kandewela/K4.jpg"},"geometry":{"type":"Point","coordinates":[80.72438,7.215439]}},
{"type":"Feature","properties":{"No":6,"GND No.":1013,"Name of the Tank":"Pansal Kumbure well","N":7.215227,"E":80.720023,"Observation":null,"Description":"Contaminated & No users. Rehabilitation is not required.","Amount (Rs.)":"-","photopath":"https://raw.githubusercontent.com/MWS003-GIS/MWS003-GIS.github.io/main/IWWRMP/Data/EXD/200_photo/MWS_006_1/Kandewela/K10.jpg"},"geometry":{"type":"Point","coordinates":[80.720023,7.215227]}},
{"type":"Feature","properties":{"No":7,"GND No.":1013,"Name of the Tank":"Storage tank near Moragaha Kumbura ","N":7.214032,"E":80.718857,"Observation":null,"Description":"Abandoned & No users. Rehabilitation is not required.","Amount (Rs.)":"-","photopath":"https://raw.githubusercontent.com/MWS003-GIS/MWS003-GIS.github.io/main/IWWRMP/Data/EXD/200_photo/MWS_006_1/Kandewela/K11.jpg"},"geometry":{"type":"Point","coordinates":[80.718857,7.214032]}},
{"type":"Feature","properties":{"No":8,"GND No.":1014,"Name of the Tank":"Dhenipe well","N":7.208075,"E":80.720363,"Observation":null,"Description":"Contamination by falling leaves etc. Recommended to 1. full cleaning of well 2. Completing protective brick wall 3. Plastering to inner and outer of the protective wall 4. Provide 4mx2m mesh with a GI frame","Amount (Rs.)":"80,000","photopath":"https://raw.githubusercontent.com/MWS003-GIS/MWS003-GIS.github.io/main/IWWRMP/Data/EXD/200_photo/MWS_006_1/Bowlana/B12.jpg"},"geometry":{"type":"Point","coordinates":[80.720363,7.208075]}},
{"type":"Feature","properties":{"No":9,"GND No.":1014,"Name of the Tank":"Spring of Dhamunugas Pathana","N":7.215223,"E":80.716585,"Observation":null,"Description":"No reservation and protection. Recommend to establish a minimum 6mx6m reservation and allow growth of mixed dense natural plantation including areca nut, Kumbuk etc.","Amount (Rs.)":"40,000","photopath":"https://raw.githubusercontent.com/MWS003-GIS/MWS003-GIS.github.io/main/IWWRMP/Data/EXD/200_photo/MWS_006_1/Bowlana/B25.jpg"},"geometry":{"type":"Point","coordinates":[80.716585,7.215223]}},
{"type":"Feature","properties":{"No":10,"GND No.":1015,"Name of the Tank":"Thalagaha Pihilla","N":7.202816,"E":80.7314,"Observation":null,"Description":"Decaying of plastering. Recommend to remove old plastering and replastering after 3 or 4 years.","Amount (Rs.)":"35,000","photopath":"https://raw.githubusercontent.com/MWS003-GIS/MWS003-GIS.github.io/main/IWWRMP/Data/EXD/200_photo/MWS_006_1/Oluwawatta/O3.jpg"},"geometry":{"type":"Point","coordinates":[80.7314,7.202816]}},
{"type":"Feature","properties":{"No":11,"GND No.":1015,"Name of the Tank":"Munagaha Pihilla","N":7.202542,"E":80.731393,"Observation":null,"Description":"Embankment erosion and difficult to access. Recommended to plant Areca nut fence for 100m length and construct 3 numbers of 3mx2mX1m high SABO boulder dams across the stream","Amount (Rs.)":"77,500","photopath":"https://raw.githubusercontent.com/MWS003-GIS/MWS003-GIS.github.io/main/IWWRMP/Data/EXD/200_photo/MWS_006_1/Oluwawatta/O5.jpg"},"geometry":{"type":"Point","coordinates":[80.731393,7.202542]}},
{"type":"Feature","properties":{"No":12,"GND No.":1015,"Name of the Tank":"Pasgama Gedara Pihilla","N":7.202871,"E":80.732819,"Observation":null,"Description":"Contamination by entering monkeys in to the tank. Recommended to fix 3.5m x2.5m steel frame and 50mmx50mmx3mm GI welded mesh with barbed wire grid @ 150mm spacing on top.","Amount (Rs.)":"45000","photopath":"https://raw.githubusercontent.com/MWS003-GIS/MWS003-GIS.github.io/main/IWWRMP/Data/EXD/200_photo/MWS_006_1/Oluwawatta/O10.jpg"},"geometry":{"type":"Point","coordinates":[80.732819,7.202871]}}
]}