{"type":"FeatureCollection","name":"SWC_ON","crs":{"type":"name","properties":{"name":"urn:ogc:def:crs:OGC:1.3:CRS84"}},"features":[
{"type":"Feature","properties":{"No. ":3,"GN Division No.":730,"GN Division":"Arattana","Key Activities proposed for Soil and Water conservation":"1. Soil conservation practices - Gardening/Cultivation Land (30°-50°)","Priority based on Soil Erosion Hazard":4,"N":7.38333,"E":80.737719,"Quantity":"25 ha","Proposed measure/s":"1. Establishing SALT  - 10000 m/ 2. Live fencing - 9000 m/ 3. Lock and spills - 3000 m/ 4. Stone terracing - 3000 m/ 5. Agronomic practices should be adapted at optimum level (conservation tillage, crop rotation and diversification, cover crops, mulching, contour farming, windbreaks and shelterbelts, water management techniques, and nutrient management etc., as applied). slope of the terraces should be maintained towards the inside. Also, the walls of the terraces should not be scrapped away during land preparation. A ridge/embarkment should be maintained at the free end of the tarrance (opposite to tarrace wall). Weedicide application to terrace wall is not recommended. Additionally, planing Vetiver like grasses is encourgaed in steep slopes. ","Uniti Cost (Rs.)":"250.00 m-1/ 120.00 m-1/ 400.00 m-1/ 2500.00 m-1","Total Cost (Rs.)":12280000,"Contribution":"Labour and other basic services by the Local community","Time frame for the implementation":"0.25 Years","photopath":"https://raw.githubusercontent.com/MWS003-GIS/MWS003-GIS.github.io/main/IWWRMP/Data/EXD/200_photo/MWS_099/Soil.jpg"},"geometry":{"type":"Point","coordinates":[80.737719,7.38333]}}
]}