{"type":"FeatureCollection","name":"DWS","crs":{"type":"name","properties":{"name":"urn:ogc:def:crs:OGC:1.3:CRS84"}},"features":[
{"type":"Feature","properties":{"No":1,"GND No.":794,"Scheme":"Natural stream which start from Knuckles and flows at the boundary of Thangappuwa and Ferndale GNDs","N":7.363121,"E":80.821534,"Observation":"The  Water tank is constructed (2.2 m x 2.2 m x1.8 m, L*W*H) Water leaking from the tank water is used for drinking & bathing","Description":"Extension to the existing pipe line\n\nConstruction of 225 mm x 225 mm, 3.0 m high concrete columns (03 columns)\n\nConstrucyion of 225 mm x 225 mm, 1.2 m high concrete columns (03 columns)\n\nSupplying of 150 mm x 100 mm x 8 mm \"H\" sections of 6.0 m length ea","Estimated Cost":"1,691,800.00","photopath":"https://raw.githubusercontent.com/MWS003-GIS/MWS003-GIS.github.io/main/IWWRMP/Data/EXD/200_photo/MWS_086/IMG_20250422_134059 Kadura starting from Knuckles reserve.jpg"},"geometry":{"type":"Point","coordinates":[80.821534,7.363121]}},
{"type":"Feature","properties":{"No":2,"GND No.":794,"Scheme":"Water source starting from Koboneelagala mountains","N":7.35587,"E":80.82751,"Observation":"The  Water tank is constructed. Water leaking from the tank","Description":"Supplying & laying 63mm Dia PVC pipe line in solvent socket type in PN-11 rate including socket, solvent cement, etc..\n\nConstruction of Concrete water storage tank of 20 cum - size internal t 3mx3mx2.5\n\nMiscellaneous\n\nContingancies 10%","Estimated Cost":"2,458,500.00","photopath":"https://raw.githubusercontent.com/MWS003-GIS/MWS003-GIS.github.io/main/IWWRMP/Data/EXD/200_photo/MWS_086/IMG_20250422_140001 Water birth starting with the Carbonyl stone.jpg"},"geometry":{"type":"Point","coordinates":[80.82751,7.35587]}},
{"type":"Feature","properties":{"No":3,"GND No.":798,"Scheme":"Galkanda upper division","N":7.302017,"E":80.799148,"Observation":"The existing well is in a good condition.A well Located on public land.used for drinking and bathing","Description":"Covering the water tank by a net\n\nFabricating & fixing security weld mesh in open-type buildings in GI weld mesh 50mm x 50mm SWG 10, welded on 40mm x 40mm x 5mm angle frame complete with application of two coats enamel paint over two coats of anticorrosi","Estimated Cost":"308,000.00","photopath":"https://raw.githubusercontent.com/MWS003-GIS/MWS003-GIS.github.io/main/IWWRMP/Data/EXD/200_photo/MWS_086/IMG_20250425_092444 Galkanda udakotasa ulpatha.jpg"},"geometry":{"type":"Point","coordinates":[80.799148,7.302017]}},
{"type":"Feature","properties":{"No":4,"GND No.":798,"Scheme":"Labuwangoda","N":7.30774,"E":80.807737,"Observation":"The fountain is surrounded by soil","Description":"150mm x 225mm Random Rubble masonry work in 1:5 cement and sand mortar in structures in wall around the fountain\n\nMiscellaneous\n\nContingancies 10%","Estimated Cost":"107,800.00","photopath":"https://raw.githubusercontent.com/MWS003-GIS/MWS003-GIS.github.io/main/IWWRMP/Data/EXD/200_photo/MWS_086/IMG_20250425_124203 Labuwangodas pring.jpg"},"geometry":{"type":"Point","coordinates":[80.807737,7.30774]}},
{"type":"Feature","properties":{"No":5,"GND No.":798,"Scheme":"Tube wells - Kiribattalawa - 11th mile post area","N":7.308735,"E":80.797792,"Observation":"The existing tube well have been broken","Description":"Repairs to the Tube well","Estimated Cost":"20,000.00","photopath":"Not_Available"},"geometry":{"type":"Point","coordinates":[80.797792,7.308735]}},
{"type":"Feature","properties":{"No":6,"GND No.":798,"Scheme":"Tube wells - Retiyagama junction","N":7.305917,"E":80.799497,"Observation":"The existing tube well have been broken","Description":"Repairs to the Tube well","Estimated Cost":"20,000.00","photopath":"https://raw.githubusercontent.com/MWS003-GIS/MWS003-GIS.github.io/main/IWWRMP/Data/EXD/200_photo/MWS_086/IMG_20250425_090513 Retiyagamajuntion tub ewell.jpg"},"geometry":{"type":"Point","coordinates":[80.799497,7.305917]}}
]}