{"type":"FeatureCollection","name":"MI","crs":{"type":"name","properties":{"name":"urn:ogc:def:crs:OGC:1.3:CRS84"}},"features":[
{"type":"Feature","properties":{"No":1,"GND No.":796,"Scheme":"Maha Ela","N":7.326369,"E":80.808447,"Observation":"The total length of the canal 2000m, out of which 500m concreted.  It is in the form of an earth canal for a distance of 1500 m.Command area 24.0 acres","Description":"Canal reservation protection by concrete lining  For  100 mm thick , 300 mm  wide  and 300 mm high canal -double banking\n\nStream / canal  reservation protection by earthfilling of  strip   of 1.5m to 2.0 m wide  and average Depth of 0.5m\n\nVegetative cove","Amount (Rs.)":"841,500.00","photopath":"https://raw.githubusercontent.com/MWS003-GIS/MWS003-GIS.github.io/main/IWWRMP/Data/EXD/200_photo/MWS_086/IMG_20250423_093831 Maha canal.jpg"},"geometry":{"type":"Point","coordinates":[80.808447,7.326369]}},
{"type":"Feature","properties":{"No":2,"GND No.":796,"Scheme":"Wahala Ela","N":7.321486,"E":80.805751,"Observation":"The total length of the canal 1000m, out of which 100m concreted.  It is in the form of an earth canal for a distance of 900 m.Command area 8.0 acres","Description":"1:3:6 (40mm) concrete manual mix (volume batching) in repairs to the existing anicut including provision of 2 nos. openings of size 600 mm x 600mm\n\nCanal reservation protection by concrete lining  For  100 mm thick , 300 mm  wide  and 300 mm high canal -","Amount (Rs.)":"899,800.00","photopath":"https://raw.githubusercontent.com/MWS003-GIS/MWS003-GIS.github.io/main/IWWRMP/Data/EXD/200_photo/MWS_086/IMG_20250423_122138 Wahala canal.jpg"},"geometry":{"type":"Point","coordinates":[80.805751,7.321486]}},
{"type":"Feature","properties":{"No":3,"GND No.":796,"Scheme":"Madampitiya Ela","N":7.324831,"E":80.804063,"Observation":"The total length of the canal 500m, out of which 100m concreted.  It is in the form of an earth canal for a distance of 400 m.Command area 5 acres","Description":"Canal reservation protection by concrete lining  For  100 mm thick , 300 mm  wide  and 300 mm high canal -double banking\n\nStream / canal  reservation protection by earthfilling of  strip   of 1.5m to 2.0 m wide  and average Depth of 0.5m\n\nVegetative cove","Amount (Rs.)":"520,300.00","photopath":"https://raw.githubusercontent.com/MWS003-GIS/MWS003-GIS.github.io/main/IWWRMP/Data/EXD/200_photo/MWS_086/IMG_20250423_102826 Madampe canal.jpg"},"geometry":{"type":"Point","coordinates":[80.804063,7.324831]}},
{"type":"Feature","properties":{"No":4,"GND No.":796,"Scheme":"Kanitu Mulla Ela","N":7.32243,"E":80.797328,"Observation":"The total length of the canal 500m, out of which 20m concreted.  It is in the form of an earth canal for a distance of 480 m.Command area 5 acres","Description":"Canal reservation protection by concrete lining  For  100 mm thick , 300 mm  wide  and 300 mm high canal -double banking\n\nStream / canal  reservation protection by earthfilling of  strip   of 1.5m to 2.0 m wide  and average Depth of 0.5m\n\nVegetative cove","Amount (Rs.)":"599,500.00","photopath":"https://raw.githubusercontent.com/MWS003-GIS/MWS003-GIS.github.io/main/IWWRMP/Data/EXD/200_photo/MWS_086/IMG_20250423_124256 Kanitumulla canal.jpg"},"geometry":{"type":"Point","coordinates":[80.797328,7.32243]}},
{"type":"Feature","properties":{"No":5,"GND No.":796,"Scheme":"Meda Ela","N":7.319916,"E":80.802147,"Observation":"The total length of the canal 1000m, out of which 50m concreted.  It is in the form of an earth canal for a distance of 950 m.Command area 5 acres","Description":"Canal reservation protection by concrete lining  For  100 mm thick , 300 mm  wide  and 300 mm high canal -double banking\n\nStream / canal  reservation protection by earthfilling of  strip   of 1.5m to 2.0 m wide  and average Depth of 0.5m\n\nVegetative cove","Amount (Rs.)":"520,300.00","photopath":"https://raw.githubusercontent.com/MWS003-GIS/MWS003-GIS.github.io/main/IWWRMP/Data/EXD/200_photo/MWS_086/IMG_20250423_113140 Meda canal.jpg"},"geometry":{"type":"Point","coordinates":[80.802147,7.319916]}},
{"type":"Feature","properties":{"No":6,"GND No.":798,"Scheme":"Wahala Ela","N":7.309684,"E":80.800365,"Observation":"The total length of the canal 1500m, out of which 50m concreted.  It is in the form of an earth canal for a distance of 950 m.Command area 20 acres","Description":"Canal reservation protection by concrete lining  For  100 mm thick , 300 mm  wide  and 300 mm high canal -double banking\n\nStream / canal  reservation protection by earthfilling of  strip   of 1.5m to 2.0 m wide  and average Depth of 0.5m\n\nVegetative cove","Amount (Rs.)":"771,650.00","photopath":"https://raw.githubusercontent.com/MWS003-GIS/MWS003-GIS.github.io/main/IWWRMP/Data/EXD/200_photo/MWS_086/IMG_20250425_105543 Wahala canal.jpg"},"geometry":{"type":"Point","coordinates":[80.800365,7.309684]}},
{"type":"Feature","properties":{"No":7,"GND No.":798,"Scheme":"Heen Ela","N":7.309664,"E":80.801507,"Observation":"Existing Earthen canal.Command area 3 acres.","Description":"Canal reservation protection by concrete lining  For  100 mm thick , 300 mm  wide  and 300 mm high canal -double banking\n\nStream / canal  reservation protection by earthfilling of  strip   of 1.5m to 2.0 m wide  and average Depth of 0.5m\n\nVegetative cove","Amount (Rs.)":"324,830.00","photopath":"https://raw.githubusercontent.com/MWS003-GIS/MWS003-GIS.github.io/main/IWWRMP/Data/EXD/200_photo/MWS_086/IMG_20250425_111244 Heen canal.jpg"},"geometry":{"type":"Point","coordinates":[80.801507,7.309664]}}
]}