{"type":"FeatureCollection","name":"SR","crs":{"type":"name","properties":{"name":"urn:ogc:def:crs:OGC:1.3:CRS84"}},"features":[
{"type":"Feature","properties":{"No":1,"GND No.":794,"Scheme":"Natural stream which start from Knuckles and flows at the boundary of Thangappuwa and Ferndale GNDs","N":7.36314,"E":80.821627,"Observation":"During the rainy season when too much water flows, Bank erosion occur","Description":"Arrange stone packing-rubble packing\n\nVegetative cover improving around structures (5m x 10m) with Areca nut seedling in 1.5m x \n1.5m grid, Kumbuk/ Mee/ Godapara/ Kaduru/ Aththikka/ Wal Del/ Kekuna/ randomly mixed \nseedlings and planting at 3.5m x 3.5 m","Amount (Rs.)":"134,585.00","photopath":"https://raw.githubusercontent.com/MWS003-GIS/MWS003-GIS.github.io/main/IWWRMP/Data/EXD/200_photo/MWS_086/IMG_20250422_134054 Kadura starting from Knuckles reserve.jpg"},"geometry":{"type":"Point","coordinates":[80.821627,7.36314]}},
{"type":"Feature","properties":{"No":2,"GND No.":795,"Scheme":"Burnside Kadura","N":7.341784,"E":80.813086,"Observation":"During the rainy season when too much water flows, Bank erosion occur","Description":"Arrange stone packing-rubble packing\n\nVegetative cover improving around structures (5m x 10m) with Areca nut seedling in 1.5m x \n1.5m grid, Kumbuk/ Mee/ Godapara/ Kaduru/ Aththikka/ Wal Del/ Kekuna/ randomly mixed \nseedlings and planting at 3.5m x 3.5 m","Amount (Rs.)":"134,365.00","photopath":"https://raw.githubusercontent.com/MWS003-GIS/MWS003-GIS.github.io/main/IWWRMP/Data/EXD/200_photo/MWS_086/IMG_20250424_104239Burnside kandura.jpg"},"geometry":{"type":"Point","coordinates":[80.813086,7.341784]}},
{"type":"Feature","properties":{"No":3,"GND No.":795,"Scheme":"Burnside Ihala water spring","N":7.344796,"E":80.812321,"Observation":"During the rainy season when too much water flows, Bank erosion occur","Description":"Arrange stone packing-rubble packing\n\nVegetative cover improving around structures (5m x 10m) with Areca nut seedling in 1.5m x \n1.5m grid, Kumbuk/ Mee/ Godapara/ Kaduru/ Aththikka/ Wal Del/ Kekuna/ randomly mixed \nseedlings and planting at 3.5m x 3.5 m","Amount (Rs.)":"134,365.00","photopath":"https://raw.githubusercontent.com/MWS003-GIS/MWS003-GIS.github.io/main/IWWRMP/Data/EXD/200_photo/MWS_086/IMG_20250424_114001 Bunside ihala Spring.jpg"},"geometry":{"type":"Point","coordinates":[80.812321,7.344796]}},
{"type":"Feature","properties":{"No":4,"GND No.":796,"Scheme":"Watagala Kandura","N":7.326502,"E":80.808567,"Observation":"During the rainy season when too much water flows, Bank erosion occur","Description":"Arrange stone packing-rubble packing\n\nVegetative cover improving around structures (5m x 10m) with Areca nut seedling in 1.5m x \n1.5m grid, Kumbuk/ Mee/ Godapara/ Kaduru/ Aththikka/ Wal Del/ Kekuna/ randomly mixed \nseedlings and planting at 3.5m x 3.5 m","Amount (Rs.)":"80,740.00","photopath":"https://raw.githubusercontent.com/MWS003-GIS/MWS003-GIS.github.io/main/IWWRMP/Data/EXD/200_photo/MWS_086/IMG_20250423_093045 watagala kandura.jpg"},"geometry":{"type":"Point","coordinates":[80.808567,7.326502]}},
{"type":"Feature","properties":{"No":5,"GND No.":798,"Scheme":"Ballaketuwa kandura","N":7.302053,"E":80.799121,"Observation":"During the rainy season when too much water flows, Bank erosion occur","Description":"Arrange stone packing-rubble packing\n\nVegetative cover improving around structures (5m x 10m) with Areca nut seedling in 1.5m x \n1.5m grid, Kumbuk/ Mee/ Godapara/ Kaduru/ Aththikka/ Wal Del/ Kekuna/ randomly mixed \nseedlings and planting at 3.5m x 3.5 m","Amount (Rs.)":"71,775.00","photopath":"https://raw.githubusercontent.com/MWS003-GIS/MWS003-GIS.github.io/main/IWWRMP/Data/EXD/200_photo/MWS_086/IMG_20250425_093624 Balakotuwe kandura.jpg"},"geometry":{"type":"Point","coordinates":[80.799121,7.302053]}},
{"type":"Feature","properties":{"No":6,"GND No.":798,"Scheme":"Gal Mal Oya RHS Side","N":7.306065,"E":80.806638,"Observation":"During the rainy season when too much water flows, Bank erosion occur","Description":"Arrange stone packing-rubble packing\n\nVegetative cover improving around structures (5m x 10m) with Areca nut seedling in 1.5m x \n1.5m grid, Kumbuk/ Mee/ Godapara/ Kaduru/ Aththikka/ Wal Del/ Kekuna/ randomly mixed \nseedlings and planting at 3.5m x 3.5 m","Amount (Rs.)":"197,285.00","photopath":"https://raw.githubusercontent.com/MWS003-GIS/MWS003-GIS.github.io/main/IWWRMP/Data/EXD/200_photo/MWS_086/IMG_20250425_121406 Galmal oya.jpg"},"geometry":{"type":"Point","coordinates":[80.806638,7.306065]}}
]}