{"type":"FeatureCollection","name":"WP","crs":{"type":"name","properties":{"name":"urn:ogc:def:crs:OGC:1.3:CRS84"}},"features":[
{"type":"Feature","properties":{"No.":1,"GND No.":794,"GN Division":"Ferndail","Non-point sources of pollution":"Potential to add human waste - Ferndail","N":7.3610556,"E":80.8267058,"Point sources of pollution":"-","Add. N ":"-","Add. E ":"-","Recommended water quality improvement measures":"-","Unit Cost (Rs.)":"-","Total Cost (Rs.)":"-","Contributions (Local Community, LA, Project)":"-","Time frame for the implementation":"-","photopath":"https://raw.githubusercontent.com/MWS003-GIS/MWS003-GIS.github.io/main/IWWRMP/Data/EXD/200_photo/MWS_086/IMG_20250422_095934 Garbage collection location.jpg"},"geometry":{"type":"Point","coordinates":[80.8267058,7.3610556]}},
{"type":"Feature","properties":{"No.":2,"GND No.":794,"GN Division":"Ferndail","Non-point sources of pollution":"Informal disposal of houshold wastes/garbage","N":7.3610556,"E":80.8267058,"Point sources of pollution":"-","Add. N ":"-","Add. E ":"-","Recommended water quality improvement measures":"Preparing a separate place in homegardens for disposing houshold waste,Awareness programme on how to disposal household waste properly and converting them to usable products such as compost,Facilitating garbage collection","Unit Cost (Rs.)":"-","Total Cost (Rs.)":"50,000.00","Contributions (Local Community, LA, Project)":"Local/Central Governments","Time frame for the implementation":"0.5 Years","photopath":"https://raw.githubusercontent.com/MWS003-GIS/MWS003-GIS.github.io/main/IWWRMP/Data/EXD/200_photo/MWS_086/IMG_20250422_095934 Garbage collection location.jpg"},"geometry":{"type":"Point","coordinates":[80.8267058,7.3610556]}},
{"type":"Feature","properties":{"No.":3,"GND No.":795,"GN Division":"Burnside","Non-point sources of pollution":"Potential to add human waste - Burnside (the house below the Sri Muththumari Amman Kovil)","N":7.341514,"E":80.8107043,"Point sources of pollution":"-","Add. N ":"-","Add. E ":"-","Recommended water quality improvement measures":"-","Unit Cost (Rs.)":"-","Total Cost (Rs.)":"-","Contributions (Local Community, LA, Project)":"-","Time frame for the implementation":"-","photopath":"https://raw.githubusercontent.com/MWS003-GIS/MWS003-GIS.github.io/main/IWWRMP/Data/EXD/200_photo/MWS_086/IMG_20250424_103637 Garbage dump.jpg"},"geometry":{"type":"Point","coordinates":[80.8107043,7.341514]}},
{"type":"Feature","properties":{"No.":4,"GND No.":795,"GN Division":"Burnside","Non-point sources of pollution":"Informal disposal of houshold wastes/garbage","N":7.341514,"E":80.8107043,"Point sources of pollution":"-","Add. N ":"-","Add. E ":"-","Recommended water quality improvement measures":"Preparing a separate place in homegardens for disposing houshold waste,Awareness programme on how to disposal household waste properly and converting them to usable products such as compost,Facilitating garbage collection","Unit Cost (Rs.)":"-","Total Cost (Rs.)":"50,000.00","Contributions (Local Community, LA, Project)":"Local/Central Governments","Time frame for the implementation":"0.5 Years","photopath":"https://raw.githubusercontent.com/MWS003-GIS/MWS003-GIS.github.io/main/IWWRMP/Data/EXD/200_photo/MWS_086/IMG_20250424_103637 Garbage dump.jpg"},"geometry":{"type":"Point","coordinates":[80.8107043,7.341514]}}
]}