{"type":"FeatureCollection","name":"DWS","crs":{"type":"name","properties":{"name":"urn:ogc:def:crs:OGC:1.3:CRS84"}},"features":[
{"type":"Feature","properties":{"No":2,"GND No. ":733,"Scheme":"Watakele division","N":7.436163,"E":80.7367,"Observation":"there is no proper anicut, exist anicut not enough for water stock. And also during rainy season soil errosion happened. ","Description":"Rebuilding of Anicut\n\nDemolishing existing damaged structures\n\nConstruction of 0.9 m high weir across the stream excluding abutments and stop planks\n\nConstruction of 1.0m high 1:3:6 (40mm) cement concrete Retaining Wall \n\nSupply & install of 300 mm CI gate complete set including Spindle, Housing, Base plate, Closing plate, Key, Brass nut, and other required accessories. (This rate is excluding of transport of materials)\n\n75mm tk. Stop planks (kumbuk ) with 10mm dia. 2nos. M. S. Iron hooks and applies 2 coats of hot tar.\n\nTidying up\n\nRepairing the stock tank\n\nProviding a filtering arrangement\n\nFabricating & fixing security weld mesh in open-type buildings in GI welded mesh 50mm x 50mm SWG 10, welded on 40mm x 40mm x 5mm angle frame complete with application of two coats enamel paint over two coats of anticorrosive paint and complete.\nAll as per detail drawing No.CPC/CS/11/04/2017/TYPE-ST/07\n\nMiscellaneous\n\nContingencies 10%","Estimated Cost":1149500,"photopath":"https://raw.githubusercontent.com/MWS003-GIS/MWS003-GIS.github.io/main/IWWRMP/Data/EXD/200_photo/MWS_096/Nildiya dahara water project_5800.jpg"},"geometry":{"type":"Point","coordinates":[80.7367,7.436163]}},
{"type":"Feature","properties":{"No":3,"GND No. ":733,"Scheme":"Below the Ma ussawa division","N":7.4045518,"E":80.730328,"Observation":"there is nostock tank.","Description":"Construction of Concrete water storage tank of 20 cum - size internal t 3mx3mx2.5\n\nContingencies 10%","Estimated Cost":594000,"photopath":"https://raw.githubusercontent.com/MWS003-GIS/MWS003-GIS.github.io/main/IWWRMP/Data/EXD/200_photo/MWS_096/WS near to ma ussawa lower part_5780.jpg"},"geometry":{"type":"Point","coordinates":[80.730328,7.4045518]}}
]}