{"type":"FeatureCollection","name":"WP","crs":{"type":"name","properties":{"name":"urn:ogc:def:crs:OGC:1.3:CRS84"}},"features":[
{"type":"Feature","properties":{"No.":1,"GND No.":852,"GN Division":"Mediwaka","Non-point sources of pollution":"Potential to add human waste - Kanahampitiya (Mr. U.G. Ukku, No.06, Mediwaka, Udadumbara)","N":7.3009945,"E":80.8867483,"Point sources of pollution":"-","Add. N ":"-","Add. E ":"-","Recommended water quality improvement measures":"-","Unit Cost (Rs.)":"-","Total Cost (Rs.)":"-","Contributions (Local Community, LA, Project)":"-","Time frame for the implementation":"-","photopath":"Not_Available"},"geometry":{"type":"Point","coordinates":[80.8867483,7.3009945]}},
{"type":"Feature","properties":{"No.":2,"GND No.":854,"GN Division":"Godakumbura","Non-point sources of pollution":"Potential to add human waste - Godakumbura 1st mile post","N":7.3014848,"E":80.8988008,"Point sources of pollution":"-","Add. N ":"-","Add. E ":"-","Recommended water quality improvement measures":"-","Unit Cost (Rs.)":"-","Total Cost (Rs.)":"-","Contributions (Local Community, LA, Project)":"-","Time frame for the implementation":"-","photopath":"Not_Available"},"geometry":{"type":"Point","coordinates":[80.8988008,7.3014848]}},
{"type":"Feature","properties":{"No.":7,"GND No.":859,"GN Division":"Madugalla North","Non-point sources of pollution":"Potential to add human waste - U.G. Jayasekara","N":7.2667827,"E":80.8843188,"Point sources of pollution":"-","Add. N ":"-","Add. E ":"-","Recommended water quality improvement measures":"-","Unit Cost (Rs.)":"-","Total Cost (Rs.)":"-","Contributions (Local Community, LA, Project)":"-","Time frame for the implementation":"-","photopath":"Not_Available"},"geometry":{"type":"Point","coordinates":[80.8843188,7.2667827]}},
{"type":"Feature","properties":{"No.":8,"GND No.":859,"GN Division":"Madugalla North","Non-point sources of pollution":"Potential to add human waste - R.G.M.K.G. Lukshman Edirisinghe","N":7.2667827,"E":80.8843188,"Point sources of pollution":"-","Add. N ":"-","Add. E ":"-","Recommended water quality improvement measures":"-","Unit Cost (Rs.)":"-","Total Cost (Rs.)":"-","Contributions (Local Community, LA, Project)":"-","Time frame for the implementation":"-","photopath":"Not_Available"},"geometry":{"type":"Point","coordinates":[80.8843188,7.2667827]}}
]}