{
"type": "FeatureCollection",
"name": "BU_Pg_MWS_112_1",
"crs": { "type": "name", "properties": { "name": "urn:ogc:def:crs:OGC:1.3:CRS84" } },
"features": [
{ "type": "Feature", "properties": { "BU_Nm": null, "BU_Lb_meth": "9", "BU_GFCODE": "BLDGA" }, "geometry": { "type": "MultiPolygon", "coordinates": [ [ [ [ 80.623405076865126, 7.322448232010921, 0.0 ], [ 80.623358283532184, 7.322399218344551, 0.0 ], [ 80.623322848859999, 7.322432941269981, 0.0 ], [ 80.623287248379924, 7.322466821484526, 0.0 ], [ 80.62329885662399, 7.322478980147136, 0.0 ], [ 80.623355559658606, 7.322538373142547, 0.0 ], [ 80.62336474593728, 7.322547995319113, 0.0 ], [ 80.623366619228406, 7.322549957385534, 0.0 ], [ 80.623388627507509, 7.322529012197461, 0.0 ], [ 80.623437653476572, 7.322482354233036, 0.0 ], [ 80.623405076865126, 7.322448232010921, 0.0 ] ] ] ] } },
{ "type": "Feature", "properties": { "BU_Nm": null, "BU_Lb_meth": "4", "BU_GFCODE": "BLDGA" }, "geometry": { "type": "MultiPolygon", "coordinates": [ [ [ [ 80.623137875482058, 7.322529248868766, 0.0 ], [ 80.623087274958905, 7.322476160001064, 0.0 ], [ 80.622995043639705, 7.322557515729174, 0.0 ], [ 80.623074781976086, 7.322641236888779, 0.0 ], [ 80.623140903910681, 7.322710662724792, 0.0 ], [ 80.62320924187938, 7.322650945105765, 0.0 ], [ 80.623233588884588, 7.322629668842347, 0.0 ], [ 80.623225016479495, 7.322620674457199, 0.0 ], [ 80.623137875482058, 7.322529248868766, 0.0 ] ] ] ] } },
{ "type": "Feature", "properties": { "BU_Nm": "Sri Rahula Maha Vidyalaya", "BU_Lb_meth": "4", "BU_GFCODE": "MSCHA" }, "geometry": { "type": "MultiPolygon", "coordinates": [ [ [ [ 80.623622236499216, 7.322902108637959, 0.0 ], [ 80.623610513017297, 7.322749459472385, 0.0 ], [ 80.623498742577993, 7.322758374124601, 0.0 ], [ 80.623510918136333, 7.322910572199278, 0.0 ], [ 80.623622236499216, 7.322902108637959, 0.0 ] ] ] ] } },
{ "type": "Feature", "properties": { "BU_Nm": "Sri Rahula Maha Vidyalaya", "BU_Lb_meth": "4", "BU_GFCODE": "MSCHA" }, "geometry": { "type": "MultiPolygon", "coordinates": [ [ [ [ 80.623404042345186, 7.322887274556884, 0.0 ], [ 80.62339093563169, 7.322767256636305, 0.0 ], [ 80.623377198757382, 7.322768820932198, 0.0 ], [ 80.623306246341272, 7.322776902977275, 0.0 ], [ 80.623324755685545, 7.322950174337469, 0.0 ], [ 80.623409897752282, 7.322940888059589, 0.0 ], [ 80.623404042345186, 7.322887274556884, 0.0 ] ] ] ] } },
{ "type": "Feature", "properties": { "BU_Nm": "Sri Rahula Maha Vidyalaya", "BU_Lb_meth": "4", "BU_GFCODE": "MSCHA" }, "geometry": { "type": "MultiPolygon", "coordinates": [ [ [ [ 80.623794145955671, 7.322991397064922, 0.0 ], [ 80.623785366848267, 7.322934965676471, 0.0 ], [ 80.623471468796453, 7.322985437681091, 0.0 ], [ 80.623439086159166, 7.322990644503176, 0.0 ], [ 80.623450112871069, 7.323058832579961, 0.0 ], [ 80.623536157684114, 7.32304507300577, 0.0 ], [ 80.623681105524781, 7.323021894294553, 0.0 ], [ 80.623796031195369, 7.32300351624809, 0.0 ], [ 80.623794145955671, 7.322991397064922, 0.0 ] ] ] ] } },
{ "type": "Feature", "properties": { "BU_Nm": "Sri Rahula Maha Vidyalaya", "BU_Lb_meth": "4", "BU_GFCODE": "MSCHA" }, "geometry": { "type": "MultiPolygon", "coordinates": [ [ [ [ 80.624180266557559, 7.322846449743133, 0.0 ], [ 80.624148920117449, 7.322782154160763, 0.0 ], [ 80.6241311358704, 7.322790712787904, 0.0 ], [ 80.624076812021158, 7.322816855860499, 0.0 ], [ 80.624186873243957, 7.323043329267549, 0.0 ], [ 80.62425907121964, 7.323008086809087, 0.0 ], [ 80.624180266557559, 7.322846449743133, 0.0 ] ] ] ] } },
{ "type": "Feature", "properties": { "BU_Nm": "Sri Rahula Maha Vidyalaya", "BU_Lb_meth": "4", "BU_GFCODE": "MSCHA" }, "geometry": { "type": "MultiPolygon", "coordinates": [ [ [ [ 80.623439703558816, 7.323079278014018, 0.0 ], [ 80.623272462609364, 7.322938602300096, 0.0 ], [ 80.623254212881676, 7.322960177249301, 0.0 ], [ 80.623213656817313, 7.323008123084869, 0.0 ], [ 80.623380626928196, 7.323148889158422, 0.0 ], [ 80.623385633115845, 7.323142990292316, 0.0 ], [ 80.623439703558816, 7.323079278014018, 0.0 ] ] ] ] } },
{ "type": "Feature", "properties": { "BU_Nm": "Sri Rahula Maha Vidyalaya", "BU_Lb_meth": "4", "BU_GFCODE": "MSCHA" }, "geometry": { "type": "MultiPolygon", "coordinates": [ [ [ [ 80.624329703071211, 7.323090789143934, 0.0 ], [ 80.624306986065776, 7.323043576933348, 0.0 ], [ 80.62422319114367, 7.323083971807994, 0.0 ], [ 80.624245728745763, 7.323131364822307, 0.0 ], [ 80.624329703071211, 7.323090789143934, 0.0 ] ] ] ] } },
{ "type": "Feature", "properties": { "BU_Nm": "Sri Rahula Maha Vidyalaya", "BU_Lb_meth": "4", "BU_GFCODE": "MSCHA" }, "geometry": { "type": "MultiPolygon", "coordinates": [ [ [ [ 80.624021936758325, 7.323005233143605, 0.0 ], [ 80.623976948860474, 7.322922927386817, 0.0 ], [ 80.62364086002772, 7.323104849402314, 0.0 ], [ 80.623681813448101, 7.323180036970308, 0.0 ], [ 80.623685937394526, 7.323187607372213, 0.0 ], [ 80.62369901407196, 7.323180509422607, 0.0 ], [ 80.624021936758325, 7.323005233143605, 0.0 ] ] ] ] } },
{ "type": "Feature", "properties": { "BU_Nm": "Sri Rahula Maha Vidyalaya", "BU_Lb_meth": "4", "BU_GFCODE": "MSCHA" }, "geometry": { "type": "MultiPolygon", "coordinates": [ [ [ [ 80.624158191142811, 7.323020021148293, 0.0 ], [ 80.623986942295531, 7.322676058264517, 0.0 ], [ 80.623916826662509, 7.322711211859663, 0.0 ], [ 80.624088075652153, 7.32305463309227, 0.0 ], [ 80.624158191142811, 7.323020021148293, 0.0 ] ] ] ] } },
{ "type": "Feature", "properties": { "BU_Nm": null, "BU_Lb_meth": "4", "BU_GFCODE": "MOSQA" }, "geometry": { "type": "MultiPolygon", "coordinates": [ [ [ [ 80.625046874475956, 7.323139222780235, 0.0 ], [ 80.625008522919899, 7.322986382928527, 0.0 ], [ 80.624970147797086, 7.322997465806609, 0.0 ], [ 80.624791075038146, 7.323049183151416, 0.0 ], [ 80.624790219942696, 7.323049429737812, 0.0 ], [ 80.624791073846126, 7.323052712639851, 0.0 ], [ 80.624830020541069, 7.323202451858653, 0.0 ], [ 80.624984235942051, 7.323157486701278, 0.0 ], [ 80.625046874475956, 7.323139222780235, 0.0 ] ] ] ] } },
{ "type": "Feature", "properties": { "BU_Nm": null, "BU_Lb_meth": "9", "BU_GFCODE": "BLDGA" }, "geometry": { "type": "MultiPolygon", "coordinates": [ [ [ [ 80.623738693758526, 7.322449496392321, 0.0 ], [ 80.62367050076665, 7.322386858531378, 0.0 ], [ 80.6236243792642, 7.322436913159465, 0.0 ], [ 80.623602177913668, 7.322461007071841, 0.0 ], [ 80.623670370906879, 7.322523644942998, 0.0 ], [ 80.623737152539718, 7.322451168827755, 0.0 ], [ 80.623738693758526, 7.322449496392321, 0.0 ] ] ] ] } },
{ "type": "Feature", "properties": { "BU_Nm": null, "BU_Lb_meth": "9", "BU_GFCODE": "BLDGA" }, "geometry": { "type": "MultiPolygon", "coordinates": [ [ [ [ 80.623933879236617, 7.322470155264001, 0.0 ], [ 80.623926515737381, 7.322421848600976, 0.0 ], [ 80.623879677014344, 7.322428965872192, 0.0 ], [ 80.623867349365838, 7.322430839027334, 0.0 ], [ 80.623888868699538, 7.322572011399438, 0.0 ], [ 80.623948035089285, 7.322563020970681, 0.0 ], [ 80.623933879236617, 7.322470155264001, 0.0 ] ] ] ] } },
{ "type": "Feature", "properties": { "BU_Nm": null, "BU_Lb_meth": "9", "BU_GFCODE": "BLDGA" }, "geometry": { "type": "MultiPolygon", "coordinates": [ [ [ [ 80.624178286472301, 7.322689297746739, 0.0 ], [ 80.624091773917669, 7.322610998488195, 0.0 ], [ 80.624049800178881, 7.32265722846271, 0.0 ], [ 80.624045054178481, 7.322662455528691, 0.0 ], [ 80.624054078842079, 7.322670623519952, 0.0 ], [ 80.624131566734533, 7.322740754796027, 0.0 ], [ 80.624178286472301, 7.322689297746739, 0.0 ] ] ] ] } },
{ "type": "Feature", "properties": { "BU_Nm": "Market", "BU_Lb_meth": "4", "BU_GFCODE": "CMMBA" }, "geometry": { "type": "MultiPolygon", "coordinates": [ [ [ [ 80.625418547532448, 7.325109653979553, 0.0 ], [ 80.625431338532195, 7.325083148844265, 0.0 ], [ 80.625478171755191, 7.324985411363934, 0.0 ], [ 80.62548943706787, 7.324961901492817, 0.0 ], [ 80.625535661476704, 7.324869949522424, 0.0 ], [ 80.625579617398188, 7.324787581478216, 0.0 ], [ 80.625602545515804, 7.324746262579425, 0.0 ], [ 80.625611608623672, 7.324729175220697, 0.0 ], [ 80.625475057038344, 7.324360174456353, 0.0 ], [ 80.625295152780183, 7.324437431897597, 0.0 ], [ 80.62536916028796, 7.324677548775001, 0.0 ], [ 80.625410002364077, 7.324699988245727, 0.0 ], [ 80.625410634949787, 7.324704238674891, 0.0 ], [ 80.62537999872859, 7.324767891225144, 0.0 ], [ 80.625419391793045, 7.324787166962417, 0.0 ], [ 80.625403983986274, 7.324817727185835, 0.0 ], [ 80.625333076791321, 7.324782073922028, 0.0 ], [ 80.625316259378792, 7.324816137837627, 0.0 ], [ 80.625300357381917, 7.32484834824166, 0.0 ], [ 80.625357500724334, 7.324876762481687, 0.0 ], [ 80.62534952397769, 7.324892675511781, 0.0 ], [ 80.625284322879295, 7.324859827489168, 0.0 ], [ 80.625255862651528, 7.324916788929355, 0.0 ], [ 80.625312643857399, 7.324944749998459, 0.0 ], [ 80.625275711117965, 7.325019579280205, 0.0 ], [ 80.625418547532448, 7.325109653979553, 0.0 ] ] ] ] } },
{ "type": "Feature", "properties": { "BU_Nm": null, "BU_Lb_meth": "4", "BU_GFCODE": "BLDGA" }, "geometry": { "type": "MultiPolygon", "coordinates": [ [ [ [ 80.623273573022729, 7.323570608120751, 0.0 ], [ 80.623229567437335, 7.323534873247557, 0.0 ], [ 80.623196130901746, 7.323576007589357, 0.0 ], [ 80.623239957152734, 7.323611743309073, 0.0 ], [ 80.623273573022729, 7.323570608120751, 0.0 ] ] ] ] } },
{ "type": "Feature", "properties": { "BU_Nm": null, "BU_Lb_meth": "9", "BU_GFCODE": "BLDGA" }, "geometry": { "type": "MultiPolygon", "coordinates": [ [ [ [ 80.623800140239496, 7.323502556416302, 0.0 ], [ 80.623649081390155, 7.323498735169161, 0.0 ], [ 80.623646166603876, 7.323613580466966, 0.0 ], [ 80.62376331871188, 7.323616543798058, 0.0 ], [ 80.623797225491757, 7.323617401715883, 0.0 ], [ 80.623797772637374, 7.323595846067062, 0.0 ], [ 80.623800140239496, 7.323502556416302, 0.0 ] ] ] ] } },
{ "type": "Feature", "properties": { "BU_Nm": null, "BU_Lb_meth": "9", "BU_GFCODE": "BLDGA" }, "geometry": { "type": "MultiPolygon", "coordinates": [ [ [ [ 80.622783057948411, 7.321077599277343, 0.0 ], [ 80.62276834109575, 7.321149467722416, 0.0 ], [ 80.62280609553703, 7.321182446426929, 0.0 ], [ 80.622854815619306, 7.321126846683542, 0.0 ], [ 80.622789395392417, 7.321069701774289, 0.0 ], [ 80.622783057948411, 7.321077599277343, 0.0 ] ] ] ] } },
{ "type": "Feature", "properties": { "BU_Nm": null, "BU_Lb_meth": "4", "BU_GFCODE": "BLDGA" }, "geometry": { "type": "MultiPolygon", "coordinates": [ [ [ [ 80.62408231447742, 7.321137136583052, 0.0 ], [ 80.624079632304273, 7.321031241056127, 0.0 ], [ 80.623980273873627, 7.321033739492784, 0.0 ], [ 80.623981167401467, 7.321067018093371, 0.0 ], [ 80.623916407216342, 7.321068624823675, 0.0 ], [ 80.623918465735386, 7.321141240937242, 0.0 ], [ 80.62408231447742, 7.321137136583052, 0.0 ] ] ] ] } },
{ "type": "Feature", "properties": { "BU_Nm": null, "BU_Lb_meth": "9", "BU_GFCODE": "BLDGA" }, "geometry": { "type": "MultiPolygon", "coordinates": [ [ [ [ 80.619859959830876, 7.321297059833963, 0.0 ], [ 80.619803120690719, 7.321297300802383, 0.0 ], [ 80.619803112275775, 7.321321429987855, 0.0 ], [ 80.619892258698016, 7.321321460970538, 0.0 ], [ 80.619892259235371, 7.321319919272348, 0.0 ], [ 80.619859959830876, 7.321297059833963, 0.0 ] ] ] ] } },
{ "type": "Feature", "properties": { "BU_Nm": null, "BU_Lb_meth": "9", "BU_GFCODE": "BLDGA" }, "geometry": { "type": "MultiPolygon", "coordinates": [ [ [ [ 80.62304901037777, 7.320140520896609, 0.0 ], [ 80.623089949218382, 7.320105625764779, 0.0 ], [ 80.623014126858237, 7.320016951107278, 0.0 ], [ 80.62304901037777, 7.320140520896609, 0.0 ] ] ] ] } },
{ "type": "Feature", "properties": { "BU_Nm": null, "BU_Lb_meth": "9", "BU_GFCODE": "BLDGA" }, "geometry": { "type": "MultiPolygon", "coordinates": [ [ [ [ 80.622756661355922, 7.321630888969495, 0.0 ], [ 80.622482378578098, 7.321484290345322, 0.0 ], [ 80.622420297271958, 7.321600077594977, 0.0 ], [ 80.622382806850354, 7.32167000074216, 0.0 ], [ 80.622415744038705, 7.321687604284606, 0.0 ], [ 80.622657088801191, 7.321816598522742, 0.0 ], [ 80.622756661355922, 7.321630888969495, 0.0 ] ] ] ] } },
{ "type": "Feature", "properties": { "BU_Nm": null, "BU_Lb_meth": "9", "BU_GFCODE": "BLDGA" }, "geometry": { "type": "MultiPolygon", "coordinates": [ [ [ [ 80.622383730056484, 7.321542477365058, 0.0 ], [ 80.622296340407814, 7.321540648820098, 0.0 ], [ 80.622294228134436, 7.321641253447127, 0.0 ], [ 80.622381617802375, 7.321643082897318, 0.0 ], [ 80.622383730056484, 7.321542477365058, 0.0 ] ] ] ] } },
{ "type": "Feature", "properties": { "BU_Nm": null, "BU_Lb_meth": "9", "BU_GFCODE": "BLDGA" }, "geometry": { "type": "MultiPolygon", "coordinates": [ [ [ [ 80.622832234637428, 7.321463902911447, 0.0 ], [ 80.62274307486372, 7.321415427264662, 0.0 ], [ 80.622707586021633, 7.321480495024464, 0.0 ], [ 80.622796744898451, 7.321528970677911, 0.0 ], [ 80.622832234637428, 7.321463902911447, 0.0 ] ] ] ] } },
{ "type": "Feature", "properties": { "BU_Nm": null, "BU_Lb_meth": "9", "BU_GFCODE": "BLDGA" }, "geometry": { "type": "MultiPolygon", "coordinates": [ [ [ [ 80.622403624394124, 7.321426348342304, 0.0 ], [ 80.622331847374682, 7.321422943518592, 0.0 ], [ 80.622327020348791, 7.321524389122687, 0.0 ], [ 80.622392592328467, 7.321527499736587, 0.0 ], [ 80.622398796478635, 7.32152779394711, 0.0 ], [ 80.622402399171889, 7.321452086152854, 0.0 ], [ 80.622403624394124, 7.321426348342304, 0.0 ] ] ] ] } },
{ "type": "Feature", "properties": { "BU_Nm": null, "BU_Lb_meth": "9", "BU_GFCODE": "BLDGA" }, "geometry": { "type": "MultiPolygon", "coordinates": [ [ [ [ 80.621989979507688, 7.32166299174984, 0.0 ], [ 80.621985067487387, 7.321574156914353, 0.0 ], [ 80.62184915466311, 7.321581648558191, 0.0 ], [ 80.62185453742606, 7.321678988511533, 0.0 ], [ 80.621855823711982, 7.321702239447998, 0.0 ], [ 80.621991735667095, 7.321694747802561, 0.0 ], [ 80.621989979507688, 7.32166299174984, 0.0 ] ] ] ] } },
{ "type": "Feature", "properties": { "BU_Nm": null, "BU_Lb_meth": "9", "BU_GFCODE": "BLDGA" }, "geometry": { "type": "MultiPolygon", "coordinates": [ [ [ [ 80.622279242110992, 7.321725137656039, 0.0 ], [ 80.622254340813072, 7.321661963676036, 0.0 ], [ 80.62224041332999, 7.321667436263664, 0.0 ], [ 80.622180781958335, 7.321690866197035, 0.0 ], [ 80.62218123352423, 7.321692012101562, 0.0 ], [ 80.622205682341331, 7.321754041084845, 0.0 ], [ 80.622279242110992, 7.321725137656039, 0.0 ] ] ] ] } },
{ "type": "Feature", "properties": { "BU_Nm": null, "BU_Lb_meth": "9", "BU_GFCODE": "BLDGA" }, "geometry": { "type": "MultiPolygon", "coordinates": [ [ [ [ 80.62156138617793, 7.321284684495746, 0.0 ], [ 80.621560211897489, 7.321296367908865, 0.0 ], [ 80.621623341574335, 7.321302693003815, 0.0 ], [ 80.62156138617793, 7.321284684495746, 0.0 ] ] ] ] } },
{ "type": "Feature", "properties": { "BU_Nm": "Bodhirajaramaya", "BU_Lb_meth": "9", "BU_GFCODE": "BTMPA" }, "geometry": { "type": "MultiPolygon", "coordinates": [ [ [ [ 80.621448516132673, 7.321310320852644, 0.0 ], [ 80.621403607236061, 7.321276514369075, 0.0 ], [ 80.621313020022342, 7.321396472238047, 0.0 ], [ 80.621323135299747, 7.321404087226065, 0.0 ], [ 80.621392042525372, 7.321455958163921, 0.0 ], [ 80.621482628824893, 7.321336000278873, 0.0 ], [ 80.621448516132673, 7.321310320852644, 0.0 ] ] ] ] } },
{ "type": "Feature", "properties": { "BU_Nm": null, "BU_Lb_meth": "9", "BU_GFCODE": "BLDGA" }, "geometry": { "type": "MultiPolygon", "coordinates": [ [ [ [ 80.62107807789836, 7.321520542832823, 0.0 ], [ 80.621075972976342, 7.32140273333138, 0.0 ], [ 80.620982694008333, 7.321404394009108, 0.0 ], [ 80.620917808937762, 7.321405549921896, 0.0 ], [ 80.620918497541254, 7.321444067071011, 0.0 ], [ 80.620919913818298, 7.321523359423161, 0.0 ], [ 80.62107807789836, 7.321520542832823, 0.0 ] ] ] ] } },
{ "type": "Feature", "properties": { "BU_Nm": null, "BU_Lb_meth": "9", "BU_GFCODE": "BLDGA" }, "geometry": { "type": "MultiPolygon", "coordinates": [ [ [ [ 80.621053822080469, 7.321558257402956, 0.0 ], [ 80.620988761349707, 7.321556583705598, 0.0 ], [ 80.620988536426694, 7.321565306519713, 0.0 ], [ 80.62098563449112, 7.321677759019736, 0.0 ], [ 80.620984389629754, 7.321725980464262, 0.0 ], [ 80.62107351452282, 7.321728273769453, 0.0 ], [ 80.62107483833374, 7.321676969588105, 0.0 ], [ 80.621077886209477, 7.321558876105024, 0.0 ], [ 80.621053822080469, 7.321558257402956, 0.0 ] ] ] ] } },
{ "type": "Feature", "properties": { "BU_Nm": null, "BU_Lb_meth": "9", "BU_GFCODE": "BLDGA" }, "geometry": { "type": "MultiPolygon", "coordinates": [ [ [ [ 80.621199340932108, 7.321878734122607, 0.0 ], [ 80.621127331993378, 7.321877927988159, 0.0 ], [ 80.621125728383333, 7.322020703971195, 0.0 ], [ 80.621197737344886, 7.322021510106354, 0.0 ], [ 80.621199340932108, 7.321878734122607, 0.0 ] ] ] ] } },
{ "type": "Feature", "properties": { "BU_Nm": null, "BU_Lb_meth": "4", "BU_GFCODE": "BLDGA" }, "geometry": { "type": "MultiPolygon", "coordinates": [ [ [ [ 80.623171401109929, 7.323320173198174, 0.0 ], [ 80.623108455093174, 7.32331291646003, 0.0 ], [ 80.62310155357568, 7.323365454025351, 0.0 ], [ 80.62316549593767, 7.323372620673426, 0.0 ], [ 80.623171401109929, 7.323320173198174, 0.0 ] ] ] ] } },
{ "type": "Feature", "properties": { "BU_Nm": null, "BU_Lb_meth": "4", "BU_GFCODE": "BLDGA" }, "geometry": { "type": "MultiPolygon", "coordinates": [ [ [ [ 80.623046850875355, 7.323338941176456, 0.0 ], [ 80.622950030790435, 7.323330588622253, 0.0 ], [ 80.622943026006126, 7.323420203413129, 0.0 ], [ 80.623039846264604, 7.323428103818615, 0.0 ], [ 80.623046850875355, 7.323338941176456, 0.0 ] ] ] ] } },
{ "type": "Feature", "properties": { "BU_Nm": null, "BU_Lb_meth": "4", "BU_GFCODE": "BLDGA" }, "geometry": { "type": "MultiPolygon", "coordinates": [ [ [ [ 80.623104795275211, 7.323405010178726, 0.0 ], [ 80.623080708666421, 7.323403608450303, 0.0 ], [ 80.62307697007769, 7.323477037359567, 0.0 ], [ 80.62310343425618, 7.323478398299817, 0.0 ], [ 80.623130045161048, 7.323479767427117, 0.0 ], [ 80.623133874190401, 7.323406702077169, 0.0 ], [ 80.623104795275211, 7.323405010178726, 0.0 ] ] ] ] } },
{ "type": "Feature", "properties": { "BU_Nm": null, "BU_Lb_meth": "9", "BU_GFCODE": "BLDGA" }, "geometry": { "type": "MultiPolygon", "coordinates": [ [ [ [ 80.624140548576563, 7.323598878467792, 0.0 ], [ 80.624021905825387, 7.323536638672519, 0.0 ], [ 80.623970788527259, 7.323633771385148, 0.0 ], [ 80.624089431296554, 7.323696011193921, 0.0 ], [ 80.624140548576563, 7.323598878467792, 0.0 ] ] ] ] } },
{ "type": "Feature", "properties": { "BU_Nm": null, "BU_Lb_meth": "9", "BU_GFCODE": "BLDGA" }, "geometry": { "type": "MultiPolygon", "coordinates": [ [ [ [ 80.623863688293241, 7.3235347321939, 0.0 ], [ 80.623853927738651, 7.323533134604106, 0.0 ], [ 80.623850463383278, 7.323554227166825, 0.0 ], [ 80.623840960681719, 7.323612087486116, 0.0 ], [ 80.623935186233084, 7.323627514226534, 0.0 ], [ 80.623948154179445, 7.323548562246114, 0.0 ], [ 80.623863688293241, 7.3235347321939, 0.0 ] ] ] ] } },
{ "type": "Feature", "properties": { "BU_Nm": null, "BU_Lb_meth": "9", "BU_GFCODE": "BLDGA" }, "geometry": { "type": "MultiPolygon", "coordinates": [ [ [ [ 80.623715530931662, 7.321327107451332, 0.0 ], [ 80.623715377546887, 7.321317383444666, 0.0 ], [ 80.623560006026437, 7.321319832051317, 0.0 ], [ 80.623561425553518, 7.321409574514822, 0.0 ], [ 80.623561883061853, 7.321438507798146, 0.0 ], [ 80.623717254623784, 7.321436058287419, 0.0 ], [ 80.623715530931662, 7.321327107451332, 0.0 ] ] ] ] } },
{ "type": "Feature", "properties": { "BU_Nm": null, "BU_Lb_meth": "9", "BU_GFCODE": "BLDGA" }, "geometry": { "type": "MultiPolygon", "coordinates": [ [ [ [ 80.623668380358168, 7.321154299332673, 0.0 ], [ 80.623591694977023, 7.321154273325477, 0.0 ], [ 80.623591653288941, 7.321276776330817, 0.0 ], [ 80.623668338691061, 7.321276802338546, 0.0 ], [ 80.623668380358168, 7.321154299332673, 0.0 ] ] ] ] } },
{ "type": "Feature", "properties": { "BU_Nm": null, "BU_Lb_meth": "9", "BU_GFCODE": "BLDGA" }, "geometry": { "type": "MultiPolygon", "coordinates": [ [ [ [ 80.623834974351439, 7.321267548118578, 0.0 ], [ 80.623829267193315, 7.321137387347616, 0.0 ], [ 80.623704809072436, 7.321142827052658, 0.0 ], [ 80.623710516194421, 7.321272987824508, 0.0 ], [ 80.623834974351439, 7.321267548118578, 0.0 ] ] ] ] } },
{ "type": "Feature", "properties": { "BU_Nm": null, "BU_Lb_meth": "9", "BU_GFCODE": "BLDGA" }, "geometry": { "type": "MultiPolygon", "coordinates": [ [ [ [ 80.623866531435411, 7.321313898835176, 0.0 ], [ 80.623866052691341, 7.321304760705723, 0.0 ], [ 80.623822346834984, 7.321307042829724, 0.0 ], [ 80.623791899285166, 7.321308632224917, 0.0 ], [ 80.623777603899413, 7.321309378856118, 0.0 ], [ 80.623777892764693, 7.321314892480697, 0.0 ], [ 80.623787127432749, 7.321491222657913, 0.0 ], [ 80.623875577166245, 7.321486604506718, 0.0 ], [ 80.623866531435411, 7.321313898835176, 0.0 ] ] ] ] } },
{ "type": "Feature", "properties": { "BU_Nm": null, "BU_Lb_meth": "9", "BU_GFCODE": "BLDGA" }, "geometry": { "type": "MultiPolygon", "coordinates": [ [ [ [ 80.623880002753339, 7.321691361581036, 0.0 ], [ 80.623874296879876, 7.321557372000361, 0.0 ], [ 80.623809151294594, 7.321560137897916, 0.0 ], [ 80.623814857148687, 7.321694127479035, 0.0 ], [ 80.623880002753339, 7.321691361581036, 0.0 ] ] ] ] } },
{ "type": "Feature", "properties": { "BU_Nm": null, "BU_Lb_meth": "9", "BU_GFCODE": "BLDGA" }, "geometry": { "type": "MultiPolygon", "coordinates": [ [ [ [ 80.623701608702959, 7.321684753092168, 0.0 ], [ 80.62369684552209, 7.321596703252838, 0.0 ], [ 80.623620176764433, 7.321600837041793, 0.0 ], [ 80.623624939930025, 7.321688887785823, 0.0 ], [ 80.623701608702959, 7.321684753092168, 0.0 ] ] ] ] } },
{ "type": "Feature", "properties": { "BU_Nm": null, "BU_Lb_meth": "4", "BU_GFCODE": "BLDGA" }, "geometry": { "type": "MultiPolygon", "coordinates": [ [ [ [ 80.623440559787682, 7.324457875921493, 0.0 ], [ 80.62340561895239, 7.32440016871528, 0.0 ], [ 80.623398855324595, 7.324404285510096, 0.0 ], [ 80.623301527378175, 7.32446352486414, 0.0 ], [ 80.623337103094869, 7.324521322724149, 0.0 ], [ 80.623435355246173, 7.324461068146111, 0.0 ], [ 80.623440559787682, 7.324457875921493, 0.0 ] ] ] ] } },
{ "type": "Feature", "properties": { "BU_Nm": null, "BU_Lb_meth": "4", "BU_GFCODE": "BLDGA" }, "geometry": { "type": "MultiPolygon", "coordinates": [ [ [ [ 80.623632206298339, 7.324476479164084, 0.0 ], [ 80.623542930831235, 7.324390721089931, 0.0 ], [ 80.623496749559976, 7.324437429760551, 0.0 ], [ 80.623483494074733, 7.324450836049164, 0.0 ], [ 80.623573042014556, 7.324537046378084, 0.0 ], [ 80.623593119220672, 7.324516492994911, 0.0 ], [ 80.623632206298339, 7.324476479164084, 0.0 ] ] ] ] } },
{ "type": "Feature", "properties": { "BU_Nm": null, "BU_Lb_meth": "4", "BU_GFCODE": "BLDGA" }, "geometry": { "type": "MultiPolygon", "coordinates": [ [ [ [ 80.622467230979808, 7.322155824882455, 0.0 ], [ 80.622389701215866, 7.322150734290241, 0.0 ], [ 80.622384681507398, 7.322222447297862, 0.0 ], [ 80.62238396609834, 7.322232662042645, 0.0 ], [ 80.622405144360854, 7.32223399589443, 0.0 ], [ 80.622461948803789, 7.322237572834863, 0.0 ], [ 80.622467230979808, 7.322155824882455, 0.0 ] ] ] ] } },
{ "type": "Feature", "properties": { "BU_Nm": null, "BU_Lb_meth": "4", "BU_GFCODE": "BLDGA" }, "geometry": { "type": "MultiPolygon", "coordinates": [ [ [ [ 80.62437811666959, 7.322231170120859, 0.0 ], [ 80.62427561510475, 7.322150742200003, 0.0 ], [ 80.624222609586553, 7.322218444724123, 0.0 ], [ 80.6242148142031, 7.322228401163085, 0.0 ], [ 80.624229023178614, 7.322239508074031, 0.0 ], [ 80.624244910030882, 7.322251926788621, 0.0 ], [ 80.624317587524686, 7.322308737854962, 0.0 ], [ 80.62433557410678, 7.322285687855808, 0.0 ], [ 80.62437811666959, 7.322231170120859, 0.0 ] ] ] ] } },
{ "type": "Feature", "properties": { "BU_Nm": null, "BU_Lb_meth": "4", "BU_GFCODE": "BLDGA" }, "geometry": { "type": "MultiPolygon", "coordinates": [ [ [ [ 80.624591137500516, 7.322252582583418, 0.0 ], [ 80.62451955680892, 7.322155645357349, 0.0 ], [ 80.624449946116059, 7.322061376474339, 0.0 ], [ 80.624429900602905, 7.322034230717141, 0.0 ], [ 80.624400115581338, 7.321994250537618, 0.0 ], [ 80.62439669012862, 7.321996860100229, 0.0 ], [ 80.624325373477191, 7.322051195402087, 0.0 ], [ 80.624364301113502, 7.322106733563712, 0.0 ], [ 80.624417171469602, 7.322181355381237, 0.0 ], [ 80.624374319027922, 7.322212177602101, 0.0 ], [ 80.624418407994611, 7.322274408428371, 0.0 ], [ 80.624450840052631, 7.322251451015956, 0.0 ], [ 80.624488015773622, 7.322302411905864, 0.0 ], [ 80.624499998481866, 7.322318837159199, 0.0 ], [ 80.624499364867376, 7.322317661353435, 0.0 ], [ 80.624591137500516, 7.322252582583418, 0.0 ] ] ] ] } },
{ "type": "Feature", "properties": { "BU_Nm": null, "BU_Lb_meth": "9", "BU_GFCODE": "BLDGA" }, "geometry": { "type": "MultiPolygon", "coordinates": [ [ [ [ 80.621260110214962, 7.322116737353686, 0.0 ], [ 80.621133342381754, 7.322071862023479, 0.0 ], [ 80.621099986232167, 7.322165791164033, 0.0 ], [ 80.62122675499397, 7.322210666504277, 0.0 ], [ 80.621260110214962, 7.322116737353686, 0.0 ] ] ] ] } },
{ "type": "Feature", "properties": { "BU_Nm": null, "BU_Lb_meth": "9", "BU_GFCODE": "BLDGA" }, "geometry": { "type": "MultiPolygon", "coordinates": [ [ [ [ 80.621386248860887, 7.322192310752869, 0.0 ], [ 80.621287890558222, 7.322135798744285, 0.0 ], [ 80.621244603256486, 7.32221090053707, 0.0 ], [ 80.621342962475481, 7.322267412555424, 0.0 ], [ 80.621386248860887, 7.322192310752869, 0.0 ] ] ] ] } },
{ "type": "Feature", "properties": { "BU_Nm": null, "BU_Lb_meth": "9", "BU_GFCODE": "BLDGA" }, "geometry": { "type": "MultiPolygon", "coordinates": [ [ [ [ 80.621512787688829, 7.322202810723629, 0.0 ], [ 80.621495520037087, 7.322131589238208, 0.0 ], [ 80.621435093663578, 7.322146192814867, 0.0 ], [ 80.621417529162613, 7.322150437892312, 0.0 ], [ 80.621436673523021, 7.322229401750609, 0.0 ], [ 80.621465504454349, 7.322222434079458, 0.0 ], [ 80.621503725885617, 7.322213197126477, 0.0 ], [ 80.62151466441064, 7.322210553093574, 0.0 ], [ 80.621512787688829, 7.322202810723629, 0.0 ] ] ] ] } },
{ "type": "Feature", "properties": { "BU_Nm": null, "BU_Lb_meth": "9", "BU_GFCODE": "BLDGA" }, "geometry": { "type": "MultiPolygon", "coordinates": [ [ [ [ 80.621654325313571, 7.322103294881306, 0.0 ], [ 80.621626529161702, 7.32205911110911, 0.0 ], [ 80.621528056698708, 7.322120862751931, 0.0 ], [ 80.621553564410036, 7.322161409547097, 0.0 ], [ 80.621568971511223, 7.322185901518215, 0.0 ], [ 80.62166744398354, 7.322124148962524, 0.0 ], [ 80.621654325313571, 7.322103294881306, 0.0 ] ] ] ] } },
{ "type": "Feature", "properties": { "BU_Nm": null, "BU_Lb_meth": "9", "BU_GFCODE": "BLDGA" }, "geometry": { "type": "MultiPolygon", "coordinates": [ [ [ [ 80.621807897692818, 7.322178953549703, 0.0 ], [ 80.621777479265319, 7.322129985131849, 0.0 ], [ 80.621694304517959, 7.322181489996844, 0.0 ], [ 80.621724722939959, 7.322230457515862, 0.0 ], [ 80.621807897692818, 7.322178953549703, 0.0 ] ] ] ] } },
{ "type": "Feature", "properties": { "BU_Nm": null, "BU_Lb_meth": "9", "BU_GFCODE": "BLDGA" }, "geometry": { "type": "MultiPolygon", "coordinates": [ [ [ [ 80.621987657026025, 7.322055957870551, 0.0 ], [ 80.621913147333828, 7.322041982565993, 0.0 ], [ 80.621891539639435, 7.322156821439248, 0.0 ], [ 80.621966050255509, 7.32217079674798, 0.0 ], [ 80.621987657026025, 7.322055957870551, 0.0 ] ] ] ] } },
{ "type": "Feature", "properties": { "BU_Nm": null, "BU_Lb_meth": "9", "BU_GFCODE": "BLDGA" }, "geometry": { "type": "MultiPolygon", "coordinates": [ [ [ [ 80.622182425862903, 7.322176057056258, 0.0 ], [ 80.62218046202554, 7.322058014295981, 0.0 ], [ 80.622019541666461, 7.322060682019711, 0.0 ], [ 80.622021536501961, 7.322180644622407, 0.0 ], [ 80.622088338195823, 7.322179537137459, 0.0 ], [ 80.622182457809785, 7.322177976899209, 0.0 ], [ 80.622182425862903, 7.322176057056258, 0.0 ] ] ] ] } },
{ "type": "Feature", "properties": { "BU_Nm": null, "BU_Lb_meth": "9", "BU_GFCODE": "BLDGA" }, "geometry": { "type": "MultiPolygon", "coordinates": [ [ [ [ 80.622297511141454, 7.322103844567914, 0.0 ], [ 80.622199259070797, 7.322099025377622, 0.0 ], [ 80.622195618883538, 7.322173020407548, 0.0 ], [ 80.622293870064851, 7.322177838694384, 0.0 ], [ 80.622297511141454, 7.322103844567914, 0.0 ] ] ] ] } },
{ "type": "Feature", "properties": { "BU_Nm": null, "BU_Lb_meth": "9", "BU_GFCODE": "BLDGA" }, "geometry": { "type": "MultiPolygon", "coordinates": [ [ [ [ 80.620323677088095, 7.322120324931565, 0.0 ], [ 80.62026315337485, 7.322042297107719, 0.0 ], [ 80.620215529907284, 7.322079120930554, 0.0 ], [ 80.620276053616976, 7.322157148760529, 0.0 ], [ 80.620323677088095, 7.322120324931565, 0.0 ] ] ] ] } },
{ "type": "Feature", "properties": { "BU_Nm": null, "BU_Lb_meth": "9", "BU_GFCODE": "BLDGA" }, "geometry": { "type": "MultiPolygon", "coordinates": [ [ [ [ 80.620230096389264, 7.321924008450538, 0.0 ], [ 80.620204920726991, 7.321843207625307, 0.0 ], [ 80.620109251642162, 7.321872923242208, 0.0 ], [ 80.620134427288889, 7.32195372316798, 0.0 ], [ 80.620230096389264, 7.321924008450538, 0.0 ] ] ] ] } },
{ "type": "Feature", "properties": { "BU_Nm": null, "BU_Lb_meth": "9", "BU_GFCODE": "BLDGA" }, "geometry": { "type": "MultiPolygon", "coordinates": [ [ [ [ 80.62033910524525, 7.321849518233432, 0.0 ], [ 80.620328168468518, 7.321813266426454, 0.0 ], [ 80.620216881484893, 7.321846734026878, 0.0 ], [ 80.62024007586686, 7.321923618539413, 0.0 ], [ 80.620241856292978, 7.321929518819055, 0.0 ], [ 80.620353143295517, 7.321896051212947, 0.0 ], [ 80.62033910524525, 7.321849518233432, 0.0 ] ] ] ] } },
{ "type": "Feature", "properties": { "BU_Nm": null, "BU_Lb_meth": "9", "BU_GFCODE": "BLDGA" }, "geometry": { "type": "MultiPolygon", "coordinates": [ [ [ [ 80.620444497675578, 7.321779690219306, 0.0 ], [ 80.620442511796654, 7.321773357613222, 0.0 ], [ 80.620340302591288, 7.321805304639757, 0.0 ], [ 80.620351123134867, 7.321839814721661, 0.0 ], [ 80.620365136465182, 7.321884507438921, 0.0 ], [ 80.620467345686805, 7.321852561311489, 0.0 ], [ 80.620444497675578, 7.321779690219306, 0.0 ] ] ] ] } },
{ "type": "Feature", "properties": { "BU_Nm": null, "BU_Lb_meth": "9", "BU_GFCODE": "BLDGA" }, "geometry": { "type": "MultiPolygon", "coordinates": [ [ [ [ 80.624266198205305, 7.321292683434096, 0.0 ], [ 80.624254673433512, 7.321012789156563, 0.0 ], [ 80.624118233404815, 7.321018389512564, 0.0 ], [ 80.624133338845354, 7.321385233598872, 0.0 ], [ 80.624133444845, 7.321387818128618, 0.0 ], [ 80.624139904600497, 7.321387552638943, 0.0 ], [ 80.624167797845899, 7.321386408177706, 0.0 ], [ 80.624269884985964, 7.321382217770307, 0.0 ], [ 80.624266198205305, 7.321292683434096, 0.0 ] ] ] ] } },
{ "type": "Feature", "properties": { "BU_Nm": null, "BU_Lb_meth": "9", "BU_GFCODE": "BLDGA" }, "geometry": { "type": "MultiPolygon", "coordinates": [ [ [ [ 80.624440610276721, 7.320928536198632, 0.0 ], [ 80.624422085293702, 7.321056774831754, 0.0 ], [ 80.624568601599464, 7.321077873667943, 0.0 ], [ 80.624587205705197, 7.320949087020042, 0.0 ], [ 80.624440610276721, 7.320928536198632, 0.0 ] ] ] ] } },
{ "type": "Feature", "properties": { "BU_Nm": null, "BU_Lb_meth": "9", "BU_GFCODE": "BLDGA" }, "geometry": { "type": "MultiPolygon", "coordinates": [ [ [ [ 80.624119158625419, 7.321380225304648, 0.0 ], [ 80.624109910423925, 7.321141935094595, 0.0 ], [ 80.623897355589577, 7.321150158343166, 0.0 ], [ 80.623903935196026, 7.321319702646652, 0.0 ], [ 80.623909006386342, 7.321450358758093, 0.0 ], [ 80.624121561362898, 7.321442135507035, 0.0 ], [ 80.624119158625419, 7.321380225304648, 0.0 ] ] ] ] } },
{ "type": "Feature", "properties": { "BU_Nm": null, "BU_Lb_meth": "9", "BU_GFCODE": "BLDGA" }, "geometry": { "type": "MultiPolygon", "coordinates": [ [ [ [ 80.620065473054467, 7.321795156215434, 0.0 ], [ 80.620019351333269, 7.321774670438537, 0.0 ], [ 80.620008813979354, 7.321798318782887, 0.0 ], [ 80.619976567401949, 7.321870691485739, 0.0 ], [ 80.620073941035812, 7.321913940950993, 0.0 ], [ 80.62011672495089, 7.321817919894376, 0.0 ], [ 80.620065473054467, 7.321795156215434, 0.0 ] ] ] ] } },
{ "type": "Feature", "properties": { "BU_Nm": null, "BU_Lb_meth": "9", "BU_GFCODE": "BLDGA" }, "geometry": { "type": "MultiPolygon", "coordinates": [ [ [ [ 80.619974118367807, 7.321748325092543, 0.0 ], [ 80.619881332380473, 7.321730838034253, 0.0 ], [ 80.619866227740275, 7.321810728717122, 0.0 ], [ 80.619862605384967, 7.32182988598747, 0.0 ], [ 80.619955391391841, 7.321847373049935, 0.0 ], [ 80.619964394641627, 7.321799755665766, 0.0 ], [ 80.619974118367807, 7.321748325092543, 0.0 ] ] ] ] } },
{ "type": "Feature", "properties": { "BU_Nm": null, "BU_Lb_meth": "9", "BU_GFCODE": "BLDGA" }, "geometry": { "type": "MultiPolygon", "coordinates": [ [ [ [ 80.619841543521417, 7.321707811544472, 0.0 ], [ 80.619780693714446, 7.321697783391053, 0.0 ], [ 80.61975925240101, 7.321827478073957, 0.0 ], [ 80.619758616141254, 7.321831326559399, 0.0 ], [ 80.619759251022032, 7.32183143077479, 0.0 ], [ 80.61980527760528, 7.32183901668589, 0.0 ], [ 80.619819465965733, 7.321841354716015, 0.0 ], [ 80.619821230428613, 7.321830680051574, 0.0 ], [ 80.619841543521417, 7.321707811544472, 0.0 ] ] ] ] } },
{ "type": "Feature", "properties": { "BU_Nm": null, "BU_Lb_meth": "9", "BU_GFCODE": "BLDGA" }, "geometry": { "type": "MultiPolygon", "coordinates": [ [ [ [ 80.619894888251565, 7.321541708107955, 0.0 ], [ 80.619893145728554, 7.3215284242193, 0.0 ], [ 80.619837338442565, 7.321535720623491, 0.0 ], [ 80.61980412018562, 7.321540064191752, 0.0 ], [ 80.619759350626182, 7.321545918445545, 0.0 ], [ 80.619737955401206, 7.321548716147704, 0.0 ], [ 80.619741363655066, 7.321574699720597, 0.0 ], [ 80.619755059002586, 7.321679112409048, 0.0 ], [ 80.619759304353948, 7.321678557740115, 0.0 ], [ 80.619910249374072, 7.321658821380102, 0.0 ], [ 80.619894888251565, 7.321541708107955, 0.0 ] ] ] ] } },
{ "type": "Feature", "properties": { "BU_Nm": null, "BU_Lb_meth": "9", "BU_GFCODE": "BLDGA" }, "geometry": { "type": "MultiPolygon", "coordinates": [ [ [ [ 80.620292794180756, 7.321678014083884, 0.0 ], [ 80.620130052095163, 7.321596070446941, 0.0 ], [ 80.620078547574778, 7.321698037878861, 0.0 ], [ 80.620228546479282, 7.321773564715113, 0.0 ], [ 80.620241289687101, 7.321779981534545, 0.0 ], [ 80.620247765590378, 7.321767160785726, 0.0 ], [ 80.620292794180756, 7.321678014083884, 0.0 ] ] ] ] } },
{ "type": "Feature", "properties": { "BU_Nm": null, "BU_Lb_meth": "9", "BU_GFCODE": "BLDGA" }, "geometry": { "type": "MultiPolygon", "coordinates": [ [ [ [ 80.620060401254335, 7.321443148804303, 0.0 ], [ 80.619940865232095, 7.321439434931716, 0.0 ], [ 80.619937957025002, 7.321532746974609, 0.0 ], [ 80.620057493072025, 7.321536460848439, 0.0 ], [ 80.620060401254335, 7.321443148804303, 0.0 ] ] ] ] } },
{ "type": "Feature", "properties": { "BU_Nm": null, "BU_Lb_meth": "9", "BU_GFCODE": "BLDGA" }, "geometry": { "type": "MultiPolygon", "coordinates": [ [ [ [ 80.620225004041117, 7.321419779976542, 0.0 ], [ 80.62013018801666, 7.321418924178176, 0.0 ], [ 80.620129991154315, 7.321440660802943, 0.0 ], [ 80.620128777966983, 7.321574578377661, 0.0 ], [ 80.620132274979795, 7.321574610337163, 0.0 ], [ 80.62022359402404, 7.321575435081347, 0.0 ], [ 80.620223724956816, 7.321560955452562, 0.0 ], [ 80.620224570767874, 7.321467614658268, 0.0 ], [ 80.620225004041117, 7.321419779976542, 0.0 ] ] ] ] } },
{ "type": "Feature", "properties": { "BU_Nm": null, "BU_Lb_meth": "9", "BU_GFCODE": "BLDGA" }, "geometry": { "type": "MultiPolygon", "coordinates": [ [ [ [ 80.620375286717646, 7.32144218277065, 0.0 ], [ 80.62037255520849, 7.321405195896287, 0.0 ], [ 80.620242368620396, 7.321414778879849, 0.0 ], [ 80.620246445133844, 7.321469978851465, 0.0 ], [ 80.620248866520043, 7.321502772373141, 0.0 ], [ 80.620379053133618, 7.321493189388247, 0.0 ], [ 80.620375286717646, 7.32144218277065, 0.0 ] ] ] ] } },
{ "type": "Feature", "properties": { "BU_Nm": null, "BU_Lb_meth": "9", "BU_GFCODE": "BLDGA" }, "geometry": { "type": "MultiPolygon", "coordinates": [ [ [ [ 80.620529335240917, 7.321506890943071, 0.0 ], [ 80.620489482788457, 7.321440031189248, 0.0 ], [ 80.620309573117041, 7.321546930557361, 0.0 ], [ 80.620293895314333, 7.321556245758949, 0.0 ], [ 80.620333747747239, 7.321623105529292, 0.0 ], [ 80.62052501129979, 7.321509460375649, 0.0 ], [ 80.620529335240917, 7.321506890943071, 0.0 ] ] ] ] } },
{ "type": "Feature", "properties": { "BU_Nm": null, "BU_Lb_meth": "9", "BU_GFCODE": "BLDGA" }, "geometry": { "type": "MultiPolygon", "coordinates": [ [ [ [ 80.620773654111645, 7.321587841672923, 0.0 ], [ 80.620771428385197, 7.321547033397498, 0.0 ], [ 80.620664302953656, 7.321552857149734, 0.0 ], [ 80.620664615257525, 7.32155857877282, 0.0 ], [ 80.620670728996899, 7.32167069527326, 0.0 ], [ 80.62077785445652, 7.321664871520047, 0.0 ], [ 80.620773654111645, 7.321587841672923, 0.0 ] ] ] ] } },
{ "type": "Feature", "properties": { "BU_Nm": null, "BU_Lb_meth": "9", "BU_GFCODE": "BLDGA" }, "geometry": { "type": "MultiPolygon", "coordinates": [ [ [ [ 80.6205791725789, 7.321641306368172, 0.0 ], [ 80.620520488419942, 7.321638942113958, 0.0 ], [ 80.620515328524775, 7.321766631305533, 0.0 ], [ 80.62051468719298, 7.321782498860537, 0.0 ], [ 80.620573371371037, 7.321784862211563, 0.0 ], [ 80.62057433336534, 7.321761061331096, 0.0 ], [ 80.6205791725789, 7.321641306368172, 0.0 ] ] ] ] } },
{ "type": "Feature", "properties": { "BU_Nm": null, "BU_Lb_meth": "9", "BU_GFCODE": "BLDGA" }, "geometry": { "type": "MultiPolygon", "coordinates": [ [ [ [ 80.620372555623618, 7.321714174891654, 0.0 ], [ 80.620327794024575, 7.321704912902168, 0.0 ], [ 80.620320879876658, 7.321738216831471, 0.0 ], [ 80.620316402599443, 7.321759784677202, 0.0 ], [ 80.620398223125164, 7.321776716224744, 0.0 ], [ 80.620409613635388, 7.32172184354279, 0.0 ], [ 80.620372555623618, 7.321714174891654, 0.0 ] ] ] ] } },
{ "type": "Feature", "properties": { "BU_Nm": null, "BU_Lb_meth": "9", "BU_GFCODE": "BLDGA" }, "geometry": { "type": "MultiPolygon", "coordinates": [ [ [ [ 80.619894382966336, 7.321414056746741, 0.0 ], [ 80.619883625620119, 7.321338684912722, 0.0 ], [ 80.619759416754619, 7.321356357001314, 0.0 ], [ 80.619692382187026, 7.321365894863992, 0.0 ], [ 80.619703139501539, 7.32144126670183, 0.0 ], [ 80.619759389926116, 7.321433263304329, 0.0 ], [ 80.619780706428898, 7.321430230455335, 0.0 ], [ 80.619849009089137, 7.321420512160189, 0.0 ], [ 80.619894382966336, 7.321414056746741, 0.0 ] ] ] ] } },
{ "type": "Feature", "properties": { "BU_Nm": null, "BU_Lb_meth": "9", "BU_GFCODE": "BLDGA" }, "geometry": { "type": "MultiPolygon", "coordinates": [ [ [ [ 80.619684666761202, 7.321297802985494, 0.0 ], [ 80.619682512021726, 7.321317817863478, 0.0 ], [ 80.619759427318783, 7.321326073759622, 0.0 ], [ 80.619782979934826, 7.321328601333062, 0.0 ], [ 80.619786342166748, 7.321297371934606, 0.0 ], [ 80.619684666761202, 7.321297802985494, 0.0 ] ] ] ] } },
{ "type": "Feature", "properties": { "BU_Nm": null, "BU_Lb_meth": "4", "BU_GFCODE": "BLDGA" }, "geometry": { "type": "MultiPolygon", "coordinates": [ [ [ [ 80.623741606651294, 7.321519626717817, 0.0 ], [ 80.623738185138265, 7.321460032085743, 0.0 ], [ 80.623640273797633, 7.321465695991265, 0.0 ], [ 80.623643877287847, 7.321525471545816, 0.0 ], [ 80.623741606651294, 7.321519626717817, 0.0 ] ] ] ] } },
{ "type": "Feature", "properties": { "BU_Nm": null, "BU_Lb_meth": "4", "BU_GFCODE": "BLDGA" }, "geometry": { "type": "MultiPolygon", "coordinates": [ [ [ [ 80.623999645484886, 7.321597187419411, 0.0 ], [ 80.623899110140215, 7.321595073499439, 0.0 ], [ 80.623895713680923, 7.321730988873239, 0.0 ], [ 80.623996791558099, 7.321733192504028, 0.0 ], [ 80.623999645484886, 7.321597187419411, 0.0 ] ] ] ] } },
{ "type": "Feature", "properties": { "BU_Nm": null, "BU_Lb_meth": "4", "BU_GFCODE": "BLDGA" }, "geometry": { "type": "MultiPolygon", "coordinates": [ [ [ [ 80.624239862138211, 7.321750214963292, 0.0 ], [ 80.624272033439823, 7.321427480598637, 0.0 ], [ 80.624169960062076, 7.32142310546647, 0.0 ], [ 80.624165687663108, 7.321466058347277, 0.0 ], [ 80.624047131358068, 7.321454986688843, 0.0 ], [ 80.624036315214894, 7.321566844229939, 0.0 ], [ 80.62402131772933, 7.321722832080131, 0.0 ], [ 80.624141413784287, 7.321734086031769, 0.0 ], [ 80.624140503822318, 7.321746564181482, 0.0 ], [ 80.624239862138211, 7.321750214963292, 0.0 ] ] ] ] } },
{ "type": "Feature", "properties": { "BU_Nm": null, "BU_Lb_meth": "4", "BU_GFCODE": "BLDGA" }, "geometry": { "type": "MultiPolygon", "coordinates": [ [ [ [ 80.62379246206477, 7.321744736362608, 0.0 ], [ 80.62378626695866, 7.321584581554704, 0.0 ], [ 80.623711362090745, 7.321587449934637, 0.0 ], [ 80.623717828889312, 7.32174760483509, 0.0 ], [ 80.62379246206477, 7.321744736362608, 0.0 ] ] ] ] } },
{ "type": "Feature", "properties": { "BU_Nm": null, "BU_Lb_meth": "4", "BU_GFCODE": "BLDGA" }, "geometry": { "type": "MultiPolygon", "coordinates": [ [ [ [ 80.624383105273154, 7.321808991386843, 0.0 ], [ 80.624435360257593, 7.321558155762749, 0.0 ], [ 80.624451934109473, 7.321561144644869, 0.0 ], [ 80.624549638859989, 7.321095101455939, 0.0 ], [ 80.624402468762639, 7.321062857780121, 0.0 ], [ 80.624360380701248, 7.321249311469587, 0.0 ], [ 80.624281093308866, 7.321620409165093, 0.0 ], [ 80.62435490508804, 7.321635897643504, 0.0 ], [ 80.624320796321911, 7.32179594841081, 0.0 ], [ 80.624383105273154, 7.321808991386843, 0.0 ] ] ] ] } },
{ "type": "Feature", "properties": { "BU_Nm": null, "BU_Lb_meth": "4", "BU_GFCODE": "BLDGA" }, "geometry": { "type": "MultiPolygon", "coordinates": [ [ [ [ 80.623469222140173, 7.321811447379496, 0.0 ], [ 80.623566509106027, 7.321775037048746, 0.0 ], [ 80.62358316118619, 7.321819623860145, 0.0 ], [ 80.623663508799723, 7.321789628301752, 0.0 ], [ 80.623629394325548, 7.321696835394261, 0.0 ], [ 80.623585189112546, 7.321713188257058, 0.0 ], [ 80.623541843877149, 7.321597876007176, 0.0 ], [ 80.623397451999224, 7.321652085075788, 0.0 ], [ 80.623438534527182, 7.321759890867548, 0.0 ], [ 80.623342334308191, 7.321796663260412, 0.0 ], [ 80.623353285725926, 7.321819908435264, 0.0 ], [ 80.623373647725657, 7.321872274411974, 0.0 ], [ 80.623477547747754, 7.321832337762964, 0.0 ], [ 80.623469222140173, 7.321811447379496, 0.0 ] ] ] ] } },
{ "type": "Feature", "properties": { "BU_Nm": null, "BU_Lb_meth": "4", "BU_GFCODE": "BLDGA" }, "geometry": { "type": "MultiPolygon", "coordinates": [ [ [ [ 80.624100695973127, 7.321949747282848, 0.0 ], [ 80.624100180049112, 7.321868631259083, 0.0 ], [ 80.623920844748454, 7.321870379187907, 0.0 ], [ 80.623922085347544, 7.321951133735934, 0.0 ], [ 80.624100695973127, 7.321949747282848, 0.0 ] ] ] ] } },
{ "type": "Feature", "properties": { "BU_Nm": null, "BU_Lb_meth": "4", "BU_GFCODE": "BLDGA" }, "geometry": { "type": "MultiPolygon", "coordinates": [ [ [ [ 80.623862039659215, 7.3219385436133, 0.0 ], [ 80.623850925499752, 7.321861042111284, 0.0 ], [ 80.62366388281761, 7.321888287726471, 0.0 ], [ 80.623675631831546, 7.321965880782185, 0.0 ], [ 80.623862039659215, 7.3219385436133, 0.0 ] ] ] ] } },
{ "type": "Feature", "properties": { "BU_Nm": null, "BU_Lb_meth": "4", "BU_GFCODE": "BLDGA" }, "geometry": { "type": "MultiPolygon", "coordinates": [ [ [ [ 80.623867924502406, 7.322014950947804, 0.0 ], [ 80.623867095238637, 7.32198982012718, 0.0 ], [ 80.623802877269299, 7.321991967794379, 0.0 ], [ 80.623803565402582, 7.322011276673941, 0.0 ], [ 80.623805390249345, 7.322062504165612, 0.0 ], [ 80.623869425240343, 7.322060446866481, 0.0 ], [ 80.623867924502406, 7.322014950947804, 0.0 ] ] ] ] } },
{ "type": "Feature", "properties": { "BU_Nm": null, "BU_Lb_meth": "9", "BU_GFCODE": "BLDGA" }, "geometry": { "type": "MultiPolygon", "coordinates": [ [ [ [ 80.623414860863704, 7.322718520200795, 0.0 ], [ 80.62340464478568, 7.322658332753059, 0.0 ], [ 80.623403585923612, 7.322658511445053, 0.0 ], [ 80.62330303114382, 7.322675525165974, 0.0 ], [ 80.623313246302772, 7.322735712615398, 0.0 ], [ 80.623379258087425, 7.322724544318, 0.0 ], [ 80.623414860863704, 7.322718520200795, 0.0 ] ] ] ] } },
{ "type": "Feature", "properties": { "BU_Nm": null, "BU_Lb_meth": "9", "BU_GFCODE": "BLDGA" }, "geometry": { "type": "MultiPolygon", "coordinates": [ [ [ [ 80.623663294040142, 7.322673855162283, 0.0 ], [ 80.623625146692461, 7.322566532381132, 0.0 ], [ 80.62341461098741, 7.322641129089676, 0.0 ], [ 80.623406567112511, 7.322643979428485, 0.0 ], [ 80.623408806652975, 7.322650280457784, 0.0 ], [ 80.623444713508064, 7.3227513022266, 0.0 ], [ 80.623663294040142, 7.322673855162283, 0.0 ] ] ] ] } },
{ "type": "Feature", "properties": { "BU_Nm": null, "BU_Lb_meth": "4", "BU_GFCODE": "BLDGA" }, "geometry": { "type": "MultiPolygon", "coordinates": [ [ [ [ 80.624008413851442, 7.322197643902435, 0.0 ], [ 80.62401484251447, 7.322088876688178, 0.0 ], [ 80.624015514806644, 7.322077496280717, 0.0 ], [ 80.623997710329022, 7.322076354453906, 0.0 ], [ 80.623924761604187, 7.322071678037497, 0.0 ], [ 80.623922575165949, 7.322109024950881, 0.0 ], [ 80.623796499900706, 7.32210156697984, 0.0 ], [ 80.62379786745602, 7.322077874743045, 0.0 ], [ 80.623718797727562, 7.322073416868975, 0.0 ], [ 80.623711963811559, 7.322193777085791, 0.0 ], [ 80.623718100922289, 7.322194147217005, 0.0 ], [ 80.624007588520882, 7.322211602421665, 0.0 ], [ 80.624008413851442, 7.322197643902435, 0.0 ] ] ] ] } },
{ "type": "Feature", "properties": { "BU_Nm": null, "BU_Lb_meth": "4", "BU_GFCODE": "BLDGA" }, "geometry": { "type": "MultiPolygon", "coordinates": [ [ [ [ 80.623678552658959, 7.322163381226717, 0.0 ], [ 80.623654128673991, 7.3220117206738, 0.0 ], [ 80.623645201628037, 7.321956284866745, 0.0 ], [ 80.623485855924557, 7.322034724169797, 0.0 ], [ 80.623485675283732, 7.322035899700492, 0.0 ], [ 80.623400431169287, 7.322079367655062, 0.0 ], [ 80.623438467842476, 7.322155029013396, 0.0 ], [ 80.623438989190603, 7.32215606552001, 0.0 ], [ 80.623524956903012, 7.32211286909464, 0.0 ], [ 80.623575282205252, 7.322213534932438, 0.0 ], [ 80.623678552658959, 7.322163381226717, 0.0 ] ] ] ] } },
{ "type": "Feature", "properties": { "BU_Nm": null, "BU_Lb_meth": "9", "BU_GFCODE": "BLDGA" }, "geometry": { "type": "MultiPolygon", "coordinates": [ [ [ [ 80.623944958911039, 7.322894668892517, 0.0 ], [ 80.623913727350498, 7.322814901638826, 0.0 ], [ 80.62391263507844, 7.322812112403139, 0.0 ], [ 80.623847924520817, 7.322832188589275, 0.0 ], [ 80.623822061993764, 7.322776909824332, 0.0 ], [ 80.62373146060844, 7.32282497168318, 0.0 ], [ 80.623812653771921, 7.322959225575805, 0.0 ], [ 80.623866741341189, 7.322932834677272, 0.0 ], [ 80.623944958911039, 7.322894668892517, 0.0 ] ] ] ] } },
{ "type": "Feature", "properties": { "BU_Nm": null, "BU_Lb_meth": "4", "BU_GFCODE": "BLDGA" }, "geometry": { "type": "MultiPolygon", "coordinates": [ [ [ [ 80.624248748372082, 7.32253032093156, 0.0 ], [ 80.624234692355998, 7.322313735964443, 0.0 ], [ 80.624166750088904, 7.32231821009653, 0.0 ], [ 80.624139045852928, 7.322320034655168, 0.0 ], [ 80.62415264817416, 7.322536256845987, 0.0 ], [ 80.624174502138303, 7.322534906876428, 0.0 ], [ 80.624248748372082, 7.32253032093156, 0.0 ] ] ] ] } },
{ "type": "Feature", "properties": { "BU_Nm": null, "BU_Lb_meth": "4", "BU_GFCODE": "BLDGA" }, "geometry": { "type": "MultiPolygon", "coordinates": [ [ [ [ 80.623186733875826, 7.32251455793292, 0.0 ], [ 80.623237739668127, 7.322476233802473, 0.0 ], [ 80.623254035162148, 7.32249875645102, 0.0 ], [ 80.623283750542356, 7.322477152844294, 0.0 ], [ 80.623247267725674, 7.322426500460229, 0.0 ], [ 80.623375721125853, 7.322331483043716, 0.0 ], [ 80.623457811976863, 7.322270759951739, 0.0 ], [ 80.623454442425654, 7.322266116123484, 0.0 ], [ 80.623399331897062, 7.322190160494764, 0.0 ], [ 80.623355693424671, 7.322130015948088, 0.0 ], [ 80.623285844399703, 7.322180271372443, 0.0 ], [ 80.623297160490793, 7.322196552646372, 0.0 ], [ 80.623233834165106, 7.322242560966548, 0.0 ], [ 80.623256919305916, 7.322274851475925, 0.0 ], [ 80.62316922295139, 7.32233794279787, 0.0 ], [ 80.623187781593828, 7.322363901660219, 0.0 ], [ 80.623140943503273, 7.322398340515808, 0.0 ], [ 80.623132071098155, 7.322387305018403, 0.0 ], [ 80.62308043154205, 7.32242490548017, 0.0 ], [ 80.623148034852647, 7.322513993142484, 0.0 ], [ 80.623162182364965, 7.322532636514308, 0.0 ], [ 80.623186733875826, 7.32251455793292, 0.0 ] ] ] ] } },
{ "type": "Feature", "properties": { "BU_Nm": null, "BU_Lb_meth": "4", "BU_GFCODE": "BLDGA" }, "geometry": { "type": "MultiPolygon", "coordinates": [ [ [ [ 80.624133146420874, 7.322588274719995, 0.0 ], [ 80.624107962596256, 7.322334429669415, 0.0 ], [ 80.624004162215599, 7.322344794026788, 0.0 ], [ 80.624028540049224, 7.322587466163928, 0.0 ], [ 80.624029708121, 7.32259909225957, 0.0 ], [ 80.624032009668568, 7.322598851589686, 0.0 ], [ 80.624133146420874, 7.322588274719995, 0.0 ] ] ] ] } },
{ "type": "Feature", "properties": { "BU_Nm": null, "BU_Lb_meth": "4", "BU_GFCODE": "BLDGA" }, "geometry": { "type": "MultiPolygon", "coordinates": [ [ [ [ 80.62460959327484, 7.322628582015985, 0.0 ], [ 80.624714053631394, 7.322541533875289, 0.0 ], [ 80.624767022437794, 7.32259047352158, 0.0 ], [ 80.624785803976081, 7.322570891768561, 0.0 ], [ 80.624833526598735, 7.322521136882128, 0.0 ], [ 80.62465562046944, 7.322315980479417, 0.0 ], [ 80.624549347295797, 7.322404476688178, 0.0 ], [ 80.624540019573374, 7.32240058414216, 0.0 ], [ 80.624510281401896, 7.322425491239078, 0.0 ], [ 80.624475024849374, 7.322455020166292, 0.0 ], [ 80.624468354959575, 7.32246060649991, 0.0 ], [ 80.624491776822779, 7.322488462366501, 0.0 ], [ 80.62460959327484, 7.322628582015985, 0.0 ] ] ] ] } },
{ "type": "Feature", "properties": { "BU_Nm": null, "BU_Lb_meth": "4", "BU_GFCODE": "BLDGA" }, "geometry": { "type": "MultiPolygon", "coordinates": [ [ [ [ 80.624937655398185, 7.322568300492656, 0.0 ], [ 80.624860510681344, 7.322495478266807, 0.0 ], [ 80.624809227805613, 7.322550080822883, 0.0 ], [ 80.62488637183074, 7.322622270950359, 0.0 ], [ 80.624937655398185, 7.322568300492656, 0.0 ] ] ] ] } },
{ "type": "Feature", "properties": { "BU_Nm": null, "BU_Lb_meth": "4", "BU_GFCODE": "BLDGA" }, "geometry": { "type": "MultiPolygon", "coordinates": [ [ [ [ 80.624774535776808, 7.322637889485713, 0.0 ], [ 80.62468578811648, 7.322598793771847, 0.0 ], [ 80.624646113334805, 7.322690141086004, 0.0 ], [ 80.62463783755625, 7.322709193739503, 0.0 ], [ 80.624705400779803, 7.322738375704703, 0.0 ], [ 80.624726677863265, 7.322747565148664, 0.0 ], [ 80.624774535776808, 7.322637889485713, 0.0 ] ] ] ] } },
{ "type": "Feature", "properties": { "BU_Nm": null, "BU_Lb_meth": "4", "BU_GFCODE": "BLDGA" }, "geometry": { "type": "MultiPolygon", "coordinates": [ [ [ [ 80.625002548345023, 7.322708127332629, 0.0 ], [ 80.624992435401026, 7.322615433023246, 0.0 ], [ 80.624923325464763, 7.322623005917557, 0.0 ], [ 80.624927388475939, 7.322660898423668, 0.0 ], [ 80.62490778045948, 7.322663031405992, 0.0 ], [ 80.624871865036667, 7.322666937662288, 0.0 ], [ 80.624878548685942, 7.322722555360735, 0.0 ], [ 80.624933055096704, 7.322716212838317, 0.0 ], [ 80.625002548345023, 7.322708127332629, 0.0 ] ] ] ] } },
{ "type": "Feature", "properties": { "BU_Nm": null, "BU_Lb_meth": "4", "BU_GFCODE": "BLDGA" }, "geometry": { "type": "MultiPolygon", "coordinates": [ [ [ [ 80.623053706137583, 7.322642267851294, 0.0 ], [ 80.622944323888902, 7.322556502814533, 0.0 ], [ 80.622913423916103, 7.322596281550038, 0.0 ], [ 80.622891058299359, 7.322578820908839, 0.0 ], [ 80.622848561656355, 7.322633516661299, 0.0 ], [ 80.623016183958882, 7.322762746915797, 0.0 ], [ 80.623025403699856, 7.322769855152374, 0.0 ], [ 80.623067449033115, 7.322715882670956, 0.0 ], [ 80.623046497817597, 7.322699419963404, 0.0 ], [ 80.623023350791527, 7.322681232908431, 0.0 ], [ 80.623053706137583, 7.322642267851294, 0.0 ] ] ] ] } },
{ "type": "Feature", "properties": { "BU_Nm": null, "BU_Lb_meth": "4", "BU_GFCODE": "BLDGA" }, "geometry": { "type": "MultiPolygon", "coordinates": [ [ [ [ 80.62312004197112, 7.322780229868127, 0.0 ], [ 80.623093058553039, 7.322779735073699, 0.0 ], [ 80.623092313616581, 7.322839328287441, 0.0 ], [ 80.623114448732181, 7.322839584504799, 0.0 ], [ 80.623132528898083, 7.322839794126097, 0.0 ], [ 80.623133272830913, 7.32278047220228, 0.0 ], [ 80.62312004197112, 7.322780229868127, 0.0 ] ] ] ] } },
{ "type": "Feature", "properties": { "BU_Nm": null, "BU_Lb_meth": "9", "BU_GFCODE": "BLDGA" }, "geometry": { "type": "MultiPolygon", "coordinates": [ [ [ [ 80.623013868944923, 7.322767935913473, 0.0 ], [ 80.622854213992909, 7.32265039737537, 0.0 ], [ 80.622807601527114, 7.322713511671293, 0.0 ], [ 80.62293945658385, 7.322810583646018, 0.0 ], [ 80.622980983038218, 7.322841155045208, 0.0 ], [ 80.623012444809191, 7.322864317688123, 0.0 ], [ 80.623059056356965, 7.322801203370795, 0.0 ], [ 80.62302110936173, 7.322773266523648, 0.0 ], [ 80.623013868944923, 7.322767935913473, 0.0 ] ] ] ] } },
{ "type": "Feature", "properties": { "BU_Nm": null, "BU_Lb_meth": "4", "BU_GFCODE": "BLDGA" }, "geometry": { "type": "MultiPolygon", "coordinates": [ [ [ [ 80.624626750401504, 7.322939842962069, 0.0 ], [ 80.624622338817161, 7.322861437628021, 0.0 ], [ 80.624550241620582, 7.32286665827336, 0.0 ], [ 80.624554142082502, 7.322932491835695, 0.0 ], [ 80.624554833739012, 7.322944159367258, 0.0 ], [ 80.624569580277935, 7.322943274506362, 0.0 ], [ 80.624626750401504, 7.322939842962069, 0.0 ] ] ] ] } },
{ "type": "Feature", "properties": { "BU_Nm": null, "BU_Lb_meth": "4", "BU_GFCODE": "BLDGA" }, "geometry": { "type": "MultiPolygon", "coordinates": [ [ [ [ 80.625043234812367, 7.322920200626933, 0.0 ], [ 80.625013223354514, 7.322748282814502, 0.0 ], [ 80.624944820979735, 7.322760618905851, 0.0 ], [ 80.624844564760053, 7.322778700147865, 0.0 ], [ 80.624857854639913, 7.322850958313539, 0.0 ], [ 80.62493665896325, 7.322837149914048, 0.0 ], [ 80.624954467374792, 7.322936809933574, 0.0 ], [ 80.624960898658557, 7.322935093018963, 0.0 ], [ 80.62496282979923, 7.322934743703631, 0.0 ], [ 80.625043234812367, 7.322920200626933, 0.0 ] ] ] ] } },
{ "type": "Feature", "properties": { "BU_Nm": null, "BU_Lb_meth": "4", "BU_GFCODE": "BLDGA" }, "geometry": { "type": "MultiPolygon", "coordinates": [ [ [ [ 80.624805056778541, 7.322966223617862, 0.0 ], [ 80.624772494738892, 7.322834908072314, 0.0 ], [ 80.624769446691388, 7.322835667563628, 0.0 ], [ 80.624677207249448, 7.322858637408143, 0.0 ], [ 80.624674214456235, 7.322859382448706, 0.0 ], [ 80.624706776560529, 7.322990425805938, 0.0 ], [ 80.624739220809062, 7.322982436377353, 0.0 ], [ 80.624788965997652, 7.32297018627633, 0.0 ], [ 80.624805056778541, 7.322966223617862, 0.0 ] ] ] ] } },
{ "type": "Feature", "properties": { "BU_Nm": null, "BU_Lb_meth": "4", "BU_GFCODE": "BLDGA" }, "geometry": { "type": "MultiPolygon", "coordinates": [ [ [ [ 80.624642590251014, 7.323123562581498, 0.0 ], [ 80.624610557562519, 7.323034025934867, 0.0 ], [ 80.624519429644323, 7.323067002216928, 0.0 ], [ 80.624551371896374, 7.323156086688283, 0.0 ], [ 80.624642590251014, 7.323123562581498, 0.0 ] ] ] ] } },
{ "type": "Feature", "properties": { "BU_Nm": null, "BU_Lb_meth": "9", "BU_GFCODE": "BLDGA" }, "geometry": { "type": "MultiPolygon", "coordinates": [ [ [ [ 80.620934892259058, 7.321323904612762, 0.0 ], [ 80.620938679094479, 7.32134442453883, 0.0 ], [ 80.621018282402247, 7.321329779713921, 0.0 ], [ 80.621013682500703, 7.321304854209595, 0.0 ], [ 80.620934892259058, 7.321323904612762, 0.0 ] ] ] ] } },
{ "type": "Feature", "properties": { "BU_Nm": null, "BU_Lb_meth": "9", "BU_GFCODE": "BLDGA" }, "geometry": { "type": "MultiPolygon", "coordinates": [ [ [ [ 80.620428363525846, 7.321374120939361, 0.0 ], [ 80.6204305040241, 7.321435837420094, 0.0 ], [ 80.620562565545825, 7.321431272999519, 0.0 ], [ 80.620560540300488, 7.321372859240428, 0.0 ], [ 80.620428363525846, 7.321374120939361, 0.0 ] ] ] ] } },
{ "type": "Feature", "properties": { "BU_Nm": null, "BU_Lb_meth": "9", "BU_GFCODE": "BLDGA" }, "geometry": { "type": "MultiPolygon", "coordinates": [ [ [ [ 80.621706372178778, 7.321454169902649, 0.0 ], [ 80.621639656536971, 7.321384615245504, 0.0 ], [ 80.621587278126114, 7.32143469735685, 0.0 ], [ 80.62165399376687, 7.321504252021634, 0.0 ], [ 80.621706372178778, 7.321454169902649, 0.0 ] ] ] ] } },
{ "type": "Feature", "properties": { "BU_Nm": null, "BU_Lb_meth": "9", "BU_GFCODE": "BLDGA" }, "geometry": { "type": "MultiPolygon", "coordinates": [ [ [ [ 80.621696940958714, 7.321635136378409, 0.0 ], [ 80.621591643487264, 7.321629843496631, 0.0 ], [ 80.621589783077127, 7.321666737452611, 0.0 ], [ 80.621585611739803, 7.321749473272495, 0.0 ], [ 80.621690908333463, 7.321754766155871, 0.0 ], [ 80.621696256077755, 7.321648712421099, 0.0 ], [ 80.621696940958714, 7.321635136378409, 0.0 ] ] ] ] } },
{ "type": "Feature", "properties": { "BU_Nm": null, "BU_Lb_meth": "9", "BU_GFCODE": "BLDGA" }, "geometry": { "type": "MultiPolygon", "coordinates": [ [ [ [ 80.622542611159474, 7.322678875001725, 0.0 ], [ 80.622644075070383, 7.322642332562819, 0.0 ], [ 80.622603900457065, 7.322531137693152, 0.0 ], [ 80.622494178295753, 7.322570654357759, 0.0 ], [ 80.622528669065574, 7.32266611761051, 0.0 ], [ 80.622542611159474, 7.322678875001725, 0.0 ] ] ] ] } },
{ "type": "Feature", "properties": { "BU_Nm": null, "BU_Lb_meth": "9", "BU_GFCODE": "BLDGA" }, "geometry": { "type": "MultiPolygon", "coordinates": [ [ [ [ 80.622598405524727, 7.322422315794992, 0.0 ], [ 80.622580994624983, 7.322395924140708, 0.0 ], [ 80.622569595232619, 7.322403420523778, 0.0 ], [ 80.622483755068927, 7.322459870249117, 0.0 ], [ 80.622531714927504, 7.322532569866998, 0.0 ], [ 80.622628954492882, 7.322468623748553, 0.0 ], [ 80.622598405524727, 7.322422315794992, 0.0 ] ] ] ] } },
{ "type": "Feature", "properties": { "BU_Nm": null, "BU_Lb_meth": "9", "BU_GFCODE": "BLDGA" }, "geometry": { "type": "MultiPolygon", "coordinates": [ [ [ [ 80.622849765617644, 7.322293830689238, 0.0 ], [ 80.62278254274726, 7.322212858314388, 0.0 ], [ 80.622647118743345, 7.322289376598364, 0.0 ], [ 80.622701008446711, 7.322377922489516, 0.0 ], [ 80.622642276534137, 7.322435325586459, 0.0 ], [ 80.622643819234142, 7.322437273978573, 0.0 ], [ 80.622723719141632, 7.322538236666117, 0.0 ], [ 80.622910698077433, 7.322367227385603, 0.0 ], [ 80.622849765617644, 7.322293830689238, 0.0 ] ] ] ] } },
{ "type": "Feature", "properties": { "BU_Nm": null, "BU_Lb_meth": "9", "BU_GFCODE": "BLDGA" }, "geometry": { "type": "MultiPolygon", "coordinates": [ [ [ [ 80.622986577556318, 7.322179072618991, 0.0 ], [ 80.622933548787202, 7.322120793120875, 0.0 ], [ 80.622817753152262, 7.322225824441138, 0.0 ], [ 80.622867364971356, 7.322280348127948, 0.0 ], [ 80.622908316732094, 7.322325354702326, 0.0 ], [ 80.623024112372192, 7.322220324263669, 0.0 ], [ 80.622986577556318, 7.322179072618991, 0.0 ] ] ] ] } },
{ "type": "Feature", "properties": { "BU_Nm": null, "BU_Lb_meth": "9", "BU_GFCODE": "BLDGA" }, "geometry": { "type": "MultiPolygon", "coordinates": [ [ [ [ 80.622654480080755, 7.322060575462548, 0.0 ], [ 80.622636425648935, 7.322024986844363, 0.0 ], [ 80.622550075492128, 7.322068652300769, 0.0 ], [ 80.622525162659798, 7.322081254274544, 0.0 ], [ 80.622601606384123, 7.322231937915398, 0.0 ], [ 80.622712869401866, 7.322175670467275, 0.0 ], [ 80.622654480080755, 7.322060575462548, 0.0 ] ] ] ] } },
{ "type": "Feature", "properties": { "BU_Nm": null, "BU_Lb_meth": "9", "BU_GFCODE": "BLDGA" }, "geometry": { "type": "MultiPolygon", "coordinates": [ [ [ [ 80.623157510384203, 7.32203703610453, 0.0 ], [ 80.623080700157047, 7.321945967601835, 0.0 ], [ 80.622997707737625, 7.322015745994322, 0.0 ], [ 80.623072059894497, 7.322103899110329, 0.0 ], [ 80.623109388085524, 7.322148154767246, 0.0 ], [ 80.62319237960692, 7.322078377258763, 0.0 ], [ 80.623157510384203, 7.32203703610453, 0.0 ] ] ] ] } },
{ "type": "Feature", "properties": { "BU_Nm": null, "BU_Lb_meth": "9", "BU_GFCODE": "BLDGA" }, "geometry": { "type": "MultiPolygon", "coordinates": [ [ [ [ 80.623370792345895, 7.321881761373413, 0.0 ], [ 80.623277545444054, 7.321797067165943, 0.0 ], [ 80.623153069537139, 7.321933681973765, 0.0 ], [ 80.623221328724412, 7.321995679688549, 0.0 ], [ 80.623246316443158, 7.322018375302293, 0.0 ], [ 80.623312031900582, 7.321946252467744, 0.0 ], [ 80.623370792345895, 7.321881761373413, 0.0 ] ] ] ] } },
{ "type": "Feature", "properties": { "BU_Nm": null, "BU_Lb_meth": "9", "BU_GFCODE": "BLDGA" }, "geometry": { "type": "MultiPolygon", "coordinates": [ [ [ [ 80.621378362393429, 7.321231485170242, 0.0 ], [ 80.621379556919663, 7.321256916210158, 0.0 ], [ 80.621453880800701, 7.321253436024011, 0.0 ], [ 80.621378362393429, 7.321231485170242, 0.0 ] ] ] ] } },
{ "type": "Feature", "properties": { "BU_Nm": null, "BU_Lb_meth": "4", "BU_GFCODE": "BLDGA" }, "geometry": { "type": "MultiPolygon", "coordinates": [ [ [ [ 80.623089478525841, 7.323211065761222, 0.0 ], [ 80.623083311926067, 7.323206833339609, 0.0 ], [ 80.62306983429302, 7.323226328203376, 0.0 ], [ 80.623052683906479, 7.323251133682825, 0.0 ], [ 80.623086864700682, 7.323274358739103, 0.0 ], [ 80.623124853225178, 7.32330017139103, 0.0 ], [ 80.6231356286834, 7.323284416701211, 0.0 ], [ 80.623155030124124, 7.323256051749667, 0.0 ], [ 80.623089478525841, 7.323211065761222, 0.0 ] ] ] ] } },
{ "type": "Feature", "properties": { "BU_Nm": null, "BU_Lb_meth": "4", "BU_GFCODE": "BLDGA" }, "geometry": { "type": "MultiPolygon", "coordinates": [ [ [ [ 80.623346907536117, 7.323746142590378, 0.0 ], [ 80.623268835967806, 7.323738067765391, 0.0 ], [ 80.623262293608619, 7.323799829329254, 0.0 ], [ 80.623340274398174, 7.32380853713573, 0.0 ], [ 80.623346907536117, 7.323746142590378, 0.0 ] ] ] ] } },
{ "type": "Feature", "properties": { "BU_Nm": null, "BU_Lb_meth": "9", "BU_GFCODE": "BLDGA" }, "geometry": { "type": "MultiPolygon", "coordinates": [ [ [ [ 80.623769861753644, 7.322774684736573, 0.0 ], [ 80.623736635135472, 7.322680918207543, 0.0 ], [ 80.62366761093223, 7.32270530009392, 0.0 ], [ 80.623700836631841, 7.322799066627391, 0.0 ], [ 80.623769861753644, 7.322774684736573, 0.0 ] ] ] ] } },
{ "type": "Feature", "properties": { "BU_Nm": null, "BU_Lb_meth": "9", "BU_GFCODE": "BLDGA" }, "geometry": { "type": "MultiPolygon", "coordinates": [ [ [ [ 80.623809179457936, 7.323395998401446, 0.0 ], [ 80.62377824022667, 7.32333550913807, 0.0 ], [ 80.623635102205313, 7.323408491991786, 0.0 ], [ 80.623666041422283, 7.323468980360233, 0.0 ], [ 80.623809179457936, 7.323395998401446, 0.0 ] ] ] ] } },
{ "type": "Feature", "properties": { "BU_Nm": null, "BU_Lb_meth": "9", "BU_GFCODE": "BLDGA" }, "geometry": { "type": "MultiPolygon", "coordinates": [ [ [ [ 80.624813936063845, 7.32191351650003, 0.0 ], [ 80.624748780483898, 7.321833102156934, 0.0 ], [ 80.62460591743735, 7.321941201268019, 0.0 ], [ 80.624678744419029, 7.322013961493952, 0.0 ], [ 80.624813936063845, 7.32191351650003, 0.0 ] ] ] ] } },
{ "type": "Feature", "properties": { "BU_Nm": null, "BU_Lb_meth": "9", "BU_GFCODE": "BLDGA" }, "geometry": { "type": "MultiPolygon", "coordinates": [ [ [ [ 80.624946169694738, 7.322054247702277, 0.0 ], [ 80.624839812477475, 7.32192788099549, 0.0 ], [ 80.624757355851415, 7.321986234047746, 0.0 ], [ 80.624811971779295, 7.322052289054899, 0.0 ], [ 80.624763072334972, 7.32208959764223, 0.0 ], [ 80.624807145626662, 7.322152777942954, 0.0 ], [ 80.624946169694738, 7.322054247702277, 0.0 ] ] ] ] } },
{ "type": "Feature", "properties": { "BU_Nm": null, "BU_Lb_meth": "9", "BU_GFCODE": "BLDGA" }, "geometry": { "type": "MultiPolygon", "coordinates": [ [ [ [ 80.625013291172181, 7.321918596091888, 0.0 ], [ 80.624922287226113, 7.32181306243825, 0.0 ], [ 80.624844646289048, 7.321879802715466, 0.0 ], [ 80.624935650229887, 7.321985336384381, 0.0 ], [ 80.625013291172181, 7.321918596091888, 0.0 ] ] ] ] } },
{ "type": "Feature", "properties": { "BU_Nm": null, "BU_Lb_meth": "9", "BU_GFCODE": "BLDGA" }, "geometry": { "type": "MultiPolygon", "coordinates": [ [ [ [ 80.624571131014804, 7.323202685677573, 0.0 ], [ 80.624463802159127, 7.323112686851847, 0.0 ], [ 80.624452743564476, 7.323127531751735, 0.0 ], [ 80.624358311436751, 7.323254295612476, 0.0 ], [ 80.624496306368329, 7.323369188472946, 0.0 ], [ 80.624518768171853, 7.323346268388538, 0.0 ], [ 80.624580690109383, 7.323283082209582, 0.0 ], [ 80.624548905399493, 7.323258382253102, 0.0 ], [ 80.624528941032182, 7.323242867654074, 0.0 ], [ 80.624544242897557, 7.323228293665125, 0.0 ], [ 80.624571131014804, 7.323202685677573, 0.0 ] ] ] ] } },
{ "type": "Feature", "properties": { "BU_Nm": null, "BU_Lb_meth": "4", "BU_GFCODE": "BLDGA" }, "geometry": { "type": "MultiPolygon", "coordinates": [ [ [ [ 80.623060522017795, 7.323633269728476, 0.0 ], [ 80.623043581139328, 7.323625382972428, 0.0 ], [ 80.622987383677085, 7.32374807844008, 0.0 ], [ 80.623102393397403, 7.323802465219516, 0.0 ], [ 80.623103169271971, 7.323800808803356, 0.0 ], [ 80.623134027505543, 7.323734924670007, 0.0 ], [ 80.623102874275503, 7.323720444338318, 0.0 ], [ 80.623128525518496, 7.323664929865655, 0.0 ], [ 80.623060522017795, 7.323633269728476, 0.0 ] ] ] ] } },
{ "type": "Feature", "properties": { "BU_Nm": null, "BU_Lb_meth": "4", "BU_GFCODE": "BLDGA" }, "geometry": { "type": "MultiPolygon", "coordinates": [ [ [ [ 80.623320133586489, 7.32381912689369, 0.0 ], [ 80.623209729501951, 7.323804530095342, 0.0 ], [ 80.623197746830385, 7.323883561060314, 0.0 ], [ 80.623308785946236, 7.323897887691662, 0.0 ], [ 80.623320133586489, 7.32381912689369, 0.0 ] ] ] ] } },
{ "type": "Feature", "properties": { "BU_Nm": null, "BU_Lb_meth": "4", "BU_GFCODE": "BLDGA" }, "geometry": { "type": "MultiPolygon", "coordinates": [ [ [ [ 80.624181181058674, 7.323870708768631, 0.0 ], [ 80.624177484203472, 7.323871957447843, 0.0 ], [ 80.624179241499519, 7.323877221524522, 0.0 ], [ 80.624181181058674, 7.323870708768631, 0.0 ] ] ] ] } },
{ "type": "Feature", "properties": { "BU_Nm": null, "BU_Lb_meth": "4", "BU_GFCODE": "BLDGA" }, "geometry": { "type": "MultiPolygon", "coordinates": [ [ [ [ 80.625066952181953, 7.324032951628319, 0.0 ], [ 80.62505076473883, 7.323958160453199, 0.0 ], [ 80.624959822294315, 7.323977842745795, 0.0 ], [ 80.624976010628288, 7.324052634828544, 0.0 ], [ 80.625066952181953, 7.324032951628319, 0.0 ] ] ] ] } },
{ "type": "Feature", "properties": { "BU_Nm": null, "BU_Lb_meth": "4", "BU_GFCODE": "BLDGA" }, "geometry": { "type": "MultiPolygon", "coordinates": [ [ [ [ 80.625285231996173, 7.32393779475012, 0.0 ], [ 80.625207737946056, 7.323661601382832, 0.0 ], [ 80.625148575394576, 7.3234491610861, 0.0 ], [ 80.625070773877624, 7.323177393241072, 0.0 ], [ 80.624991430387709, 7.323199847508406, 0.0 ], [ 80.624920769175802, 7.32321984498195, 0.0 ], [ 80.62495885704466, 7.323351523190554, 0.0 ], [ 80.624862748231308, 7.323379795497893, 0.0 ], [ 80.624901739428338, 7.323515905996055, 0.0 ], [ 80.624977556571565, 7.323494589980258, 0.0 ], [ 80.624994564637817, 7.323553104911825, 0.0 ], [ 80.624918747393778, 7.323574692220743, 0.0 ], [ 80.6249491438886, 7.323679238795873, 0.0 ], [ 80.624904570144437, 7.323692155314128, 0.0 ], [ 80.624890538943887, 7.323696220854566, 0.0 ], [ 80.624873891602689, 7.323639695504299, 0.0 ], [ 80.624692184533927, 7.323691902952352, 0.0 ], [ 80.624737235735452, 7.323850170890752, 0.0 ], [ 80.624920859394663, 7.323797974922404, 0.0 ], [ 80.624939958644305, 7.323792545590398, 0.0 ], [ 80.624955609640097, 7.323846536750296, 0.0 ], [ 80.624929513738479, 7.32385419916269, 0.0 ], [ 80.624908235011702, 7.323860447058135, 0.0 ], [ 80.624930157467901, 7.323935458104043, 0.0 ], [ 80.624934560596515, 7.323950524343855, 0.0 ], [ 80.62494392409441, 7.323947814588856, 0.0 ], [ 80.625113733376239, 7.323898677669345, 0.0 ], [ 80.625181585990077, 7.324128754765032, 0.0 ], [ 80.625193305373415, 7.32412585137124, 0.0 ], [ 80.625211115429693, 7.324121439838589, 0.0 ], [ 80.625206116803994, 7.324104925614734, 0.0 ], [ 80.625205777531036, 7.324103804166911, 0.0 ], [ 80.625207023944313, 7.324103443769155, 0.0 ], [ 80.625322357922684, 7.324070113754051, 0.0 ], [ 80.625285231996173, 7.32393779475012, 0.0 ] ] ] ] } },
{ "type": "Feature", "properties": { "BU_Nm": null, "BU_Lb_meth": "4", "BU_GFCODE": "BLDGA" }, "geometry": { "type": "MultiPolygon", "coordinates": [ [ [ [ 80.623292741123706, 7.324159972304519, 0.0 ], [ 80.623268135757513, 7.324070166805304, 0.0 ], [ 80.623171485461654, 7.324097262969461, 0.0 ], [ 80.623196089934694, 7.324186978947396, 0.0 ], [ 80.623292741123706, 7.324159972304519, 0.0 ] ] ] ] } },
{ "type": "Feature", "properties": { "BU_Nm": null, "BU_Lb_meth": "4", "BU_GFCODE": "BLDGA" }, "geometry": { "type": "MultiPolygon", "coordinates": [ [ [ [ 80.624070282035717, 7.324235788593854, 0.0 ], [ 80.624053281985013, 7.324153943560348, 0.0 ], [ 80.623997031828125, 7.324165680444435, 0.0 ], [ 80.624014303527929, 7.32424770733638, 0.0 ], [ 80.624070282035717, 7.324235788593854, 0.0 ] ] ] ] } },
{ "type": "Feature", "properties": { "BU_Nm": null, "BU_Lb_meth": "4", "BU_GFCODE": "BLDGA" }, "geometry": { "type": "MultiPolygon", "coordinates": [ [ [ [ 80.625430168280303, 7.32425390307639, 0.0 ], [ 80.625376960012375, 7.324108292690064, 0.0 ], [ 80.625216987419336, 7.32416683774589, 0.0 ], [ 80.625204861500052, 7.324134369250353, 0.0 ], [ 80.625183239830619, 7.32414229361827, 0.0 ], [ 80.625140274584496, 7.324158041162694, 0.0 ], [ 80.62515201034104, 7.324189876517758, 0.0 ], [ 80.625205789972455, 7.324335758411256, 0.0 ], [ 80.625430168280303, 7.32425390307639, 0.0 ] ] ] ] } },
{ "type": "Feature", "properties": { "BU_Nm": null, "BU_Lb_meth": "4", "BU_GFCODE": "BLDGA" }, "geometry": { "type": "MultiPolygon", "coordinates": [ [ [ [ 80.623664048801899, 7.324331439112027, 0.0 ], [ 80.623622680799102, 7.324257905370797, 0.0 ], [ 80.623581371468831, 7.324280770179244, 0.0 ], [ 80.623622648049121, 7.324354123032724, 0.0 ], [ 80.623664048801899, 7.324331439112027, 0.0 ] ] ] ] } },
{ "type": "Feature", "properties": { "BU_Nm": null, "BU_Lb_meth": "4", "BU_GFCODE": "BLDGA" }, "geometry": { "type": "MultiPolygon", "coordinates": [ [ [ [ 80.623547384242386, 7.324345777916304, 0.0 ], [ 80.623509129684905, 7.32417530410799, 0.0 ], [ 80.623433042335591, 7.324191646122487, 0.0 ], [ 80.623470843750653, 7.324362844128214, 0.0 ], [ 80.623547384242386, 7.324345777916304, 0.0 ] ] ] ] } },
{ "type": "Feature", "properties": { "BU_Nm": null, "BU_Lb_meth": "4", "BU_GFCODE": "BLDGA" }, "geometry": { "type": "MultiPolygon", "coordinates": [ [ [ [ 80.625136421103051, 7.324213226676098, 0.0 ], [ 80.625127584262103, 7.324187788419086, 0.0 ], [ 80.625079937150431, 7.324203868071984, 0.0 ], [ 80.625087266322183, 7.324225483340759, 0.0 ], [ 80.625018499588549, 7.324248647421723, 0.0 ], [ 80.625005197348699, 7.32425312828487, 0.0 ], [ 80.625024741209813, 7.324309834559213, 0.0 ], [ 80.624992041335261, 7.324320855138773, 0.0 ], [ 80.625004346265854, 7.324356939097172, 0.0 ], [ 80.625027601586098, 7.324425133056718, 0.0 ], [ 80.62508582260611, 7.324405415341436, 0.0 ], [ 80.625172445307825, 7.324376078155955, 0.0 ], [ 80.625137970934333, 7.324274694378315, 0.0 ], [ 80.625155545274893, 7.324268279741049, 0.0 ], [ 80.625136421103051, 7.324213226676098, 0.0 ] ] ] ] } },
{ "type": "Feature", "properties": { "BU_Nm": null, "BU_Lb_meth": "4", "BU_GFCODE": "BLDGA" }, "geometry": { "type": "MultiPolygon", "coordinates": [ [ [ [ 80.624976484005359, 7.32425763923293, 0.0 ], [ 80.624940436460847, 7.324255456785552, 0.0 ], [ 80.624930704410929, 7.324426993174201, 0.0 ], [ 80.624929047017687, 7.324456208789017, 0.0 ], [ 80.624993987252111, 7.324459304351135, 0.0 ], [ 80.62499964489713, 7.324361401148612, 0.0 ], [ 80.625000091310795, 7.324353683989789, 0.0 ], [ 80.624971017740933, 7.324352046470424, 0.0 ], [ 80.624976484005359, 7.32425763923293, 0.0 ] ] ] ] } },
{ "type": "Feature", "properties": { "BU_Nm": null, "BU_Lb_meth": "4", "BU_GFCODE": "BLDGA" }, "geometry": { "type": "MultiPolygon", "coordinates": [ [ [ [ 80.623513252095762, 7.324570305277008, 0.0 ], [ 80.623450874207123, 7.324490072556007, 0.0 ], [ 80.623396334072325, 7.324533550020125, 0.0 ], [ 80.62345164786808, 7.324603887291421, 0.0 ], [ 80.623459074405162, 7.324613331625181, 0.0 ], [ 80.623463260039927, 7.324610007026362, 0.0 ], [ 80.623513252095762, 7.324570305277008, 0.0 ] ] ] ] } },
{ "type": "Feature", "properties": { "BU_Nm": "Market", "BU_Lb_meth": "4", "BU_GFCODE": "CMMBA" }, "geometry": { "type": "MultiPolygon", "coordinates": [ [ [ [ 80.625170172372123, 7.324941898831956, 0.0 ], [ 80.625188844820684, 7.324896871794302, 0.0 ], [ 80.625231136977575, 7.324913976389465, 0.0 ], [ 80.625254977562193, 7.324855476991872, 0.0 ], [ 80.625196565549714, 7.324831674250583, 0.0 ], [ 80.625205268208404, 7.324809159161856, 0.0 ], [ 80.625245115141979, 7.324825450871882, 0.0 ], [ 80.625263516854659, 7.324780150640671, 0.0 ], [ 80.625228379959765, 7.324765941311491, 0.0 ], [ 80.625240845299274, 7.324737294512603, 0.0 ], [ 80.625300894092149, 7.324599303792064, 0.0 ], [ 80.625281153212015, 7.324586908236459, 0.0 ], [ 80.625288405465298, 7.324568010769224, 0.0 ], [ 80.625237419337452, 7.324547736397265, 0.0 ], [ 80.625258268726512, 7.324493214016255, 0.0 ], [ 80.625137791902532, 7.324526429246732, 0.0 ], [ 80.625118048640743, 7.324531871934455, 0.0 ], [ 80.625104722522764, 7.324566863020128, 0.0 ], [ 80.625053555561067, 7.324545685169544, 0.0 ], [ 80.625025726372868, 7.324614131436687, 0.0 ], [ 80.625072542391493, 7.324645436004869, 0.0 ], [ 80.625094462371891, 7.32491067499484, 0.0 ], [ 80.625170172372123, 7.324941898831956, 0.0 ] ] ] ] } },
{ "type": "Feature", "properties": { "BU_Nm": null, "BU_Lb_meth": "9", "BU_GFCODE": "BLDGA" }, "geometry": { "type": "MultiPolygon", "coordinates": [ [ [ [ 80.622922306020243, 7.323719229403642, 0.0 ], [ 80.622977080680499, 7.32372235569277, 0.0 ], [ 80.622983107188318, 7.323617081685481, 0.0 ], [ 80.622888928897353, 7.323611707176632, 0.0 ], [ 80.622922306020243, 7.323719229403642, 0.0 ] ] ] ] } },
{ "type": "Feature", "properties": { "BU_Nm": null, "BU_Lb_meth": "9", "BU_GFCODE": "BLDGA" }, "geometry": { "type": "MultiPolygon", "coordinates": [ [ [ [ 80.624198248763676, 7.323547000110893, 0.0 ], [ 80.624125653033985, 7.323499601926582, 0.0 ], [ 80.624093858882233, 7.323548143121379, 0.0 ], [ 80.624166454616187, 7.323595541310753, 0.0 ], [ 80.624198248763676, 7.323547000110893, 0.0 ] ] ] ] } },
{ "type": "Feature", "properties": { "BU_Nm": "Co-operative Shop", "BU_Lb_meth": "4", "BU_GFCODE": "CMMBA" }, "geometry": { "type": "MultiPolygon", "coordinates": [ [ [ [ 80.624304752000754, 7.321965009404903, 0.0 ], [ 80.624189645829588, 7.321928888889169, 0.0 ], [ 80.624130891814147, 7.322113617837041, 0.0 ], [ 80.624245635673816, 7.322149918201977, 0.0 ], [ 80.624304752000754, 7.321965009404903, 0.0 ] ] ] ] } },
{ "type": "Feature", "properties": { "BU_Nm": null, "BU_Lb_meth": "9", "BU_GFCODE": "BLDGA" }, "geometry": { "type": "MultiPolygon", "coordinates": [ [ [ [ 80.619946632672153, 7.321979297037058, 0.0 ], [ 80.619944801835672, 7.321968830612342, 0.0 ], [ 80.61992900233902, 7.321971585604143, 0.0 ], [ 80.619946632672153, 7.321979297037058, 0.0 ] ] ] ] } },
{ "type": "Feature", "properties": { "BU_Nm": null, "BU_Lb_meth": "9", "BU_GFCODE": "BLDGA" }, "geometry": { "type": "MultiPolygon", "coordinates": [ [ [ [ 80.623017628076695, 7.323037337644707, 0.0 ], [ 80.62298261039372, 7.322963793347566, 0.0 ], [ 80.622886798179636, 7.32300926966903, 0.0 ], [ 80.622859359975493, 7.323022293107891, 0.0 ], [ 80.622871486278299, 7.323047760562436, 0.0 ], [ 80.62289437673698, 7.323095836509482, 0.0 ], [ 80.623017628076695, 7.323037337644707, 0.0 ] ] ] ] } },
{ "type": "Feature", "properties": { "BU_Nm": null, "BU_Lb_meth": "9", "BU_GFCODE": "BLDGA" }, "geometry": { "type": "MultiPolygon", "coordinates": [ [ [ [ 80.623095534635411, 7.323074701875083, 0.0 ], [ 80.62304849371003, 7.3230186056039, 0.0 ], [ 80.622942062298165, 7.32310757612525, 0.0 ], [ 80.622989103219098, 7.32316367240727, 0.0 ], [ 80.623095534635411, 7.323074701875083, 0.0 ] ] ] ] } },
{ "type": "Feature", "properties": { "BU_Nm": null, "BU_Lb_meth": "9", "BU_GFCODE": "BLDGA" }, "geometry": { "type": "MultiPolygon", "coordinates": [ [ [ [ 80.623153057444583, 7.323102139873446, 0.0 ], [ 80.62311536629403, 7.323062248255703, 0.0 ], [ 80.623009009855707, 7.323162421304848, 0.0 ], [ 80.623061929031238, 7.323218430055729, 0.0 ], [ 80.623063548803017, 7.323220144258465, 0.0 ], [ 80.623081573263974, 7.32320316761393, 0.0 ], [ 80.623167776085381, 7.323121977117293, 0.0 ], [ 80.623168980192332, 7.323120842628701, 0.0 ], [ 80.623169905243472, 7.323119971196797, 0.0 ], [ 80.623162582317832, 7.323112220650104, 0.0 ], [ 80.623153057444583, 7.323102139873446, 0.0 ] ] ] ] } },
{ "type": "Feature", "properties": { "BU_Nm": null, "BU_Lb_meth": "9", "BU_GFCODE": "BLDGA" }, "geometry": { "type": "MultiPolygon", "coordinates": [ [ [ [ 80.623490243440784, 7.323228287888679, 0.0 ], [ 80.623325120129138, 7.32316168153367, 0.0 ], [ 80.623295795843461, 7.323234148614984, 0.0 ], [ 80.623292772674191, 7.323241618925931, 0.0 ], [ 80.623457896009995, 7.323308225293109, 0.0 ], [ 80.623473636421281, 7.323269327589206, 0.0 ], [ 80.623490243440784, 7.323228287888679, 0.0 ] ] ] ] } },
{ "type": "Feature", "properties": { "BU_Nm": null, "BU_Lb_meth": "9", "BU_GFCODE": "BLDGA" }, "geometry": { "type": "MultiPolygon", "coordinates": [ [ [ [ 80.623427016853967, 7.323358655836494, 0.0 ], [ 80.623346425697378, 7.323321072813401, 0.0 ], [ 80.623331431214837, 7.323353125204009, 0.0 ], [ 80.623302215398482, 7.323415575374466, 0.0 ], [ 80.62338280656796, 7.323453158405642, 0.0 ], [ 80.623423237190892, 7.323366734486155, 0.0 ], [ 80.623427016853967, 7.323358655836494, 0.0 ] ] ] ] } },
{ "type": "Feature", "properties": { "BU_Nm": null, "BU_Lb_meth": "9", "BU_GFCODE": "BLDGA" }, "geometry": { "type": "MultiPolygon", "coordinates": [ [ [ [ 80.623324265660102, 7.32345757772593, 0.0 ], [ 80.623262988156057, 7.323444504204908, 0.0 ], [ 80.623247626875184, 7.323516277908955, 0.0 ], [ 80.623308904388111, 7.32352935233654, 0.0 ], [ 80.623324265660102, 7.32345757772593, 0.0 ] ] ] ] } },
{ "type": "Feature", "properties": { "BU_Nm": null, "BU_Lb_meth": "9", "BU_GFCODE": "BLDGA" }, "geometry": { "type": "MultiPolygon", "coordinates": [ [ [ [ 80.623107010856629, 7.323317024209904, 0.0 ], [ 80.623025322739736, 7.323269282738328, 0.0 ], [ 80.623012437509601, 7.323291260109451, 0.0 ], [ 80.623001118298617, 7.323310566707105, 0.0 ], [ 80.6230828064203, 7.32335830818321, 0.0 ], [ 80.623089322442155, 7.323347193823733, 0.0 ], [ 80.623107010856629, 7.323317024209904, 0.0 ] ] ] ] } },
{ "type": "Feature", "properties": { "BU_Nm": null, "BU_Lb_meth": "9", "BU_GFCODE": "BLDGA" }, "geometry": { "type": "MultiPolygon", "coordinates": [ [ [ [ 80.622481592067942, 7.321328891610643, 0.0 ], [ 80.622470052893803, 7.321348391320044, 0.0 ], [ 80.622565198688335, 7.321404517646653, 0.0 ], [ 80.622609585215059, 7.321329509236592, 0.0 ], [ 80.622581671870748, 7.32131304347328, 0.0 ], [ 80.622481592067942, 7.321328891610643, 0.0 ] ] ] ] } },
{ "type": "Feature", "properties": { "BU_Nm": null, "BU_Lb_meth": "9", "BU_GFCODE": "BLDGA" }, "geometry": { "type": "MultiPolygon", "coordinates": [ [ [ [ 80.622097976088355, 7.321678773551928, 0.0 ], [ 80.622083636103866, 7.321566793508024, 0.0 ], [ 80.621999651305899, 7.321577514159235, 0.0 ], [ 80.622010873059821, 7.321665147532149, 0.0 ], [ 80.622013991269696, 7.321689494205271, 0.0 ], [ 80.622073869016546, 7.321681850769608, 0.0 ], [ 80.622097976088355, 7.321678773551928, 0.0 ] ] ] ] } },
{ "type": "Feature", "properties": { "BU_Nm": null, "BU_Lb_meth": "9", "BU_GFCODE": "BLDGA" }, "geometry": { "type": "MultiPolygon", "coordinates": [ [ [ [ 80.623574393971325, 7.323550997443847, 0.0 ], [ 80.623568189117805, 7.323518099563604, 0.0 ], [ 80.623407487994811, 7.323548316487057, 0.0 ], [ 80.62342723265175, 7.323652996088488, 0.0 ], [ 80.623514580933161, 7.323636571987387, 0.0 ], [ 80.623587933810882, 7.323622780063251, 0.0 ], [ 80.623574393971325, 7.323550997443847, 0.0 ] ] ] ] } },
{ "type": "Feature", "properties": { "BU_Nm": null, "BU_Lb_meth": "9", "BU_GFCODE": "BLDGA" }, "geometry": { "type": "MultiPolygon", "coordinates": [ [ [ [ 80.623924059723237, 7.323404904893612, 0.0 ], [ 80.623888155321026, 7.323282868101296, 0.0 ], [ 80.623822083613717, 7.323302245700199, 0.0 ], [ 80.623798156271747, 7.32330926311094, 0.0 ], [ 80.623834061557062, 7.323431299910184, 0.0 ], [ 80.623888694534855, 7.323415277011887, 0.0 ], [ 80.623924059723237, 7.323404904893612, 0.0 ] ] ] ] } },
{ "type": "Feature", "properties": { "BU_Nm": null, "BU_Lb_meth": "9", "BU_GFCODE": "BLDGA" }, "geometry": { "type": "MultiPolygon", "coordinates": [ [ [ [ 80.624016501801933, 7.323356419504575, 0.0 ], [ 80.623945283973939, 7.323345680331912, 0.0 ], [ 80.623929431551545, 7.32345047265562, 0.0 ], [ 80.624000649395697, 7.323461211831124, 0.0 ], [ 80.624016501801933, 7.323356419504575, 0.0 ] ] ] ] } },
{ "type": "Feature", "properties": { "BU_Nm": null, "BU_Lb_meth": "9", "BU_GFCODE": "BLDGA" }, "geometry": { "type": "MultiPolygon", "coordinates": [ [ [ [ 80.624185669491922, 7.32315027607869, 0.0 ], [ 80.624143321710108, 7.323073464862103, 0.0 ], [ 80.623935628192527, 7.323187610587863, 0.0 ], [ 80.62390966955293, 7.323201877102144, 0.0 ], [ 80.623952017305967, 7.323278688339692, 0.0 ], [ 80.624071944319624, 7.32321277821318, 0.0 ], [ 80.624185669491922, 7.32315027607869, 0.0 ] ] ] ] } },
{ "type": "Feature", "properties": { "BU_Nm": null, "BU_Lb_meth": "9", "BU_GFCODE": "BLDGA" }, "geometry": { "type": "MultiPolygon", "coordinates": [ [ [ [ 80.624124285668472, 7.323258429681297, 0.0 ], [ 80.62411305606679, 7.323232661429942, 0.0 ], [ 80.624103979278573, 7.323236603827906, 0.0 ], [ 80.624004671776092, 7.32327974249077, 0.0 ], [ 80.62403106241527, 7.323340302544364, 0.0 ], [ 80.624139446718402, 7.323293220573331, 0.0 ], [ 80.624124285668472, 7.323258429681297, 0.0 ] ] ] ] } },
{ "type": "Feature", "properties": { "BU_Nm": null, "BU_Lb_meth": "9", "BU_GFCODE": "BLDGA" }, "geometry": { "type": "MultiPolygon", "coordinates": [ [ [ [ 80.624165110288786, 7.323395875608381, 0.0 ], [ 80.6240716670019, 7.323338712050139, 0.0 ], [ 80.624037136728774, 7.323394979572069, 0.0 ], [ 80.624130580022666, 7.323452143137417, 0.0 ], [ 80.624165110288786, 7.323395875608381, 0.0 ] ] ] ] } },
{ "type": "Feature", "properties": { "BU_Nm": null, "BU_Lb_meth": "9", "BU_GFCODE": "BLDGA" }, "geometry": { "type": "MultiPolygon", "coordinates": [ [ [ [ 80.624303535402021, 7.323406613938695, 0.0 ], [ 80.624230457143284, 7.323350562347238, 0.0 ], [ 80.624211641289975, 7.323375015535778, 0.0 ], [ 80.624129995955656, 7.323481127611349, 0.0 ], [ 80.624203075128236, 7.323537179219326, 0.0 ], [ 80.624287281187961, 7.323427739261697, 0.0 ], [ 80.624303535402021, 7.323406613938695, 0.0 ] ] ] ] } },
{ "type": "Feature", "properties": { "BU_Nm": null, "BU_Lb_meth": "9", "BU_GFCODE": "BLDGA" }, "geometry": { "type": "MultiPolygon", "coordinates": [ [ [ [ 80.624123478015775, 7.3234552442987, 0.0 ], [ 80.624059238591158, 7.323426585152178, 0.0 ], [ 80.624023265441807, 7.323506965383626, 0.0 ], [ 80.624087503969719, 7.323535624535123, 0.0 ], [ 80.624123478015775, 7.3234552442987, 0.0 ] ] ] ] } },
{ "type": "Feature", "properties": { "BU_Nm": null, "BU_Lb_meth": "9", "BU_GFCODE": "BLDGA" }, "geometry": { "type": "MultiPolygon", "coordinates": [ [ [ [ 80.6248206717014, 7.323312009363677, 0.0 ], [ 80.624796055617836, 7.32322633659382, 0.0 ], [ 80.624791015628517, 7.323227779970972, 0.0 ], [ 80.624678779840394, 7.323259926263444, 0.0 ], [ 80.624660884433183, 7.323265052145119, 0.0 ], [ 80.62466714112746, 7.323286827120985, 0.0 ], [ 80.624685500492873, 7.323350724921814, 0.0 ], [ 80.624790498790219, 7.32332065156361, 0.0 ], [ 80.6248206717014, 7.323312009363677, 0.0 ] ] ] ] } },
{ "type": "Feature", "properties": { "BU_Nm": null, "BU_Lb_meth": "9", "BU_GFCODE": "BLDGA" }, "geometry": { "type": "MultiPolygon", "coordinates": [ [ [ [ 80.624783780097857, 7.323202533053526, 0.0 ], [ 80.624755828738856, 7.323128703699873, 0.0 ], [ 80.624702990570427, 7.323148644743712, 0.0 ], [ 80.624635814618699, 7.323173995907102, 0.0 ], [ 80.624663765960477, 7.323247825267772, 0.0 ], [ 80.624687787269238, 7.323238759599378, 0.0 ], [ 80.624783780097857, 7.323202533053526, 0.0 ] ] ] ] } },
{ "type": "Feature", "properties": { "BU_Nm": null, "BU_Lb_meth": "9", "BU_GFCODE": "BLDGA" }, "geometry": { "type": "MultiPolygon", "coordinates": [ [ [ [ 80.6233465089053, 7.323730519743095, 0.0 ], [ 80.623343216762038, 7.323652893387529, 0.0 ], [ 80.623186008888297, 7.323659539896206, 0.0 ], [ 80.623189301004658, 7.32373716534805, 0.0 ], [ 80.6233465089053, 7.323730519743095, 0.0 ] ] ] ] } },
{ "type": "Feature", "properties": { "BU_Nm": null, "BU_Lb_meth": "9", "BU_GFCODE": "BLDGA" }, "geometry": { "type": "MultiPolygon", "coordinates": [ [ [ [ 80.620802271709096, 7.322128430289728, 0.0 ], [ 80.62073031331083, 7.322099299579706, 0.0 ], [ 80.620703047445886, 7.322166439056173, 0.0 ], [ 80.620775005852948, 7.322195569770636, 0.0 ], [ 80.620802271709096, 7.322128430289728, 0.0 ] ] ] ] } },
{ "type": "Feature", "properties": { "BU_Nm": null, "BU_Lb_meth": "9", "BU_GFCODE": "BLDGA" }, "geometry": { "type": "MultiPolygon", "coordinates": [ [ [ [ 80.621420343009717, 7.322387340515074, 0.0 ], [ 80.621435715453558, 7.3223828193792, 0.0 ], [ 80.621436353229896, 7.322380628872989, 0.0 ], [ 80.62137354702584, 7.32236240005409, 0.0 ], [ 80.621363811015996, 7.322359574229685, 0.0 ], [ 80.621420343009717, 7.322387340515074, 0.0 ] ] ] ] } },
{ "type": "Feature", "properties": { "BU_Nm": null, "BU_Lb_meth": "9", "BU_GFCODE": "BLDGA" }, "geometry": { "type": "MultiPolygon", "coordinates": [ [ [ [ 80.622548281043279, 7.322373183349414, 0.0 ], [ 80.622505719927304, 7.322309395660239, 0.0 ], [ 80.62249028002195, 7.322319665057571, 0.0 ], [ 80.622432207563023, 7.32235829053239, 0.0 ], [ 80.622474767767187, 7.32242207822796, 0.0 ], [ 80.622540691998054, 7.322378231280642, 0.0 ], [ 80.622548281043279, 7.322373183349414, 0.0 ] ] ] ] } },
{ "type": "Feature", "properties": { "BU_Nm": null, "BU_Lb_meth": "9", "BU_GFCODE": "BLDGA" }, "geometry": { "type": "MultiPolygon", "coordinates": [ [ [ [ 80.622616895172669, 7.322340235950827, 0.0 ], [ 80.622601345463508, 7.322285023036053, 0.0 ], [ 80.622534727021545, 7.322303725653108, 0.0 ], [ 80.62255027672316, 7.322358938570013, 0.0 ], [ 80.622616895172669, 7.322340235950827, 0.0 ] ] ] ] } },
{ "type": "Feature", "properties": { "BU_Nm": null, "BU_Lb_meth": "9", "BU_GFCODE": "BLDGA" }, "geometry": { "type": "MultiPolygon", "coordinates": [ [ [ [ 80.622496699062992, 7.322298175622273, 0.0 ], [ 80.622490645093038, 7.322245507035714, 0.0 ], [ 80.622428778480582, 7.322252595508545, 0.0 ], [ 80.622386795266962, 7.322257406506901, 0.0 ], [ 80.622392848319166, 7.322310075094348, 0.0 ], [ 80.622473058538432, 7.322300884065165, 0.0 ], [ 80.622496699062992, 7.322298175622273, 0.0 ] ] ] ] } },
{ "type": "Feature", "properties": { "BU_Nm": null, "BU_Lb_meth": "9", "BU_GFCODE": "BLDGA" }, "geometry": { "type": "MultiPolygon", "coordinates": [ [ [ [ 80.622830986298951, 7.323401514124142, 0.0 ], [ 80.622864677284923, 7.323359350679522, 0.0 ], [ 80.622824348784221, 7.32332722745942, 0.0 ], [ 80.622830986298951, 7.323401514124142, 0.0 ] ] ] ] } },
{ "type": "Feature", "properties": { "BU_Nm": null, "BU_Lb_meth": "9", "BU_GFCODE": "BLDGA" }, "geometry": { "type": "MultiPolygon", "coordinates": [ [ [ [ 80.623435570617971, 7.324352669607255, 0.0 ], [ 80.623386819853934, 7.324229082061547, 0.0 ], [ 80.623333616151953, 7.324250002174122, 0.0 ], [ 80.62326218841028, 7.32427808809731, 0.0 ], [ 80.623310939144744, 7.32440167565563, 0.0 ], [ 80.62337977886915, 7.324374607089131, 0.0 ], [ 80.623435570617971, 7.324352669607255, 0.0 ] ] ] ] } },
{ "type": "Feature", "properties": { "BU_Nm": null, "BU_Lb_meth": "9", "BU_GFCODE": "BLDGA" }, "geometry": { "type": "MultiPolygon", "coordinates": [ [ [ [ 80.623463586771109, 7.324102992454791, 0.0 ], [ 80.623460428878317, 7.323984836260096, 0.0 ], [ 80.623429787582054, 7.323985652383443, 0.0 ], [ 80.623337813876432, 7.323988103436936, 0.0 ], [ 80.623340971736894, 7.324106259631809, 0.0 ], [ 80.623415350492408, 7.324104277358885, 0.0 ], [ 80.623463586771109, 7.324102992454791, 0.0 ] ] ] ] } },
{ "type": "Feature", "properties": { "BU_Nm": null, "BU_Lb_meth": "9", "BU_GFCODE": "BLDGA" }, "geometry": { "type": "MultiPolygon", "coordinates": [ [ [ [ 80.623563518606275, 7.324065033968126, 0.0 ], [ 80.623487531248799, 7.324048472114016, 0.0 ], [ 80.623470455987771, 7.324126566309126, 0.0 ], [ 80.623550953585152, 7.324144111768612, 0.0 ], [ 80.623595334950579, 7.3241537847711, 0.0 ], [ 80.623612410191186, 7.324075690570926, 0.0 ], [ 80.623563518606275, 7.324065033968126, 0.0 ] ] ] ] } },
{ "type": "Feature", "properties": { "BU_Nm": null, "BU_Lb_meth": "9", "BU_GFCODE": "BLDGA" }, "geometry": { "type": "MultiPolygon", "coordinates": [ [ [ [ 80.6237340037449, 7.324138417084687, 0.0 ], [ 80.623730954792336, 7.324133817678054, 0.0 ], [ 80.623622876250664, 7.324205235304, 0.0 ], [ 80.623683953973725, 7.324297372689544, 0.0 ], [ 80.623743582900772, 7.324257969887989, 0.0 ], [ 80.623792032528812, 7.324225954145221, 0.0 ], [ 80.6237340037449, 7.324138417084687, 0.0 ] ] ] ] } },
{ "type": "Feature", "properties": { "BU_Nm": null, "BU_Lb_meth": "9", "BU_GFCODE": "BLDGA" }, "geometry": { "type": "MultiPolygon", "coordinates": [ [ [ [ 80.62295680499706, 7.323830365609945, 0.0 ], [ 80.622961401452798, 7.323831160420398, 0.0 ], [ 80.622975884611378, 7.32374766668243, 0.0 ], [ 80.622928595167323, 7.323739489481222, 0.0 ], [ 80.62295680499706, 7.323830365609945, 0.0 ] ] ] ] } },
{ "type": "Feature", "properties": { "BU_Nm": null, "BU_Lb_meth": "9", "BU_GFCODE": "BLDGA" }, "geometry": { "type": "MultiPolygon", "coordinates": [ [ [ [ 80.624399151979347, 7.323184432212611, 0.0 ], [ 80.624341109080859, 7.323101160812169, 0.0 ], [ 80.624233723593775, 7.323175774630404, 0.0 ], [ 80.624291766481434, 7.323259046044257, 0.0 ], [ 80.624399151979347, 7.323184432212611, 0.0 ] ] ] ] } },
{ "type": "Feature", "properties": { "BU_Nm": null, "BU_Lb_meth": "9", "BU_GFCODE": "BLDGA" }, "geometry": { "type": "MultiPolygon", "coordinates": [ [ [ [ 80.624703417360593, 7.323078393318856, 0.0 ], [ 80.624665111574402, 7.322967362028206, 0.0 ], [ 80.624619029762883, 7.32298320975729, 0.0 ], [ 80.624615299520187, 7.322984492608183, 0.0 ], [ 80.624653604389593, 7.323095523902563, 0.0 ], [ 80.624688765421283, 7.3230834325772, 0.0 ], [ 80.624703417360593, 7.323078393318856, 0.0 ] ] ] ] } },
{ "type": "Feature", "properties": { "BU_Nm": null, "BU_Lb_meth": "9", "BU_GFCODE": "BLDGA" }, "geometry": { "type": "MultiPolygon", "coordinates": [ [ [ [ 80.622886049593475, 7.322801338856551, 0.0 ], [ 80.622798014114565, 7.322719490355774, 0.0 ], [ 80.62271770413146, 7.322805597672606, 0.0 ], [ 80.622794381712538, 7.322876885499803, 0.0 ], [ 80.62280574051772, 7.322887446189104, 0.0 ], [ 80.622831345919352, 7.322859992189941, 0.0 ], [ 80.622886049593475, 7.322801338856551, 0.0 ] ] ] ] } },
{ "type": "Feature", "properties": { "BU_Nm": null, "BU_Lb_meth": "9", "BU_GFCODE": "BLDGA" }, "geometry": { "type": "MultiPolygon", "coordinates": [ [ [ [ 80.622986209744937, 7.322950634274446, 0.0 ], [ 80.623026813507067, 7.322893034153418, 0.0 ], [ 80.622972404027834, 7.32285679201657, 0.0 ], [ 80.622917854200779, 7.322820456682362, 0.0 ], [ 80.622901029518772, 7.322809249365954, 0.0 ], [ 80.6228819544028, 7.322836862943867, 0.0 ], [ 80.622839890365569, 7.322897756019693, 0.0 ], [ 80.622922446897931, 7.322943126741539, 0.0 ], [ 80.622935729693864, 7.322950426267945, 0.0 ], [ 80.622950116790349, 7.32292530877124, 0.0 ], [ 80.622986209744937, 7.322950634274446, 0.0 ] ] ] ] } },
{ "type": "Feature", "properties": { "BU_Nm": null, "BU_Lb_meth": "9", "BU_GFCODE": "BLDGA" }, "geometry": { "type": "MultiPolygon", "coordinates": [ [ [ [ 80.623995202870688, 7.32423852130782, 0.0 ], [ 80.623950320250756, 7.324171254119379, 0.0 ], [ 80.623825198116862, 7.324254476200427, 0.0 ], [ 80.623870080726135, 7.324321742496605, 0.0 ], [ 80.623995202870688, 7.32423852130782, 0.0 ] ] ] ] } },
{ "type": "Feature", "properties": { "BU_Nm": null, "BU_Lb_meth": "9", "BU_GFCODE": "BLDGA" }, "geometry": { "type": "MultiPolygon", "coordinates": [ [ [ [ 80.621476088359131, 7.322089936760563, 0.0 ], [ 80.621454010831314, 7.322030529221675, 0.0 ], [ 80.62139733289564, 7.32205152568562, 0.0 ], [ 80.621363843732738, 7.32206393202673, 0.0 ], [ 80.621385920344295, 7.322123339569438, 0.0 ], [ 80.621420820820674, 7.322110411026135, 0.0 ], [ 80.621476088359131, 7.322089936760563, 0.0 ] ] ] ] } },
{ "type": "Feature", "properties": { "BU_Nm": null, "BU_Lb_meth": "9", "BU_GFCODE": "BLDGA" }, "geometry": { "type": "MultiPolygon", "coordinates": [ [ [ [ 80.623932884833295, 7.322243185191042, 0.0 ], [ 80.623930748907554, 7.322222468728364, 0.0 ], [ 80.623675521136548, 7.322248701951957, 0.0 ], [ 80.623680501627589, 7.32229700419363, 0.0 ], [ 80.62368165985994, 7.322308238724092, 0.0 ], [ 80.623688294196754, 7.322372582026778, 0.0 ], [ 80.623787655546124, 7.322362369969622, 0.0 ], [ 80.623943522037393, 7.322346349701843, 0.0 ], [ 80.623932884833295, 7.322243185191042, 0.0 ] ] ] ] } },
{ "type": "Feature", "properties": { "BU_Nm": null, "BU_Lb_meth": "9", "BU_GFCODE": "BLDGA" }, "geometry": { "type": "MultiPolygon", "coordinates": [ [ [ [ 80.620117991913048, 7.32213322038662, 0.0 ], [ 80.620151743380745, 7.322171399040826, 0.0 ], [ 80.62016738517174, 7.322189091795322, 0.0 ], [ 80.620177773567633, 7.32218073322611, 0.0 ], [ 80.620116001253521, 7.322104202473086, 0.0 ], [ 80.620100815334894, 7.322116421158313, 0.0 ], [ 80.620117991913048, 7.32213322038662, 0.0 ] ] ] ] } },
{ "type": "Feature", "properties": { "BU_Nm": null, "BU_Lb_meth": "9", "BU_GFCODE": "BLDGA" }, "geometry": { "type": "MultiPolygon", "coordinates": [ [ [ [ 80.623689612159737, 7.320390802896289, 0.0 ], [ 80.62359495019578, 7.32034235358648, 0.0 ], [ 80.623554663892065, 7.320420818829672, 0.0 ], [ 80.623649325867831, 7.320469268147918, 0.0 ], [ 80.623689612159737, 7.320390802896289, 0.0 ] ] ] ] } },
{ "type": "Feature", "properties": { "BU_Nm": null, "BU_Lb_meth": "9", "BU_GFCODE": "BLDGA" }, "geometry": { "type": "MultiPolygon", "coordinates": [ [ [ [ 80.623740684417896, 7.320246698042017, 0.0 ], [ 80.62355091919737, 7.320158584565058, 0.0 ], [ 80.623499094543391, 7.320269844908041, 0.0 ], [ 80.623688859799785, 7.320357958407116, 0.0 ], [ 80.623740684417896, 7.320246698042017, 0.0 ] ] ] ] } },
{ "type": "Feature", "properties": { "BU_Nm": null, "BU_Lb_meth": "9", "BU_GFCODE": "BLDGA" }, "geometry": { "type": "MultiPolygon", "coordinates": [ [ [ [ 80.625905293888934, 7.324536954771806, 0.0 ], [ 80.62586069056097, 7.324446162457783, 0.0 ], [ 80.625755230145728, 7.324497808018234, 0.0 ], [ 80.625799833456995, 7.324588600342204, 0.0 ], [ 80.625905293888934, 7.324536954771806, 0.0 ] ] ] ] } }
]
}
