{
  "type": "FeatureCollection",
  "name": "SR",
  "crs": {
    "type": "name",
    "properties": {
      "name": "urn:ogc:def:crs:OGC:1.3:CRS84"
    }
  },
  "features": [
    {
      "type": "Feature",
      "properties": {
        "No": 33,
        "GND No.": 50,
        "Scheme": "Lunugama canal",
        "N": 7.196857,
        "E": 80.586388,
        "Observation": "canal is filled with debris and depth is not enough",
        "Description": "Re-excavate the canal for 200 m (Including machinery and transport)\n\nSupply and install 300 mm * 300 mm, 200 m long U drains - To construct the damaged parts of the canal\n\nVegetative cover improving for narrow strips (1.5m?2.0m wide) with Arecanut seedlings at 1.5m spacing in 2 rows, Betel plants VP at 3m spacing in 1 row, Green gram as a cover crop around the canal\n\nContingencies (10%)\n",
        "Amount (Rs.)": 620400,
        "photopath": "https://raw.githubusercontent.com/MWS003-GIS/MWS003-GIS.github.io/main/IWWRMP/Data/EXD/200_photo/MWS_122/Lunugama canal.jpg"
      },
      "geometry": {
        "type": "Point",
        "coordinates": [
          80.586388,
          7.196857
        ]
      }
    },
    {
      "type": "Feature",
      "properties": {
        "No": 34,
        "GND No.": 50,
        "Scheme": "Giragama canal",
        "N": 7.198018,
        "E": 80.579279,
        "Observation": "side walls of the canal banks has started collapse in to canal due to weak foundations",
        "Description": "Construction of 1.0m high 1:3:6 (40mm) cement concrete Retaining Wall for the damaged parts of the canal bank \n\nContingencies (10%)",
        "Amount (Rs.)": 528000,
        "photopath": "https://raw.githubusercontent.com/MWS003-GIS/MWS003-GIS.github.io/main/IWWRMP/Data/EXD/200_photo/MWS_122/Giragama canal.jpg"
      },
      "geometry": {
        "type": "Point",
        "coordinates": [
          80.579279,
          7.198018
        ]
      }
    },
    {
      "type": "Feature",
      "properties": {
        "No": 35,
        "GND No.": 50,
        "Scheme": "New canal of Giragama from Lunugama to Giragama",
        "N": 7.19642,
        "E": 80.580965,
        "Observation": "canal depth is not enough. bank has damaged from several places.",
        "Description": "Re-excavate the canal for 200 m (Including machinery and transport)\n\nSupply and install 300 mm * 300 mm, 200 m long U drains - To construct the damaged parts of the canal\n\nVegetative cover improving for narrow strips (1.5m?2.0m wide) with Arecanut seedlings at 1.5m spacing in 2 rows, Betel plants VP at 3m spacing in 1 row, Green gram as a cover crop around the canal\n\nContingencies (10%)",
        "Amount (Rs.)": 562320,
        "photopath": "https://raw.githubusercontent.com/MWS003-GIS/MWS003-GIS.github.io/main/IWWRMP/Data/EXD/200_photo/MWS_122/New canal of Giragama from Lunugama to Giragama.jpg"
      },
      "geometry": {
        "type": "Point",
        "coordinates": [
          80.580965,
          7.19642
        ]
      }
    },
    {
      "type": "Feature",
      "properties": {
        "No": 36,
        "GND No.": 50,
        "Scheme": "Canal from Lunugama Pathini Welrala to Thiththa Rana",
        "N": 7.19814,
        "E": 80.583882,
        "Observation": "canal depth is not enough. bank has damaged from several places.",
        "Description": "Re-excavate the canal for 200 m (Including machinery and transport)\n\nSupply and install 300 mm * 300 mm, 200 m long U drains - To construct the damaged parts of the canal\n\nVegetative cover improving for narrow strips (1.5m?2.0m wide) with Arecanut seedlings at 1.5m spacing in 2 rows, Betel plants VP at 3m spacing in 1 row, Green gram as a cover crop around the canal\n\nContingencies (10%)",
        "Amount (Rs.)": 678480,
        "photopath": "https://raw.githubusercontent.com/MWS003-GIS/MWS003-GIS.github.io/main/IWWRMP/Data/EXD/200_photo/MWS_122/Canal from Lunugama Pathini Welrala to Thiththa Rana.jpg"
      },
      "geometry": {
        "type": "Point",
        "coordinates": [
          80.583882,
          7.19814
        ]
      }
    },
    {
      "type": "Feature",
      "properties": {
        "No": 37,
        "GND No.": 56,
        "Scheme": "Bogaskumbura canal",
        "N": 7.212407,
        "E": 80.570866,
        "Observation": "erroded canal banks",
        "Description": "Vegetative cover improving around structures (5m x 10m) with Areca nut seedling in 1.5m x 1.5m grid, Kumbuk/ Mee/ Godapara/ Kaduru/ Aththikka/ Wal Del/ Kekuna/ randomly mixed seedlings and planting at 3.5m x 3.5 m grid interval - along the canal banks\n\nContingencies (10%)",
        "Amount (Rs.)": 290400,
        "photopath": "https://raw.githubusercontent.com/MWS003-GIS/MWS003-GIS.github.io/main/IWWRMP/Data/EXD/200_photo/MWS_122/Bogaskubura canal.jpg"
      },
      "geometry": {
        "type": "Point",
        "coordinates": [
          80.570866,
          7.212407
        ]
      }
    },
    {
      "type": "Feature",
      "properties": {
        "No": 38,
        "GND No.": 60,
        "Scheme": "Galahitiyawa Embekka canal",
        "N": 7.213809,
        "E": 80.569833,
        "Observation": "water flow to paddy field due to the damage of the canal bund",
        "Description": "Construction of 1.8m high 1:3:6 (40mm) cement concrete Retaining Wall for the damaged parts of the canal bank \n\nContingencies (10%)",
        "Amount (Rs.)": 858000,
        "photopath": "https://raw.githubusercontent.com/MWS003-GIS/MWS003-GIS.github.io/main/IWWRMP/Data/EXD/200_photo/MWS_122/Galahitiyawa ela wella.jpg"
      },
      "geometry": {
        "type": "Point",
        "coordinates": [
          80.569833,
          7.213809
        ]
      }
    },
    {
      "type": "Feature",
      "properties": {
        "No": 39,
        "GND No.": 60,
        "Scheme": "Doradeniya paddy fields",
        "N": 7.218199,
        "E": 80.57181,
        "Observation": "there is 5ac of paddy field to cultivate from this but nothing is done now.,high water flow in raining season",
        "Description": "Construct a 2 ft x 2 ft concrete canal for 800 m distance\n\nContingencies (10%)",
        "Amount (Rs.)": 330000,
        "photopath": "https://raw.githubusercontent.com/MWS003-GIS/MWS003-GIS.github.io/main/IWWRMP/Data/EXD/200_photo/MWS_122/Dodandeniya yaya canal.jpg"
      },
      "geometry": {
        "type": "Point",
        "coordinates": [
          80.57181,
          7.218199
        ]
      }
    },
    {
      "type": "Feature",
      "properties": {
        "No": 40,
        "GND No.": 64,
        "Scheme": "Main canal from Thalawa anicut to Daskara",
        "N": 7.209414,
        "E": 80.563644,
        "Observation": "canal banks were eroded. 10 acres of paddy land.",
        "Description": "Dry rubble packing (with locally found rubble, size over 225mm )-Along the river banks\n\nMiscellaneous\n\nContingencies (10%)",
        "Amount (Rs.)": 180400,
        "photopath": "https://raw.githubusercontent.com/MWS003-GIS/MWS003-GIS.github.io/main/IWWRMP/Data/EXD/200_photo/MWS_122/thalawa anicut to  canal (1).jpg"
      },
      "geometry": {
        "type": "Point",
        "coordinates": [
          80.563644,
          7.209414
        ]
      }
    },
    {
      "type": "Feature",
      "properties": {
        "No": 41,
        "GND No.": 64,
        "Scheme": "Canal fromKoholana to Galahitiyawa anicut",
        "N": 7.207662,
        "E": 80.567457,
        "Observation": "Eroded canal banks damaged the concrete wall.",
        "Description": "Construction of 1.0m high 1:3:6 (40mm) cement concrete Retaining Wall for the damaged parts of the canal banks\n\nContingencies (10%)",
        "Amount (Rs.)": 2640000,
        "photopath": "https://raw.githubusercontent.com/MWS003-GIS/MWS003-GIS.github.io/main/IWWRMP/Data/EXD/200_photo/MWS_122/koholana to galahitiyawa canal (2).jpg"
      },
      "geometry": {
        "type": "Point",
        "coordinates": [
          80.567457,
          7.207662
        ]
      }
    },
    {
      "type": "Feature",
      "properties": {
        "No": 44,
        "GND No.": 69,
        "Scheme": "The canal flows from Wathupola, across the Bambaradeniya",
        "N": 7.2143632,
        "E": 80.55545787,
        "Observation": "20 acres of paddy land. canal banks were damaged.",
        "Description": "Dry rubble packing (with locally found rubble, size over 225mm )-Along the river banks\n\nMiscellaneous\n\nContingencies (10%)",
        "Amount (Rs.)": 270600,
        "photopath": "https://raw.githubusercontent.com/MWS003-GIS/MWS003-GIS.github.io/main/IWWRMP/Data/EXD/200_photo/MWS_122/wathupola sita babaradeniya canal (1).jpg"
      },
      "geometry": {
        "type": "Point",
        "coordinates": [
          80.55545787,
          7.2143632
        ]
      }
    },
    {
      "type": "Feature",
      "properties": {
        "No": 45,
        "GND No.": 70,
        "Scheme": "Dawake canal",
        "N": 7.220271,
        "E": 80.567577,
        "Observation": "there is a very heavy damage due to  a landslide the canal has been fully blocked and water flow trough paddy field",
        "Description": "Remove the erroded soil from the canal and clean the canal pathway\n\nContingencies (10%)",
        "Amount (Rs.)": 33000,
        "photopath": "Not_Available"
      },
      "geometry": {
        "type": "Point",
        "coordinates": [
          80.567577,
          7.220271
        ]
      }
    },
    {
      "type": "Feature",
      "properties": {
        "No": 46,
        "GND No.": 70,
        "Scheme": "Alapaladeniya canal",
        "N": 7.219719,
        "E": 80.56965,
        "Observation": "erroded canal banks due to high water flow",
        "Description": "Vegetative cover improving around structures (5m x 10m) with Areca nut seedling in 1.5m x 1.5m grid, Kumbuk/ Mee/ Godapara/ Kaduru/ Aththikka/ Wal Del/ Kekuna/ randomly mixed seedlings and planting at 3.5m x 3.5 m grid interval - along the canal banks\n\nContingencies (10%)",
        "Amount (Rs.)": 242000,
        "photopath": "https://raw.githubusercontent.com/MWS003-GIS/MWS003-GIS.github.io/main/IWWRMP/Data/EXD/200_photo/MWS_122/aladeniya canal.jpg"
      },
      "geometry": {
        "type": "Point",
        "coordinates": [
          80.56965,
          7.219719
        ]
      }
    },
    {
      "type": "Feature",
      "properties": {
        "No": 47,
        "GND No.": 71,
        "Scheme": "Rathninda Yaya canal",
        "N": 7.2205555,
        "E": 80.564399,
        "Observation": "in raining days, high water flow to paddy field ,about 7 ac is cultivated from this",
        "Description": "Construct a concrete wall to reduce the water flow during the rainy season\n\nContingencies (10%)",
        "Amount (Rs.)": 55000,
        "photopath": "https://raw.githubusercontent.com/MWS003-GIS/MWS003-GIS.github.io/main/IWWRMP/Data/EXD/200_photo/MWS_122/rathmindeniya canal.jpg"
      },
      "geometry": {
        "type": "Point",
        "coordinates": [
          80.564399,
          7.2205555
        ]
      }
    },
    {
      "type": "Feature",
      "properties": {
        "No": 48,
        "GND No.": 71,
        "Scheme": "Bamba Bedda canal",
        "N": 7.220425,
        "E": 80.564672,
        "Observation": "5 ac cultivated ,damaged canal banks",
        "Description": "Construction of 1.5m high 0.15m thk RCC Retaining Walll for the damaged parts of the canal bank \n\nContingencies (10%)",
        "Amount (Rs.)": 792000,
        "photopath": "https://raw.githubusercontent.com/MWS003-GIS/MWS003-GIS.github.io/main/IWWRMP/Data/EXD/200_photo/MWS_122/badabadda canal.jpg"
      },
      "geometry": {
        "type": "Point",
        "coordinates": [
          80.564672,
          7.220425
        ]
      }
    }
  ]
}