{
  "type": "FeatureCollection",
  "name": "WSP",
  "crs": {
    "type": "name",
    "properties": {
      "name": "urn:ogc:def:crs:OGC:1.3:CRS84"
    }
  },
  "features": [
    {
      "type": "Feature",
      "properties": {
        "No": 1.0,
        "GND No.": "484 E",
        "Name of the Tank": "Madiththa vila",
        "N": 7.140888,
        "E": 80.820919,
        "Observation": " The absence of boundary markers in the reserve and the leakage of water from the tank",
        "Description": "Construction of 1.5m high x 0.15m thick RCC wall (0.8m base)\nVegetative cover improving (1.5m-2.0m wide) with Areca nut seedlings @ 1.5m spacing in two rows, Beetle creeper VP @ 3m spacing in a single row, green gram as a cover crop including applying of compost manure, NPK fertilizer and maintenance\nVegetative cover improving with Areca nut seedling @ 1.5m spacing in a single row, Kumbuk/ Mee/ Godapara/ Kaduru/ Aththikka/ Wal Del/ Kekuna/ randomly mixed seedlings and dense planting at 500mm grid interval, applying of compost manure, NPK fertilizer, mulching with straw/ banana tree skin and maintenance\nConstruction of curtain wall (0.075mm thk) with 1:2:4 (3/4\") concrete, 1/2\" dowels at 600mm x 600mm intervals and embedded with chicken mesh",
        "Amount (Rs.)": "265,300",
        "photopath": "https://raw.githubusercontent.com/MWS003-GIS/MWS003-GIS.github.io/main/IWWRMP/Data/EXD/200_photo/MWS_020_1/bw1.jpg"
      },
      "geometry": {
        "type": "Point",
        "coordinates": [
          80.820919,
          7.140888
        ]
      }
    },
    {
      "type": "Feature",
      "properties": {
        "No": 2.0,
        "GND No.": "491",
        "Name of the Tank": "Bambaragalla spring",
        "N": 7.155004,
        "E": 80.821207,
        "Observation": " The portion of land (by the spring) handed over to the Divisional Secretary does not have marked boundaries.\nThe original landowner is opposing the use of water.",
        "Description": "Providing barb wire fence with 07 nos of 14G barb wire rows fixed firmly between 7ft high concrete posts erected at 2.0m intervals along the fence\nConstruction of Concrete water storage tank of 20 cum - size internal 3mx3mx2.5\nVegetative cover improving (1.5m-2.0m wide) with Areca nut seedlings @ 1.5m spacing in two rows, Beetle creeper VP @ 3m spacing in a single row, green gram as a cover crop including applying of compost manure, NPK fertilizer and maintenance",
        "Amount (Rs.)": "700,200",
        "photopath": "https://raw.githubusercontent.com/MWS003-GIS/MWS003-GIS.github.io/main/IWWRMP/Data/EXD/200_photo/MWS_020_1/HW (02)3.jpg"
      },
      "geometry": {
        "type": "Point",
        "coordinates": [
          80.821207,
          7.155004
        ]
      }
    },
    {
      "type": "Feature",
      "properties": {
        "No": 3.0,
        "GND No.": "491",
        "Name of the Tank": "Illagola",
        "N": 7.15228,
        "E": 80.823322,
        "Observation": " The spring is filled with sludge. It is opened to the environment",
        "Description": "Construction of Concrete water storage tank of 20 cum - size internal 3mx3mx2.5\nVegetative cover improving (1.5m-2.0m wide) with Areca nut seedlings @ 1.5m spacing in two rows, Beetle creeper VP @ 3m spacing in a single row, green gram as a cover crop including applying of compost manure, NPK fertilizer and maintenance",
        "Amount (Rs.)": "561,700",
        "photopath": "https://raw.githubusercontent.com/MWS003-GIS/MWS003-GIS.github.io/main/IWWRMP/Data/EXD/200_photo/MWS_020_1/HW (04)3.1.jpg"
      },
      "geometry": {
        "type": "Point",
        "coordinates": [
          80.823322,
          7.15228
        ]
      }
    },
    {
      "type": "Feature",
      "properties": {
        "No": 4.0,
        "GND No.": "491 A ",
        "Name of the Tank": "spring near Jambugaha ",
        "N": 7.147189,
        "E": 80.815022,
        "Observation": "The spring tank is not functioning well.\nThe water is accumulating in the nearby torrent.",
        "Description": "Construction of Concrete water storage tank of 20 cum - size internal 3mx3mx2.5\nProviding PVC pipes, pipe joints, etc. to convey water to the school\nConstruction of leader drain across streams -1m(W)x1m(H)\nVegetative cover improving (1.5m-2.0m wide) with Areca nut seedlings @ 1.5m spacing in two rows, Beetle creeper VP @ 3m spacing in a single row, green gram as a cover crop including applying of compost manure, NPK fertilizer and maintenance",
        "Amount (Rs.)": "672,000",
        "photopath": "https://raw.githubusercontent.com/MWS003-GIS/MWS003-GIS.github.io/main/IWWRMP/Data/EXD/200_photo/MWS_020_1/MG (02)1.jpg"
      },
      "geometry": {
        "type": "Point",
        "coordinates": [
          80.815022,
          7.147189
        ]
      }
    },
    {
      "type": "Feature",
      "properties": {
        "No": null,
        "GND No.": null,
        "Name of the Tank": null,
        "N": null,
        "E": null,
        "Observation": null,
        "Description": null,
        "Amount (Rs.)": null,
        "photopath": "Not_Available"
      },
      "geometry": null
    }
  ]
}