{"type":"FeatureCollection","name":"SR","crs":{"type":"name","properties":{"name":"urn:ogc:def:crs:OGC:1.3:CRS84"}},"features":[
{"type":"Feature","properties":{"No":4,"GND No.":242,"Scheme":"Hal Oya canal","N":7.2731303,"E":80.6362905,"Observation":"not used for cultivation ,not much issue used for bathing and vehical washing","Description":"Prelimanaries \nRepairs to bathing place \nContingencies (10%)","Amount (Rs.)":17600,"photopath":"https://raw.githubusercontent.com/MWS003-GIS/MWS003-GIS.github.io/main/IWWRMP/Data/EXD/200_photo/MWS_116/Hal Oya canal.jpg"},"geometry":{"type":"Point","coordinates":[80.6362905,7.2731303]}},
{"type":"Feature","properties":{"No":5,"GND No.":245,"Scheme":"Kaluwala canal","N":7.272985,"E":80.618534,"Observation":"high waste accumilation ,people comming for bath and drink pollute the area","Description":"Prelimanaries \nSupplying display boards with approved context and size\nInstallation of display poards at predetermined locations \nContingencies (10%)","Amount (Rs.)":33200,"photopath":"https://raw.githubusercontent.com/MWS003-GIS/MWS003-GIS.github.io/main/IWWRMP/Data/EXD/200_photo/MWS_116/kaluwala canal.jpg"},"geometry":{"type":"Point","coordinates":[80.618534,7.272985]}},
{"type":"Feature","properties":{"No":6,"GND No.":254,"Scheme":"Kosgolla Dunumadalawa canal","N":7.280103,"E":80.643782,"Observation":"bank errosion happen in some places","Description":"Construction of 1.0m high 1:3:6 (40mm) cement concrete Retaining Walls at required locations - Total length 50 m\nSite preparation & setting out\nEarth excavation for foundation or quarry materials and haul the surplus materials up to 30m by Manually.\n","Amount (Rs.)":1279300,"photopath":"https://raw.githubusercontent.com/MWS003-GIS/MWS003-GIS.github.io/main/IWWRMP/Data/EXD/200_photo/MWS_116/Canal in dunumadalawa.jpg"},"geometry":{"type":"Point","coordinates":[80.643782,7.280103]}}
]}