{
"type": "FeatureCollection",
"name": "MI",
"crs": { "type": "name", "properties": { "name": "urn:ogc:def:crs:OGC:1.3:CRS84" } },
"features": [
{ "type": "Feature", "properties": { "No": 1, "GND No.": 968, "Scheme": "Gallena canal", "N": 7.241116, "E": 80.673871, "Observation": "7.241353, 80.674285", "Description": "Seepage and leak under the concrete lining. Recommended reservation protection by earth fill of 1.5m wide & 0.5m depth and growth of edible plants on side slope for 200m length.", "Amount (Rs.)": "180000", "photopath": "https://raw.githubusercontent.com/MWS003-GIS/MWS003-GIS.github.io/main/IWWRMP/Data/EXD/200_photo/MWS_004_2/Ethulgama_East/AE8.jpg" }, "geometry": { "type": "Point", "coordinates": [ 80.673871, 7.241116 ] } },
{ "type": "Feature", "properties": { "No": 2, "GND No.": 968, "Scheme": "Gallena canal", "N": 7.241451, "E": 80.674605, "Observation": "-", "Description": "-", "Amount (Rs.)": "-", "photopath": "https://raw.githubusercontent.com/MWS003-GIS/MWS003-GIS.github.io/main/IWWRMP/Data/EXD/200_photo/MWS_004_2/Ethulgama_East/AE8.jpg" }, "geometry": { "type": "Point", "coordinates": [ 80.674605, 7.241451 ] } },
{ "type": "Feature", "properties": { "No": 3, "GND No.": 968, "Scheme": "Gallena canal", "N": 7.241479, "E": 80.675296, "Observation": "-", "Description": "-", "Amount (Rs.)": "-", "photopath": "https://raw.githubusercontent.com/MWS003-GIS/MWS003-GIS.github.io/main/IWWRMP/Data/EXD/200_photo/MWS_004_2/Ethulgama_East/AE8.jpg" }, "geometry": { "type": "Point", "coordinates": [ 80.675296, 7.241479 ] } },
{ "type": "Feature", "properties": { "No": 4, "GND No.": 968, "Scheme": "Gallena canal", "N": 7.241116, "E": 80.673871, "Observation": "7.241353, 80.674285", "Description": "-", "Amount (Rs.)": "-", "photopath": "https://raw.githubusercontent.com/MWS003-GIS/MWS003-GIS.github.io/main/IWWRMP/Data/EXD/200_photo/MWS_004_2/Ethulgama_East/AE8.jpg" }, "geometry": { "type": "Point", "coordinates": [ 80.673871, 7.241116 ] } },
{ "type": "Feature", "properties": { "No": 5, "GND No.": 968, "Scheme": "Gallena canal", "N": 7.241185, "E": 80.676773, "Observation": "-", "Description": "Damaged concrete lining and overflowing. Recommend 500mmx400mm X100mm (L) x30m long canal lining totally.", "Amount (Rs.)": "186450", "photopath": "https://raw.githubusercontent.com/MWS003-GIS/MWS003-GIS.github.io/main/IWWRMP/Data/EXD/200_photo/MWS_004_2/Ethulgama_East/AE9.jpg" }, "geometry": { "type": "Point", "coordinates": [ 80.676773, 7.241185 ] } },
{ "type": "Feature", "properties": { "No": 6, "GND No.": 968, "Scheme": "Gallena canal", "N": 7.241327, "E": 80.677244, "Observation": "-", "Description": "-", "Amount (Rs.)": "-", "photopath": "https://raw.githubusercontent.com/MWS003-GIS/MWS003-GIS.github.io/main/IWWRMP/Data/EXD/200_photo/MWS_004_2/Ethulgama_East/AE10.jpg" }, "geometry": { "type": "Point", "coordinates": [ 80.677244, 7.241327 ] } },
{ "type": "Feature", "properties": { "No": 7, "GND No.": 968, "Scheme": "Gallena canal", "N": 7.241569, "E": 80.676633, "Observation": "-", "Description": "-", "Amount (Rs.)": "-", "photopath": "https://raw.githubusercontent.com/MWS003-GIS/MWS003-GIS.github.io/main/IWWRMP/Data/EXD/200_photo/MWS_004_2/Ethulgama_East/AE11.jpg" }, "geometry": { "type": "Point", "coordinates": [ 80.676633, 7.241569 ] } },
{ "type": "Feature", "properties": { "No": 8, "GND No.": 968, "Scheme": "Gallena canal", "N": 7.241634, "E": 80.67674, "Observation": "-", "Description": "-", "Amount (Rs.)": "-", "photopath": "https://raw.githubusercontent.com/MWS003-GIS/MWS003-GIS.github.io/main/IWWRMP/Data/EXD/200_photo/MWS_004_2/Ethulgama_East/AE11.1.jpg" }, "geometry": { "type": "Point", "coordinates": [ 80.67674, 7.241634 ] } },
{ "type": "Feature", "properties": { "No": 9, "GND No.": 968, "Scheme": "Elle Oya", "N": 7.242429, "E": 80.674888, "Observation": "-", "Description": "Erosion during rains. Recommend 200 sq.m natural potential vegetation with Kumbuk/Mee/Attikka etc.", "Amount (Rs.)": "57400", "photopath": "https://raw.githubusercontent.com/MWS003-GIS/MWS003-GIS.github.io/main/IWWRMP/Data/EXD/200_photo/MWS_004_2/Ethulgama_East/AE12.jpg" }, "geometry": { "type": "Point", "coordinates": [ 80.674888, 7.242429 ] } },
{ "type": "Feature", "properties": { "No": 10, "GND No.": 968, "Scheme": "Ulpatha canal", "N": 7.242836, "E": 80.675485, "Observation": "-", "Description": "Common seepage problem and farmers expect concrete lining. Recommended 1.5m x0.5m earth fill reservation protection and growth of edible plants on a side slope with areca nut planting at the slope edge for 200m length.", "Amount (Rs.)": "226000", "photopath": "https://raw.githubusercontent.com/MWS003-GIS/MWS003-GIS.github.io/main/IWWRMP/Data/EXD/200_photo/MWS_004_2/Ethulgama_East/AE13.jpg" }, "geometry": { "type": "Point", "coordinates": [ 80.675485, 7.242836 ] } },
{ "type": "Feature", "properties": { "No": 11, "GND No.": 968, "Scheme": "Ulpatha canal", "N": 7.242468, "E": 80.674785, "Observation": "-", "Description": "-", "Amount (Rs.)": "-", "photopath": "https://raw.githubusercontent.com/MWS003-GIS/MWS003-GIS.github.io/main/IWWRMP/Data/EXD/200_photo/MWS_004_2/Ethulgama_East/AE13.1.jpg" }, "geometry": { "type": "Point", "coordinates": [ 80.674785, 7.242468 ] } },
{ "type": "Feature", "properties": { "No": 12, "GND No.": 968, "Scheme": "Ulpatha canal", "N": 7.243394, "E": 80.676295, "Observation": "-", "Description": "-", "Amount (Rs.)": "-", "photopath": "https://raw.githubusercontent.com/MWS003-GIS/MWS003-GIS.github.io/main/IWWRMP/Data/EXD/200_photo/MWS_004_2/Ethulgama_East/AE14.jpg" }, "geometry": { "type": "Point", "coordinates": [ 80.676295, 7.243394 ] } },
{ "type": "Feature", "properties": { "No": 13, "GND No.": 968, "Scheme": "Ulpatha canal", "N": 7.243574, "E": 80.67648, "Observation": "-", "Description": "-", "Amount (Rs.)": "-", "photopath": "https://raw.githubusercontent.com/MWS003-GIS/MWS003-GIS.github.io/main/IWWRMP/Data/EXD/200_photo/MWS_004_2/Ethulgama_East/AE15.jpg" }, "geometry": { "type": "Point", "coordinates": [ 80.67648, 7.243574 ] } },
{ "type": "Feature", "properties": { "No": 14, "GND No.": 968, "Scheme": "Ulpatha canal", "N": 7.24335, "E": 80.67689, "Observation": "-", "Description": "-", "Amount (Rs.)": "-", "photopath": "https://raw.githubusercontent.com/MWS003-GIS/MWS003-GIS.github.io/main/IWWRMP/Data/EXD/200_photo/MWS_004_2/Ethulgama_East/AE15.jpg" }, "geometry": { "type": "Point", "coordinates": [ 80.67689, 7.24335 ] } },
{ "type": "Feature", "properties": { "No": 15, "GND No.": 968, "Scheme": "Ulpatha canal", "N": 7.243271, "E": 80.677835, "Observation": "-", "Description": "-", "Amount (Rs.)": "-", "photopath": "https://raw.githubusercontent.com/MWS003-GIS/MWS003-GIS.github.io/main/IWWRMP/Data/EXD/200_photo/MWS_004_2/Ethulgama_East/AE13.jpg" }, "geometry": { "type": "Point", "coordinates": [ 80.677835, 7.243271 ] } },
{ "type": "Feature", "properties": { "No": 16, "GND No.": 968, "Scheme": "Madola canal", "N": 7.244188, "E": 80.67655, "Observation": "-", "Description": "Seepage and weak embankment. Recommend 1.5m x0.5m earth fill reservation protection and growth of edible plants on a side slope with areca nut planting for 100m length.", "Amount (Rs.)": "-", "photopath": "https://raw.githubusercontent.com/MWS003-GIS/MWS003-GIS.github.io/main/IWWRMP/Data/EXD/200_photo/MWS_004_2/Ethulgama_East/AE36.jpg" }, "geometry": { "type": "Point", "coordinates": [ 80.67655, 7.244188 ] } },
{ "type": "Feature", "properties": { "No": 17, "GND No.": 968, "Scheme": "Madola canal", "N": 7.2439, "E": 80.676141, "Observation": "-", "Description": "-", "Amount (Rs.)": "113000", "photopath": "https://raw.githubusercontent.com/MWS003-GIS/MWS003-GIS.github.io/main/IWWRMP/Data/EXD/200_photo/MWS_004_2/Ethulgama_East/AE36.jpg" }, "geometry": { "type": "Point", "coordinates": [ 80.676141, 7.2439 ] } },
{ "type": "Feature", "properties": { "No": 18, "GND No.": 968, "Scheme": "Bolakumbura anicut and canal", "N": 7.2439, "E": 80.676141, "Observation": "-", "Description": "Canal overflowing at weak locations. Recommend cleaning of anicut and Recommended 1.5m x0.5m earth fill reservation protection and growth of edible plants on a side slope with areca nut planting for 100m length.", "Amount (Rs.)": "140000", "photopath": "https://raw.githubusercontent.com/MWS003-GIS/MWS003-GIS.github.io/main/IWWRMP/Data/EXD/200_photo/MWS_004_2/Ethulgama_East/AE16.jpg" }, "geometry": { "type": "Point", "coordinates": [ 80.676141, 7.2439 ] } },
{ "type": "Feature", "properties": { "No": 19, "GND No.": 968, "Scheme": "Bolakumbura anicut and canal", "N": 7.243898, "E": 80.675995, "Observation": "-", "Description": "-", "Amount (Rs.)": "-", "photopath": "https://raw.githubusercontent.com/MWS003-GIS/MWS003-GIS.github.io/main/IWWRMP/Data/EXD/200_photo/MWS_004_2/Ethulgama_East/AE16.1.jpg" }, "geometry": { "type": "Point", "coordinates": [ 80.675995, 7.243898 ] } },
{ "type": "Feature", "properties": { "No": 20, "GND No.": 968, "Scheme": "Bolakumbura anicut and canal", "N": 7.244419, "E": 80.676238, "Observation": "-", "Description": "-", "Amount (Rs.)": "-", "photopath": "https://raw.githubusercontent.com/MWS003-GIS/MWS003-GIS.github.io/main/IWWRMP/Data/EXD/200_photo/MWS_004_2/Ethulgama_East/AE16.1.jpg" }, "geometry": { "type": "Point", "coordinates": [ 80.676238, 7.244419 ] } },
{ "type": "Feature", "properties": { "No": 21, "GND No.": 968, "Scheme": "Bolakumbura anicut and canal", "N": 7.2439, "E": 80.676141, "Observation": "-", "Description": "-", "Amount (Rs.)": "-", "photopath": "https://raw.githubusercontent.com/MWS003-GIS/MWS003-GIS.github.io/main/IWWRMP/Data/EXD/200_photo/MWS_004_2/Ethulgama_East/AE17.jpg" }, "geometry": { "type": "Point", "coordinates": [ 80.676141, 7.2439 ] } },
{ "type": "Feature", "properties": { "No": 22, "GND No.": 968, "Scheme": "Madandawa canal", "N": 7.244545, "E": 80.675858, "Observation": "-", "Description": "Canal seepage and farmers request concrete canal lining. Recommended 1.5m x0.5m earth fill reservation protection and growth of edible plants on a side slope with areca nut planting for 150m length.", "Amount (Rs.)": "170000", "photopath": "https://raw.githubusercontent.com/MWS003-GIS/MWS003-GIS.github.io/main/IWWRMP/Data/EXD/200_photo/MWS_004_2/Ethulgama_East/AE18.jpg" }, "geometry": { "type": "Point", "coordinates": [ 80.675858, 7.244545 ] } },
{ "type": "Feature", "properties": { "No": 23, "GND No.": 968, "Scheme": "Madandawa canal", "N": 7.24473, "E": 80.675363, "Observation": "-", "Description": "-", "Amount (Rs.)": "-", "photopath": "https://raw.githubusercontent.com/MWS003-GIS/MWS003-GIS.github.io/main/IWWRMP/Data/EXD/200_photo/MWS_004_2/Ethulgama_East/AE18.jpg" }, "geometry": { "type": "Point", "coordinates": [ 80.675363, 7.24473 ] } },
{ "type": "Feature", "properties": { "No": 24, "GND No.": 968, "Scheme": "Madandawa canal", "N": 7.244684, "E": 80.674225, "Observation": "-", "Description": "-", "Amount (Rs.)": "-", "photopath": "https://raw.githubusercontent.com/MWS003-GIS/MWS003-GIS.github.io/main/IWWRMP/Data/EXD/200_photo/MWS_004_2/Ethulgama_East/AE18.jpg" }, "geometry": { "type": "Point", "coordinates": [ 80.674225, 7.244684 ] } },
{ "type": "Feature", "properties": { "No": 25, "GND No.": 968, "Scheme": "Agala pela canal", "N": 7.243861, "E": 80.673488, "Observation": "-", "Description": "Canal seepage and leaks. Recommend 100m long areca nut planting for 100m length.", "Amount (Rs.)": "23600", "photopath": "https://raw.githubusercontent.com/MWS003-GIS/MWS003-GIS.github.io/main/IWWRMP/Data/EXD/200_photo/MWS_004_2/Ethulgama_East/AE19.jpg" }, "geometry": { "type": "Point", "coordinates": [ 80.673488, 7.243861 ] } },
{ "type": "Feature", "properties": { "No": 26, "GND No.": 968, "Scheme": "Agala pela canal", "N": 7.243786, "E": 80.673757, "Observation": "-", "Description": "-", "Amount (Rs.)": "-", "photopath": "https://raw.githubusercontent.com/MWS003-GIS/MWS003-GIS.github.io/main/IWWRMP/Data/EXD/200_photo/MWS_004_2/Ethulgama_East/AE19.jpg" }, "geometry": { "type": "Point", "coordinates": [ 80.673757, 7.243786 ] } },
{ "type": "Feature", "properties": { "No": 27, "GND No.": 968, "Scheme": "Udubibila ela", "N": 7.243815, "E": 80.673315, "Observation": "-", "Description": "Poor reservation. Farmers expect concrete lining. Recommended 1.5m x0.5m earth fill reservation protection and growth of edible plants on a side slope with areca nut planting for 100m length.", "Amount (Rs.)": "23600", "photopath": "https://raw.githubusercontent.com/MWS003-GIS/MWS003-GIS.github.io/main/IWWRMP/Data/EXD/200_photo/MWS_004_2/Ethulgama_East/AE20.jpg" }, "geometry": { "type": "Point", "coordinates": [ 80.673315, 7.243815 ] } },
{ "type": "Feature", "properties": { "No": 28, "GND No.": 968, "Scheme": "Karanda Wala ela", "N": 7.246101, "E": 80.674242, "Observation": "-", "Description": "Reservation not maintained and seepage. Farmers request concrete lining. Recommended 1.5m x0.5m earth fill reservation protection and growth of edible plants on a side slope with areca nut planting for 200m length.", "Amount (Rs.)": "226000", "photopath": "https://raw.githubusercontent.com/MWS003-GIS/MWS003-GIS.github.io/main/IWWRMP/Data/EXD/200_photo/MWS_004_2/Ethulgama_East/AE21.jpg" }, "geometry": { "type": "Point", "coordinates": [ 80.674242, 7.246101 ] } },
{ "type": "Feature", "properties": { "No": 29, "GND No.": 968, "Scheme": "Karanda Wala ela", "N": 7.246254, "E": 80.674172, "Observation": "-", "Description": "-", "Amount (Rs.)": "-", "photopath": "https://raw.githubusercontent.com/MWS003-GIS/MWS003-GIS.github.io/main/IWWRMP/Data/EXD/200_photo/MWS_004_2/Ethulgama_East/AE21.jpg" }, "geometry": { "type": "Point", "coordinates": [ 80.674172, 7.246254 ] } },
{ "type": "Feature", "properties": { "No": 30, "GND No.": 968, "Scheme": "Karanda Wala ela", "N": 7.246247, "E": 80.674206, "Observation": "-", "Description": "-", "Amount (Rs.)": "-", "photopath": "https://raw.githubusercontent.com/MWS003-GIS/MWS003-GIS.github.io/main/IWWRMP/Data/EXD/200_photo/MWS_004_2/Ethulgama_East/AE21.1.jpg" }, "geometry": { "type": "Point", "coordinates": [ 80.674206, 7.246247 ] } },
{ "type": "Feature", "properties": { "No": 31, "GND No.": 968, "Scheme": "Karanda Wala ela", "N": 7.247427, "E": 80.674188, "Observation": "-", "Description": "-", "Amount (Rs.)": "-", "photopath": "https://raw.githubusercontent.com/MWS003-GIS/MWS003-GIS.github.io/main/IWWRMP/Data/EXD/200_photo/MWS_004_2/Ethulgama_East/AE21.1.jpg" }, "geometry": { "type": "Point", "coordinates": [ 80.674188, 7.247427 ] } },
{ "type": "Feature", "properties": { "No": 32, "GND No.": 968, "Scheme": "Elawanamulla ela", "N": 7.245187, "E": 80.674678, "Observation": "-", "Description": "Damages in existing lining and canal overflow during water issues. Recommend 300mmx300mmx100mm rectangular concrete lining for 100m length with areca nut fence", "Amount (Rs.)": "687500", "photopath": "https://raw.githubusercontent.com/MWS003-GIS/MWS003-GIS.github.io/main/IWWRMP/Data/EXD/200_photo/MWS_004_2/Ethulgama_East/AE23.jpg" }, "geometry": { "type": "Point", "coordinates": [ 80.674678, 7.245187 ] } },
{ "type": "Feature", "properties": { "No": 33, "GND No.": 968, "Scheme": "Elawanamulla ela", "N": 7.245176, "E": 80.674478, "Observation": "-", "Description": "-", "Amount (Rs.)": "-", "photopath": "https://raw.githubusercontent.com/MWS003-GIS/MWS003-GIS.github.io/main/IWWRMP/Data/EXD/200_photo/MWS_004_2/Ethulgama_East/AE23.1.jpg" }, "geometry": { "type": "Point", "coordinates": [ 80.674478, 7.245176 ] } },
{ "type": "Feature", "properties": { "No": 34, "GND No.": 968, "Scheme": "Elawanamulla ela", "N": 7.245642, "E": 80.675689, "Observation": "-", "Description": "-", "Amount (Rs.)": "-", "photopath": "https://raw.githubusercontent.com/MWS003-GIS/MWS003-GIS.github.io/main/IWWRMP/Data/EXD/200_photo/MWS_004_2/Ethulgama_East/AE23.2.jpg" }, "geometry": { "type": "Point", "coordinates": [ 80.675689, 7.245642 ] } },
{ "type": "Feature", "properties": { "No": 35, "GND No.": 968, "Scheme": "Elawanamulla ela", "N": 7.245523, "E": 80.676017, "Observation": "-", "Description": "-", "Amount (Rs.)": "-", "photopath": "https://raw.githubusercontent.com/MWS003-GIS/MWS003-GIS.github.io/main/IWWRMP/Data/EXD/200_photo/MWS_004_2/Ethulgama_East/AE23.2.jpg" }, "geometry": { "type": "Point", "coordinates": [ 80.676017, 7.245523 ] } },
{ "type": "Feature", "properties": { "No": 36, "GND No.": 968, "Scheme": "Elawanamulla ela", "N": 7.245148, "E": 80.676757, "Observation": "-", "Description": "-", "Amount (Rs.)": "-", "photopath": "https://raw.githubusercontent.com/MWS003-GIS/MWS003-GIS.github.io/main/IWWRMP/Data/EXD/200_photo/MWS_004_2/Ethulgama_East/AE23.3.jpg" }, "geometry": { "type": "Point", "coordinates": [ 80.676757, 7.245148 ] } },
{ "type": "Feature", "properties": { "No": 37, "GND No.": 956, "Scheme": "Kossinna historical pond", "N": 7.255655, "E": 80.68328, "Observation": "-", "Description": "Heavily silted about 1.5m depth", "Amount (Rs.)": "227500", "photopath": "Not_Available" }, "geometry": { "type": "Point", "coordinates": [ 80.68328, 7.255655 ] } },
{ "type": "Feature", "properties": { "No": 38, "GND No.": 956, "Scheme": "Aswedduma ela", "N": 7.258827, "E": 80.686048, "Observation": "-", "Description": "Heavy seepage at the downstream side, Recommend 1. Protection by construction of a concrete canal lining 100mm thick, 0.3m wide 0.3m high, and 300m long canal. 2. Construction of a Drainage under crossing with garbage trap using 600mm Dia concrete pipes and a GI gabion box cage.", "Amount (Rs.)": "717250", "photopath": "Not_Available" }, "geometry": { "type": "Point", "coordinates": [ 80.686048, 7.258827 ] } },
{ "type": "Feature", "properties": { "No": 39, "GND No.": 956, "Scheme": "Aswedduma ela", "N": 7.259076, "E": 80.686868, "Observation": "-", "Description": "-", "Amount (Rs.)": "-", "photopath": "Not_Available" }, "geometry": { "type": "Point", "coordinates": [ 80.686868, 7.259076 ] } },
{ "type": "Feature", "properties": { "No": 40, "GND No.": 956, "Scheme": "Aswedduma ela", "N": 7.258368, "E": 80.687281, "Observation": "-", "Description": "-", "Amount (Rs.)": "-", "photopath": "Not_Available" }, "geometry": { "type": "Point", "coordinates": [ 80.687281, 7.258368 ] } },
{ "type": "Feature", "properties": { "No": 41, "GND No.": 956, "Scheme": "Gama meda Amuna 1", "N": 7.26169, "E": 80.684589, "Observation": "-", "Description": "Anicut planks perished", "Amount (Rs.)": "18000", "photopath": "Not_Available" }, "geometry": { "type": "Point", "coordinates": [ 80.684589, 7.26169 ] } },
{ "type": "Feature", "properties": { "No": 42, "GND No.": 956, "Scheme": "Gamammeda Kaduru ela", "N": 7.26169, "E": 80.684589, "Observation": "-", "Description": "Heavy seepage at the downstream side", "Amount (Rs.)": "134325", "photopath": "Not_Available" }, "geometry": { "type": "Point", "coordinates": [ 80.684589, 7.26169 ] } },
{ "type": "Feature", "properties": { "No": 43, "GND No.": 956, "Scheme": "Gama meda Amuna 2", "N": 7.260373, "E": 80.683809, "Observation": "-", "Description": "Anicut planks perished", "Amount (Rs.)": "18000", "photopath": "Not_Available" }, "geometry": { "type": "Point", "coordinates": [ 80.683809, 7.260373 ] } },
{ "type": "Feature", "properties": { "No": 44, "GND No.": 960, "Scheme": "Meekunuwala ela", "N": 7.250565, "E": 80.689218, "Observation": "-", "Description": "Excessive leak through the bund. Recommend 1. Canal protection by the construction of canal lining of 100mm thick, 0.3m wide and 0.3m high and 200m long canal lining. 2. Shoulder filling of 900 mm as a reservation protection and turfing on slope.", "Amount (Rs.)": "1507600", "photopath": "https://raw.githubusercontent.com/MWS003-GIS/MWS003-GIS.github.io/main/IWWRMP/Data/EXD/200_photo/MWS_004_2/Thalathuoya_West/TW2.jpg" }, "geometry": { "type": "Point", "coordinates": [ 80.689218, 7.250565 ] } },
{ "type": "Feature", "properties": { "No": 45, "GND No.": 960, "Scheme": "Meekunuwala ela", "N": 7.250434, "E": 80.689493, "Observation": "-", "Description": "-", "Amount (Rs.)": "-", "photopath": "https://raw.githubusercontent.com/MWS003-GIS/MWS003-GIS.github.io/main/IWWRMP/Data/EXD/200_photo/MWS_004_2/Thalathuoya_West/TW2.jpg" }, "geometry": { "type": "Point", "coordinates": [ 80.689493, 7.250434 ] } },
{ "type": "Feature", "properties": { "No": 46, "GND No.": 960, "Scheme": "Meekunuwala ela", "N": 7.250415, "E": 80.689984, "Observation": "-", "Description": "-", "Amount (Rs.)": "-", "photopath": "https://raw.githubusercontent.com/MWS003-GIS/MWS003-GIS.github.io/main/IWWRMP/Data/EXD/200_photo/MWS_004_2/Thalathuoya_West/TW2.2.jpg" }, "geometry": { "type": "Point", "coordinates": [ 80.689984, 7.250415 ] } },
{ "type": "Feature", "properties": { "No": 47, "GND No.": 960, "Scheme": "Yal Kumbura track canal", "N": 7.255414, "E": 80.689729, "Observation": "-", "Description": "Siltation on canal bed and damaged canal lining beyond repair. Recommend Canal protection by construction of 100mm thick, 0.3m wide and 0.3m high and 100m long canal lining. 2. Earth filling and forming bund with 1.5m reservation and protect with turfing sods or edible plant on slopes for 250m long canal sections.", "Amount (Rs.)": "880000", "photopath": "https://raw.githubusercontent.com/MWS003-GIS/MWS003-GIS.github.io/main/IWWRMP/Data/EXD/200_photo/MWS_004_2/Thalathuoya_West/TW3.jpg" }, "geometry": { "type": "Point", "coordinates": [ 80.689729, 7.255414 ] } },
{ "type": "Feature", "properties": { "No": 48, "GND No.": 960, "Scheme": "Yal Kumbura track canal", "N": 7.25567, "E": 80.689705, "Observation": "-", "Description": "-", "Amount (Rs.)": "-", "photopath": "https://raw.githubusercontent.com/MWS003-GIS/MWS003-GIS.github.io/main/IWWRMP/Data/EXD/200_photo/MWS_004_2/Thalathuoya_West/TW3.1.jpg" }, "geometry": { "type": "Point", "coordinates": [ 80.689705, 7.25567 ] } },
{ "type": "Feature", "properties": { "No": 49, "GND No.": 960, "Scheme": "Yal Kumbura track canal", "N": 7.255691, "E": 80.689687, "Observation": "-", "Description": "-", "Amount (Rs.)": "-", "photopath": "https://raw.githubusercontent.com/MWS003-GIS/MWS003-GIS.github.io/main/IWWRMP/Data/EXD/200_photo/MWS_004_2/Thalathuoya_West/TW3.2.jpg" }, "geometry": { "type": "Point", "coordinates": [ 80.689687, 7.255691 ] } },
{ "type": "Feature", "properties": { "No": 50, "GND No.": 960, "Scheme": "Yal Kumbura track canal", "N": 7.256839, "E": 80.690093, "Observation": "-", "Description": "-", "Amount (Rs.)": "-", "photopath": "https://raw.githubusercontent.com/MWS003-GIS/MWS003-GIS.github.io/main/IWWRMP/Data/EXD/200_photo/MWS_004_2/Thalathuoya_West/TW21.jpg" }, "geometry": { "type": "Point", "coordinates": [ 80.690093, 7.256839 ] } },
{ "type": "Feature", "properties": { "No": 51, "GND No.": 960, "Scheme": "Meekunuwala ela (1) anicut", "N": 7.252058, "E": 80.687337, "Observation": "-", "Description": "Anicut planks are missing. Recommend providing 0.6 sq.m anicut planks", "Amount (Rs.)": "6000", "photopath": "https://raw.githubusercontent.com/MWS003-GIS/MWS003-GIS.github.io/main/IWWRMP/Data/EXD/200_photo/MWS_004_2/Thalathuoya_West/TW22.jpg" }, "geometry": { "type": "Point", "coordinates": [ 80.687337, 7.252058 ] } },
{ "type": "Feature", "properties": { "No": 52, "GND No.": 960, "Scheme": "Meekunuwala ela (1)", "N": 7.251379, "E": 80.687674, "Observation": "80.687674 (P8)", "Description": "Lined canal /good condition", "Amount (Rs.)": "-", "photopath": "https://raw.githubusercontent.com/MWS003-GIS/MWS003-GIS.github.io/main/IWWRMP/Data/EXD/200_photo/MWS_004_2/Thalathuoya_West/TW4.jpg" }, "geometry": { "type": "Point", "coordinates": [ 80.687674, 7.251379 ] } },
{ "type": "Feature", "properties": { "No": 53, "GND No.": 960, "Scheme": "Meekunuwala ela (1)", "N": 7.25117, "E": 80.687779, "Observation": "-", "Description": "Lined canal /good condition", "Amount (Rs.)": "-", "photopath": "https://raw.githubusercontent.com/MWS003-GIS/MWS003-GIS.github.io/main/IWWRMP/Data/EXD/200_photo/MWS_004_2/Thalathuoya_West/TW4.1.jpg" }, "geometry": { "type": "Point", "coordinates": [ 80.687779, 7.25117 ] } },
{ "type": "Feature", "properties": { "No": 54, "GND No.": 960, "Scheme": "Meekunuwala ela (1)", "N": 7.25119, "E": 80.688963, "Observation": "-", "Description": "Lined canal /good condition", "Amount (Rs.)": "-", "photopath": "https://raw.githubusercontent.com/MWS003-GIS/MWS003-GIS.github.io/main/IWWRMP/Data/EXD/200_photo/MWS_004_2/Thalathuoya_West/TW23.jpg" }, "geometry": { "type": "Point", "coordinates": [ 80.688963, 7.25119 ] } },
{ "type": "Feature", "properties": { "No": 55, "GND No.": 960, "Scheme": "Meekunuwala ela (1)", "N": 7.250681, "E": 80.688956, "Observation": "-", "Description": "Lined canal /good condition", "Amount (Rs.)": "-", "photopath": "https://raw.githubusercontent.com/MWS003-GIS/MWS003-GIS.github.io/main/IWWRMP/Data/EXD/200_photo/MWS_004_2/Thalathuoya_West/TW4.2.jpg" }, "geometry": { "type": "Point", "coordinates": [ 80.688956, 7.250681 ] } },
{ "type": "Feature", "properties": { "No": 56, "GND No.": 960, "Scheme": "Thalathuoya anicut", "N": 7.251509, "E": 80.690281, "Observation": "-", "Description": "Anicut planks are missing. Recommend providing 1.8sq.m anicut planks", "Amount (Rs.)": "20000", "photopath": "https://raw.githubusercontent.com/MWS003-GIS/MWS003-GIS.github.io/main/IWWRMP/Data/EXD/200_photo/MWS_004_2/Thalathuoya_West/TW5.jpg" }, "geometry": { "type": "Point", "coordinates": [ 80.690281, 7.251509 ] } },
{ "type": "Feature", "properties": { "No": 57, "GND No.": 957, "Scheme": "Welikada ela (500m)", "N": 7.26262, "E": 80.689728, "Observation": "-", "Description": "Conveyance loss is excessive due to canal blocks and seepage. Recommend to fully clean the canal and make 500m long reservation protection by 1.5m x 0.5m earth fill and edible plant growth on reservation slope with areca nut fence.", "Amount (Rs.)": "565250", "photopath": "https://raw.githubusercontent.com/MWS003-GIS/MWS003-GIS.github.io/main/IWWRMP/Data/EXD/200_photo/MWS_004_2/Pussathenna/PU9.jpg" }, "geometry": { "type": "Point", "coordinates": [ 80.689728, 7.26262 ] } },
{ "type": "Feature", "properties": { "No": 58, "GND No.": 959, "Scheme": "Thaniwatte canal", "N": 7.244562, "E": 80.678924, "Observation": "-", "Description": "Canal seepage. Recommend 120m long reservation protection by 1.5m x0.5 m earth fill and edible plant growth on slope and areca nut fence at the edge.", "Amount (Rs.)": "141000", "photopath": "https://raw.githubusercontent.com/MWS003-GIS/MWS003-GIS.github.io/main/IWWRMP/Data/EXD/200_photo/MWS_004_2/Batagalla/B9.jpg" }, "geometry": { "type": "Point", "coordinates": [ 80.678924, 7.244562 ] } },
{ "type": "Feature", "properties": { "No": 59, "GND No.": 959, "Scheme": "Thaniwatte canal", "N": 7.247775, "E": 80.678277, "Observation": "-", "Description": "-", "Amount (Rs.)": "-", "photopath": "https://raw.githubusercontent.com/MWS003-GIS/MWS003-GIS.github.io/main/IWWRMP/Data/EXD/200_photo/MWS_004_2/Batagalla/B10.jpg" }, "geometry": { "type": "Point", "coordinates": [ 80.678277, 7.247775 ] } },
{ "type": "Feature", "properties": { "No": 60, "GND No.": 959, "Scheme": "maaradhee ela", "N": 7.245109, "E": 80.677843, "Observation": "-", "Description": "Seepage and overflowing of 20m length of earthen canal of 280 m length section.", "Amount (Rs.)": "-", "photopath": "https://raw.githubusercontent.com/MWS003-GIS/MWS003-GIS.github.io/main/IWWRMP/Data/EXD/200_photo/MWS_004_2/Batagalla/B7.jpg" }, "geometry": { "type": "Point", "coordinates": [ 80.677843, 7.245109 ] } },
{ "type": "Feature", "properties": { "No": 61, "GND No.": 959, "Scheme": "Eloya anicut and stream", "N": 7.245674, "E": 80.677384, "Observation": "-", "Description": "Scouring and erosion of embankment about 1.5km in length", "Amount (Rs.)": "-", "photopath": "https://raw.githubusercontent.com/MWS003-GIS/MWS003-GIS.github.io/main/IWWRMP/Data/EXD/200_photo/MWS_004_2/Batagalla/B1.jpg" }, "geometry": { "type": "Point", "coordinates": [ 80.677384, 7.245674 ] } },
{ "type": "Feature", "properties": { "No": 62, "GND No.": 973, "Scheme": "Moragolla tank", "N": 7.225663, "E": 80.680318, "Observation": "-", "Description": "The public complains about seepage, percolation and low tank capacity. Recommend to 1. Demarcate a reservation, fencing, and enrich the vegetative cover of more than 1000 Sq.m. 2. Desilting or removal of excess soil deposit within the tank to be done after a broad investigation 3. If any excessive downstream seepage, an impervious blanket is to be provided after the study. 4. There is the potential to raise the bund level to increase the capacity. 5. Therefore, full investigation is recommended and only reforestation is considered at this stage.", "Amount (Rs.)": "333500", "photopath": "https://raw.githubusercontent.com/MWS003-GIS/MWS003-GIS.github.io/main/IWWRMP/Data/EXD/200_photo/MWS_004_2/Moragolla/MRG13.1.jpg" }, "geometry": { "type": "Point", "coordinates": [ 80.680318, 7.225663 ] } },
{ "type": "Feature", "properties": { "No": 63, "GND No.": 973, "Scheme": "Dug well inside the Moragolla tank", "N": 7.225482, "E": 80.679687, "Observation": "-", "Description": "Drinking water is sourced through the pipe system. Recommend removing silt deposit and cleaning the well and replastering to damages.", "Amount (Rs.)": "35000", "photopath": "https://raw.githubusercontent.com/MWS003-GIS/MWS003-GIS.github.io/main/IWWRMP/Data/EXD/200_photo/MWS_004_2/Moragolla/MRG13.jpg" }, "geometry": { "type": "Point", "coordinates": [ 80.679687, 7.225482 ] } },
{ "type": "Feature", "properties": { "No": 64, "GND No.": 973, "Scheme": "Embankment near Devalaya", "N": 7.228115, "E": 80.67553, "Observation": "-", "Description": "Canal Seepage and overtopping. Recommended construction of a concrete lining of 100mm thick, 0.3m wide and 0.3m high and 100m long canal.", "Amount (Rs.)": "664250", "photopath": "Not_Available" }, "geometry": { "type": "Point", "coordinates": [ 80.67553, 7.228115 ] } },
{ "type": "Feature", "properties": { "No": 65, "GND No.": 969, "Scheme": "Uda mahakumbura Anicut", "N": 7.231308, "E": 80.672677, "Observation": "-", "Description": "Low driving head of the anicut. Provide 0.9m high x1.8m wide anicut planks", "Amount (Rs.)": "12000", "photopath": "https://raw.githubusercontent.com/MWS003-GIS/MWS003-GIS.github.io/main/IWWRMP/Data/EXD/200_photo/MWS_004_2/Haputale_Udagama/u7.jpg" }, "geometry": { "type": "Point", "coordinates": [ 80.672677, 7.231308 ] } },
{ "type": "Feature", "properties": { "No": 66, "GND No.": 969, "Scheme": "Galpoththa anicut", "N": 7.231882, "E": 80.67312, "Observation": "-", "Description": "Cracks and leaks of anicut wall. Recommended to provide 100 thick concrete curtain for existing wall (3.6m (L) x 2.4m (H) )", "Amount (Rs.)": "41000", "photopath": "https://raw.githubusercontent.com/MWS003-GIS/MWS003-GIS.github.io/main/IWWRMP/Data/EXD/200_photo/MWS_004_2/Haputale_Udagama/U8.jpg" }, "geometry": { "type": "Point", "coordinates": [ 80.67312, 7.231882 ] } },
{ "type": "Feature", "properties": { "No": 67, "GND No.": 969, "Scheme": "Ehekatawela ela", "N": 7.232478, "E": 80.674502, "Observation": "-", "Description": "Seepage and overflowing the canal (600m). Recommend a construction of concrete linings of 200m long x 400mmx300mmx 100mm thick for three locations.", "Amount (Rs.)": "896500", "photopath": "https://raw.githubusercontent.com/MWS003-GIS/MWS003-GIS.github.io/main/IWWRMP/Data/EXD/200_photo/MWS_004_2/Haputale_Udagama/U9.jpg" }, "geometry": { "type": "Point", "coordinates": [ 80.674502, 7.232478 ] } },
{ "type": "Feature", "properties": { "No": 68, "GND No.": 969, "Scheme": "Mada Kumbura anicut", "N": 7.232568, "E": 80.680038, "Observation": "-", "Description": "Water leaks through anicut wall. Recommend providing 100 thick concrete curtains for existing wall (length 10m x height 2m). Including fixing 80 nos of 10mm Dia anchor bolts and nuts.", "Amount (Rs.)": "136000", "photopath": "https://raw.githubusercontent.com/MWS003-GIS/MWS003-GIS.github.io/main/IWWRMP/Data/EXD/200_photo/MWS_004_2/Haputale_Udagama/U15.jpg" }, "geometry": { "type": "Point", "coordinates": [ 80.680038, 7.232568 ] } },
{ "type": "Feature", "properties": { "No": 69, "GND No.": 972, "Scheme": "Godamunupitiya Anicut", "N": 7.236098, "E": 80.678553, "Observation": "-", "Description": "Anicut walls are damaged. No anicut planks. Recommended 1. Cleaning and concreting the anicut walls (1 Cu.m) 2. Concrete Curtain walls for the anicut (3 Cu.m) 3. Provide Anicut planks (1.5 sq.m)", "Amount (Rs.)": "192000", "photopath": "https://raw.githubusercontent.com/MWS003-GIS/MWS003-GIS.github.io/main/IWWRMP/Data/EXD/200_photo/MWS_004_2/Haputale_Egodagama/P30.jpg" }, "geometry": { "type": "Point", "coordinates": [ 80.678553, 7.236098 ] } },
{ "type": "Feature", "properties": { "No": 70, "GND No.": 972, "Scheme": "Hapugolla Pinum anatha section", "N": 7.235996, "E": 80.67395, "Observation": "-", "Description": "Embankment erosion (20m). Recommended 1. Canal protection by construction of 100mm thick, 0.3m wide and 0.3m high and 20m long canal lining. 2. Earth filling to form 100m long x 900 mm wide reservation and footpath.", "Amount (Rs.)": "222400", "photopath": "https://raw.githubusercontent.com/MWS003-GIS/MWS003-GIS.github.io/main/IWWRMP/Data/EXD/200_photo/MWS_004_2/Haputale_Egodagama/P19.jpg" }, "geometry": { "type": "Point", "coordinates": [ 80.67395, 7.235996 ] } },
{ "type": "Feature", "properties": { "No": 71, "GND No.": 972, "Scheme": "Godamunupitiya ela of Yatiwala anicut", "N": 7.235833, "E": 80.678866, "Observation": "-", "Description": "Excessive water leaks in the canal (about 100m). Recommend to form 100m long x1.5mx0.5m earth fill reservation with edible plant grown inside slopes.", "Amount (Rs.)": "89550", "photopath": "https://raw.githubusercontent.com/MWS003-GIS/MWS003-GIS.github.io/main/IWWRMP/Data/EXD/200_photo/MWS_004_2/Haputale_Egodagama/P34.jpg" }, "geometry": { "type": "Point", "coordinates": [ 80.678866, 7.235833 ] } },
{ "type": "Feature", "properties": { "No": 72, "GND No.": 972, "Scheme": "Baddekumbura anicut", "N": 7.237261, "E": 80.680758, "Observation": "-", "Description": "Excessive water leaks in the canal (about 300m). Recommend to form 200m long x1.5mx0.5m earth fill reservation with edible plant grown inside slopes.", "Amount (Rs.)": "179100", "photopath": "https://raw.githubusercontent.com/MWS003-GIS/MWS003-GIS.github.io/main/IWWRMP/Data/EXD/200_photo/MWS_004_2/Haputale_Egodagama/P46.jpg" }, "geometry": { "type": "Point", "coordinates": [ 80.680758, 7.237261 ] } },
{ "type": "Feature", "properties": { "No": 73, "GND No.": 972, "Scheme": "Denakumbura Anicut and Canal", "N": 7.236709, "E": 80.683104, "Observation": "7.236757, 80.683584", "Description": "1. Damaged anicut walls 2. Erosion of embankment. Recommend 1. Provide 100mm thick x9m long high curtain wall for anicut 2. 1. Canal protection by construction of 100mm thick, 0.3m wide and 0.3m high and 100m long canal lining. 2. Earth filling to form 900 mm wide reservation and footpath.", "Amount (Rs.)": "883400", "photopath": "https://raw.githubusercontent.com/MWS003-GIS/MWS003-GIS.github.io/main/IWWRMP/Data/EXD/200_photo/MWS_004_2/Haputale_Egodagama/P48.jpg" }, "geometry": { "type": "Point", "coordinates": [ 80.683104, 7.236709 ] } },
{ "type": "Feature", "properties": { "No": 74, "GND No.": 972, "Scheme": "Wathuliyadda Gedera anicut", "N": 7.236302, "E": 80.677759, "Observation": "-", "Description": "No cultivation in the absence of an anicut. Recommend 1. Construction of 8m long 1.2m height 700mm thick concrete anicut structure with two openings 2. Reforestation around the structure is about 80 sq.m with dense natural vegetation.", "Amount (Rs.)": "338000", "photopath": "https://raw.githubusercontent.com/MWS003-GIS/MWS003-GIS.github.io/main/IWWRMP/Data/EXD/200_photo/MWS_004_2/Haputale_Egodagama/P50.jpg" }, "geometry": { "type": "Point", "coordinates": [ 80.677759, 7.236302 ] } },
{ "type": "Feature", "properties": { "No": 75, "GND No.": 972, "Scheme": "Elamaldeniya ela", "N": 7.239062, "E": 80.676342, "Observation": "-", "Description": "1. Scouring canal bed heavily 2. Sediments deposit at a distance and can overflow into paddy fields. Farmers request concrete canals. Recommend 200m long reservation protection of 1.5mx0.5m earth fill, edible plant grown in slope, and areca nut fence at the edge of the reservation.", "Amount (Rs.)": "226100", "photopath": "https://raw.githubusercontent.com/MWS003-GIS/MWS003-GIS.github.io/main/IWWRMP/Data/EXD/200_photo/MWS_004_2/Haputale_Egodagama/P51.jpg" }, "geometry": { "type": "Point", "coordinates": [ 80.676342, 7.239062 ] } },
{ "type": "Feature", "properties": { "No": 76, "GND No.": 970, "Scheme": "Wew Kumbura anicut", "N": 7.231473, "E": 80.686433, "Observation": "-", "Description": "Unserviceable anicut. Recommend the construction of a 5m long x 2.5m high RCC anicut with two openings of 3 sq.m area", "Amount (Rs.)": "460000", "photopath": "https://raw.githubusercontent.com/MWS003-GIS/MWS003-GIS.github.io/main/IWWRMP/Data/EXD/200_photo/MWS_004_2/Haputale_Egodagama/P10.jpg" }, "geometry": { "type": "Point", "coordinates": [ 80.686433, 7.231473 ] } },
{ "type": "Feature", "properties": { "No": 77, "GND No.": 970, "Scheme": "Game Wela Ela", "N": 7.234698, "E": 80.682877, "Observation": "-", "Description": "Heavy seepage along the canal is about 50m in length. Recommend Construction of 300 mm x 300 mm x 100 mm thick x50m long concrete lining and earth-filled 0.9m wide reservation with turfing.", "Amount (Rs.)": "421675", "photopath": "https://raw.githubusercontent.com/MWS003-GIS/MWS003-GIS.github.io/main/IWWRMP/Data/EXD/200_photo/MWS_004_2/Haputale_Egodagama/P37.jpg" }, "geometry": { "type": "Point", "coordinates": [ 80.682877, 7.234698 ] } },
{ "type": "Feature", "properties": { "No": 78, "GND No.": 970, "Scheme": "Liyan Liyadda ela", "N": 7.233298, "E": 80.680315, "Observation": "-", "Description": "Seepage along the canal is about 150m in length. Recommend Construction of 300 mm x 300 mm x 100 mm thick x100m long concrete lining and 150m long earth-filled 1.5m widex0.5m reservation with turfing and side slopes with edible plants growth.", "Amount (Rs.)": "798575", "photopath": "https://raw.githubusercontent.com/MWS003-GIS/MWS003-GIS.github.io/main/IWWRMP/Data/EXD/200_photo/MWS_004_2/Haputale_Egodagama/P36.jpg" }, "geometry": { "type": "Point", "coordinates": [ 80.680315, 7.233298 ] } },
{ "type": "Feature", "properties": { "No": 79, "GND No.": 970, "Scheme": "Jambugaspela ela", "N": 7.233996, "E": 80.681403, "Observation": "-", "Description": "Embankment erosion and sediment deposits and deformed canal profile. Recommend 1. Earth filling to embankment to form 2m reservation and length about 300 m.\n2. Plant two rows of areca nut trees and mixed dense plantation of mee, Kumbuk, Godapara, Kekuna, etc. for 2m wide and 300m long reservation areas.", "Amount (Rs.)": "339150", "photopath": "https://raw.githubusercontent.com/MWS003-GIS/MWS003-GIS.github.io/main/IWWRMP/Data/EXD/200_photo/MWS_004_2/Haputale_Egodagama/P6.jpg" }, "geometry": { "type": "Point", "coordinates": [ 80.681403, 7.233996 ] } },
{ "type": "Feature", "properties": { "No": 80, "GND No.": 970, "Scheme": "Minumkubura ela", "N": 7.235604, "E": 80.684653, "Observation": "-", "Description": "Flooding paddy fields due to collapsing canal embankment. Recommend 1. Earth filling to embankment to form 3m reservation and length about 20 m. 2. Construction of 150mm Dia turnout structure for water issue., 3. Plant two rows of areca nut trees and mixed dense plantation of mee, Kumbuk, Godapara, Kekuna etc. for 2-3m wide and 20m long reservation areas.", "Amount (Rs.)": "82000", "photopath": "https://raw.githubusercontent.com/MWS003-GIS/MWS003-GIS.github.io/main/IWWRMP/Data/EXD/200_photo/MWS_004_2/Haputale_Egodagama/P38.jpg" }, "geometry": { "type": "Point", "coordinates": [ 80.684653, 7.235604 ] } }
]
}
