{"type":"FeatureCollection","name":"SR","crs":{"type":"name","properties":{"name":"urn:ogc:def:crs:OGC:1.3:CRS84"}},"features":[
{"type":"Feature","properties":{"No":1,"GND No.":971,"Scheme":"Udadampola","N":7.2422968,"E":80.6933494,"Observation":null,"Description":"Poor reservation, and boundary making. Recommend1.Earth filling to narrow tracks to form channel bund of 1 - 1.5m wide and length about 300 m.\n2. Protection by turfing sods with vetiver grass rows. Or\n3. Cultivate edible varieties such as Mukunuwenna, Gotukola, and Thampala along the incline.","Amount (Rs.)":261000,"photopath":"Not_Available"},"geometry":{"type":"Point","coordinates":[80.6933494,7.2422968]}},
{"type":"Feature","properties":{"No":2,"GND No.":968,"Scheme":"Pinnarawa stream (Okanda Ela)","N":7.239967,"E":80.6780236,"Observation":null,"Description":"Embankment erosion. Recommend 1. Public awareness 2. Creating a minimum reservation of about 1.5m in private land and planting a single row of areca nut trees and mixed dense plantation of Mee, Kumbuk, Godapara, Kekuna, etc. for 1.5m wide and 300m long reservation on both sides","Amount (Rs.)":339150,"photopath":"https://raw.githubusercontent.com/MWS003-GIS/MWS003-GIS.github.io/main/IWWRMP/Data/EXD/200_photo/MWS_004_2/Ethulgama_East/AE6.jpg"},"geometry":{"type":"Point","coordinates":[80.6780236,7.239967]}},
{"type":"Feature","properties":{"No":3,"GND No.":961,"Scheme":"Kivul Oya","N":7.24934,"E":80.689677,"Observation":null,"Description":"Embankment erosion. Recommend 1. Public awareness 2. Creating a minimum reservation of about 3m and plant a single row of areca nut trees and mixed dense plantation of Mee, Kumbuk, Godapara, Kekuna, etc. for 3m wide and 500m long reservation on both sides.","Amount (Rs.)":261000,"photopath":"https://raw.githubusercontent.com/MWS003-GIS/MWS003-GIS.github.io/main/IWWRMP/Data/EXD/200_photo/MWS_004_2/Thalathuoya_East/T5.jpg"},"geometry":{"type":"Point","coordinates":[80.689677,7.24934]}},
{"type":"Feature","properties":{"No":4,"GND No.":960,"Scheme":"Batagalla Bridge over Thalathu Oya","N":7.250588,"E":80.688861,"Observation":null,"Description":"Inundation of paddy fields. Recommend \n1. Construction of RCC retaining wall of 12m long and 1.2 m high\n2. reforesting with potential natural vegetation as described above for both sides over 1 km length and 3m wide strip","Amount (Rs.)":714600,"photopath":"https://raw.githubusercontent.com/MWS003-GIS/MWS003-GIS.github.io/main/IWWRMP/Data/EXD/200_photo/MWS_004_2/Thalathuoya_West/TW1.jpg"},"geometry":{"type":"Point","coordinates":[80.688861,7.250588]}},
{"type":"Feature","properties":{"No":5,"GND No.":986,"Scheme":"Kandura 1 100m","N":7.251364,"E":80.69423,"Observation":null,"Description":"Erosion due to surface runoff. Recommend excavating 1mx1m x100m long contour canal and side slopes are vegetated with riparian species and vetiver edging","Amount (Rs.)":25500,"photopath":"Not_Available"},"geometry":{"type":"Point","coordinates":[80.69423,7.251364]}},
{"type":"Feature","properties":{"No":6,"GND No.":986,"Scheme":"Kandura 2 100m","N":7.25203,"E":80.69912,"Observation":null,"Description":"Erosion due to surface runoff. Recommend excavating 1mx1m x100m long contour canal and side slopes are vegetated with riparian species and vetiver edging","Amount (Rs.)":25500,"photopath":"Not_Available"},"geometry":{"type":"Point","coordinates":[80.69912,7.25203]}},
{"type":"Feature","properties":{"No":7,"GND No.":986,"Scheme":"Kandura 3 500m","N":7.253377,"E":80.69936,"Observation":null,"Description":"Erosion due to surface runoff. Recommend excavating 1mx1m 500 m long contour canal and side slopes are vegetated with riparian species and vetiver edging","Amount (Rs.)":127500,"photopath":"Not_Available"},"geometry":{"type":"Point","coordinates":[80.69936,7.253377]}},
{"type":"Feature","properties":{"No":8,"GND No.":986,"Scheme":"Kandura 4 300m","N":7.252991,"E":80.70047,"Observation":null,"Description":"Erosion due to surface runoff. Recommend excavating 1mx1m 200 m long contour canal and side slopes are vegetated with riparian species and vetiver edging","Amount (Rs.)":76500,"photopath":"Not_Available"},"geometry":{"type":"Point","coordinates":[80.70047,7.252991]}},
{"type":"Feature","properties":{"No":9,"GND No.":986,"Scheme":"Kandura 5 200m","N":7.252596,"E":80.70123,"Observation":null,"Description":"Erosion due to surface runoff. Recommend excavating 1mx1m x300m long contour canal and side slopes are vegetated with riparian species and vetiver edging","Amount (Rs.)":51000,"photopath":"Not_Available"},"geometry":{"type":"Point","coordinates":[80.70123,7.252596]}},
{"type":"Feature","properties":{"No":10,"GND No.":986,"Scheme":"Kandura 6 100m","N":7.252957,"E":80.70227,"Observation":null,"Description":"Erosion due to surface runoff. Recommend excavating 1mx1m x100m long contour canal and side slopes are vegetated with riparian species and vetiver edging","Amount (Rs.)":25500,"photopath":"Not_Available"},"geometry":{"type":"Point","coordinates":[80.70227,7.252957]}},
{"type":"Feature","properties":{"No":11,"GND No.":986,"Scheme":"Kandura 7 100m","N":7.25264,"E":80.7026,"Observation":null,"Description":"Erosion due to surface runoff. Recommend excavating 1mx1m x100m long contour canal and side slopes are vegetated with riparian species and vetiver edging","Amount (Rs.)":25500,"photopath":"Not_Available"},"geometry":{"type":"Point","coordinates":[80.7026,7.25264]}},
{"type":"Feature","properties":{"No":12,"GND No.":957,"Scheme":"Ath kandura (Meraluwaka)","N":7.258224,"E":80.697539,"Observation":null,"Description":"Embankment erosion and prone to collapse. Recommended constructing an RCC retaining wall of 1.5m height x 20m long and backfilling.","Amount (Rs.)":865000,"photopath":"https://raw.githubusercontent.com/MWS003-GIS/MWS003-GIS.github.io/main/IWWRMP/Data/EXD/200_photo/MWS_004_2/Pussathenna/PU11.jpg"},"geometry":{"type":"Point","coordinates":[80.697539,7.258224]}},
{"type":"Feature","properties":{"No":13,"GND No.":959,"Scheme":"Thaniwatte kandura 1","N":7.243992,"E":80.688951,"Observation":null,"Description":"Embankment erosion along 1.9km length. Recommend to 1. Public awareness 2. Creating a single row of areca nut trees and mixed dense plantation of Mee, Kumbuk, Godapara, Kekuna, etc. for a 3m wide and about 1.9km long reservation on both sides","Amount (Rs.)":545000,"photopath":"https://raw.githubusercontent.com/MWS003-GIS/MWS003-GIS.github.io/main/IWWRMP/Data/EXD/200_photo/MWS_004_2/Batagalla/B11.jpg"},"geometry":{"type":"Point","coordinates":[80.688951,7.243992]}},
{"type":"Feature","properties":{"No":14,"GND No.":959,"Scheme":"Thaniwatte kandura 2","N":7.245823,"E":80.677961,"Observation":null,"Description":"Embankment erosion along 1.2km length. Recommend to 1. Public awareness 2. Creating a single row of areca nut trees and mixed dense plantation of Mee, Kumbuk, Godapara, Kekuna, etc. for a 3m wide and about 1.9km long reservation on both sides","Amount (Rs.)":344000,"photopath":"https://raw.githubusercontent.com/MWS003-GIS/MWS003-GIS.github.io/main/IWWRMP/Data/EXD/200_photo/MWS_004_2/Batagalla/B13.jpg"},"geometry":{"type":"Point","coordinates":[80.677961,7.245823]}},
{"type":"Feature","properties":{"No":15,"GND No.":973,"Scheme":"Aswedduma iwuru ela 1.9km","N":7.230672,"E":80.680146,"Observation":null,"Description":"Embankment erosion along 1.9km length. Recommend to 1. Public awareness 2. Creating a single row of areca nut trees and mixed dense plantation of Mee, Kumbuk, Godapara, Kekuna, etc. for a 3m wide and about 1.9km long reservation on both sides","Amount (Rs.)":545000,"photopath":"https://raw.githubusercontent.com/MWS003-GIS/MWS003-GIS.github.io/main/IWWRMP/Data/EXD/200_photo/MWS_004_2/Moragolla/MRG5.jpg"},"geometry":{"type":"Point","coordinates":[80.680146,7.230672]}},
{"type":"Feature","properties":{"No":16,"GND No.":973,"Scheme":"Letiyagolla lower or Ranhotikanda - 300m","N":7.227117,"E":80.679001,"Observation":null,"Description":"Embankment erosion along 300m length. Recommend to 1. Public awareness 2. Creating a single row of areca nut trees and mixed dense plantation of Mee, Kumbuk, Godapara, Kekuna, etc. for 3m wide and about 300m long reservation on both sides","Amount (Rs.)":172000,"photopath":"Not_Available"},"geometry":{"type":"Point","coordinates":[80.679001,7.227117]}},
{"type":"Feature","properties":{"No":17,"GND No.":973,"Scheme":"Letiyagolla upper stream - 300m","N":7.225246,"E":80.678541,"Observation":null,"Description":"Embankment erosion along 300m length. Recommend to 1. Public awareness 2. Creating a single row of areca nut trees and mixed dense plantation of Mee, Kumbuk, Godapara, Kekuna, etc. for 3m wide and about 300m long reservation on both sides","Amount (Rs.)":172000,"photopath":"Not_Available"},"geometry":{"type":"Point","coordinates":[80.678541,7.225246]}},
{"type":"Feature","properties":{"No":18,"GND No.":973,"Scheme":"Stream near the kovil 2km","N":7.2283004,"E":80.6759034,"Observation":null,"Description":"Embankment erosion along 2km length. Recommend to 1. Public awareness 2. Acquiring 5m reservation 3. Creating a single row of areca nut trees and mixed dense plantation of Mee, Kumbuk, Godapara, Kekuna, etc. for a 3m wide and about 2km long reservation on both sides 4. Construction of garbage traps 2 nos","Amount (Rs.)":967000,"photopath":"Not_Available"},"geometry":{"type":"Point","coordinates":[80.6759034,7.2283004]}},
{"type":"Feature","properties":{"No":19,"GND No.":969,"Scheme":"Ambalammana Wewe stream 1000","N":7.229167,"E":80.675423,"Observation":null,"Description":"Embankment erosion along 1km length. Recommend to 1. Public awareness 2. Acquiring 3m reservation 3. Creating a single row of areca nut trees and mixed dense plantation of Mee, Kumbuk, Godapara, Kekuna, etc. for 3m wide and about 1km long reservation on both sides 4. Construction of Contour canals and connecting to drainage canals 5. Protection by turfing sods with vetiver grass rows or cultivating edible varieties such as Mukunuwenna, Gotukola, and Thampala along the incline for the benefit of the public.","Amount (Rs.)":461500,"photopath":"https://raw.githubusercontent.com/MWS003-GIS/MWS003-GIS.github.io/main/IWWRMP/Data/EXD/200_photo/MWS_004_2/Haputhale_Udagama/U1.jpg"},"geometry":{"type":"Point","coordinates":[80.675423,7.229167]}},
{"type":"Feature","properties":{"No":20,"GND No.":969,"Scheme":"Batagolla stream 500","N":7.230083,"E":80.671663,"Observation":null,"Description":"Embankment erosion along 500m length. Recommend to 1. Public awareness 2. Acquiring 3m reservation 3. Creating a single row of areca nut trees and mixed dense plantation of Mee, Kumbuk, Godapara, Kekuna, etc. for 3m wide and about 1km long reservation on both sides 4. Construction of Contour canals and connecting to drainage canals 5. Protection by turfing sods with vetiver grass rows or cultivating edible varieties such as Mukunuwenna, Gotukola, and Thampala along the incline for the benefit of the public.","Amount (Rs.)":318000,"photopath":"Not_Available"},"geometry":{"type":"Point","coordinates":[80.671663,7.230083]}},
{"type":"Feature","properties":{"No":21,"GND No.":969,"Scheme":"Galpoththa Stream 1100","N":7.23408,"E":80.6776,"Observation":null,"Description":"Embankment erosion along 900m length. Recommend to 1. Public awareness 2. Acquiring 3m reservation 3. Creating a single row of areca nut trees and mixed dense plantation of Mee, Kumbuk, Godapara, Kekuna, etc. for a 3m wide and about 1km long reservation on both sides 4. Construction of Contour canals and connecting to drainage canals 5. Protection by turfing sods with vetiver grass rows or cultivating edible varieties such as Mukunuwenna, Gotukola, and Thampala along the incline for the benefit of the public.","Amount (Rs.)":433000,"photopath":"Not_Available"},"geometry":{"type":"Point","coordinates":[80.6776,7.23408]}},
{"type":"Feature","properties":{"No":22,"GND No.":970,"Scheme":"Konara Kumbura","N":7.234346,"E":80.6886,"Observation":null,"Description":"Damaged retaining wall and canal leaks. Recommended the Construction of 20 m long x 125mm thick 500 mm high 500 mm wide single banking canal lining and earth filling to form 900mm reservation","Amount (Rs.)":855000,"photopath":"https://raw.githubusercontent.com/MWS003-GIS/MWS003-GIS.github.io/main/IWWRMP/Data/EXD/200_photo/MWS_004_2/Haputhale_Pallegama/P04.jpg"},"geometry":{"type":"Point","coordinates":[80.6886,7.234346]}},
{"type":"Feature","properties":{"No":23,"GND No.":970,"Scheme":"Jambugaspela ela","N":7.233013,"E":80.686923,"Observation":null,"Description":"Erosion and sedimentation. Recommended 1. Construction of contour canals 2. Creating a single row of areca nut trees and mixed dense plantation of Mee, Kumbuk, Godapara, Kekuna, etc. for 3m wide and about 200m long reservation on both sides.","Amount (Rs.)":114500,"photopath":"https://raw.githubusercontent.com/MWS003-GIS/MWS003-GIS.github.io/main/IWWRMP/Data/EXD/200_photo/MWS_004_2/Haputhale_Pallegama/P07.jpg"},"geometry":{"type":"Point","coordinates":[80.686923,7.233013]}},
{"type":"Feature","properties":{"No":24,"GND No.":970,"Scheme":"Ihalawathagama stream","N":7.233153,"E":80.684747,"Observation":null,"Description":"Erosion and sedimentation. Recommended 1. Construction of contour canals 2. Creating a single row of areca nut trees and mixed dense plantation of Mee, Kumbuk, Godapara, Kekuna, etc. for 3m wide and about 400m long reservation on both sides.","Amount (Rs.)":229000,"photopath":"https://raw.githubusercontent.com/MWS003-GIS/MWS003-GIS.github.io/main/IWWRMP/Data/EXD/200_photo/MWS_004_2/Haputhale_Pallegama/P34.jpg"},"geometry":{"type":"Point","coordinates":[80.684747,7.233153]}}
]}