{"type":"FeatureCollection","name":"WP","crs":{"type":"name","properties":{"name":"urn:ogc:def:crs:OGC:1.3:CRS84"}},"features":[
{"type":"Feature","properties":{"No.":1,"GND No.":968,"GN Division":"Ethulgama East","Non-point sources of pollution":"Addition of houshold waste, polythese etc. to Ambalanmana Pihili 7 Water Source","N":7.226905,"E":80.669582,"Point sources of pollution":"-","Add. N ":"-","Add. E ":"-","Recommended water quality improvement measures":"Awareness programmes\nCleaning with sharamadana programmesRegularizing waste collection","Unit Cost (Rs.)":"-","Total Cost (Rs.)":"50000\n\n100000","Contributions (Local Community, LA, Project)":"Labour and other basic services by the Local community\nLocal/Central governments ","Time frame for the implementation":"0.5 Years\n0.25 Years\n0.5 Years","photopath":"Not_Available"},"geometry":{"type":"Point","coordinates":[80.669582,7.226905]}},
{"type":"Feature","properties":{"No.":2,"GND No.":968,"GN Division":"Ethulgama East","Non-point sources of pollution":"Addition of agrochemicals and animal waste/excreta to Hinguranarawa Water Source","N":7.241314,"E":80.673395,"Point sources of pollution":"-","Add. N ":"-","Add. E ":"-","Recommended water quality improvement measures":"Awareness programmes\nEstablishment of water tank for storing water (10,000 L)\nRegular water quality analysis - 3 samples, every six months\nEstablishing a protective fence","Unit Cost (Rs.)":"25000","Total Cost (Rs.)":"50000\n500000\n450000\n100000","Contributions (Local Community, LA, Project)":"Labour and other basic services by the Local community","Time frame for the implementation":"0.5 Years\n0.25 Years\n3 Years\n0.25 Years","photopath":"https://raw.githubusercontent.com/MWS003-GIS/MWS003-GIS.github.io/main/IWWRMP/Data/EXD/200_photo/MWS_004_2/Ethulgama_East/AE27.jpg"},"geometry":{"type":"Point","coordinates":[80.673395,7.241314]}},
{"type":"Feature","properties":{"No.":3,"GND No.":961,"GN Division":"Thalathuoya East","Non-point sources of pollution":"Thalathuoya East - Household waste, Narankaduwa","N":7.244735,"E":80.689777,"Point sources of pollution":"-","Add. N ":"-","Add. E ":"-","Recommended water quality improvement measures":"Awareness programmes\nCleaning by Shramadana programmes","Unit Cost (Rs.)":"-","Total Cost (Rs.)":"50,000.00","Contributions (Local Community, LA, Project)":"Labour and other basic services by the Local community\n","Time frame for the implementation":"0.5 Years","photopath":"https://raw.githubusercontent.com/MWS003-GIS/MWS003-GIS.github.io/main/IWWRMP/Data/EXD/200_photo/MWS_004_2/Thalathuoya_East/T10.jpg"},"geometry":{"type":"Point","coordinates":[80.689777,7.244735]}},
{"type":"Feature","properties":{"No.":4,"GND No.":960,"GN Division":"Thalathuoya West","Non-point sources of pollution":"Addition of household waste and human excreata to Thalathuoya Anicut","N":7.251949,"E":80.69035,"Point sources of pollution":"-","Add. N ":"-","Add. E ":"-","Recommended water quality improvement measures":"Awareness programmes","Unit Cost (Rs.)":"-","Total Cost (Rs.)":"50,000.00","Contributions (Local Community, LA, Project)":"Labour and other basic services by the Local community","Time frame for the implementation":"0.5 Years","photopath":"https://raw.githubusercontent.com/MWS003-GIS/MWS003-GIS.github.io/main/IWWRMP/Data/EXD/200_photo/MWS_004_2/Thalathuoya_West/TW11.jpg"},"geometry":{"type":"Point","coordinates":[80.69035,7.251949]}},
{"type":"Feature","properties":{"No.":5,"GND No.":960,"GN Division":"Thalathuoya West","Non-point sources of pollution":"-","N":7.250978,"E":80.690496,"Point sources of pollution":"-","Add. N ":"-","Add. E ":"-","Recommended water quality improvement measures":"Sharamadana Programmes","Unit Cost (Rs.)":"-","Total Cost (Rs.)":"-","Contributions (Local Community, LA, Project)":"-","Time frame for the implementation":"-","photopath":"https://raw.githubusercontent.com/MWS003-GIS/MWS003-GIS.github.io/main/IWWRMP/Data/EXD/200_photo/MWS_004_2/Thalathuoya_West/TW11.1.jpg"},"geometry":{"type":"Point","coordinates":[80.690496,7.250978]}},
{"type":"Feature","properties":{"No.":6,"GND No.":960,"GN Division":"Thalathuoya West","Non-point sources of pollution":"-","N":7.253075,"E":80.689999,"Point sources of pollution":"-","Add. N ":"-","Add. E ":"-","Recommended water quality improvement measures":"Removing toliet outlets that have been directed to the river directly","Unit Cost (Rs.)":"-","Total Cost (Rs.)":"-","Contributions (Local Community, LA, Project)":"-","Time frame for the implementation":"-","photopath":"https://raw.githubusercontent.com/MWS003-GIS/MWS003-GIS.github.io/main/IWWRMP/Data/EXD/200_photo/MWS_004_2/Thalathuoya_West/TW12.jpg"},"geometry":{"type":"Point","coordinates":[80.689999,7.253075]}},
{"type":"Feature","properties":{"No.":7,"GND No.":970,"GN Division":"Haputhale Pallegama","Non-point sources of pollution":"Accumulation of household waste improperly - Ihalawathagama","N":7.233013,"E":80.686923,"Point sources of pollution":"-","Add. N ":"-","Add. E ":"-","Recommended water quality improvement measures":"Awareness programmes (compost making/biogas production etc.)","Unit Cost (Rs.)":"-","Total Cost (Rs.)":"50,000.00","Contributions (Local Community, LA, Project)":"Local Government","Time frame for the implementation":"0.5 Years","photopath":"https://raw.githubusercontent.com/MWS003-GIS/MWS003-GIS.github.io/main/IWWRMP/Data/EXD/200_photo/MWS_004_2/Haputhale_Pallegama/P7.jpg"},"geometry":{"type":"Point","coordinates":[80.686923,7.233013]}},
{"type":"Feature","properties":{"No.":8,"GND No.":971,"GN Division":"Ankelipitiya","Non-point sources of pollution":"Accumulation of household waste improperly - Ankelipitiya","N":7.237773,"E":80.688442,"Point sources of pollution":"-","Add. N ":"-","Add. E ":"-","Recommended water quality improvement measures":"Awareness programmes (compost making/biogas production etc.)","Unit Cost (Rs.)":"-","Total Cost (Rs.)":"50,000.00","Contributions (Local Community, LA, Project)":"Local Government","Time frame for the implementation":"0.5 Years","photopath":"https://raw.githubusercontent.com/MWS003-GIS/MWS003-GIS.github.io/main/IWWRMP/Data/EXD/200_photo/MWS_004_2/Ankelipitiya/A2.jpg"},"geometry":{"type":"Point","coordinates":[80.688442,7.237773]}},
{"type":"Feature","properties":{"No.":9,"GND No.":973,"GN Division":"Moragolla","Non-point sources of pollution":"Accumulation of household waste including plastic and polythene - Latiyagolla Kandura","N":7.227117,"E":80.679001,"Point sources of pollution":"-","Add. N ":"-","Add. E ":"-","Recommended water quality improvement measures":"Awareness programmes on proper disposal\nSetting a net for colllecting waste","Unit Cost (Rs.)":"-","Total Cost (Rs.)":"50000\n100000","Contributions (Local Community, LA, Project)":"Local Government","Time frame for the implementation":"0.5 Years","photopath":"Not_Available"},"geometry":{"type":"Point","coordinates":[80.679001,7.227117]}},
{"type":"Feature","properties":{"No.":10,"GND No.":973,"GN Division":"Moragolla","Non-point sources of pollution":"Accumulation of household waste including plastic and polythene","N":7.230485,"E":80.680385,"Point sources of pollution":"-","Add. N ":"-","Add. E ":"-","Recommended water quality improvement measures":"Awareness programmes on proper disposal","Unit Cost (Rs.)":"-","Total Cost (Rs.)":"-","Contributions (Local Community, LA, Project)":"Local Government","Time frame for the implementation":"0.5 Years","photopath":"Not_Available"},"geometry":{"type":"Point","coordinates":[80.680385,7.230485]}},
{"type":"Feature","properties":{"No.":11,"GND No.":972,"GN Division":"Haputhale Egodagama","Non-point sources of pollution":"Adding the waste of the cattle shed to the natural drain near Y.G. Sirisena","N":7.236585,"E":80.673947,"Point sources of pollution":"-","Add. N ":"-","Add. E ":"-","Recommended water quality improvement measures":"Awareness programmes on proper disposal","Unit Cost (Rs.)":"-","Total Cost (Rs.)":"50,000.00","Contributions (Local Community, LA, Project)":"Local Government","Time frame for the implementation":"0.5 Years","photopath":"https://raw.githubusercontent.com/MWS003-GIS/MWS003-GIS.github.io/main/IWWRMP/Data/EXD/200_photo/MWS_004_2/Haputhale_Pallegama/P16.jpg"},"geometry":{"type":"Point","coordinates":[80.673947,7.236585]}},
{"type":"Feature","properties":{"No.":12,"GND No.":958,"GN Division":"Hippala","Non-point sources of pollution":"Addition of agrochemicals to the well - Hippala","N":7.249771,"E":80.685353,"Point sources of pollution":"-","Add. N ":"-","Add. E ":"-","Recommended water quality improvement measures":"Awareness programmes on proper disposal\nReservation of forest (3 perches) around the wall","Unit Cost (Rs.)":"-","Total Cost (Rs.)":"50,000.00","Contributions (Local Community, LA, Project)":"Local Government","Time frame for the implementation":"0.5 Years","photopath":"https://raw.githubusercontent.com/MWS003-GIS/MWS003-GIS.github.io/main/IWWRMP/Data/EXD/200_photo/MWS_004_2/Hippala/H10.jpg"},"geometry":{"type":"Point","coordinates":[80.685353,7.249771]}}
]}