{
"type": "FeatureCollection",
"name": "SR",
"crs": { "type": "name", "properties": { "name": "urn:ogc:def:crs:OGC:1.3:CRS84" } },
"features": [
{ "type": "Feature", "properties": { "No": 7, "GND No.": "475W", "Scheme": "Kirimetiya river", "N": 6.934958, "E": 80.71779, "Observation": "There are large trees at some places on both sides of the bank. But banks are eroded. Too much water flows in rainy season. In some places, small amounts of garbage have been dumped into streams, and in some places, reserved lands are being misused", "Description": "Paving available stone in the river banks and Planting trees\n\nDry rubble packing (with locally found rubble, size over 225mm )-Along the river banks\n\nVegetative cover improving around the river bank with Areca nut seedling in 1.5m x 1.5m grid, Kumbuk/ Me", "Amount (Rs.)": 1255100, "photopath": "https://raw.githubusercontent.com/MWS003-GIS/MWS003-GIS.github.io/main/IWWRMP/Data/EXD/200_photo/MWS_159_1/Streams - Kirimetiya River.jpg" }, "geometry": { "type": "Point", "coordinates": [ 80.71779, 6.934958 ] } }
]
}
