{
"type": "FeatureCollection",
"name": "WSP",
"crs": { "type": "name", "properties": { "name": "urn:ogc:def:crs:OGC:1.3:CRS84" } },
"features": [
{ "type": "Feature", "properties": { "No": 10, "GND No.": 738, "Name of the Tank": "Knuckles resever Kuunisgala Mukalana water spring", "N": 7.391233, "E": 80.781306, "Observations": "Not enough storage tank capasity.Pipe lines has damaged and rust is developed in all pipes that cause contamination of water with rust particles. No water filter to purify water.", "Description": "Constuct a water storage Tank (3.0m x 3.0m x 1.0m) and Filtration System \nSite  preparation  &  setting  out\nPlywood formwork including making, fixing & removing for structure  -05 uses\nCutting, Bending & Placing Tor steel reinforcement bars\n1:2:4 concrete with concrete mixer  (volume batching)\nPlastering 12mm  thick  in  1:3  cement  and  sand   finished  smooth  with  gray  cement  floating\nFabricating  &  fixing  security  weld  mesh  in  open type  buildings  in  GI  weld  mesh  50mm  x  50mmSWG  10,  welded  on  40mm  x  40mm  x  5mm   angle  frame  complete  with  application  of  two coats  enamel  paint  over  two  coats  of   anticorrosive  paint  and  complete. All  as  per  detail  drawing   No.CPC/CS/11/04/2017/TYPE -ST/07\nSupplying and laying Pipes PVC with specials, size 50mm dia.Type 600.(PNT 7)\nInstall a filtration unit\nTidying up\nContingencies (10%)\n", "Amount": 1559800, "photopath": "https://raw.githubusercontent.com/MWS003-GIS/MWS003-GIS.github.io/main/IWWRMP/Data/EXD/200_photo/MWS_098/Knuckles resever Kuunisgala Mukalana water spring_1.jpg" }, "geometry": { "type": "Point", "coordinates": [ 80.781306, 7.391233 ] } },
{ "type": "Feature", "properties": { "No": 11, "GND No.": 738, "Name of the Tank": "Sithala Pihilla water spring", "N": 7.392604, "E": 80.778426, "Observations": "Not enough storage tank capasity.Pipe lines has damaged and current pipe line is a PVC pipe line.", "Description": "Construct a water storage Tank (3.0m x 3.0m x 1.0m) \nSite  preparation  &  setting  out\nPlywood formwork including making, fixing & removing for structure  -05 uses\nCutting, Bending & Placing Tor steel reinforcement bars\n1:2:4 concrete with concrete mixer  (volume batching)\nPlastering 12mm  thick  in  1:3  cement  and  sand   finished  smooth  with  gray  cement  floating\nFabricating  &  fixing  security  welded  mesh  in  open type  buildings  in  GI  weld  mesh  50mm  x  50mmSWG  10,  welded  on  40mm  x  40mm  x  5mm   angle  frame  complete  with  application  of  two coats  enamel  paint  over  two  coats  of   anticorrosive  paint  and  complete. All  as  per  detail  drawing   No.CPC/CS/11/04/2017/TYPE -ST/07\nSupplying and laying Pipes PVC with specials, size 50mm dia.Type 600.(PNT 7)\nTidying up\nContingencies (10%)\n\n", "Amount": 1105500, "photopath": "https://raw.githubusercontent.com/MWS003-GIS/MWS003-GIS.github.io/main/IWWRMP/Data/EXD/200_photo/MWS_098/Sithala Pihilla water spring.jpg" }, "geometry": { "type": "Point", "coordinates": [ 80.778426, 7.392604 ] } }
]
}
