{"type":"FeatureCollection","name":"WP","crs":{"type":"name","properties":{"name":"urn:ogc:def:crs:OGC:1.3:CRS84"}},"features":[
{"type":"Feature","properties":{"No.":2,"GND No.":1148,"GN Division":"Pambadeniya","Non-point sources of pollution":"Potential to add human waste","N":7.154393,"E":80.6265076,"Point sources of pollution":"1","Add. N ":"-","Add. E ":"-","Recommended water quality improvement measures":"-","Unit Cost (Rs.)":"-","Total Cost (Rs.)":"-","Contributions (Local Community, LA, Project)":"-","Time frame for the implementation":"-","photopath":"Not_Available"},"geometry":{"type":"Point","coordinates":[80.6265076,7.154393]}},
{"type":"Feature","properties":{"No.":1,"GND No.":1173,"GN Division":"Millagahamula","Non-point sources of pollution":"Improper disposal of domestic waste","N":7.1510574,"E":80.61519,"Point sources of pollution":"-","Add. N ":"-","Add. E ":"-","Recommended water quality improvement measures":"Preparing a separate place in homegardens for disposing houshold waste\nAwareness programme on how to disposal household waste properly and converting them to usable products such as compost\nFacilitating garbage collection","Unit Cost (Rs.)":"-","Total Cost (Rs.)":"50,000","Contributions (Local Community, LA, Project)":"Local/Central governments","Time frame for the implementation":"0.5 Years","photopath":"Not_Available"},"geometry":{"type":"Point","coordinates":[80.61519,7.1510574]}},
{"type":"Feature","properties":{"No.":6,"GND No.":1181,"GN Division":"Pupuressa","Non-point sources of pollution":"Potential to add human waste - Starlandburg Estate","N":7.1215595,"E":80.6831096,"Point sources of pollution":"-","Add. N ":"-","Add. E ":"-","Recommended water quality improvement measures":"-","Unit Cost (Rs.)":"-","Total Cost (Rs.)":"-","Contributions (Local Community, LA, Project)":"-","Time frame for the implementation":"-","photopath":"https://raw.githubusercontent.com/MWS003-GIS/MWS003-GIS.github.io/main/IWWRMP/Data/EXD/200_photo/MWS_124_2/Poor_Waste_Management (2).jpg"},"geometry":{"type":"Point","coordinates":[80.6831096,7.1215595]}},
{"type":"Feature","properties":{"No.":7,"GND No.":1181,"GN Division":"Pupuressa","Non-point sources of pollution":"Potential to add human waste - Pupuressa Tamil School","N":7.1215595,"E":80.6831096,"Point sources of pollution":"-","Add. N ":"-","Add. E ":"-","Recommended water quality improvement measures":"-","Unit Cost (Rs.)":"-","Total Cost (Rs.)":"-","Contributions (Local Community, LA, Project)":"-","Time frame for the implementation":"-","photopath":"https://raw.githubusercontent.com/MWS003-GIS/MWS003-GIS.github.io/main/IWWRMP/Data/EXD/200_photo/MWS_124_2/Poor_Waste_Management (3).jpg"},"geometry":{"type":"Point","coordinates":[80.6831096,7.1215595]}},
{"type":"Feature","properties":{"No.":8,"GND No.":1181,"GN Division":"Pupuressa","Non-point sources of pollution":"Potential to add human waste - Pupuressa Upper Division","N":7.1215595,"E":80.6831096,"Point sources of pollution":"-","Add. N ":"-","Add. E ":"-","Recommended water quality improvement measures":"-","Unit Cost (Rs.)":"-","Total Cost (Rs.)":"-","Contributions (Local Community, LA, Project)":"-","Time frame for the implementation":"-","photopath":"https://raw.githubusercontent.com/MWS003-GIS/MWS003-GIS.github.io/main/IWWRMP/Data/EXD/200_photo/MWS_124_2/Poor_Waste_Management (4).jpg"},"geometry":{"type":"Point","coordinates":[80.6831096,7.1215595]}},
{"type":"Feature","properties":{"No.":9,"GND No.":1181,"GN Division":"Pupuressa","Non-point sources of pollution":"Improper disposal of domestic waste","N":7.1215595,"E":80.6831096,"Point sources of pollution":"-","Add. N ":"-","Add. E ":"-","Recommended water quality improvement measures":"Preparing a separate place in homegardens for disposing houshold waste\nAwareness programme on how to disposal household waste properly and converting them to usable products such as compost\nFacilitating garbage collection","Unit Cost (Rs.)":"-","Total Cost (Rs.)":"50,000","Contributions (Local Community, LA, Project)":"Local/Central governments","Time frame for the implementation":"0.5 Years","photopath":"https://raw.githubusercontent.com/MWS003-GIS/MWS003-GIS.github.io/main/IWWRMP/Data/EXD/200_photo/MWS_124_2/Poor_Waste_Management.jpg"},"geometry":{"type":"Point","coordinates":[80.6831096,7.1215595]}},
{"type":"Feature","properties":{"No.":3,"GND No.":1182,"GN Division":"Rajathalawa","Non-point sources of pollution":"Potential to add human waste - Rajathalawa","N":7.1414349,"E":80.649444,"Point sources of pollution":"1","Add. N ":"-","Add. E ":"-","Recommended water quality improvement measures":"-","Unit Cost (Rs.)":"-","Total Cost (Rs.)":"-","Contributions (Local Community, LA, Project)":"-","Time frame for the implementation":"-","photopath":"Not_Available"},"geometry":{"type":"Point","coordinates":[80.649444,7.1414349]}},
{"type":"Feature","properties":{"No.":4,"GND No.":1182,"GN Division":"Rajathalawa","Non-point sources of pollution":"Potential to add human waste - Bomant Estate","N":7.1414349,"E":80.649444,"Point sources of pollution":"1","Add. N ":"-","Add. E ":"-","Recommended water quality improvement measures":"-","Unit Cost (Rs.)":"-","Total Cost (Rs.)":"-","Contributions (Local Community, LA, Project)":"-","Time frame for the implementation":"-","photopath":"Not_Available"},"geometry":{"type":"Point","coordinates":[80.649444,7.1414349]}},
{"type":"Feature","properties":{"No.":5,"GND No.":1182,"GN Division":"Rajathalawa","Non-point sources of pollution":"Improper disposal of domestic waste","N":7.1414349,"E":80.649444,"Point sources of pollution":"-","Add. N ":"-","Add. E ":"-","Recommended water quality improvement measures":"Preparing a separate place in homegardens for disposing houshold waste\nAwareness programme on how to disposal household waste properly and converting them to usable products such as compost.\nFacilitating garbage collection","Unit Cost (Rs.)":"-","Total Cost (Rs.)":"50,000","Contributions (Local Community, LA, Project)":"Local/Central governments","Time frame for the implementation":"0.5 Years","photopath":"Not_Available"},"geometry":{"type":"Point","coordinates":[80.649444,7.1414349]}}
]}