{"type":"FeatureCollection","name":"MI","crs":{"type":"name","properties":{"name":"urn:ogc:def:crs:OGC:1.3:CRS84"}},"features":[
{"type":"Feature","properties":{"No":1,"GND No.":"62B","Scheme":"Naya Arawa canal","N":6.835828,"E":80.882374,"Observation":"Existing Earthen canal,  some places Constructed of rectangular concrete lining(600mm x 600mm)   Water from this canal is used to grow paddy on an area of about 25 acres.","Description":"Canal lining and protection including EW & tree planting\n\nCanal reservation protection by concrete lining  For  100 mm thick , 300 mm  wide  and 300 mm high canal -double banking\n\nStream / canal  reservation protection by earth filling of  strip   of 1.5","Amount (Rs.)":561000,"photopath":"https://raw.githubusercontent.com/MWS003-GIS/MWS003-GIS.github.io/main/IWWRMP/Data/EXD/200_photo/MWS_053/Nayaarawa anicut.jpg"},"geometry":{"type":"Point","coordinates":[80.882374,6.835828]}},
{"type":"Feature","properties":{"No":2,"GND No.":"62B","Scheme":"Epalagolla canal","N":6.831384,"E":80.890891,"Observation":"Existing Earthen canal,  some places Constructed of rectangular concrete lining(600mm x 600mm)   Water from this canal is used to grow paddy on an area of about 30 acres. About 8 m of the canal has been eroded since the beginning of place .there are 450m","Description":"Construction of 8 m long Trough (with 0.30m x 0.30m section), 03 nos of piers (1.50 m total height)\n\nRemoval of the existing broken pipe line\n\nSite preparation & setting out\n\nEarth excavation for foundation or quarry materials and haul the surplus materi","Amount (Rs.)":231000,"photopath":"https://raw.githubusercontent.com/MWS003-GIS/MWS003-GIS.github.io/main/IWWRMP/Data/EXD/200_photo/MWS_053/Epalagolla canal (2).jpg"},"geometry":{"type":"Point","coordinates":[80.890891,6.831384]}},
{"type":"Feature","properties":{"No":3,"GND No.":"62F","Scheme":"Wathugodawela canal","N":6.826972,"E":80.897417,"Observation":"Existing is a Earthen canal some places are in a very dilapidated condition. Water from this canal is used to grow paddy on an area of about 50 acres. During the rainy season when too much water flows, water is obtained through a waterfall through a kith","Description":"Canal lining, Earth work, tree planting\n\nCanals reservation protection by concrete lining  For  125mm thick , 500 mm  wide  and 400 mm high canal -double banking\n\nStream / canal  reservation protection by earth filling of  strip   of 1.5m to 2.0 m wide","Amount (Rs.)":1160500,"photopath":"https://raw.githubusercontent.com/MWS003-GIS/MWS003-GIS.github.io/main/IWWRMP/Data/EXD/200_photo/MWS_053/Wathugodawela canal.jpg"},"geometry":{"type":"Point","coordinates":[80.897417,6.826972]}},
{"type":"Feature","properties":{"No":4,"GND No.":"62F","Scheme":"Epalagolla canal","N":6.828257,"E":80.88842,"Observation":"Existing is a Earthen canal Water from this canal is used to grow paddy on an area of about 10 acres.","Description":"Canal lining and protection including EW & tree planting\n\nCanal reservation protection by concrete lining  For  100 mm thick , 300 mm  wide  and 300 mm high canal -double banking\n\nStream / canal  reservation protection by earth filling of  strip   of 1.5","Amount (Rs.)":421300,"photopath":"https://raw.githubusercontent.com/MWS003-GIS/MWS003-GIS.github.io/main/IWWRMP/Data/EXD/200_photo/MWS_053/Epalagolla canal.jpg"},"geometry":{"type":"Point","coordinates":[80.88842,6.828257]}},
{"type":"Feature","properties":{"No":5,"GND No.":"62F","Scheme":"Walasgamwela canal","N":6.829332,"E":80.899794,"Observation":"Existing is a Earthen canal some places are in a very dilapidated condition. Water from this canal is used to grow paddy on an area of about 50 acres.","Description":"Canal lining, Earth work, tree planting\n\nCanals reservation protection by concrete lining  For  125mm thick , 500 mm  wide  and 400 mm high canal -double banking\n\nStream / canal  reservation protection by earth filling of  strip   of 1.5m to 2.0 m wide","Amount (Rs.)":883080,"photopath":"https://raw.githubusercontent.com/MWS003-GIS/MWS003-GIS.github.io/main/IWWRMP/Data/EXD/200_photo/MWS_053/Walasgamwela canal.jpg"},"geometry":{"type":"Point","coordinates":[80.899794,6.829332]}},
{"type":"Feature","properties":{"No":6,"GND No.":"62F","Scheme":"Himbiliyagas Dowa canal","N":6.825268,"E":80.894822,"Observation":"Existing is a Earthen canal some places are in a very dilapidated condition. Water from this canal is used to grow paddy on an area of about 10 acres. During the rainy season when too much water flows,","Description":"Canal lining and protection including EW & tree planting\n\nCanal reservation protection by concrete lining  For  100 mm thick , 300 mm  wide  and 300 mm high canal -double banking\n\nStream / canal  reservation protection by earth filling of  strip   of 1.5","Amount (Rs.)":477400,"photopath":"https://raw.githubusercontent.com/MWS003-GIS/MWS003-GIS.github.io/main/IWWRMP/Data/EXD/200_photo/MWS_053/Himbiliyagas Dowa canal.jpg"},"geometry":{"type":"Point","coordinates":[80.894822,6.825268]}}
]}