{"type":"FeatureCollection","name":"MT","crs":{"type":"name","properties":{"name":"urn:ogc:def:crs:OGC:1.3:CRS84"}},"features":[
{"type":"Feature","properties":{"Name_of_Tank":"Hawariyamalwala","Custodians":"DAD","N":6.825679,"E":80.882797,"Remarks":"Desilting of the tank","photopath":"https://raw.githubusercontent.com/MWS003-GIS/MWS003-GIS.github.io/main/IWWRMP/Data/EXD/200_photo/MWS_053/Hawariyamalvala Tank.jpg"},"geometry":{"type":"Point","coordinates":[80.882797,6.825679]}},
{"type":"Feature","properties":{"Name_of_Tank":"Welle Ulpatha Wewa","Custodians":"DAD","N":6.827509,"E":80.920151,"Remarks":"-","photopath":"https://raw.githubusercontent.com/MWS003-GIS/MWS003-GIS.github.io/main/IWWRMP/Data/EXD/200_photo/MWS_053/Welle ulpatha Lake.jpg"},"geometry":{"type":"Point","coordinates":[80.920151,6.827509]}},
{"type":"Feature","properties":{"Name_of_Tank":"Kadekumbura Wewa","Custodians":"DAD","N":6.827937,"E":80.895068,"Remarks":"-","photopath":"https://raw.githubusercontent.com/MWS003-GIS/MWS003-GIS.github.io/main/IWWRMP/Data/EXD/200_photo/MWS_053/Kadekumbura Wewa.jpg"},"geometry":{"type":"Point","coordinates":[80.895068,6.827937]}},
{"type":"Feature","properties":{"Name_of_Tank":"Goradiyadathenna Wewa","Custodians":null,"N":6.825609,"E":80.887964,"Remarks":"-","photopath":"https://raw.githubusercontent.com/MWS003-GIS/MWS003-GIS.github.io/main/IWWRMP/Data/EXD/200_photo/MWS_053/Goradiyadathenna Wewa.jpg"},"geometry":{"type":"Point","coordinates":[80.887964,6.825609]}}
]}