{"type":"FeatureCollection","name":"SWC_ON","crs":{"type":"name","properties":{"name":"urn:ogc:def:crs:OGC:1.3:CRS84"}},"features":[
{"type":"Feature","properties":{"No.":1,"GND No.":"62B","GND Name":"Boralanda","Key Activities proposed for Soil and Water conservation":"1. Soil conservation practices -  Bambaragalathenna Medahela (40°-45°)","Priority based on Soil Erosion Hazard":5,"N":6.82543,"E":80.878803,"Quantity":"16 ha","Proposed measure/s":"1. Live fencing/SALT  - 9000 m","Uniti_Cost":"250.00 m-1","Total_Cost":2250000,"Contribution (Local Community, LA, and the project)":"Labour and other basic services by the Local community","Time frame for the implementation":"0.25 Years","photopath":"https://raw.githubusercontent.com/MWS003-GIS/MWS003-GIS.github.io/main/IWWRMP/Data/EXD/200_photo/MWS_053/Soil conservation.jpg"},"geometry":{"type":"Point","coordinates":[80.878803,6.82543]}},
{"type":"Feature","properties":{"No.":3,"GND No.":"62F","GND Name":"Rahangala","Key Activities proposed for Soil and Water conservation":"1. Soil conservation practices -  Crop lands near Kalakada, Rahangala (40°-50°)","Priority based on Soil Erosion Hazard":5,"N":6.821717,"E":80.884401,"Quantity":"28 ha","Proposed measure/s":"1. Live fencing/SALT  - 20000 m","Uniti_Cost":"250.00 m-1","Total_Cost":5000000,"Contribution (Local Community, LA, and the project)":"Labour and other basic services by the Local community","Time frame for the implementation":"0.25 Years","photopath":"https://raw.githubusercontent.com/MWS003-GIS/MWS003-GIS.github.io/main/IWWRMP/Data/EXD/200_photo/MWS_053/Soil conservation.jpg"},"geometry":{"type":"Point","coordinates":[80.884401,6.821717]}}
]}