{
"type": "FeatureCollection",
"name": "TR_Transport_Li_MWS_112_1",
"crs": { "type": "name", "properties": { "name": "urn:ogc:def:crs:OGC:1.3:CRS84" } },
"features": [
{ "type": "Feature", "properties": { "TL_Nm_Tran": null, "TL_Lb_Addi": null, "TL_Lb_meth": "4", "TL_GFCODE": "TRCKL" }, "geometry": { "type": "MultiLineString", "coordinates": [ [ [ 80.624018589267692, 7.323712026822567, 0.0 ], [ 80.623975370874376, 7.323734434350755, 0.0 ], [ 80.623919481679692, 7.323750241609546, 0.0 ], [ 80.623918793224618, 7.323750526231383, 0.0 ], [ 80.623831341323523, 7.323786654200267, 0.0 ], [ 80.623769746635062, 7.32380056047391, 0.0 ], [ 80.623706887804559, 7.323805692777648, 0.0 ], [ 80.623651995085211, 7.323820956855472, 0.0 ], [ 80.623610682982942, 7.323849428335934, 0.0 ], [ 80.623543546792206, 7.323911802351575, 0.0 ], [ 80.623524880338834, 7.323936212153844, 0.0 ] ], [ [ 80.624097383314705, 7.323704995405785, 0.0 ], [ 80.624093546629069, 7.323704977830777, 0.0 ], [ 80.624032713966884, 7.323704703142771, 0.0 ], [ 80.624018589267692, 7.323712026822567, 0.0 ] ] ] } },
{ "type": "Feature", "properties": { "TL_Nm_Tran": null, "TL_Lb_Addi": null, "TL_Lb_meth": "9", "TL_GFCODE": "TRCKL" }, "geometry": { "type": "MultiLineString", "coordinates": [ [ [ 80.621570907354538, 7.322334752008904, 0.0 ], [ 80.621549656848828, 7.322246129492556, 0.0 ], [ 80.621556855456575, 7.322220291553923, 0.0 ], [ 80.621588497528748, 7.32219302689104, 0.0 ], [ 80.621663279005844, 7.322154291516044, 0.0 ], [ 80.621694923540474, 7.322119848501381, 0.0 ], [ 80.621726462118275, 7.322061689238109, 0.0 ], [ 80.62174240314846, 7.322032294967536, 0.0 ], [ 80.621764960460382, 7.321992617443159, 0.0 ], [ 80.621797074489251, 7.321936129520908, 0.0 ], [ 80.621820097843852, 7.321884456594526, 0.0 ], [ 80.621828737284034, 7.321848569642893, 0.0 ], [ 80.621824431608033, 7.321827034938829, 0.0 ] ] ] } },
{ "type": "Feature", "properties": { "TL_Nm_Tran": "KANDY - JAFFNA ROAD", "TL_Lb_Addi": "AA009", "TL_Lb_meth": "4", "TL_GFCODE": "MRBRL" }, "geometry": { "type": "MultiLineString", "coordinates": [ [ [ 80.625082850655957, 7.322544023586304, 0.0 ], [ 80.625097727297643, 7.322538679640485, 0.0 ], [ 80.625123342694479, 7.322529477933622, 0.0 ], [ 80.625181348491083, 7.322516068534875, 0.0 ], [ 80.625667766273239, 7.32240363069967, 0.0 ] ] ] } },
{ "type": "Feature", "properties": { "TL_Nm_Tran": null, "TL_Lb_Addi": null, "TL_Lb_meth": "9", "TL_GFCODE": "TRCKL" }, "geometry": { "type": "MultiLineString", "coordinates": [ [ [ 80.619800167268153, 7.321873363892835, 0.0 ], [ 80.619759230634244, 7.321889870340066, 0.0 ], [ 80.619746294074076, 7.321895086372828, 0.0 ], [ 80.619738607867077, 7.321898185626599, 0.0 ] ] ] } },
{ "type": "Feature", "properties": { "TL_Nm_Tran": "KANDY - JAFFNA ROAD", "TL_Lb_Addi": "AA009", "TL_Lb_meth": "4", "TL_GFCODE": "MNRDL" }, "geometry": { "type": "MultiLineString", "coordinates": [ [ [ 80.625822954809209, 7.324889125552166, 0.0 ], [ 80.625808379670602, 7.324864886301559, 0.0 ], [ 80.62578258498084, 7.324811522980419, 0.0 ], [ 80.625724670990877, 7.324650448409582, 0.0 ] ], [ [ 80.625724670990877, 7.324650448409582, 0.0 ], [ 80.625638238129383, 7.324459701384829, 0.0 ], [ 80.625568110258769, 7.324261274146722, 0.0 ], [ 80.625547831511724, 7.324229617704632, 0.0 ] ], [ [ 80.625547831511724, 7.324229617704632, 0.0 ], [ 80.625533338295853, 7.324206970043197, 0.0 ], [ 80.625433859290467, 7.324051521634563, 0.0 ], [ 80.62534236936861, 7.323816735181528, 0.0 ], [ 80.625332760236802, 7.323787698453128, 0.0 ], [ 80.625252159390811, 7.323544147526236, 0.0 ], [ 80.625175714233308, 7.323278799790807, 0.0 ], [ 80.625140347955139, 7.323133918806175, 0.0 ] ], [ [ 80.625140347955139, 7.323133918806175, 0.0 ], [ 80.625139895728353, 7.3231320196211, 0.0 ], [ 80.625118731950508, 7.323041853648012, 0.0 ], [ 80.625072514675963, 7.322846961136283, 0.0 ], [ 80.625031108614721, 7.322620057960656, 0.0 ], [ 80.625016270247656, 7.322573662303207, 0.0 ] ], [ [ 80.625016270247656, 7.322573662303207, 0.0 ], [ 80.625082850655957, 7.322544023586304, 0.0 ] ] ] } },
{ "type": "Feature", "properties": { "TL_Nm_Tran": "KANDY - JAFFNA ROAD", "TL_Lb_Addi": "AA009", "TL_Lb_meth": "9", "TL_GFCODE": "MRBRL" }, "geometry": { "type": "MultiLineString", "coordinates": [ [ [ 80.625140660978616, 7.322204839484432, 0.0 ], [ 80.625644299931125, 7.322033675856828, 0.0 ] ] ] } },
{ "type": "Feature", "properties": { "TL_Nm_Tran": null, "TL_Lb_Addi": null, "TL_Lb_meth": "13", "TL_GFCODE": "TRCKL" }, "geometry": { "type": "MultiLineString", "coordinates": [ [ [ 80.622852046946491, 7.323492894374644, 0.0 ], [ 80.62292115551395, 7.323459165022002, 0.0 ] ] ] } },
{ "type": "Feature", "properties": { "TL_Nm_Tran": "WATER BOARD ROAD", "TL_Lb_Addi": null, "TL_Lb_meth": "9", "TL_GFCODE": "SDRDL" }, "geometry": { "type": "MultiLineString", "coordinates": [ [ [ 80.623360931605234, 7.320018909465216, 0.0 ], [ 80.623266625200316, 7.319860377766248, 0.0 ], [ 80.623223353608481, 7.31979509236276, 0.0 ] ] ] } },
{ "type": "Feature", "properties": { "TL_Nm_Tran": null, "TL_Lb_Addi": null, "TL_Lb_meth": "4", "TL_GFCODE": "TRCKL" }, "geometry": { "type": "MultiLineString", "coordinates": [ [ [ 80.624097383314705, 7.323704995405785, 0.0 ], [ 80.624099749130878, 7.323712893470831, 0.0 ], [ 80.624105888490647, 7.323733393348804, 0.0 ], [ 80.624124078477152, 7.323778433714019, 0.0 ], [ 80.624159197562122, 7.323844821317079, 0.0 ], [ 80.624172957492561, 7.323866167483779, 0.0 ] ], [ [ 80.625140347955139, 7.323133918806175, 0.0 ], [ 80.625094240885872, 7.32314945730413, 0.0 ], [ 80.625061632442097, 7.323155505167585, 0.0 ], [ 80.625037719830829, 7.323159204767411, 0.0 ], [ 80.624987487407537, 7.323176633666624, 0.0 ], [ 80.624977572993714, 7.323180073913378, 0.0 ], [ 80.624955109166834, 7.323182236683253, 0.0 ], [ 80.624929473188075, 7.323193261444534, 0.0 ], [ 80.624902656031935, 7.323215316477001, 0.0 ], [ 80.624890602695729, 7.323236292217524, 0.0 ], [ 80.624858512468194, 7.323317035546613, 0.0 ], [ 80.624832468870864, 7.323341556865189, 0.0 ], [ 80.624815114021843, 7.323357895369516, 0.0 ], [ 80.624784835070145, 7.323377461495746, 0.0 ], [ 80.624750482338953, 7.323399660958887, 0.0 ] ], [ [ 80.624312819991317, 7.323445302797012, 0.0 ], [ 80.624304159668966, 7.323446074249802, 0.0 ], [ 80.624266464527025, 7.323495073753723, 0.0 ], [ 80.624264924319419, 7.323496429685624, 0.0 ], [ 80.624244994860362, 7.323506189408431, 0.0 ], [ 80.624220611406614, 7.323560167968187, 0.0 ], [ 80.624174404782579, 7.323604643984212, 0.0 ], [ 80.624152116083067, 7.323627153556196, 0.0 ], [ 80.624125196785968, 7.323683120716081, 0.0 ], [ 80.624097383314705, 7.323704995405785, 0.0 ] ] ] } },
{ "type": "Feature", "properties": { "TL_Nm_Tran": "MILLAMADITTA ROAD", "TL_Lb_Addi": null, "TL_Lb_meth": "9", "TL_GFCODE": "TRCKL" }, "geometry": { "type": "MultiLineString", "coordinates": [ [ [ 80.623537034024267, 7.324692067930483, 0.0 ], [ 80.623384306271603, 7.324588238986903, 0.0 ], [ 80.623292315467921, 7.324494416285472, 0.0 ], [ 80.62328555437162, 7.324477830002725, 0.0 ], [ 80.623229102717161, 7.324339352308169, 0.0 ], [ 80.623158233563856, 7.324147917425734, 0.0 ], [ 80.623116090178186, 7.324048369336318, 0.0 ], [ 80.623112497758044, 7.324038563677367, 0.0 ], [ 80.623066291282512, 7.323912450345589, 0.0 ], [ 80.623039463413789, 7.323877987324885, 0.0 ] ] ] } },
{ "type": "Feature", "properties": { "TL_Nm_Tran": null, "TL_Lb_Addi": null, "TL_Lb_meth": "9", "TL_GFCODE": "TRCKL" }, "geometry": { "type": "MultiLineString", "coordinates": [ [ [ 80.623138209011088, 7.320182805334714, 0.0 ], [ 80.623084922680064, 7.320267734999161, 0.0 ] ], [ [ 80.623264818939575, 7.320025777531954, 0.0 ], [ 80.623138209011088, 7.320182805334714, 0.0 ] ] ] } },
{ "type": "Feature", "properties": { "TL_Nm_Tran": "PERADENIYA - HALLOLUWA - KATUGASTOTA ROAD", "TL_Lb_Addi": "B365", "TL_Lb_meth": "4", "TL_GFCODE": "MNRDL" }, "geometry": { "type": "MultiLineString", "coordinates": [ [ [ 80.624565193872115, 7.321566480235771, 0.0 ], [ 80.624520602308777, 7.321654092025772, 0.0 ], [ 80.624481169218384, 7.321756716956725, 0.0 ], [ 80.624426235681469, 7.321890715918074, 0.0 ] ] ] } },
{ "type": "Feature", "properties": { "TL_Nm_Tran": null, "TL_Lb_Addi": null, "TL_Lb_meth": "9", "TL_GFCODE": "TRCKL" }, "geometry": { "type": "MultiLineString", "coordinates": [ [ [ 80.620956225781867, 7.322181653659439, 0.0 ], [ 80.620944457979206, 7.322200913655809, 0.0 ] ] ] } },
{ "type": "Feature", "properties": { "TL_Nm_Tran": "WATER BOARD ROAD", "TL_Lb_Addi": null, "TL_Lb_meth": "9", "TL_GFCODE": "SDRDL" }, "geometry": { "type": "MultiLineString", "coordinates": [ [ [ 80.623899480243338, 7.320066547387235, 0.0 ], [ 80.623888429249277, 7.320063156768016, 0.0 ], [ 80.623867481961909, 7.320056730039266, 0.0 ], [ 80.623732092548366, 7.320033953655288, 0.0 ], [ 80.623630529023572, 7.320022753815477, 0.0 ], [ 80.623465859937738, 7.320011372474363, 0.0 ], [ 80.623360931605234, 7.320018909465216, 0.0 ] ] ] } },
{ "type": "Feature", "properties": { "TL_Nm_Tran": null, "TL_Lb_Addi": null, "TL_Lb_meth": "9", "TL_GFCODE": "TRCKL" }, "geometry": { "type": "MultiLineString", "coordinates": [ [ [ 80.624018589267692, 7.323712026822567, 0.0 ], [ 80.624004643011276, 7.32386070644709, 0.0 ], [ 80.623976854503155, 7.323982392507518, 0.0 ], [ 80.623964323136462, 7.324037269417023, 0.0 ], [ 80.623919737908508, 7.324073143333572, 0.0 ], [ 80.623843525306668, 7.324090344462182, 0.0 ] ] ] } },
{ "type": "Feature", "properties": { "TL_Nm_Tran": "PERADENIYA - HALLOLUWA - KATUGASTOTA ROAD", "TL_Lb_Addi": "B365", "TL_Lb_meth": "4", "TL_GFCODE": "MNRDL" }, "geometry": { "type": "MultiLineString", "coordinates": [ [ [ 80.62453444136348, 7.321976932353931, 0.0 ], [ 80.624540886917615, 7.321932986375164, 0.0 ], [ 80.624555866035394, 7.321830804443182, 0.0 ], [ 80.624562075235559, 7.321684943596225, 0.0 ], [ 80.624565193872115, 7.321566480235771, 0.0 ] ], [ [ 80.624565193872115, 7.321566480235771, 0.0 ], [ 80.624566055447374, 7.321429207545045, 0.0 ], [ 80.624574621012513, 7.321276293032615, 0.0 ], [ 80.624592171052342, 7.321070841623485, 0.0 ], [ 80.624606427382332, 7.320951781655597, 0.0 ] ] ] } },
{ "type": "Feature", "properties": { "TL_Nm_Tran": "MENIKKUMBURA ROAD", "TL_Lb_Addi": null, "TL_Lb_meth": "4", "TL_GFCODE": "SDRDL" }, "geometry": { "type": "MultiLineString", "coordinates": [ [ [ 80.625547831511724, 7.324229617704632, 0.0 ], [ 80.625494746043799, 7.324257451499279, 0.0 ], [ 80.625490398627761, 7.324259802130524, 0.0 ], [ 80.625471827824299, 7.32426938150222, 0.0 ], [ 80.625461862427869, 7.32427353704453, 0.0 ], [ 80.625449724833658, 7.324278416203918, 0.0 ], [ 80.625437856874683, 7.324284109324648, 0.0 ], [ 80.625430246596324, 7.324290346453595, 0.0 ], [ 80.625425535797461, 7.324293238638931, 0.0 ], [ 80.625417835371024, 7.324298209715281, 0.0 ], [ 80.625414120850877, 7.324301192664724, 0.0 ], [ 80.625411221492783, 7.32430417588746, 0.0 ], [ 80.625403521066005, 7.324309146963544, 0.0 ], [ 80.625394734516561, 7.324311857825834, 0.0 ], [ 80.625389207855292, 7.324316829630669, 0.0 ], [ 80.625381507100414, 7.324320082533416, 0.0 ], [ 80.625374893738552, 7.324324511392651, 0.0 ], [ 80.625368825849961, 7.324325593614874, 0.0 ], [ 80.625343009611484, 7.324333814098634, 0.0 ], [ 80.625336397192612, 7.324335439622971, 0.0 ], [ 80.625328153140416, 7.324340953096205, 0.0 ], [ 80.62531384104615, 7.324348002750221, 0.0 ], [ 80.625288748519154, 7.324356132139116, 0.0 ], [ 80.625250520681988, 7.324373301036798, 0.0 ], [ 80.625220081865635, 7.324391377752211, 0.0 ], [ 80.62518194531971, 7.324409088351154, 0.0 ], [ 80.625143715745537, 7.324428698852999, 0.0 ], [ 80.625103353857838, 7.324446237784639, 0.0 ], [ 80.625097969373698, 7.324448578116212, 0.0 ], [ 80.625067439789945, 7.324467196467073, 0.0 ], [ 80.625044608023686, 7.324485908737917, 0.0 ], [ 80.624983644716934, 7.32451012261673, 0.0 ], [ 80.624949738314797, 7.324535054136404, 0.0 ] ] ] } },
{ "type": "Feature", "properties": { "TL_Nm_Tran": "KATUGASTOTA - KURUNEGALA - PUTTLAM ROAD", "TL_Lb_Addi": "AA010", "TL_Lb_meth": "4", "TL_GFCODE": "MNRDL" }, "geometry": { "type": "MultiLineString", "coordinates": [ [ [ 80.624752510913098, 7.322335381443808, 0.0 ], [ 80.624788637607367, 7.322370932657603, 0.0 ], [ 80.624846411390635, 7.322406218958595, 0.0 ], [ 80.624927908220187, 7.322462674792203, 0.0 ], [ 80.624969738509364, 7.322508447421979, 0.0 ], [ 80.625011020407001, 7.322566245265734, 0.0 ], [ 80.625016270247656, 7.322573662303207, 0.0 ] ], [ [ 80.624692851824761, 7.322250627391942, 0.0 ], [ 80.624722366227957, 7.322290156214913, 0.0 ], [ 80.624752510913098, 7.322335381443808, 0.0 ] ], [ [ 80.62453444136348, 7.321976932353931, 0.0 ], [ 80.624620901162984, 7.322087920204042, 0.0 ], [ 80.624692851824761, 7.322250627391942, 0.0 ] ], [ [ 80.624426235681469, 7.321890715918074, 0.0 ], [ 80.62453444136348, 7.321976932353931, 0.0 ] ] ] } },
{ "type": "Feature", "properties": { "TL_Nm_Tran": "PAHALA KONDADENIYA ROAD", "TL_Lb_Addi": null, "TL_Lb_meth": "9", "TL_GFCODE": "TRCKL" }, "geometry": { "type": "MultiLineString", "coordinates": [ [ [ 80.620319940076769, 7.322234860641992, 0.0 ], [ 80.620267684227173, 7.32226877382268, 0.0 ] ] ] } },
{ "type": "Feature", "properties": { "TL_Nm_Tran": null, "TL_Lb_Addi": null, "TL_Lb_meth": "9", "TL_GFCODE": "TRCKL" }, "geometry": { "type": "MultiLineString", "coordinates": [ [ [ 80.622288859180813, 7.32135941182735, 0.0 ], [ 80.622288485291605, 7.321368298022819, 0.0 ], [ 80.622286914623302, 7.321405630668683, 0.0 ], [ 80.622273466174008, 7.321487932876754, 0.0 ], [ 80.62223894997895, 7.321510890323009, 0.0 ], [ 80.622216392477227, 7.321511748923045, 0.0 ], [ 80.622189104285781, 7.321512786762725, 0.0 ], [ 80.622075993107487, 7.321512748024024, 0.0 ], [ 80.621974392188434, 7.321493572758027, 0.0 ], [ 80.621875207506633, 7.32146988764238, 0.0 ], [ 80.621845954833375, 7.321462902728933, 0.0 ], [ 80.62179420555465, 7.321424603175271, 0.0 ], [ 80.621773135658501, 7.321369086300884, 0.0 ], [ 80.621773680487166, 7.321346391853019, 0.0 ] ] ] } },
{ "type": "Feature", "properties": { "TL_Nm_Tran": "KANDY - JAFFNA ROAD", "TL_Lb_Addi": "AA009", "TL_Lb_meth": "9", "TL_GFCODE": "MNRDL" }, "geometry": { "type": "MultiLineString", "coordinates": [ [ [ 80.624752510913098, 7.322335381443808, 0.0 ], [ 80.625029839419042, 7.322242059478186, 0.0 ], [ 80.625053717208303, 7.322234040017357, 0.0 ], [ 80.625140660978616, 7.322204839484432, 0.0 ] ] ] } },
{ "type": "Feature", "properties": { "TL_Nm_Tran": "INIGALA KONDADENIYA ROAD", "TL_Lb_Addi": null, "TL_Lb_meth": "4", "TL_GFCODE": "SDRDL" }, "geometry": { "type": "MultiLineString", "coordinates": [ [ [ 80.621570907354538, 7.322334752008904, 0.0 ], [ 80.621538468836533, 7.322349746834374, 0.0 ], [ 80.621519014983249, 7.322356584802521, 0.0 ], [ 80.621488788854293, 7.322367210622937, 0.0 ] ], [ [ 80.621486159618982, 7.322367983832193, 0.0 ], [ 80.62142728706705, 7.322345902387302, 0.0 ], [ 80.621399356101335, 7.322332818385687, 0.0 ], [ 80.621304610162156, 7.322288437018661, 0.0 ], [ 80.621135930079632, 7.322207986504677, 0.0 ], [ 80.621030494182548, 7.32218880879761, 0.0 ], [ 80.620956225781867, 7.322181653659439, 0.0 ] ], [ [ 80.621816359101459, 7.322226340267858, 0.0 ], [ 80.621812452486438, 7.322226679622042, 0.0 ], [ 80.621675305032866, 7.322286496379811, 0.0 ], [ 80.621570907354538, 7.322334752008904, 0.0 ] ], [ [ 80.620956225781867, 7.322181653659439, 0.0 ], [ 80.620930806373963, 7.322179204176334, 0.0 ], [ 80.620856037597193, 7.322181092767395, 0.0 ], [ 80.620786268305636, 7.322203409296794, 0.0 ] ], [ [ 80.62036988221567, 7.322269958455195, 0.0 ], [ 80.620319940076769, 7.322234860641992, 0.0 ] ], [ [ 80.620319940076769, 7.322234860641992, 0.0 ], [ 80.620252378220044, 7.322184592430443, 0.0 ], [ 80.620133743570108, 7.322041893220573, 0.0 ], [ 80.620089804994137, 7.321999554860644, 0.0 ], [ 80.62005978012408, 7.321970623977088, 0.0 ], [ 80.619999403026185, 7.32193471310237, 0.0 ], [ 80.619944772825278, 7.321911724874071, 0.0 ], [ 80.61988295134428, 7.321895911580552, 0.0 ], [ 80.619821128961689, 7.321880099182583, 0.0 ], [ 80.619800167268153, 7.321873363892835, 0.0 ] ], [ [ 80.619800167268153, 7.321873363892835, 0.0 ], [ 80.619780873744133, 7.321867164528613, 0.0 ], [ 80.619777832112831, 7.321865106185339, 0.0 ], [ 80.619759243663111, 7.321852524506263, 0.0 ], [ 80.619736310544951, 7.321837002335781, 0.0 ], [ 80.619714756816649, 7.321798233768491, 0.0 ], [ 80.619694657520725, 7.321710656943321, 0.0 ], [ 80.619685990461207, 7.321617595889614, 0.0 ], [ 80.619674602828866, 7.321495312293743, 0.0 ], [ 80.619673007069878, 7.321474160128923, 0.0 ], [ 80.619659709840491, 7.32129790878987, 0.0 ] ] ] } },
{ "type": "Feature", "properties": { "TL_Nm_Tran": null, "TL_Lb_Addi": null, "TL_Lb_meth": "4", "TL_GFCODE": "TRCKL" }, "geometry": { "type": "MultiLineString", "coordinates": [ [ [ 80.62235356983922, 7.322255595709729, 0.0 ], [ 80.622350089025105, 7.322245853258321, 0.0 ], [ 80.622349459469135, 7.322206468905386, 0.0 ], [ 80.622349201439178, 7.322190328844454, 0.0 ], [ 80.622341167611893, 7.322111110191838, 0.0 ], [ 80.622331552109458, 7.322035321013261, 0.0 ], [ 80.622329707595668, 7.322020781927503, 0.0 ], [ 80.622320572645975, 7.321948780127426, 0.0 ], [ 80.622294880648738, 7.321859155061124, 0.0 ], [ 80.622274886490146, 7.321764608925581, 0.0 ], [ 80.62227426345261, 7.321761664306721, 0.0 ] ] ] } },
{ "type": "Feature", "properties": { "TL_Nm_Tran": null, "TL_Lb_Addi": null, "TL_Lb_meth": "9", "TL_GFCODE": "TRCKL" }, "geometry": { "type": "MultiLineString", "coordinates": [ [ [ 80.622411568376236, 7.321339980212475, 0.0 ], [ 80.622412111844341, 7.321363383825681, 0.0 ], [ 80.622414017458667, 7.321397838364548, 0.0 ] ] ] } },
{ "type": "Feature", "properties": { "TL_Nm_Tran": "KANDY - JAFFNA ROAD", "TL_Lb_Addi": "AA009", "TL_Lb_meth": "4", "TL_GFCODE": "MRBRL" }, "geometry": { "type": "MultiLineString", "coordinates": [ [ [ 80.625954682093919, 7.325008784494623, 0.0 ], [ 80.625871592560188, 7.324933307901145, 0.0 ], [ 80.625822954809209, 7.324889125552166, 0.0 ] ] ] } },
{ "type": "Feature", "properties": { "TL_Nm_Tran": null, "TL_Lb_Addi": null, "TL_Lb_meth": "9", "TL_GFCODE": "TRCKL" }, "geometry": { "type": "MultiLineString", "coordinates": [ [ [ 80.623138209011088, 7.320182805334714, 0.0 ], [ 80.623344772664467, 7.320318821024981, 0.0 ], [ 80.623662732961762, 7.320529024421359, 0.0 ], [ 80.623663423876906, 7.32052948132796, 0.0 ] ] ] } },
{ "type": "Feature", "properties": { "TL_Nm_Tran": null, "TL_Lb_Addi": null, "TL_Lb_meth": "9", "TL_GFCODE": "TRCKL" }, "geometry": { "type": "MultiLineString", "coordinates": [ [ [ 80.624692851824761, 7.322250627391942, 0.0 ], [ 80.624519767813283, 7.322369932342395, 0.0 ], [ 80.624491129235025, 7.322400093800881, 0.0 ], [ 80.624462574915938, 7.322430166664369, 0.0 ], [ 80.624450726435512, 7.322442644741341, 0.0 ], [ 80.624439206795429, 7.322492408185906, 0.0 ], [ 80.624460760360677, 7.322559735281716, 0.0 ], [ 80.624469847928708, 7.32258812346845, 0.0 ], [ 80.624536919705193, 7.322672367309242, 0.0 ], [ 80.624618266611293, 7.322740974247684, 0.0 ], [ 80.624684497547491, 7.32279683356681, 0.0 ] ] ] } },
{ "type": "Feature", "properties": { "TL_Nm_Tran": "KATUGASTOTA - KURUNEGALA - PUTTLAM ROAD", "TL_Lb_Addi": "AA010", "TL_Lb_meth": "4", "TL_GFCODE": "MNRDL" }, "geometry": { "type": "MultiLineString", "coordinates": [ [ [ 80.622604751487586, 7.322735735074609, 0.0 ], [ 80.622625373480417, 7.322719100467741, 0.0 ] ], [ [ 80.622625373480417, 7.322719100467741, 0.0 ], [ 80.62274440510275, 7.32262308257526, 0.0 ], [ 80.622829664579214, 7.322537836026329, 0.0 ], [ 80.62292634206878, 7.322430257104558, 0.0 ], [ 80.623009696956046, 7.322349621807985, 0.0 ], [ 80.623090967066688, 7.322276219293163, 0.0 ], [ 80.623198692661703, 7.322173618632395, 0.0 ], [ 80.62329962505099, 7.32207417978626, 0.0 ], [ 80.623420125324756, 7.321965251492498, 0.0 ], [ 80.623467961030371, 7.321932086201184, 0.0 ], [ 80.623540977462113, 7.321881463771114, 0.0 ], [ 80.623669963179609, 7.321853112458439, 0.0 ], [ 80.623703393387359, 7.321851378490892, 0.0 ], [ 80.623827563117231, 7.321844936726436, 0.0 ], [ 80.623989241678004, 7.321831065219471, 0.0 ], [ 80.624138777732909, 7.321828675083826, 0.0 ], [ 80.624174393312728, 7.321835407891204, 0.0 ], [ 80.624352969348024, 7.321869168814328, 0.0 ], [ 80.624426235681469, 7.321890715918074, 0.0 ] ] ] } },
{ "type": "Feature", "properties": { "TL_Nm_Tran": null, "TL_Lb_Addi": null, "TL_Lb_meth": "9", "TL_GFCODE": "TRCKL" }, "geometry": { "type": "MultiLineString", "coordinates": [ [ [ 80.623264818939575, 7.320025777531954, 0.0 ], [ 80.623226213198933, 7.320028518006468, 0.0 ], [ 80.623162947515212, 7.320030410898888, 0.0 ], [ 80.623107355595977, 7.320015079448202, 0.0 ], [ 80.623021109943579, 7.319942313500801, 0.0 ], [ 80.622982036480678, 7.319903275616682, 0.0 ] ], [ [ 80.623360931605234, 7.320018909465216, 0.0 ], [ 80.623306734286416, 7.320022803060351, 0.0 ], [ 80.623264818939575, 7.320025777531954, 0.0 ] ] ] } },
{ "type": "Feature", "properties": { "TL_Nm_Tran": "KATUGASTOTA - MEDAWELA ROAD", "TL_Lb_Addi": "B206", "TL_Lb_meth": "4", "TL_GFCODE": "MNRDL" }, "geometry": { "type": "MultiLineString", "coordinates": [ [ [ 80.625463038835235, 7.325137710835617, 0.0 ], [ 80.625522983656836, 7.325032260156868, 0.0 ], [ 80.625567694639045, 7.32495360723829, 0.0 ], [ 80.625664032969425, 7.324784896842591, 0.0 ], [ 80.625724670990877, 7.324650448409582, 0.0 ] ] ] } },
{ "type": "Feature", "properties": { "TL_Nm_Tran": "MILLAMADITTA ROAD", "TL_Lb_Addi": null, "TL_Lb_meth": "13", "TL_GFCODE": "TRCKL" }, "geometry": { "type": "MultiLineString", "coordinates": [ [ [ 80.623039463413789, 7.323877987324885, 0.0 ], [ 80.623110058563867, 7.323810616489131, 0.0 ], [ 80.623150702160004, 7.323771829461053, 0.0 ], [ 80.623163660447332, 7.32372158907418, 0.0 ], [ 80.623159365057063, 7.323667035627797, 0.0 ], [ 80.623129184391274, 7.323623957095767, 0.0 ], [ 80.623065461388407, 7.323579063964599, 0.0 ], [ 80.622946381483615, 7.323495171146306, 0.0 ], [ 80.62292115551395, 7.323459165022002, 0.0 ] ], [ [ 80.62292115551395, 7.323459165022002, 0.0 ], [ 80.622904464642332, 7.32343534093743, 0.0 ], [ 80.622877546504299, 7.323312709389758, 0.0 ], [ 80.622866737133577, 7.323244862297014, 0.0 ], [ 80.62284466650425, 7.32310633387548, 0.0 ], [ 80.622832684699688, 7.323058412598786, 0.0 ] ], [ [ 80.622810555862571, 7.322969908223507, 0.0 ], [ 80.622802786549812, 7.322938834825117, 0.0 ], [ 80.622765908054703, 7.322893159543693, 0.0 ], [ 80.622625373480417, 7.322719100467741, 0.0 ] ] ] } }
]
}
