{"type":"FeatureCollection","name":"MT","crs":{"type":"name","properties":{"name":"urn:ogc:def:crs:OGC:1.3:CRS84"}},"features":[
{"type":"Feature","properties":{"Name_of_Tank":"Kurundugolla Wewa","Custodians":"PID","N":6.859955,"E":80.920892,"Remarks":"Mark boundaries and plant trees.","photopath":"https://raw.githubusercontent.com/MWS003-GIS/MWS003-GIS.github.io/main/IWWRMP/Data/EXD/200_photo/MWS_057/Minor Tanks - Kurundugolla Wewa.jpg"},"geometry":{"type":"Point","coordinates":[80.920892,6.859955]}},
{"type":"Feature","properties":{"Name_of_Tank":"Medagedaragama Wewa","Custodians":"PID","N":6.884913,"E":80.918289,"Remarks":"Mark boundaries and plant trees.","photopath":"https://raw.githubusercontent.com/MWS003-GIS/MWS003-GIS.github.io/main/IWWRMP/Data/EXD/200_photo/MWS_057/Minor Tanks - Medagedaragama Wewa (Dambawinna Wewa).jpg"},"geometry":{"type":"Point","coordinates":[80.918289,6.884913]}},
{"type":"Feature","properties":{"Name_of_Tank":"Puna Wewa","Custodians":"PID","N":6.852992,"E":80.912554,"Remarks":"Desilting and planting trees in the boundary.","photopath":"https://raw.githubusercontent.com/MWS003-GIS/MWS003-GIS.github.io/main/IWWRMP/Data/EXD/200_photo/MWS_057/Minor Tanks - Punawewa (10).jpg"},"geometry":{"type":"Point","coordinates":[80.912554,6.852992]}},
{"type":"Feature","properties":{"Name_of_Tank":"Nelawala Wewa","Custodians":"DAD","N":6.83879,"E":80.90121,"Remarks":"Desilting and repairs to the sluice","photopath":"https://raw.githubusercontent.com/MWS003-GIS/MWS003-GIS.github.io/main/IWWRMP/Data/EXD/200_photo/MWS_057/Minor Tanks - Nelawala Tank (3).jpg"},"geometry":{"type":"Point","coordinates":[80.90121,6.83879]}}
]}