{"type":"FeatureCollection","name":"SWC_ON","crs":{"type":"name","properties":{"name":"urn:ogc:def:crs:OGC:1.3:CRS84"}},"features":[
{"type":"Feature","properties":{"No.":1,"GND No.":"58A","GND Name":"Ketakella","Key Activities proposed for Soil and Water conservation":"1. Soil conservation practices -  Mr. W.A. Bandara's land and surrounding areas (35°-45°)","Priority based on Soil Erosion Hazard":5,"N":6.890209,"E":80.929777,"Quantity":"2 ha","Proposed measure/s":"1. Live fencing/SALT  - 1000 m","Uniti_Cost":"250.00 m-1","Total_Cost":250000,"Contribution (Local Community, LA, and the project)":"Labour and other basic services by the Local community","Time frame for the implementation":"0.25 Years","photopath":"https://raw.githubusercontent.com/MWS003-GIS/MWS003-GIS.github.io/main/IWWRMP/Data/EXD/200_photo/MWS_057/Soil Conservation - Mr. E D M W A Bandara's land and surrounding areas (5).jpg"},"geometry":{"type":"Point","coordinates":[80.929777,6.890209]}},
{"type":"Feature","properties":{"No.":2,"GND No.":"58A","GND Name":"Ketakella","Key Activities proposed for Soil and Water conservation":"2. Soil conservation practices -  Mr. Nimal Pushpakumara's land and surrounding areas (45°-60°)","Priority based on Soil Erosion Hazard":4,"N":6.894548,"E":80.930291,"Quantity":"2 ha","Proposed measure/s":"1. Live fencing/SALT  - 1000 m","Uniti_Cost":"250.00 m-1","Total_Cost":250000,"Contribution (Local Community, LA, and the project)":"Labour and other basic services by the Local community","Time frame for the implementation":"0.25 Years","photopath":"https://raw.githubusercontent.com/MWS003-GIS/MWS003-GIS.github.io/main/IWWRMP/Data/EXD/200_photo/MWS_057/Soil Conservation - Mr. R D M Namal Pushpakumara's land and surrounding areas.jpg"},"geometry":{"type":"Point","coordinates":[80.930291,6.894548]}},
{"type":"Feature","properties":{"No.":3,"GND No.":"59","GND Name":"Nawela","Key Activities proposed for Soil and Water conservation":"1. Soil conservation practices -  Mr. G.K.M. Jayasekara's land and surrounding areas (45°-60°)","Priority based on Soil Erosion Hazard":4,"N":6.880922,"E":80.928326,"Quantity":"2 ha","Proposed measure/s":"1. Live fencing/SALT  - 1000 m","Uniti_Cost":"250.00 m-1","Total_Cost":250000,"Contribution (Local Community, LA, and the project)":"Labour and other basic services by the Local community","Time frame for the implementation":"0.25 Years","photopath":"https://raw.githubusercontent.com/MWS003-GIS/MWS003-GIS.github.io/main/IWWRMP/Data/EXD/200_photo/MWS_057/Soil Conservation - Mr. W M JAyasekara's land and surrounding areas.jpg"},"geometry":{"type":"Point","coordinates":[80.928326,6.880922]}},
{"type":"Feature","properties":{"No.":4,"GND No.":"59","GND Name":"Nawela","Key Activities proposed for Soil and Water conservation":"2. Soil conservation practices -  Dehibedda wattha Mr. Gunapala's land and surrounding areas (25°-45°)","Priority based on Soil Erosion Hazard":1,"N":6.86562,"E":80.919916,"Quantity":"4 ha","Proposed measure/s":"1. Live fencing/SALT  - 2000 m","Uniti_Cost":"250.00 m-1","Total_Cost":500000,"Contribution (Local Community, LA, and the project)":"Labour and other basic services by the Local community","Time frame for the implementation":"0.25 Years","photopath":"https://raw.githubusercontent.com/MWS003-GIS/MWS003-GIS.github.io/main/IWWRMP/Data/EXD/200_photo/MWS_057/Soil Conservation - Mr. Gunapala's (Dehibedda wattha) land and surrounding areas.jpg"},"geometry":{"type":"Point","coordinates":[80.919916,6.86562]}},
{"type":"Feature","properties":{"No.":5,"GND No.":"59","GND Name":"Nawela","Key Activities proposed for Soil and Water conservation":"3. Soil conservation practices -  Mrs. W M Jeewarani's land and surrounding areas (25°-40°)","Priority based on Soil Erosion Hazard":3,"N":6.871221,"E":80.926269,"Quantity":"2 ha","Proposed measure/s":"1. Live fencing/SALT  - 1000 m","Uniti_Cost":"250.00 m-1","Total_Cost":250000,"Contribution (Local Community, LA, and the project)":"Labour and other basic services by the Local community","Time frame for the implementation":"0.25 Years","photopath":"https://raw.githubusercontent.com/MWS003-GIS/MWS003-GIS.github.io/main/IWWRMP/Data/EXD/200_photo/MWS_057/Soil Conservation - Mrs. W M Jeewarani's land and surrounding areas.jpg"},"geometry":{"type":"Point","coordinates":[80.926269,6.871221]}},
{"type":"Feature","properties":{"No.":6,"GND No.":"59","GND Name":"Nawela","Key Activities proposed for Soil and Water conservation":"4. Soil conservation practices -  Mr. R.M. Asoka Niel's land and surrounding areas (30°-45°)","Priority based on Soil Erosion Hazard":3,"N":6.874451,"E":80.927018,"Quantity":"2 ha","Proposed measure/s":"1. Live fencing/SALT  - 1000 m","Uniti_Cost":"250.00 m-1","Total_Cost":250000,"Contribution (Local Community, LA, and the project)":"Labour and other basic services by the Local community","Time frame for the implementation":"0.25 Years","photopath":"https://raw.githubusercontent.com/MWS003-GIS/MWS003-GIS.github.io/main/IWWRMP/Data/EXD/200_photo/MWS_057/Soil Conservation - Mr. W M Asoka Neil's land and surrounding areas (4).jpg"},"geometry":{"type":"Point","coordinates":[80.927018,6.874451]}},
{"type":"Feature","properties":{"No.":7,"GND No.":"59","GND Name":"Nawela","Key Activities proposed for Soil and Water conservation":"5. Soil conservation practices -  Mr. Pradeep's (at neluwal bedda) land and surrounding areas (45°-55°)","Priority based on Soil Erosion Hazard":5,"N":6.872226,"E":80.930971,"Quantity":"2 ha","Proposed measure/s":"1. Live fencing/SALT  - 1000 m","Uniti_Cost":"250.00 m-1","Total_Cost":250000,"Contribution (Local Community, LA, and the project)":"Labour and other basic services by the Local community","Time frame for the implementation":"0.25 Years","photopath":"https://raw.githubusercontent.com/MWS003-GIS/MWS003-GIS.github.io/main/IWWRMP/Data/EXD/200_photo/MWS_057/Soil Conservation - Mr. Pradeep's (at neluwa) land and surrounding areas.jpg"},"geometry":{"type":"Point","coordinates":[80.930971,6.872226]}},
{"type":"Feature","properties":{"No.":8,"GND No.":"59","GND Name":"Nawela","Key Activities proposed for Soil and Water conservation":"6. Soil conservation practices -  Nawela School (45°-55°)","Priority based on Soil Erosion Hazard":1,"N":6.878466,"E":80.924978,"Quantity":"3 ha","Proposed measure/s":"1. Live fencing/SALT  - 2000 m","Uniti_Cost":"250.00 m-1","Total_Cost":500000,"Contribution (Local Community, LA, and the project)":"Labour and other basic services by the Local community","Time frame for the implementation":"0.25 Years","photopath":"https://raw.githubusercontent.com/MWS003-GIS/MWS003-GIS.github.io/main/IWWRMP/Data/EXD/200_photo/MWS_057/Soil Conservation - Nawela school.jpg"},"geometry":{"type":"Point","coordinates":[80.924978,6.878466]}},
{"type":"Feature","properties":{"No.":9,"GND No.":"59","GND Name":"Nawela","Key Activities proposed for Soil and Water conservation":"7. Soil conservation practices -  Nawela Temple (25°-35°)","Priority based on Soil Erosion Hazard":1,"N":6.877757,"E":80.92705,"Quantity":"2.5 ha","Proposed measure/s":"1. Live fencing/SALT  - 1500 m","Uniti_Cost":"250.00 m-1","Total_Cost":375000,"Contribution (Local Community, LA, and the project)":"Labour and other basic services by the Local community","Time frame for the implementation":"0.25 Years","photopath":"https://raw.githubusercontent.com/MWS003-GIS/MWS003-GIS.github.io/main/IWWRMP/Data/EXD/200_photo/MWS_057/Soil Conservation - Nawela Temple (3).jpg"},"geometry":{"type":"Point","coordinates":[80.92705,6.877757]}},
{"type":"Feature","properties":{"No.":10,"GND No.":"59E","GND Name":"Pahalayalkumbura","Key Activities proposed for Soil and Water conservation":"1. Soil conservation practices -  Mr. Ranjith Galagedra's land and surrounding areas (35°-50°)","Priority based on Soil Erosion Hazard":1,"N":6.880437,"E":80.935296,"Quantity":"4 ha","Proposed measure/s":"1. Live fencing/SALT  - 2500 m","Uniti_Cost":"250.00 m-1","Total_Cost":625000,"Contribution (Local Community, LA, and the project)":"Labour and other basic services by the Local community","Time frame for the implementation":"0.25 Years","photopath":"https://raw.githubusercontent.com/MWS003-GIS/MWS003-GIS.github.io/main/IWWRMP/Data/EXD/200_photo/MWS_057/Soil Conservation - Mr. Ranjith Galagedra's land and surrounding areas.jpg"},"geometry":{"type":"Point","coordinates":[80.935296,6.880437]}}
]}