{"type":"FeatureCollection","name":"WSP","crs":{"type":"name","properties":{"name":"urn:ogc:def:crs:OGC:1.3:CRS84"}},"features":[
{"type":"Feature","properties":{"No":1,"GND No.":"58A","Name of the Tank":"Peella Arawa reservation","N":6.896969,"E":80.930795,"Observation":"Located in Dyraba GND. Reserve land is being illegally acquired because the boundaries are not marked. This area may be about  2 acres of which about 50% are large trees.","Description":"Vegetative cover improving around the reservation Areca nut seedling in 1.5m x 1.5m grid, Kumbuk/ Mee/ Godapara/ Kaduru/ Aththikka/ Wal Del/ Kekuna randomly mixed seedling and planting at 3.5 m x 3.5 m grid interval\n\nMarking boundaries-Around","Amount (Rs.)":576400,"photopath":"https://raw.githubusercontent.com/MWS003-GIS/MWS003-GIS.github.io/main/IWWRMP/Data/EXD/200_photo/MWS_057/Regularization of Community Water Schemes - Peella Arawa (Ketakella).jpg"},"geometry":{"type":"Point","coordinates":[80.930795,6.896969]}},
{"type":"Feature","properties":{"No":2,"GND No.":"58A","Name of the Tank":"Galpoththa Arawa Nika-aththulawa reservation","N":6.8905,"E":80.932851,"Observation":"Located in Dyraba GND. Reserve land is being illegally acquired because the boundaries are not marked. This area may be about  1 acre of which about 15% are large trees. The spring water flowing from this reserve is used for agricultural purposes.","Description":"Vegetative cover improving around the reservation Areca nut seedling in 1.5m x 1.5m grid, Kumbuk/ Mee/ Godapara/ Kaduru/ Aththikka/ Wal Del/ Kekuna randomly mixed seedling and planting at 3.5 m x 3.5 m grid interval\n\nMarking boundaries-Around","Amount (Rs.)":570900,"photopath":"https://raw.githubusercontent.com/MWS003-GIS/MWS003-GIS.github.io/main/IWWRMP/Data/EXD/200_photo/MWS_057/Regularization of Community Water Schemes - Galpoththa Arawa community water project.jpg"},"geometry":{"type":"Point","coordinates":[80.932851,6.8905]}},
{"type":"Feature","properties":{"No":3,"GND No.":"58A","Name of the Tank":"Kirimetiya Kele and Gedarakumbura reservations","N":6.891586,"E":80.930414,"Observation":"Reserve land is being illegally acquired because the boundaries are not marked. This area may be about  1 acre of which about 25% are large trees. The spring water flowing from this reserve is used for agricultural purposes.","Description":"Vegetative cover improving around the reservation Areca nut seedling in 1.5m x 1.5m grid, Kumbuk/ Mee/ Godapara/ Kaduru/ Aththikka/ Wal Del/ Kekuna randomly mixed seedling and planting at 3.5 m x 3.5 m grid interval\n\nMarking boundaries-Around","Amount (Rs.)":465300,"photopath":"https://raw.githubusercontent.com/MWS003-GIS/MWS003-GIS.github.io/main/IWWRMP/Data/EXD/200_photo/MWS_057/Regularization of Community Water Schemes - Kirimetiya Kele spring.jpg"},"geometry":{"type":"Point","coordinates":[80.930414,6.891586]}},
{"type":"Feature","properties":{"No":4,"GND No.":"58A","Name of the Tank":"Helagama Dyrabawatta spring","N":6.892944,"E":80.93244,"Observation":"Reserve land is being illegally acquired because the boundaries are not marked. This area may be about  1 acre of which about 5% are large trees.","Description":"Vegetative cover improving around the reservation Areca nut seedling in 1.5m x 1.5m grid, Kumbuk/ Mee/ Godapara/ Kaduru/ Aththikka/ Wal Del/ Kekuna randomly mixed seedling and planting at 3.5 m x 3.5 m grid interval\n\nMarking boundaries-Around","Amount (Rs.)":624800,"photopath":"https://raw.githubusercontent.com/MWS003-GIS/MWS003-GIS.github.io/main/IWWRMP/Data/EXD/200_photo/MWS_057/Water Catchment Area Conservation - Helagama Dyrabawatta spring (4).jpg"},"geometry":{"type":"Point","coordinates":[80.93244,6.892944]}},
{"type":"Feature","properties":{"No":5,"GND No.":"59","Name of the Tank":"Neluwelbedda reservation","N":6.872358,"E":80.930691,"Observation":"Reserve land is being illegally acquired because the boundaries are not marked. This area may be about  10 acres of which about 40% are large trees. The spring water flowing from this reserve is used for agricultural purposes.","Description":"Vegetative cover improving around the reservation Areca nut seedling in 1.5m x 1.5m grid, Kumbuk/ Mee/ Godapara/ Kaduru/ Aththikka/ Wal Del/ Kekuna randomly mixed seedling and planting at 3.5 m x 3.5 m grid interval\n\nMarking boundaries-Around","Amount (Rs.)":848100,"photopath":"https://raw.githubusercontent.com/MWS003-GIS/MWS003-GIS.github.io/main/IWWRMP/Data/EXD/200_photo/MWS_057/Specially sensitive Ecological zones - Gelawel Bedda reservation.jpg"},"geometry":{"type":"Point","coordinates":[80.930691,6.872358]}},
{"type":"Feature","properties":{"No":6,"GND No.":"59","Name of the Tank":"Conservation of the reservation around the Kurundugolla Wewa","N":6.859955,"E":80.920892,"Observation":"Reserve land is being illegally acquired because the boundaries are not marked. This area may be about  8 acres of which about 20% are large trees. The spring water flowing from this reserve is used for agricultural purposes.","Description":"Vegetative cover improving around the reservation Areca nut seedling in 1.5m x 1.5m grid, Kumbuk/ Mee/ Godapara/ Kaduru/ Aththikka/ Wal Del/ Kekuna randomly mixed seedling and planting at 3.5 m x 3.5 m grid interval\n\nMarking boundaries-Around","Amount (Rs.)":630300,"photopath":"https://raw.githubusercontent.com/MWS003-GIS/MWS003-GIS.github.io/main/IWWRMP/Data/EXD/200_photo/MWS_057/Water Catchment Area Conservation - Conservation of the reservation around the Kurundugolla Wewa.jpg"},"geometry":{"type":"Point","coordinates":[80.920892,6.859955]}},
{"type":"Feature","properties":{"No":7,"GND No.":"59","Name of the Tank":"The reservation around the Mahathenna Wewa","N":6.869948,"E":80.926302,"Observation":"Reserve land is being illegally acquired because the boundaries are not marked. This area may be about  0.5 acres of which about 45% are large trees. The spring water flowing from this reserve is used for agricultural purposes.","Description":"Vegetative cover improving around the reservation Areca nut seedling in 1.5m x 1.5m grid, Kumbuk/ Mee/ Godapara/ Kaduru/ Aththikka/ Wal Del/ Kekuna randomly mixed seedling and planting at 3.5 m x 3.5 m grid interval\n\nMarking boundaries-Around","Amount (Rs.)":299200,"photopath":"https://raw.githubusercontent.com/MWS003-GIS/MWS003-GIS.github.io/main/IWWRMP/Data/EXD/200_photo/MWS_057/Water Catchment Area Conservation - The reservation around the Mahathenna Wewa.jpg"},"geometry":{"type":"Point","coordinates":[80.926302,6.869948]}},
{"type":"Feature","properties":{"No":8,"GND No.":"59","Name of the Tank":"Dedunuwala water reserve","N":6.874626,"E":80.928554,"Observation":"Reserve land is being illegally acquired because the boundaries are not marked. This area may be about  10 acres of which about 50% are large trees. The spring water flowing from this reserve is used for agricultural purposes.","Description":"Vegetative cover improving around the reservation Areca nut seedling in 1.5m x 1.5m grid, Kumbuk/ Mee/ Godapara/ Kaduru/ Aththikka/ Wal Del/ Kekuna randomly mixed seedling and planting at 3.5 m x 3.5 m grid interval\n\nMarking boundaries-Around","Amount (Rs.)":630300,"photopath":"https://raw.githubusercontent.com/MWS003-GIS/MWS003-GIS.github.io/main/IWWRMP/Data/EXD/200_photo/MWS_057/Water Catchment Area Conservation - Dedunuwala water reserve.jpg"},"geometry":{"type":"Point","coordinates":[80.928554,6.874626]}},
{"type":"Feature","properties":{"No":9,"GND No.":"59B","Name of the Tank":"Gedara Arawa","N":6.88567,"E":80.923053,"Observation":"Although this tank has been developed, water is leaking from it (L=2m, W=2m, H=1m). This area may be about  1 perch.","Description":"Plaster 12mm thick in 1:3 cement and sand finished smooth with gray cement floating- Water tank\n\nMiscellaneous\n\nContingencies 10%","Amount (Rs.)":24200,"photopath":"https://raw.githubusercontent.com/MWS003-GIS/MWS003-GIS.github.io/main/IWWRMP/Data/EXD/200_photo/MWS_057/Drinking Water Sources to be Conserved - Gedara Arawa.jpg"},"geometry":{"type":"Point","coordinates":[80.923053,6.88567]}},
{"type":"Feature","properties":{"No":10,"GND No.":"59C","Name of the Tank":"Ruppe","N":6.874756,"E":80.91968,"Observation":"Although this tank has been developed, water is leaking from it (L=3m, W=2.4m, H=1.2m). Reserve land is being illegally acquired because the boundaries are not marked. This area may be about  1.5 acres of which about 50% are large trees. The spring water","Description":"Plaster 12mm thick in 1:3 cement and sand finished smooth with gray cement floating- Water tank\n\nVegetative cover improving around the reservation Areca nut seedling in 1.5m x 1.5m grid, Kumbuk/ Mee/ Godapara/ Kaduru/ Aththikka/ Wal Del/ Kekun","Amount (Rs.)":601700,"photopath":"https://raw.githubusercontent.com/MWS003-GIS/MWS003-GIS.github.io/main/IWWRMP/Data/EXD/200_photo/MWS_057/Water Catchment Area Conservation - Ruppe.jpg"},"geometry":{"type":"Point","coordinates":[80.91968,6.874756]}},
{"type":"Feature","properties":{"No":11,"GND No.":"59C","Name of the Tank":"Udukumbura","N":6.871371,"E":80.920631,"Observation":"Reserve land is being illegally acquired because the boundaries are not marked. This area may be about  2.5 acres of which about 70% are large trees. The spring water flowing from this reserve is used for agricultural purposes.","Description":"Vegetative cover improving around the reservation Areca nut seedling in 1.5m x 1.5m grid, Kumbuk/ Mee/ Godapara/ Kaduru/ Aththikka/ Wal Del/ Kekuna randomly mixed seedling and planting at 3.5 m x 3.5 m grid interval\n\nMarking boundaries-Around","Amount (Rs.)":570900,"photopath":"https://raw.githubusercontent.com/MWS003-GIS/MWS003-GIS.github.io/main/IWWRMP/Data/EXD/200_photo/MWS_057/Water Catchment Area Conservation - Udukumbura.jpg"},"geometry":{"type":"Point","coordinates":[80.920631,6.871371]}},
{"type":"Feature","properties":{"No":12,"GND No.":"59C","Name of the Tank":"Sapubedda","N":6.87898,"E":80.911715,"Observation":"Reserve land is being illegally acquired because the boundaries are not marked. This area may be about  1 acre of which about 30% are large trees. The spring water flowing from this reserve is used for agricultural purposes.","Description":"Vegetative cover improving around the reservation Areca nut seedling in 1.5m x 1.5m grid, Kumbuk/ Mee/ Godapara/ Kaduru/ Aththikka/ Wal Del/ Kekuna randomly mixed seedling and planting at 3.5 m x 3.5 m grid interval\n\nMarking boundaries-Around","Amount (Rs.)":459800,"photopath":"https://raw.githubusercontent.com/MWS003-GIS/MWS003-GIS.github.io/main/IWWRMP/Data/EXD/200_photo/MWS_057/Water Catchment Area Conservation - Sapubedda.jpg"},"geometry":{"type":"Point","coordinates":[80.911715,6.87898]}},
{"type":"Feature","properties":{"No":13,"GND No.":"59C","Name of the Tank":"Galpottha","N":6.879748,"E":80.91246,"Observation":"Reserve land is being illegally acquired because the boundaries are not marked. This area may be about  3 acres of which about 35% are large trees. The spring water flowing from this reserve is used for agricultural purposes.","Description":"Vegetative cover improving around the reservation Areca nut seedling in 1.5m x 1.5m grid, Kumbuk/ Mee/ Godapara/ Kaduru/ Aththikka/ Wal Del/ Kekuna randomly mixed seedling and planting at 3.5 m x 3.5 m grid interval\n\nMarking boundaries-Around","Amount (Rs.)":624800,"photopath":"https://raw.githubusercontent.com/MWS003-GIS/MWS003-GIS.github.io/main/IWWRMP/Data/EXD/200_photo/MWS_057/Water Catchment Area Conservation - Galpottha (2).jpg"},"geometry":{"type":"Point","coordinates":[80.91246,6.879748]}},
{"type":"Feature","properties":{"No":14,"GND No.":"59C","Name of the Tank":"Pambale Arawa Middle part","N":6.878559,"E":80.917715,"Observation":"This land has been completely illegally occupied.","Description":"Vegetative cover improving around the reservation Areca nut seedling in 1.5m x 1.5m grid, Kumbuk/ Mee/ Godapara/ Kaduru/ Aththikka/ Wal Del/ Kekuna randomly mixed seedling and planting at 3.5 m x 3.5 m grid interval\n\nMarking boundaries-Around","Amount (Rs.)":561000,"photopath":"https://raw.githubusercontent.com/MWS003-GIS/MWS003-GIS.github.io/main/IWWRMP/Data/EXD/200_photo/MWS_057/Water Catchment Area Conservation - Pambale Arawa Middle part.jpg"},"geometry":{"type":"Point","coordinates":[80.917715,6.878559]}},
{"type":"Feature","properties":{"No":15,"GND No.":"59E","Name of the Tank":"Pahalayalkumbura","N":6.881494,"E":80.936281,"Observation":"This water source is well preserved and well-functioning water scheme operates from it.","Description":"Marking boundaries-Around the reservation\n\nContingencies 10%","Amount (Rs.)":38500,"photopath":"https://raw.githubusercontent.com/MWS003-GIS/MWS003-GIS.github.io/main/IWWRMP/Data/EXD/200_photo/MWS_057/Water Catchment Area Conservation - Pahalayalkumbura.jpg"},"geometry":{"type":"Point","coordinates":[80.936281,6.881494]}},
{"type":"Feature","properties":{"No":16,"GND No.":"59E","Name of the Tank":"Mal Arawa reservation","N":6.880768,"E":80.939855,"Observation":"Reserve land is being illegally acquired because the boundaries are not marked. This area may be about  1 acre of which about 70% are large trees. This reserve is bordered by Udupilla and Dayabarawattha GND's.","Description":"Vegetative cover improving around the reservation Areca nut seedling in 1.5m x 1.5m grid, Kumbuk/ Mee/ Godapara/ Kaduru/ Aththikka/ Wal Del/ Kekuna randomly mixed seedling and planting at 3.5 m x 3.5 m grid interval\n\nMarking boundaries-Around","Amount (Rs.)":293700,"photopath":"https://raw.githubusercontent.com/MWS003-GIS/MWS003-GIS.github.io/main/IWWRMP/Data/EXD/200_photo/MWS_057/Water Catchment Area Conservation - Mal Arawa reservation (2).jpg"},"geometry":{"type":"Point","coordinates":[80.939855,6.880768]}},
{"type":"Feature","properties":{"No":17,"GND No.":"59E","Name of the Tank":"Hena Kele reservation","N":6.880604,"E":80.937769,"Observation":"Reserve land is being illegally acquired because the boundaries are not marked. This area may be about  0.75 acre of which about 70% are large trees.","Description":"Vegetative cover improving around the reservation Areca nut seedling in 1.5m x 1.5m grid, Kumbuk/ Mee/ Godapara/ Kaduru/ Aththikka/ Wal Del/ Kekuna randomly mixed seedling and planting at 3.5 m x 3.5 m grid interval\n\nMarking boundaries-Around","Amount (Rs.)":288200,"photopath":"https://raw.githubusercontent.com/MWS003-GIS/MWS003-GIS.github.io/main/IWWRMP/Data/EXD/200_photo/MWS_057/Water Catchment Area Conservation - Hena Kele reservation (5).jpg"},"geometry":{"type":"Point","coordinates":[80.937769,6.880604]}},
{"type":"Feature","properties":{"No":18,"GND No.":"59E","Name of the Tank":"Edurukotuwa reservation","N":6.875541,"E":80.93644,"Observation":"Reserve land is being illegally acquired because the boundaries are not marked. This area may be about 20 perch of which about 60% are large trees.","Description":"Vegetative cover improving around the reservation Areca nut seedling in 1.5m x 1.5m grid, Kumbuk/ Mee/ Godapara/ Kaduru/ Aththikka/ Wal Del/ Kekuna randomly mixed seedling and planting at 3.5 m x 3.5 m grid interval\n\nMarking boundaries-Around","Amount (Rs.)":160600,"photopath":"https://raw.githubusercontent.com/MWS003-GIS/MWS003-GIS.github.io/main/IWWRMP/Data/EXD/200_photo/MWS_057/Water Catchment Area Conservation - Edurukotuwa reservation.jpg"},"geometry":{"type":"Point","coordinates":[80.93644,6.875541]}},
{"type":"Feature","properties":{"No":19,"GND No.":"59E","Name of the Tank":"Dikbedda reservation","N":6.849951,"E":80.913472,"Observation":"This area may be about  1 acres of which about 10% are large trees. A well-developed formal water scheme is in operation.","Description":"Vegetative cover improving around the reservation Areca nut seedling in 1.5m x 1.5m grid, Kumbuk/ Mee/ Godapara/ Kaduru/ Aththikka/ Wal Del/ Kekuna randomly mixed seedling and planting at 3.5 m x 3.5 m grid interval\n\nMarking boundaries-Around","Amount (Rs.)":561000,"photopath":"https://raw.githubusercontent.com/MWS003-GIS/MWS003-GIS.github.io/main/IWWRMP/Data/EXD/200_photo/MWS_057/Water Catchment Area Conservation - Dikbedda reservation (3).jpg"},"geometry":{"type":"Point","coordinates":[80.913472,6.849951]}},
{"type":"Feature","properties":{"No":21,"GND No.":"59E","Name of the Tank":"Gonagolla reservation","N":6.843547,"E":80.897916,"Observation":"This area may be about  2 rood of which about 40% are large trees. and is being illegally acquired because there are no boundaries.","Description":"Vegetative cover improving around the reservation Areca nut seedling in 1.5m x 1.5m grid, Kumbuk/ Mee/ Godapara/ Kaduru/ Aththikka/ Wal Del/ Kekuna randomly mixed seedling and planting at 3.5 m x 3.5 m grid interval\n\nMarking boundaries-Around","Amount (Rs.)":576400,"photopath":"https://raw.githubusercontent.com/MWS003-GIS/MWS003-GIS.github.io/main/IWWRMP/Data/EXD/200_photo/MWS_057/Water Catchment Area Conservation - Gonagolla reservation (3).jpg"},"geometry":{"type":"Point","coordinates":[80.897916,6.843547]}},
{"type":"Feature","properties":{"No":22,"GND No.":"61C","Name of the Tank":"Polkotuhena spring","N":6.838081,"E":80.903738,"Observation":"This area may be about  2 acres of which about 15% are large trees. Reserve land is being illegally acquired because the boundaries are not marked. A well-developed formal water scheme is in operation.","Description":"Vegetative cover improving around the reservation Areca nut seedling in 1.5m x 1.5m grid, Kumbuk/ Mee/ Godapara/ Kaduru/ Aththikka/ Wal Del/ Kekuna randomly mixed seedling and planting at 3.5 m x 3.5 m grid interval\n\nMarking boundaries-Around","Amount (Rs.)":624800,"photopath":"https://raw.githubusercontent.com/MWS003-GIS/MWS003-GIS.github.io/main/IWWRMP/Data/EXD/200_photo/MWS_057/Drinking Water Sources to be Conserved - Polkotuhena spring.jpg"},"geometry":{"type":"Point","coordinates":[80.903738,6.838081]}},
{"type":"Feature","properties":{"No":23,"GND No.":"61C","Name of the Tank":"Dambedda spring","N":6.840987,"E":80.916571,"Observation":"Located in Hinguragamuwa GND. Reserve land is being illegally acquired because the boundaries are not marked. This area may be about  0.5 acres of which about 45% are large trees. The spring water flowing from this reserve is used for agricultural purpos","Description":"Vegetative cover improving around the reservation Areca nut seedling in 1.5m x 1.5m grid, Kumbuk/ Mee/ Godapara/ Kaduru/ Aththikka/ Wal Del/ Kekuna randomly mixed seedling and planting at 3.5 m x 3.5 m grid interval\n\nMarking boundaries-Around","Amount (Rs.)":437800,"photopath":"https://raw.githubusercontent.com/MWS003-GIS/MWS003-GIS.github.io/main/IWWRMP/Data/EXD/200_photo/MWS_057/Drinking Water Sources to be Conserved - Dambedda spring.jpg"},"geometry":{"type":"Point","coordinates":[80.916571,6.840987]}},
{"type":"Feature","properties":{"No":24,"GND No.":"61C","Name of the Tank":"Kekunagaha Ulpatha","N":6.84414,"E":80.915472,"Observation":"Reserve land is being illegally acquired because the boundaries are not marked. This area may be about  3.5 acres of which about 10% are large trees.","Description":"Vegetative cover improving around the reservation Areca nut seedling in 1.5m x 1.5m grid, Kumbuk/ Mee/ Godapara/ Kaduru/ Aththikka/ Wal Del/ Kekuna randomly mixed seedling and planting at 3.5 m x 3.5 m grid interval\n\nMarking boundaries-Around","Amount (Rs.)":624800,"photopath":"Not_Available"},"geometry":{"type":"Point","coordinates":[80.915472,6.84414]}},
{"type":"Feature","properties":{"No":25,"GND No.":"61C","Name of the Tank":"Nelawala","N":6.838766,"E":80.90152,"Observation":"Reserve land is being illegally acquired because the boundaries are not marked. This area may be about  1 acres of which about 15% are large trees. The spring water flowing from this reserve is used for agricultural purposes.","Description":"Vegetative cover improving around the reservation Areca nut seedling in 1.5m x 1.5m grid, Kumbuk/ Mee/ Godapara/ Kaduru/ Aththikka/ Wal Del/ Kekuna randomly mixed seedling and planting at 3.5 m x 3.5 m grid interval\n\nMarking boundaries-Around","Amount (Rs.)":491700,"photopath":"https://raw.githubusercontent.com/MWS003-GIS/MWS003-GIS.github.io/main/IWWRMP/Data/EXD/200_photo/MWS_057/Minor Irrigation - Nelawala Canal (2).jpg"},"geometry":{"type":"Point","coordinates":[80.90152,6.838766]}}
]}