{"type":"FeatureCollection","name":"MI","crs":{"type":"name","properties":{"name":"urn:ogc:def:crs:OGC:1.3:CRS84"}},"features":[
{"type":"Feature","properties":{"No":1,"GND No.":"504E","Scheme":"Alma Gremond Canal","N":7.08615,"E":80.83027,"Observation":"Collecting and paving nearby available stones on the stream / canal banksVegetative cover improving (1.5m-2.0m wide) with Areca nut seedlings @ 1.5m spacing in two rows, Beetle creeper VP @ 3m spacing in a single row, Green gram as a cover crop including","Description":"30,000.00","Amount (Rs.)":"-","photopath":"https://raw.githubusercontent.com/MWS003-GIS/MWS003-GIS.github.io/main/IWWRMP/Data/EXD/200_photo/MWS_026/Alma Gremond Stream.jpg"},"geometry":{"type":"Point","coordinates":[80.83027,7.08615]}},
{"type":"Feature","properties":{"No":2,"GND No.":"504E","Scheme":"Rilamulla Canal","N":7.07556,"E":80.84732,"Observation":"Collecting and paving nearby available stones on the stream / canal banksVegetative cover improving (1.5m-2.0m wide) with Areca nut seedlings @ 1.5m spacing in two rows, Beetle creeper VP @ 3m spacing in a single row, Green gram as a cover crop including","Description":"45,000.00","Amount (Rs.)":"-","photopath":"https://raw.githubusercontent.com/MWS003-GIS/MWS003-GIS.github.io/main/IWWRMP/Data/EXD/200_photo/MWS_026/Rilamulla Kandura.jpg"},"geometry":{"type":"Point","coordinates":[80.84732,7.07556]}},
{"type":"Feature","properties":{"No":3,"GND No.":"504E","Scheme":"Charliwely Canal","N":7.07933,"E":80.82968,"Observation":"Collecting and paving nearby available stones on the stream / canal banksVegetative cover improving (1.5m-2.0m wide) with Areca nut seedlings @ 1.5m spacing in two rows, Beetle creeper VP @ 3m spacing in a single row, Green gram as a cover crop including","Description":"45,000.00","Amount (Rs.)":"-","photopath":"https://raw.githubusercontent.com/MWS003-GIS/MWS003-GIS.github.io/main/IWWRMP/Data/EXD/200_photo/MWS_026/Charliwely Canal (Stream).jpg"},"geometry":{"type":"Point","coordinates":[80.82968,7.07933]}},
{"type":"Feature","properties":{"No":4,"GND No.":"514B","Scheme":"Weliwita Canal","N":7.111837,"E":80.857376,"Observation":"Part of the existing canal has been concreted and balance part earthen canal, Command area 15.0 acres","Description":"Canals reservation protection by concrete lining  For  100mm thick , 0.3m  wide  and 0.3m high canal -double bankingStream / canal  reservation protection by earthfilling of  strip   of 1.5m to 2m wide  and average Depth of 0.5m, Turfing to new sloping","Amount (Rs.)":"795,000.00","photopath":"https://raw.githubusercontent.com/MWS003-GIS/MWS003-GIS.github.io/main/IWWRMP/Data/EXD/200_photo/MWS_026/Valipita Canal End.jpg"},"geometry":{"type":"Point","coordinates":[80.857376,7.111837]}},
{"type":"Feature","properties":{"No":5,"GND No.":"514C","Scheme":"Dikkumbura Canal","N":7.11101,"E":80.85911,"Observation":"Canals reservation protection by concrete lining  For  100mm thick , 0.3m  wide  and 0.3m high canal -double bankingStream / canal  reservation protection by earthfilling of  strip   of 1.5m to 2m wide  and average Depth of 0.5m, Turfing to new sloping","Description":"330,000.00","Amount (Rs.)":"-","photopath":"Not_Available"},"geometry":{"type":"Point","coordinates":[80.85911,7.11101]}},
{"type":"Feature","properties":{"No":6,"GND No.":"514D","Scheme":"Gurugoda Canal","N":7.10984,"E":80.866581,"Observation":"Part of the existing canal has been concreted and balance part earthen canal,, A anicut of Construct stone and earth, Command area 25.0 acres","Description":"Construction of 8.0m long x 1.2m height anicut with 01 nos x 0.9m x 1.2m openings, supplying of  3\" thick CL I timber planks for each opening, supplying and fixing of 9\" Dia CI gate inclusive of all arrangementsCanals reservation protection by concrete l","Amount (Rs.)":"1,215,000.00","photopath":"https://raw.githubusercontent.com/MWS003-GIS/MWS003-GIS.github.io/main/IWWRMP/Data/EXD/200_photo/MWS_026/Gurugoda canal.jpg"},"geometry":{"type":"Point","coordinates":[80.866581,7.10984]}},
{"type":"Feature","properties":{"No":7,"GND No.":"514D","Scheme":"Rambukpotha Canal","N":7.105796,"E":80.861426,"Observation":"Canals reservation protection by concrete lining  For  100mm thick , 0.3m  wide  and 0.3m high canal -double bankingStream / canal  reservation protection by earthfilling of  strip   of 1.5m to 2m wide  and average Depth of 0.5m, Turfing to new sloping","Description":"305,000.00","Amount (Rs.)":"-","photopath":"https://raw.githubusercontent.com/MWS003-GIS/MWS003-GIS.github.io/main/IWWRMP/Data/EXD/200_photo/MWS_026/Rambukpotha Canal.jpg"},"geometry":{"type":"Point","coordinates":[80.861426,7.105796]}},
{"type":"Feature","properties":{"No":8,"GND No.":"514D","Scheme":"Nugethenna Canal","N":7.109608,"E":80.861831,"Observation":"Canals reservation protection by concrete lining  For  125mm thick , 0.5m  wide  and 0.4m high canal -double bankingStream / canal  reservation protection by earthfilling of  strip   of 1.5m to 2m wide  and average Depth of 0.5m, Turfing to new sloping","Description":"2,285,000.00","Amount (Rs.)":"-","photopath":"https://raw.githubusercontent.com/MWS003-GIS/MWS003-GIS.github.io/main/IWWRMP/Data/EXD/200_photo/MWS_026/Nugethanna canal.jpg"},"geometry":{"type":"Point","coordinates":[80.861831,7.109608]}},
{"type":"Feature","properties":{"No":9,"GND No.":"514D","Scheme":"Galapitiyaya Canal","N":7.11668,"E":80.86094,"Observation":"Part of the existing canal has been concreted and balance part earthen canal, Command area 32.0 acres","Description":"Canals reservation protection by concrete lining  For  125mm thick , 0.5m  wide  and 0.4m high canal -double bankingStream / canal  reservation protection by earthfilling of  strip   of 1.5m to 2m wide  and average Depth of 0.5m, Turfing to new sloping","Amount (Rs.)":"1,640,000.00","photopath":"https://raw.githubusercontent.com/MWS003-GIS/MWS003-GIS.github.io/main/IWWRMP/Data/EXD/200_photo/MWS_026/Galahitiyawala Canal.jpg"},"geometry":{"type":"Point","coordinates":[80.86094,7.11668]}},
{"type":"Feature","properties":{"No":10,"GND No.":"514D","Scheme":"Mahakumbura Canal","N":7.121117,"E":80.860287,"Observation":"Canals reservation protection by concrete lining  For  125mm thick , 0.5m  wide  and 0.4m high canal -double bankingStream / canal  reservation protection by earthfilling of  strip   of 1.5m to 2m wide  and average Depth of 0.5m, Turfing to new sloping","Description":"2,255,000.00","Amount (Rs.)":"-","photopath":"https://raw.githubusercontent.com/MWS003-GIS/MWS003-GIS.github.io/main/IWWRMP/Data/EXD/200_photo/MWS_026/Mahakumbure canal.jpg"},"geometry":{"type":"Point","coordinates":[80.860287,7.121117]}},
{"type":"Feature","properties":{"No":11,"GND No.":"514F","Scheme":"Batathota Canal","N":7.134019,"E":80.849715,"Observation":"Canals reservation protection by concrete lining  For  100mm thick , 0.3m  wide  and 0.3m high canal -double bankingStream / canal  reservation protection by earthfilling of  strip   of 1.5m to 2m wide  and average Depth of 0.5m, Turfing to new sloping","Description":"305,000.00","Amount (Rs.)":"-","photopath":"https://raw.githubusercontent.com/MWS003-GIS/MWS003-GIS.github.io/main/IWWRMP/Data/EXD/200_photo/MWS_026/Batatota Canal.jpg"},"geometry":{"type":"Point","coordinates":[80.849715,7.134019]}},
{"type":"Feature","properties":{"No":12,"GND No.":"514F","Scheme":"Elwatta mid canal","N":7.118531,"E":80.85698,"Observation":"The existing anicut is good, Part of the existing canal has been concreted and balance part earthen canal, Command area 7.0 acres","Description":"Canals reservation protection by concrete lining  For  100mm thick , 0.3m  wide  and 0.3m high canal -double bankingStream / canal  reservation protection by earthfilling of  strip   of 1.5m to 2m wide  and average Depth of 0.5m, Turfing to new sloping","Amount (Rs.)":"360,000.00","photopath":"https://raw.githubusercontent.com/MWS003-GIS/MWS003-GIS.github.io/main/IWWRMP/Data/EXD/200_photo/MWS_026/Alwaththa Canal.jpg"},"geometry":{"type":"Point","coordinates":[80.85698,7.118531]}},
{"type":"Feature","properties":{"No":13,"GND No.":"514F","Scheme":"Karampitiya Canal","N":7.12149,"E":80.85979,"Observation":"The existing anicut is damaged, Part of the existing canal has been concreted and balance part earthen canal, Water is leak from the bottom of a 100m long section of the constructed canal, Command area 6.0 acres","Description":"Construction of 4.0m long x 0.9m height anicut with 02 nos x 0.9m width openings, supplying of  3\" thick CL I timber planks for each opening, supplying and fixing of 9\" Dia CI gate inclusive of all arrangementsCanals reservation protection by concrete li","Amount (Rs.)":"365,000.00","photopath":"https://raw.githubusercontent.com/MWS003-GIS/MWS003-GIS.github.io/main/IWWRMP/Data/EXD/200_photo/MWS_026/Karampitiya Canal.jpg"},"geometry":{"type":"Point","coordinates":[80.85979,7.12149]}},
{"type":"Feature","properties":{"No":14,"GND No.":"514F","Scheme":"Batathota Kandura Canal","N":7.122112,"E":80.863497,"Observation":"Repairs to the existing anicutConstruction of 6 m long 0.50m x 0.40m trough with 6 m spans each rested on piers (for canal bed elevated 2 m in average above the existing GL)Vegetative cover improving, replanting bamboo species and vetiver grass or ripari","Description":"475,000.00","Amount (Rs.)":"-","photopath":"https://raw.githubusercontent.com/MWS003-GIS/MWS003-GIS.github.io/main/IWWRMP/Data/EXD/200_photo/MWS_026/Batatota Canal.jpg"},"geometry":{"type":"Point","coordinates":[80.863497,7.122112]}},
{"type":"Feature","properties":{"No":15,"GND No.":"514F","Scheme":"Madawale Canal","N":7.12304,"E":80.863108,"Observation":"The existing anicut is good, Part of the existing canal has been concreted and balance part earthen canal, Command area 8.0 acres","Description":"Canals reservation protection by concrete lining  For  100mm thick , 0.3m  wide  and 0.3m high canal -double bankingStream / canal  reservation protection by earthfilling of  strip   of 1.5m to 2m wide  and average Depth of 0.5m, Turfing to new sloping","Amount (Rs.)":"400,000.00","photopath":"https://raw.githubusercontent.com/MWS003-GIS/MWS003-GIS.github.io/main/IWWRMP/Data/EXD/200_photo/MWS_026/Madawale Canal.jpg"},"geometry":{"type":"Point","coordinates":[80.863108,7.12304]}},
{"type":"Feature","properties":{"No":16,"GND No.":"515","Scheme":"Batagolla Canal","N":7.11087,"E":80.867343,"Observation":"Canals reservation protection by concrete lining  For  125mm thick , 0.5m  wide  and 0.4m high canal -double bankingStream / canal  reservation protection by earthfilling of  strip   of 1.5m to 2m wide  and average Depth of 0.5m, Turfing to new sloping","Description":"2,330,000.00","Amount (Rs.)":"-","photopath":"Not_Available"},"geometry":{"type":"Point","coordinates":[80.867343,7.11087]}},
{"type":"Feature","properties":{"No":17,"GND No.":"515","Scheme":"Ilukpalassa Anicut","N":7.112549,"E":80.869592,"Observation":"Construction of 10.0m long x 1.2m height anicut with 02 nos x 0.9m x 1.2m openings, supplying of  3\" thick CL I timber planks for each opening, supplying and fixing of 9\" Dia CI gate inclusive of all arrangementsVegetative cover improving, replanting bam","Description":"570,000.00","Amount (Rs.)":"-","photopath":"Not_Available"},"geometry":{"type":"Point","coordinates":[80.869592,7.112549]}},
{"type":"Feature","properties":{"No":18,"GND No.":"515","Scheme":"Ilukpalassa Canal","N":7.112751,"E":80.869721,"Observation":"Canals reservation protection by concrete lining  For  125mm thick , 0.5m  wide  and 0.4m high canal -double bankingStream / canal  reservation protection by earthfilling of  strip   of 1.5m to 2m wide  and average Depth of 0.5m, Turfing to new sloping","Description":"285,000.00","Amount (Rs.)":"-","photopath":"Not_Available"},"geometry":{"type":"Point","coordinates":[80.869721,7.112751]}},
{"type":"Feature","properties":{"No":19,"GND No.":"515A","Scheme":"Manelwala Canal","N":7.110948,"E":80.872301,"Observation":"Canals reservation protection by concrete lining  For  125mm thick , 0.5m  wide  and 0.4m high canal -double bankingStream / canal  reservation protection by earthfilling of  strip   of 1.5m to 2m wide  and average Depth of 0.5m, Turfing to new sloping","Description":"3,340,000.00","Amount (Rs.)":"-","photopath":"https://raw.githubusercontent.com/MWS003-GIS/MWS003-GIS.github.io/main/IWWRMP/Data/EXD/200_photo/MWS_026/Manelwala Canal.JPG"},"geometry":{"type":"Point","coordinates":[80.872301,7.110948]}},
{"type":"Feature","properties":{"No":20,"GND No.":"515A","Scheme":"Nikawaththa Canal","N":7.110591,"E":80.870919,"Observation":"Collecting and paving nearby available stones on the stream / canal banksVegetative cover improving (1.5m-2.0m wide) with Areca nut seedlings @ 1.5m spacing in two rows, Beetle creeper VP @ 3m spacing in a single row, Green gram as a cover crop including","Description":"210,000.00","Amount (Rs.)":"-","photopath":"https://raw.githubusercontent.com/MWS003-GIS/MWS003-GIS.github.io/main/IWWRMP/Data/EXD/200_photo/MWS_026/Nikawattha Canal.JPG"},"geometry":{"type":"Point","coordinates":[80.870919,7.110591]}},
{"type":"Feature","properties":{"No":21,"GND No.":"515A","Scheme":"Kudugala Canal","N":7.104665,"E":80.869415,"Observation":"Vegetative cover improving (1.5m-2.0m wide) with Areca nut seedlings @ 1.5m spacing in two rows, Beetle creeper VP @ 3m spacing in a single row, Green gram as a cover crop including applying of compost manure, NPK fertilizer and maintenanceMiscellaneous","Description":"115,000.00","Amount (Rs.)":"-","photopath":"Not_Available"},"geometry":{"type":"Point","coordinates":[80.869415,7.104665]}},
{"type":"Feature","properties":{"No":22,"GND No.":"515C","Scheme":"Katukithula Ela (Kandegama)","N":7.08122,"E":80.86323,"Observation":"Canals reservation protection by concrete lining  For  100mm thick , 0.3m  wide  and 0.3m high canal -double bankingVegetative cover improving (1.5m-2.0m wide) with Areca nut seedlings @ 1.5m spacing in two rows, Beetle creeper VP @ 3m spacing in a singl","Description":"360,000.00","Amount (Rs.)":"-","photopath":"https://raw.githubusercontent.com/MWS003-GIS/MWS003-GIS.github.io/main/IWWRMP/Data/EXD/200_photo/MWS_026/Katukithule Canal.jpg"},"geometry":{"type":"Point","coordinates":[80.86323,7.08122]}},
{"type":"Feature","properties":{"No":23,"GND No.":"515C","Scheme":"Palle Ela","N":7.08484,"E":80.86573,"Observation":"Canals reservation protection by concrete lining  For  100mm thick , 0.3m  wide  and 0.3m high canal -double bankingStream / canal  reservation protection by earthfilling of  strip   of 1.5m to 2m wide  and average Depth of 0.5m, Turfing to new sloping","Description":"520,000.00","Amount (Rs.)":"-","photopath":"https://raw.githubusercontent.com/MWS003-GIS/MWS003-GIS.github.io/main/IWWRMP/Data/EXD/200_photo/MWS_026/Palleela Canal Place 1.jpg"},"geometry":{"type":"Point","coordinates":[80.86573,7.08484]}},
{"type":"Feature","properties":{"No":24,"GND No.":"515C","Scheme":"Anketiyahena Ela","N":7.08822,"E":80.86644,"Observation":"Canals reservation protection by concrete lining  For  100mm thick , 0.3m  wide  and 0.3m high canal -double bankingStream / canal  reservation protection by earthfilling of  strip   of 1.5m to 2m wide  and average Depth of 0.5m, Turfing to new sloping","Description":"95,000.00","Amount (Rs.)":"-","photopath":"https://raw.githubusercontent.com/MWS003-GIS/MWS003-GIS.github.io/main/IWWRMP/Data/EXD/200_photo/MWS_026/Anketiyahena Canal.jpg"},"geometry":{"type":"Point","coordinates":[80.86644,7.08822]}},
{"type":"Feature","properties":{"No":25,"GND No.":"515C","Scheme":"Galdevane Ela","N":7.08938,"E":80.86449,"Observation":"Repairs to the anicutStream / canal  reservation protection by earthfilling of  strip   of 1.5m to 2m wide  and average Depth of 0.5m, Turfing to new sloping  soil surface (DAD  D 01) or planting  single row of vetiver grass with eco friendly edible plan","Description":"160,000.00","Amount (Rs.)":"-","photopath":"https://raw.githubusercontent.com/MWS003-GIS/MWS003-GIS.github.io/main/IWWRMP/Data/EXD/200_photo/MWS_026/Galdevane Canal.jpg"},"geometry":{"type":"Point","coordinates":[80.86449,7.08938]}},
{"type":"Feature","properties":{"No":26,"GND No.":"515D","Scheme":"Manelwala Canal","N":7.097351,"E":80.864014,"Observation":"Canals reservation protection by concrete lining  For  125mm thick , 0.5m  wide  and 0.4m high canal -double bankingStream / canal  reservation protection by earthfilling of  strip   of 1.5m to 2m wide  and average Depth of 0.5m, Turfing to new sloping","Description":"1,215,000.00","Amount (Rs.)":"-","photopath":"https://raw.githubusercontent.com/MWS003-GIS/MWS003-GIS.github.io/main/IWWRMP/Data/EXD/200_photo/MWS_026/Manelwala ela (2).jpg"},"geometry":{"type":"Point","coordinates":[80.864014,7.097351]}},
{"type":"Feature","properties":{"No":27,"GND No.":"515D","Scheme":"Watarakgoda Canal","N":7.09787,"E":80.868403,"Observation":"The total length of the canal is 1500m, 1300.0m section are concreted, Another 200m section should be concreted, Command area 55.0 acres (Another 15.0 acres cultivated in Ketakandura Division)","Description":"Canals reservation protection by concrete lining  For  125mm thick , 0.5m  wide  and 0.4m high canal -double bankingStream / canal  reservation protection by earthfilling of  strip   of 1.5m to 2m wide  and average Depth of 0.5m, Turfing to new sloping","Amount (Rs.)":"1,660,000.00","photopath":"https://raw.githubusercontent.com/MWS003-GIS/MWS003-GIS.github.io/main/IWWRMP/Data/EXD/200_photo/MWS_026/Wataruckgoda ela.jpg"},"geometry":{"type":"Point","coordinates":[80.868403,7.09787]}}
]}