{"type":"FeatureCollection","name":"SWC_OFF","crs":{"type":"name","properties":{"name":"urn:ogc:def:crs:OGC:1.3:CRS84"}},"features":[
{"type":"Feature","properties":{"No.":1,"GND No.":"515","GND Name":"Batagolla","Key Activities proposed for Soil and Water conservation":"1. Renovation of natural drains - Kurundu Oya","Priority based on Soil Erosion Hazard":null,"N":7.110978,"E":80.867149,"Quantity":"3 km","Proposed measure/s":"Clearing and planting some trees (Bamboo, kumbuk tree and Epala) along the banks and other conservation practices","Total_Cost":"Labour and other basic services by the Local community/ Shramadana","Contribution (Local Community, LA, and the project)":"0.5 Years","Time frame for the implementation":"-","photopath":"Not_Available"},"geometry":{"type":"Point","coordinates":[80.867149,7.110978]}},
{"type":"Feature","properties":{"No.":2,"GND No.":"515","GND Name":"Batagolla","Key Activities proposed for Soil and Water conservation":"2. Renovation of natural drains - Gallindayagala Kandura","Priority based on Soil Erosion Hazard":null,"N":7.112428,"E":80.869605,"Quantity":"1.5 km","Proposed measure/s":"Clearing and planting some trees along the banks (Aracanut) and other conservation practices","Total_Cost":"Labour and other basic services by the Local community/ Shramadana","Contribution (Local Community, LA, and the project)":"0.5 Years","Time frame for the implementation":"-","photopath":"Not_Available"},"geometry":{"type":"Point","coordinates":[80.869605,7.112428]}},
{"type":"Feature","properties":{"No.":7,"GND No.":"504E","GND Name":"Kurunduoya","Key Activities proposed for Soil and Water conservation":"1. Renovation of natural drains - Rilamulla Canal","Priority based on Soil Erosion Hazard":null,"N":7.07556,"E":80.84732,"Quantity":"1.5 km","Proposed measure/s":"Clearing and planting some trees along the banks (Aracanut) and other conservation practices","Total_Cost":"150,000.00","Contribution (Local Community, LA, and the project)":"Labour and other basic services by the Local community/ Shramadana","Time frame for the implementation":"0.5 Years","photopath":"https://raw.githubusercontent.com/MWS003-GIS/MWS003-GIS.github.io/main/IWWRMP/Data/EXD/200_photo/MWS_026/Rilamulla Kandura.jpg"},"geometry":{"type":"Point","coordinates":[80.84732,7.07556]}},
{"type":"Feature","properties":{"No.":8,"GND No.":"504E","GND Name":"Kurunduoya","Key Activities proposed for Soil and Water conservation":"2. Renovation of natural drains - Charliwely Canal","Priority based on Soil Erosion Hazard":null,"N":7.07933,"E":80.82968,"Quantity":"200 m","Proposed measure/s":"Clearing and planting some trees along the banks (Aracanut) and other conservation practices","Total_Cost":"20,000.00","Contribution (Local Community, LA, and the project)":"Labour and other basic services by the Local community/ Shramadana","Time frame for the implementation":"0.5 Years","photopath":"https://raw.githubusercontent.com/MWS003-GIS/MWS003-GIS.github.io/main/IWWRMP/Data/EXD/200_photo/MWS_026/Charliwely Canal (Stream).jpg"},"geometry":{"type":"Point","coordinates":[80.82968,7.07933]}},
{"type":"Feature","properties":{"No.":9,"GND No.":"504E","GND Name":"Kurunduoya","Key Activities proposed for Soil and Water conservation":"3. Renovation of natural drains - Kurundu Oya Kandura","Priority based on Soil Erosion Hazard":null,"N":7.08917,"E":80.82932,"Quantity":"250 m","Proposed measure/s":"Clearing and planting some trees along the banks (Aracanut) and other conservation practices","Total_Cost":"25,000.00","Contribution (Local Community, LA, and the project)":"Labour and other basic services by the Local community/ Shramadana","Time frame for the implementation":"0.5 Years","photopath":"https://raw.githubusercontent.com/MWS003-GIS/MWS003-GIS.github.io/main/IWWRMP/Data/EXD/200_photo/MWS_026/Kurundu Oya.jpg"},"geometry":{"type":"Point","coordinates":[80.82932,7.08917]}},
{"type":"Feature","properties":{"No.":10,"GND No.":"504E","GND Name":"Kurunduoya","Key Activities proposed for Soil and Water conservation":"4. Renovation of natural drains - Alma Gremond Canal","Priority based on Soil Erosion Hazard":null,"N":7.08615,"E":80.83027,"Quantity":"1.5 km","Proposed measure/s":"Clearing and planting some trees along the banks (Aracanut) and other conservation practices","Total_Cost":"150,000.00","Contribution (Local Community, LA, and the project)":"Labour and other basic services by the Local community/ Shramadana","Time frame for the implementation":"0.25 Years","photopath":"https://raw.githubusercontent.com/MWS003-GIS/MWS003-GIS.github.io/main/IWWRMP/Data/EXD/200_photo/MWS_026/Alma Gremond Stream.jpg"},"geometry":{"type":"Point","coordinates":[80.83027,7.08615]}},
{"type":"Feature","properties":{"No.":13,"GND No.":"514B","GND Name":"Kumbalgamuwa East","Key Activities proposed for Soil and Water conservation":"1. Renovation of natural drains - Belek Pihilla Kandura","Priority based on Soil Erosion Hazard":null,"N":7.109671,"E":80.857688,"Quantity":"1 km","Proposed measure/s":"Clearing and planting some trees along the banks (Aracanut) and other conservation practices","Total_Cost":"100,000.00","Contribution (Local Community, LA, and the project)":"Labour and other basic services by the Local community/ Shramadana","Time frame for the implementation":"0.5 Years","photopath":"https://raw.githubusercontent.com/MWS003-GIS/MWS003-GIS.github.io/main/IWWRMP/Data/EXD/200_photo/MWS_026/Belec  Pihilla Kndura.jpg"},"geometry":{"type":"Point","coordinates":[80.857688,7.109671]}},
{"type":"Feature","properties":{"No.":14,"GND No.":"514B","GND Name":"Kumbalgamuwa East","Key Activities proposed for Soil and Water conservation":"2. Renovation of natural drains - Aliya wetuna Kandura","Priority based on Soil Erosion Hazard":null,"N":7.105606,"E":80.857421,"Quantity":"1.2 km","Proposed measure/s":"Clearing and planting some trees along the banks (Aracanut) and other conservation practices","Total_Cost":"120,000.00","Contribution (Local Community, LA, and the project)":"Labour and other basic services by the Local community/ Shramadana","Time frame for the implementation":"0.5 Years","photopath":"https://raw.githubusercontent.com/MWS003-GIS/MWS003-GIS.github.io/main/IWWRMP/Data/EXD/200_photo/MWS_026/Aliya Eruna Kandura.jpg"},"geometry":{"type":"Point","coordinates":[80.857421,7.105606]}},
{"type":"Feature","properties":{"No.":21,"GND No.":"514C","GND Name":"Mulhalkele","Key Activities proposed for Soil and Water conservation":"3. Renovation of natural drains - Aliya vatuna Ela","Priority based on Soil Erosion Hazard":null,"N":7.10574,"E":80.85807,"Quantity":"1.5 km","Proposed measure/s":"Clearing and planting some trees along the banks (Aracanut) and other conservation practices","Total_Cost":"150,000.00","Contribution (Local Community, LA, and the project)":"Labour and other basic services by the Local community/ Shramadana","Time frame for the implementation":"0.5 Years","photopath":"https://raw.githubusercontent.com/MWS003-GIS/MWS003-GIS.github.io/main/IWWRMP/Data/EXD/200_photo/MWS_026/Aliya Vatuna Kandura.jpg"},"geometry":{"type":"Point","coordinates":[80.85807,7.10574]}},
{"type":"Feature","properties":{"No.":22,"GND No.":"514C","GND Name":"Mulhalkele","Key Activities proposed for Soil and Water conservation":"4. Renovation of natural drains - Canal From Walapane Hospital to Subodagama Mr. R.R.Karunarathna's House","Priority based on Soil Erosion Hazard":null,"N":7.10293,"E":80.85977,"Quantity":"500 m","Proposed measure/s":"Clearing and planting some trees along the banks (Aracanut) and other conservation practices","Total_Cost":"50,000.00","Contribution (Local Community, LA, and the project)":"Labour and other basic services by the Local community/ Shramadana","Time frame for the implementation":"0.25 Years","photopath":"Not_Available"},"geometry":{"type":"Point","coordinates":[80.85977,7.10293]}},
{"type":"Feature","properties":{"No.":23,"GND No.":"514C","GND Name":"Mulhalkele","Key Activities proposed for Soil and Water conservation":"5. Renovation of natural drains - Subodagama gamameda Kandura","Priority based on Soil Erosion Hazard":null,"N":7.10277,"E":80.85999,"Quantity":"1 km","Proposed measure/s":"Clearing and planting some trees along the banks (Aracanut) and other conservation practices","Total_Cost":"100,000.00","Contribution (Local Community, LA, and the project)":"Labour and other basic services by the Local community/ Shramadana","Time frame for the implementation":"0.5 Years","photopath":"https://raw.githubusercontent.com/MWS003-GIS/MWS003-GIS.github.io/main/IWWRMP/Data/EXD/200_photo/MWS_026/Subodhagama Gamameda Kandura.jpg"},"geometry":{"type":"Point","coordinates":[80.85999,7.10277]}},
{"type":"Feature","properties":{"No.":24,"GND No.":"514C","GND Name":"Mulhalkele","Key Activities proposed for Soil and Water conservation":"6. Renovation of natural drains - Ulmolliya Kandura","Priority based on Soil Erosion Hazard":null,"N":7.11055,"E":80.85978,"Quantity":"1 km","Proposed measure/s":"Clearing and planting some trees along the banks (Aracanut) and other conservation practices","Total_Cost":"100,000.00","Contribution (Local Community, LA, and the project)":"Labour and other basic services by the Local community/ Shramadana","Time frame for the implementation":"0.5 Years","photopath":"https://raw.githubusercontent.com/MWS003-GIS/MWS003-GIS.github.io/main/IWWRMP/Data/EXD/200_photo/MWS_026/Ulmolliya Kandura.jpg"},"geometry":{"type":"Point","coordinates":[80.85978,7.11055]}},
{"type":"Feature","properties":{"No.":25,"GND No.":"514C","GND Name":"Mulhalkele","Key Activities proposed for Soil and Water conservation":"7. Renovation of natural drains - Welipita Kandura","Priority based on Soil Erosion Hazard":null,"N":7.111,"E":80.85908,"Quantity":"1 km","Proposed measure/s":"Clearing and planting some trees along the banks (Aracanut) and other conservation practices","Total_Cost":"100,000.00","Contribution (Local Community, LA, and the project)":"Labour and other basic services by the Local community/ Shramadana","Time frame for the implementation":"0.5 Years","photopath":"https://raw.githubusercontent.com/MWS003-GIS/MWS003-GIS.github.io/main/IWWRMP/Data/EXD/200_photo/MWS_026/Welipita Kandura.jpg"},"geometry":{"type":"Point","coordinates":[80.85908,7.111]}},
{"type":"Feature","properties":{"No.":26,"GND No.":"514C","GND Name":"Mulhalkele","Key Activities proposed for Soil and Water conservation":"8. Establishing a concrete culvert - Main Road from Kumbalgamuwa to Muhalkele","Priority based on Soil Erosion Hazard":"Landslide","N":7.1023,"E":80.85745,"Quantity":"7.0 m long, 900 mm  concrete pipes","Proposed measure/s":"Concrete culvert","Total_Cost":"100,000.00","Contribution (Local Community, LA, and the project)":"Labour and other basic services by the Local community","Time frame for the implementation":"0.25 Years","photopath":"https://raw.githubusercontent.com/MWS003-GIS/MWS003-GIS.github.io/main/IWWRMP/Data/EXD/200_photo/MWS_026/Mulhal Canal.jpg"},"geometry":{"type":"Point","coordinates":[80.85745,7.1023]}},
{"type":"Feature","properties":{"No.":31,"GND No.":"514D","GND Name":"Thennehenwala","Key Activities proposed for Soil and Water conservation":"1. Renovation of natural drains - Kurundu Oya","Priority based on Soil Erosion Hazard":null,"N":7.10984,"E":80.866581,"Quantity":"3.0 km","Proposed measure/s":"Clearing and planting some trees along the banks and other conservation practices","Total_Cost":"300,000.00","Contribution (Local Community, LA, and the project)":"Labour and other basic services by the Local community/ Shramadana","Time frame for the implementation":"0.5 Years","photopath":"https://raw.githubusercontent.com/MWS003-GIS/MWS003-GIS.github.io/main/IWWRMP/Data/EXD/200_photo/MWS_026/Kurunduoya.jpg"},"geometry":{"type":"Point","coordinates":[80.866581,7.10984]}},
{"type":"Feature","properties":{"No.":36,"GND No.":"514F","GND Name":"Deliwela South","Key Activities proposed for Soil and Water conservation":"1. Renovation of natural drains - Nayawatta Kandura - Karampitiya","Priority based on Soil Erosion Hazard":null,"N":7.122735,"E":80.860955,"Quantity":"2 km","Proposed measure/s":"Clearing and planting some trees along the banks (Aracanut) and other conservation practices","Total_Cost":"200,000.00","Contribution (Local Community, LA, and the project)":"Labour and other basic services by the Local community/ Shramadana","Time frame for the implementation":"0.5 Years","photopath":"https://raw.githubusercontent.com/MWS003-GIS/MWS003-GIS.github.io/main/IWWRMP/Data/EXD/200_photo/MWS_026/Nayawaththa Kandura.jpg"},"geometry":{"type":"Point","coordinates":[80.860955,7.122735]}},
{"type":"Feature","properties":{"No.":37,"GND No.":"514F","GND Name":"Deliwela South","Key Activities proposed for Soil and Water conservation":"2. Renovation of natural drains - Batathota Kandura Near bridge","Priority based on Soil Erosion Hazard":null,"N":7.122112,"E":80.863497,"Quantity":"1.5 km","Proposed measure/s":"Clearing and planting some trees along the banks (Aracanut) and other conservation practices","Total_Cost":"150,000.00","Contribution (Local Community, LA, and the project)":"Labour and other basic services by the Local community/ Shramadana","Time frame for the implementation":"0.5 Years","photopath":"https://raw.githubusercontent.com/MWS003-GIS/MWS003-GIS.github.io/main/IWWRMP/Data/EXD/200_photo/MWS_026/Batatotakandura anicut.jpg"},"geometry":{"type":"Point","coordinates":[80.863497,7.122112]}},
{"type":"Feature","properties":{"No.":45,"GND No.":"515C","GND Name":"Kandegama","Key Activities proposed for Soil and Water conservation":"1. Renovation of natural drains - Badale Kandura","Priority based on Soil Erosion Hazard":null,"N":7.08774,"E":80.86397,"Quantity":"200 m","Proposed measure/s":"Clearing and planting some trees along the banks (Aracanut) and other conservation practices","Total_Cost":"20,000.00","Contribution (Local Community, LA, and the project)":"Labour and other basic services by the Local community/ Shramadana","Time frame for the implementation":"0.25 Years","photopath":"https://raw.githubusercontent.com/MWS003-GIS/MWS003-GIS.github.io/main/IWWRMP/Data/EXD/200_photo/MWS_026/Badale Kandura.jpg"},"geometry":{"type":"Point","coordinates":[80.86397,7.08774]}},
{"type":"Feature","properties":{"No.":46,"GND No.":"515C","GND Name":"Kandegama","Key Activities proposed for Soil and Water conservation":"2. Renovation of natural drains - Pihille Kandura","Priority based on Soil Erosion Hazard":null,"N":7.08938,"E":80.86313,"Quantity":"300 m","Proposed measure/s":"Clearing and planting some trees along the banks (Aracanut) and other conservation practices","Total_Cost":"30,000.00","Contribution (Local Community, LA, and the project)":"Labour and other basic services by the Local community/ Shramadana","Time frame for the implementation":"0.25 Years","photopath":"https://raw.githubusercontent.com/MWS003-GIS/MWS003-GIS.github.io/main/IWWRMP/Data/EXD/200_photo/MWS_026/Thewatta Pihille Kandura.jpg"},"geometry":{"type":"Point","coordinates":[80.86313,7.08938]}},
{"type":"Feature","properties":{"No.":49,"GND No.":"515D","GND Name":"Wathumulla","Key Activities proposed for Soil and Water conservation":"1. Renovation of natural drains - Kurundu Oya","Priority based on Soil Erosion Hazard":null,"N":7.096055,"E":80.856482,"Quantity":"1.5 km","Proposed measure/s":"Planting some trees along the banks and other conservation practices","Total_Cost":"150,000.00","Contribution (Local Community, LA, and the project)":"Labour and other basic services by the Local community/ Shramadana","Time frame for the implementation":"0.5 Years","photopath":"https://raw.githubusercontent.com/MWS003-GIS/MWS003-GIS.github.io/main/IWWRMP/Data/EXD/200_photo/MWS_026/Kurudu oya..jpg"},"geometry":{"type":"Point","coordinates":[80.856482,7.096055]}}
]}