{"type":"FeatureCollection","name":"Landslides","crs":{"type":"name","properties":{"name":"urn:ogc:def:crs:OGC:1.3:CRS84"}},"features":[
{"type":"Feature","properties":{"No.":13,"GN Division No.":469,"GN Division":"Viguhumpola","Landslides":"Landsliding - Watapathana area","N":7.318305,"E":80.565636,"NBRO Recommendation N/A":"Needs NBRO concern","Proposed Measures":"Follow recommendations of NBRO having consulted. Soil conservation is needed.","photopath":"https://raw.githubusercontent.com/MWS003-GIS/MWS003-GIS.github.io/main/IWWRMP/Data/EXD/200_photo/MWS_113_1/Watapathana_4977.jpg"},"geometry":{"type":"Point","coordinates":[80.565636,7.318305]}},
{"type":"Feature","properties":{"No.":14,"GN Division No.":470,"GN Division":"Arambegama","Landslides":"Landsliding - Properties of K.K. Weerakoon and Benam in the Kumburuwala area","N":7.338525,"E":80.569084,"NBRO Recommendation N/A":"NBRO is aware","Proposed Measures":"NBRO has recommended to dislocate. Alternative lands should be provided.","photopath":"https://raw.githubusercontent.com/MWS003-GIS/MWS003-GIS.github.io/main/IWWRMP/Data/EXD/200_photo/MWS_113_1/disaster (1).jpg"},"geometry":{"type":"Point","coordinates":[80.569084,7.338525]}},
{"type":"Feature","properties":{"No.":15,"GN Division No.":471,"GN Division":"Aladeniya","Landslides":"1. Landsliding - Galkotuwa Pahala area","N":7.335373,"E":80.562438,"NBRO Recommendation N/A":"NBRO is aware","Proposed Measures":"Follow recommendations of NBRO having consulted.","photopath":"https://raw.githubusercontent.com/MWS003-GIS/MWS003-GIS.github.io/main/IWWRMP/Data/EXD/200_photo/MWS_113_1/galwala hena disaster.jpg"},"geometry":{"type":"Point","coordinates":[80.562438,7.335373]}},
{"type":"Feature","properties":{"No.":16,"GN Division No.":471,"GN Division":"Aladeniya","Landslides":"2. Landsliding - Wiringa pitiya area","N":7.335837,"E":80.563949,"NBRO Recommendation N/A":"NBRO is aware","Proposed Measures":"Follow recommendations of NBRO having consulted.","photopath":"https://raw.githubusercontent.com/MWS003-GIS/MWS003-GIS.github.io/main/IWWRMP/Data/EXD/200_photo/MWS_113_1/viringapitiya.jpg"},"geometry":{"type":"Point","coordinates":[80.563949,7.335837]}},
{"type":"Feature","properties":{"No.":17,"GN Division No.":481,"GN Division":"Attaragama East","Landslides":"1. Erosion of the road - Gorokgas Anga Division of Gamunu Mawatha","N":7.351937,"E":80.578666,"NBRO Recommendation N/A":"Needs NBRO concern","Proposed Measures":"Refill soil and make the road going in the paddy field about 20 m in lenght area. Also needs to rehabilitate the path that leads to  starecase about 50 m.","photopath":"https://raw.githubusercontent.com/MWS003-GIS/MWS003-GIS.github.io/main/IWWRMP/Data/EXD/200_photo/MWS_113_1/Gorokgasanga part in gemunu mavatha road 1.jpg"},"geometry":{"type":"Point","coordinates":[80.578666,7.351937]}},
{"type":"Feature","properties":{"No.":18,"GN Division No.":481,"GN Division":"Attaragama East","Landslides":"2. Erosion of the road - Sinking the Ellena Oya Road near the Kaluwana Bridge","N":7.354851,"E":80.593539,"NBRO Recommendation N/A":"Needs NBRO concern","Proposed Measures":"Refill the road about 20 m in length.","photopath":"https://raw.githubusercontent.com/MWS003-GIS/MWS003-GIS.github.io/main/IWWRMP/Data/EXD/200_photo/MWS_113_1/road near Ellena oya ,kaluwana bridge.jpg"},"geometry":{"type":"Point","coordinates":[80.593539,7.354851]}},
{"type":"Feature","properties":{"No.":19,"GN Division No.":481,"GN Division":"Attaragama East","Landslides":"3. Erosion of the road - Sinking the Thelikade Oya Road","N":7.357028,"E":80.59129,"NBRO Recommendation N/A":"Needs NBRO concern","Proposed Measures":"Remake the canal bund and the road about 10 m in length.","photopath":"https://raw.githubusercontent.com/MWS003-GIS/MWS003-GIS.github.io/main/IWWRMP/Data/EXD/200_photo/MWS_113_1/Thelikade oya road.jpg"},"geometry":{"type":"Point","coordinates":[80.59129,7.357028]}},
{"type":"Feature","properties":{"No.":20,"GN Division No.":482,"GN Division":"Attaragama South","Landslides":"Landsliding - The area around Kamaranga Ela","N":7.346867,"E":80.591373,"NBRO Recommendation N/A":"NBRO is aware","Proposed Measures":"Follow the recommendations of NBRO and the guidance of Local Government is needed.","photopath":"https://raw.githubusercontent.com/MWS003-GIS/MWS003-GIS.github.io/main/IWWRMP/Data/EXD/200_photo/MWS_113_1/Kabaranga ela.jpg"},"geometry":{"type":"Point","coordinates":[80.591373,7.346867]}},
{"type":"Feature","properties":{"No.":21,"GN Division No.":490,"GN Division":"Wathuwala","Landslides":"1. Landsliding - near the Siridhamma Mawathe Temple pathway","N":7.32441,"E":80.600945,"NBRO Recommendation N/A":"NBRO is aware","Proposed Measures":"Follow the recommendations of NBRO and the guidance of Local Government is needed.","photopath":"Not_Available"},"geometry":{"type":"Point","coordinates":[80.600945,7.32441]}},
{"type":"Feature","properties":{"No.":22,"GN Division No.":490,"GN Division":"Wathuwala","Landslides":"2. Landsliding - near the Mr. Saliya's home in the Bodhiraja Mawatha","N":7.325471,"E":80.601297,"NBRO Recommendation N/A":"Needs NBRO concern","Proposed Measures":"Follow the recommendations of NBRO having consulted. Adapt soil conservation meusures.","photopath":"Not_Available"},"geometry":{"type":"Point","coordinates":[80.601297,7.325471]}}
]}