{"type":"FeatureCollection","name":"MI","crs":{"type":"name","properties":{"name":"urn:ogc:def:crs:OGC:1.3:CRS84"}},"features":[
{"type":"Feature","properties":{"No":42,"GND No.":408,"Scheme":"The canal route supplying water from Moragahawcanel to Hapugoda Mahayayata ","N":7.344393,"E":80.595357,"Observation":"the anicut has been fully damaged for years no water way to the Mahamaya .with the new bridge it's unable to make a waterway","Description":"Construction of 5.0m long x 0.9m high anicut\nConstruction of 0.9 m high Weir across stream excluding abutments and stop planks\nConstruction of 1.0m high 1:3:6 (40mm) cement concrete Retaining Wall 75mm tk. Stop planks (kumbuk ) with 10mm dia. 2nos. M.","Amount (Rs.)":748000,"photopath":"https://raw.githubusercontent.com/MWS003-GIS/MWS003-GIS.github.io/main/IWWRMP/Data/EXD/200_photo/MWS_113_1/Starting point of sudgested canal from moragahavela to haugoda maha yaya.JPG"},"geometry":{"type":"Point","coordinates":[80.595357,7.344393]}},
{"type":"Feature","properties":{"No":43,"GND No.":411,"Scheme":"Development the Janasavi Mawathe canal margaya","N":7.342897,"E":80.604641,"Observation":"road and the canal bunds have been damaged a lot. Due to land slide the canal has been blocked because of that the canal bunds have been damaged.50m damaged  .the length of the canal is 1 mile and 35 ac land is cultivated using this.","Description":"Canals reservation protection by concrete lining  For  125mm thick , 0.5m  wide  and 0.4m high canal -double banking\nMiscellaneous\nContingencies 10%\n\n","Amount (Rs.)":968000,"photopath":"https://raw.githubusercontent.com/MWS003-GIS/MWS003-GIS.github.io/main/IWWRMP/Data/EXD/200_photo/MWS_113_1/Janasavi road and canal.jpg"},"geometry":{"type":"Point","coordinates":[80.604641,7.342897]}},
{"type":"Feature","properties":{"No":44,"GND No.":417,"Scheme":"Constructing a anicut and canal near the Balagolla Ambul Puraya road.","N":7.334983,"E":80.600891,"Observation":"canal banks are damaged and canal has blocked from several places. No plantation in reservation.","Description":"Canal reservation protection by concrete lining  For  100mm thick , 0.3m  wide  and 0.3m high canal -double banking\nVegetative cover improving for narrow strips (1.5m-2.0m wide) with Arecanut seedlings at 1.5m spacing in 2 rows, Betel plants VP at 3m sp","Amount (Rs.)":4246000,"photopath":"https://raw.githubusercontent.com/MWS003-GIS/MWS003-GIS.github.io/main/IWWRMP/Data/EXD/200_photo/MWS_113_1/Constructing a anicut and canal near the Balagolla Ambul Puraya road.jpg"},"geometry":{"type":"Point","coordinates":[80.600891,7.334983]}},
{"type":"Feature","properties":{"No":45,"GND No.":417,"Scheme":"Constructing a Nithiruppe  canal","N":7.336286,"E":80.6017,"Observation":"canal banks are damaged and canal has blocked from several places. No plantation in reservation.","Description":"Canal reservation protection by concrete lining  For  100mm thick , 0.3m  wide  and 0.3m high canal -double banking\nVegetative cover improving for narrow strips (1.5m-2.0m wide) with Arecanut seedlings at 1.5m spacing in 2 rows,Betel plants VP at 3m sp","Amount (Rs.)":4125000,"photopath":"https://raw.githubusercontent.com/MWS003-GIS/MWS003-GIS.github.io/main/IWWRMP/Data/EXD/200_photo/MWS_113_1/Constructing a Nithiruppe  canal.jpg"},"geometry":{"type":"Point","coordinates":[80.6017,7.336286]}},
{"type":"Feature","properties":{"No":46,"GND No.":418,"Scheme":"Uduwawala north","N":7.337485,"E":80.607945,"Observation":"Canal has been blocked due to landslide. No plantation in reservation. Mixed crops can observed in the area.","Description":"Canals reservation protection by concrete lining  For  125mm thick , 0.5m  wide  and 0.4m high canal -double banking\nVegetative cover improving for narrow strips (1.5m-2.0m wide) with Arecanut seedlings at 1.5m spacing in 2 rows, Betel plants VP at 3m s","Amount (Rs.)":4755300,"photopath":"https://raw.githubusercontent.com/MWS003-GIS/MWS003-GIS.github.io/main/IWWRMP/Data/EXD/200_photo/MWS_113_1/Development of the Weralagasdeniya canal route_1.jpg"},"geometry":{"type":"Point","coordinates":[80.607945,7.337485]}},
{"type":"Feature","properties":{"No":47,"GND No.":451,"Scheme":"Malagammana Oliyanga canal route","N":7.323317,"E":80.582945,"Observation":"Canal bank has eroded in several places","Description":"Construction of 2.0m high 1:3:6 (40mm) cement concrete Retaining Wall\nMiscellaneous\nContingencies 10%","Amount (Rs.)":1545500,"photopath":"https://raw.githubusercontent.com/MWS003-GIS/MWS003-GIS.github.io/main/IWWRMP/Data/EXD/200_photo/MWS_113_1/oliyanga canal.jpg"},"geometry":{"type":"Point","coordinates":[80.582945,7.323317]}},
{"type":"Feature","properties":{"No":48,"GND No.":452,"Scheme":"Development the Puwakgas anga yaya","N":7.331966,"E":80.589924,"Observation":"There is no pitacanel and eroded canal bank in some places","Description":"Construction of Canal\nConstruction of 2.0m high 1:3:6 (40mm) cement concrete Retaining Wall \nContingencies 10%\n","Amount (Rs.)":1760000,"photopath":"https://raw.githubusercontent.com/MWS003-GIS/MWS003-GIS.github.io/main/IWWRMP/Data/EXD/200_photo/MWS_113_1/puwakgas anga canal.jpg"},"geometry":{"type":"Point","coordinates":[80.589924,7.331966]}},
{"type":"Feature","properties":{"No":49,"GND No.":455,"Scheme":"Thalawa canal route","N":7.32629,"E":80.581527,"Observation":"Using canal there are about 6acres of paddy field to work on, but only one acre is being work due not proper maintain canal. Canal is not visible due to overgrowing.","Description":"Earth excavation for foundation or quarry materials and haul the surplus materials up to 30m. by Machinery. (This rate is excluding of transporting of machinery)\nConstruction of 1.0m high 1:3:6 (40mm) cement concrete Retaining Wall \nTransporting machin","Amount (Rs.)":1287000,"photopath":"https://raw.githubusercontent.com/MWS003-GIS/MWS003-GIS.github.io/main/IWWRMP/Data/EXD/200_photo/MWS_113_1/thalawa canal.jpg"},"geometry":{"type":"Point","coordinates":[80.581527,7.32629]}},
{"type":"Feature","properties":{"No":50,"GND No.":455,"Scheme":"Sembu anga canal route","N":7.324581,"E":80.580623,"Observation":"During rainy season, water overflows and damages paddy field. Canal is full of mud. Can not reach the some places of the canal. Bank erosion can be seen several places.","Description":"Dry Silt removing from Canal or Tank beds and haul the surplus materials up to 1.6 km distance by machinery.(This rate is excluding of transporting of machinery)\nConstruction of 1.0m high 1:3:6 (40mm) cement concrete Retaining Wall \nTransporting machin","Amount (Rs.)":4961000,"photopath":"https://raw.githubusercontent.com/MWS003-GIS/MWS003-GIS.github.io/main/IWWRMP/Data/EXD/200_photo/MWS_113_1/Sembu anga canal.jpg"},"geometry":{"type":"Point","coordinates":[80.580623,7.324581]}},
{"type":"Feature","properties":{"No":51,"GND No.":455,"Scheme":"Kadandenioya canal route","N":7.325228,"E":80.583677,"Observation":"The canal is full of mud. There is a rock in one place where the canal path is blocked, so water path turns there and goes into field. About 7 acres of paddy fields are lying fallow due to the canal is not draining properly.","Description":"Dry Silt removing from Canal or Tank beds and haul the surplus materials up to 30m. distance by Manually.\nRemoving rocks along the canal\nConstruction of 1.5m high 1:3:6 (40mm) cement concrete Retaining Wall\nMiscellaneous\nContingencies 10% \n","Amount (Rs.)":814000,"photopath":"https://raw.githubusercontent.com/MWS003-GIS/MWS003-GIS.github.io/main/IWWRMP/Data/EXD/200_photo/MWS_113_1/Kadandenioya.jpg"},"geometry":{"type":"Point","coordinates":[80.583677,7.325228]}},
{"type":"Feature","properties":{"No":52,"GND No.":455,"Scheme":"Duladeniya canal route","N":7.331722,"E":80.575494,"Observation":"Canal is not visible due to overgrowing. Also can not reach to canal. about 6 acres paddy fields are currently not being worked.","Description":"Rehabilitation of canal\nContingencies 10%","Amount (Rs.)":330000,"photopath":"https://raw.githubusercontent.com/MWS003-GIS/MWS003-GIS.github.io/main/IWWRMP/Data/EXD/200_photo/MWS_113_1/Duladeniaya.jpg"},"geometry":{"type":"Point","coordinates":[80.575494,7.331722]}},
{"type":"Feature","properties":{"No":53,"GND No.":461,"Scheme":"Thittapajjala","N":7.331771,"E":80.578406,"Observation":"Bank erosion and canal is full of mud in some places","Description":"Dry Silt removing from Canal or Tank beds and haul the surplus materials up to 1.6 km distance by machinery.(This rate is excluding of transporting of machinery)\nConstruction of 1.0m high 1:3:6 (40mm) cement concrete Retaining Wall \nTransporting machin","Amount (Rs.)":1276000,"photopath":"https://raw.githubusercontent.com/MWS003-GIS/MWS003-GIS.github.io/main/IWWRMP/Data/EXD/200_photo/MWS_113_1/Thiththapajjawila canal.jpg"},"geometry":{"type":"Point","coordinates":[80.578406,7.331771]}},
{"type":"Feature","properties":{"No":54,"GND No.":465,"Scheme":"Prevention the erosion of the both slide of Henathenna canal route","N":7.337841,"E":80.585324,"Observation":"14 arces. no cultivation, damage canal banks in several location, 500m","Description":"Leveling & Trimming Earth\nDry rubble packing (with locally found rubble, size over 225mm )\nVegetative cover improving for narrow strips (1.5m-2.0m wide) with Arecanut seedlings at 1.5m spacing in 2 rows, Betel plants VP at 3m spacing in 1 row, Green gra","Amount (Rs.)":1083500,"photopath":"https://raw.githubusercontent.com/MWS003-GIS/MWS003-GIS.github.io/main/IWWRMP/Data/EXD/200_photo/MWS_113_1/henthanna canal (1).jpg"},"geometry":{"type":"Point","coordinates":[80.585324,7.337841]}},
{"type":"Feature","properties":{"No":55,"GND No.":467,"Scheme":"the construction of a canal route with slide walls in the Nugaththegoda area","N":7.34395,"E":80.587219,"Observation":"Due to the disaster conditions the canal has been damaged  in serval places .highly eroded the canal bottom .another water flow is coming from the upper area and it has increased the damage of the bund.500m is to be repaired.8 ac of land is cultivated.","Description":"Dry Silt removing from Canal or Tank beds and haul the surplus materials up to 30m. distance by Manually.\nConstruction of anicut\nCanal reservation protection by concrete lining  For  100mm thick , 0.3m  wide  and 0.3m high canal -double banking","Amount (Rs.)":1886500,"photopath":"https://raw.githubusercontent.com/MWS003-GIS/MWS003-GIS.github.io/main/IWWRMP/Data/EXD/200_photo/MWS_113_1/Nugaththegoda yaya.jpg"},"geometry":{"type":"Point","coordinates":[80.587219,7.34395]}},
{"type":"Feature","properties":{"No":56,"GND No.":469,"Scheme":"Kalugalathenna Anicut","N":7.32551,"E":80.570461,"Observation":"can not reach the anicut due to overgrowing.","Description":"Rehabilitation of the canal\nMiscellaneous\nContingencies 10% \n","Amount (Rs.)":110000,"photopath":"https://raw.githubusercontent.com/MWS003-GIS/MWS003-GIS.github.io/main/IWWRMP/Data/EXD/200_photo/MWS_113_1/Kaluagalathanna  Canal_4986.jpg"},"geometry":{"type":"Point","coordinates":[80.570461,7.32551]}},
{"type":"Feature","properties":{"No":57,"GND No.":471,"Scheme":"Development the Diwcanel yaya Road","N":7.834342,"E":80.56474,"Observation":"Full of mud in canal in several places. upper part of canal o proper drainage. also can not reach due to over growing.","Description":"Dry Silt removing from Canal or Tank beds and haul the surplus materials up to 30m. distance by Manually.\nRehabilitating the canal\nMiscellaneous\nContingencies 10% \n\n","Amount (Rs.)":121000,"photopath":"https://raw.githubusercontent.com/MWS003-GIS/MWS003-GIS.github.io/main/IWWRMP/Data/EXD/200_photo/MWS_113_1/aladeniya canal.jpg"},"geometry":{"type":"Point","coordinates":[80.56474,7.834342]}},
{"type":"Feature","properties":{"No":58,"GND No.":474,"Scheme":"Nagahadeni canal","N":7.328985,"E":80.562709,"Observation":"due to overgrowing canal is not properly drainage.","Description":"Rehabilitating the canal\nMiscellaneous\nContingencies 10%","Amount (Rs.)":55000,"photopath":"https://raw.githubusercontent.com/MWS003-GIS/MWS003-GIS.github.io/main/IWWRMP/Data/EXD/200_photo/MWS_113_1/nagagolla pihilla.jpg"},"geometry":{"type":"Point","coordinates":[80.562709,7.328985]}},
{"type":"Feature","properties":{"No":59,"GND No.":480,"Scheme":"Development the  Wahalawcanel canal","N":7.351131,"E":80.579989,"Observation":"DO said that name wahalawla and kamaranaga canal is a same canal. The total length is 1 km and need to repair 500m length.","Description":"Canal reservation protection by concrete lining  For  100mm thick , 0.3m  wide  and 0.3m high canal -double banking\nStream / canal  reservation protection by earth filling of  strip   of 1.5m to 2m wide  and average Depth of 0.5m\nVegetative cover impro","Amount (Rs.)":1694000,"photopath":"https://raw.githubusercontent.com/MWS003-GIS/MWS003-GIS.github.io/main/IWWRMP/Data/EXD/200_photo/MWS_113_1/Vahalavela ela = Kamaranga ela.jpg"},"geometry":{"type":"Point","coordinates":[80.579989,7.351131]}},
{"type":"Feature","properties":{"No":60,"GND No.":480,"Scheme":"Development the Pallekadeyaya canal route","N":7.346043,"E":80.588001,"Observation":"The canal has been blocked by landslide soil not water flowing. Length of the canal is    500m.8 ac of land is cultivated from this","Description":"Removing landslide soil\nConstruction of 1.0m high 1:3:6 (40mm) cement concrete Retaining Wall \nMiscellaneous\nContingencies 10% \n","Amount (Rs.)":1287000,"photopath":"https://raw.githubusercontent.com/MWS003-GIS/MWS003-GIS.github.io/main/IWWRMP/Data/EXD/200_photo/MWS_113_1/Palkade ela.jpg"},"geometry":{"type":"Point","coordinates":[80.588001,7.346043]}},
{"type":"Feature","properties":{"No":61,"GND No.":480,"Scheme":"Development of the   Wahalawcanel anicut","N":7.35075,"E":80.587421,"Observation":"There is a temporary anicut made by farmers. Above the anicut there is a concreted road to the filed and it has been damaged by eroding soil layer below that concreate","Description":"Construction of anicut\nConstruction of 1.2 m high Weir across stream excluding abutments and stop planks\nConstruction of 1.5m high 1:3:6 (40mm) cement concrete Retaining Wall \n75mm tk. Stop planks (kumbuk ) with 10mm dia. 2nos. M. S. Iron hooks and app","Amount (Rs.)":649000,"photopath":"https://raw.githubusercontent.com/MWS003-GIS/MWS003-GIS.github.io/main/IWWRMP/Data/EXD/200_photo/MWS_113_1/Vahala vela pahala anicut.jpg"},"geometry":{"type":"Point","coordinates":[80.587421,7.35075]}},
{"type":"Feature","properties":{"No":62,"GND No.":480,"Scheme":"Development the Banage anga canal route","N":7.346407,"E":80.591067,"Observation":"canal has been damaged .water line is not continue.","Description":"Rehabilitating the canal\nMiscellaneous\nContingancies 10%","Amount (Rs.)":110000,"photopath":"https://raw.githubusercontent.com/MWS003-GIS/MWS003-GIS.github.io/main/IWWRMP/Data/EXD/200_photo/MWS_113_1/Banage anga ela.jpg"},"geometry":{"type":"Point","coordinates":[80.591067,7.346407]}},
{"type":"Feature","properties":{"No":63,"GND No.":480,"Scheme":"Development the Kamaranga canal route","N":7.351131,"E":80.579989,"Observation":"DO said that name wahalawla and kamaranaga canal is a same canal.","Description":"Canal reservation protection by concrete lining  For  100mm thick , 0.3m  wide  and 0.3m high canal -double banking\nStream / canal  reservation protection by earth filling of  strip   of 1.5m to 2m wide  and average Depth of 0.5m\nMiscellaneous\nContingancies 10%","Amount (Rs.)":1463000,"photopath":"https://raw.githubusercontent.com/MWS003-GIS/MWS003-GIS.github.io/main/IWWRMP/Data/EXD/200_photo/MWS_113_1/Vahalavela ela = Kamaranga ela.jpg"},"geometry":{"type":"Point","coordinates":[80.579989,7.351131]}},
{"type":"Feature","properties":{"No":64,"GND No.":481,"Scheme":"Kamaranga canal route","N":7.350914,"E":80.587717,"Observation":"there are some parts of the canal that has damaged canal bund need  to repair .most of the areas are okay .","Description":"Construction of 1.5m high 1:3:6 (40mm) cement concrete Retaining Wall \nMiscellaneous\nContingancies 10%","Amount (Rs.)":4460500,"photopath":"https://raw.githubusercontent.com/MWS003-GIS/MWS003-GIS.github.io/main/IWWRMP/Data/EXD/200_photo/MWS_113_1/kabaranga yaya canal.jpg"},"geometry":{"type":"Point","coordinates":[80.587717,7.350914]}},
{"type":"Feature","properties":{"No":65,"GND No.":481,"Scheme":"Kiridipcanel yaya canal route","N":7.352134,"E":80.58588,"Observation":"canal has no much damages .but path is not clear","Description":"Dry Silt removing from Canal or Tank beds and haul the surplus materials up to 30m. distance by Manually.\nRehabilitating the canal\nMiscellaneous\nContingancies 10% \n","Amount (Rs.)":396000,"photopath":"https://raw.githubusercontent.com/MWS003-GIS/MWS003-GIS.github.io/main/IWWRMP/Data/EXD/200_photo/MWS_113_1/kiridipela canal.jpg"},"geometry":{"type":"Point","coordinates":[80.58588,7.352134]}},
{"type":"Feature","properties":{"No":66,"GND No.":481,"Scheme":"Maneluwa yaya canal route","N":7.352349,"E":80.58921,"Observation":"No water flow could be seen. Severe damaged to the canal route ,highly eroded the path .about 200 m has concreated","Description":"Canal reservation protection by concrete lining  For  100mm thick , 0.3m  wide  and 0.3m high canal -double banking\nMiscellaneous\nContingancies 10% \n","Amount (Rs.)":3949000,"photopath":"https://raw.githubusercontent.com/MWS003-GIS/MWS003-GIS.github.io/main/IWWRMP/Data/EXD/200_photo/MWS_113_1/Manuluwawa canal.jpg"},"geometry":{"type":"Point","coordinates":[80.58921,7.352349]}},
{"type":"Feature","properties":{"No":67,"GND No.":482,"Scheme":"Development the canal & cultivation road @ Gal Anga Yaya","N":7.353556,"E":80.592311,"Observation":"Damaged canal bunds not clear water way","Description":"Canal reservation protection by concrete lining  For  100mm thick , 0.3m  wide  and 0.3m high canal -double banking\nStream / canal  reservation protection by earth filling of  strip   of 1.5m to 2m wide  and average Depth of 0.5m\nMiscellaneous\nContingancies 10%","Amount (Rs.)":731500,"photopath":"https://raw.githubusercontent.com/MWS003-GIS/MWS003-GIS.github.io/main/IWWRMP/Data/EXD/200_photo/MWS_113_1/Galanga yaye ela.jpg"},"geometry":{"type":"Point","coordinates":[80.592311,7.353556]}},
{"type":"Feature","properties":{"No":68,"GND No.":482,"Scheme":"Development the canal @ Palkade Yaya","N":7.346889,"E":80.591369,"Observation":"damaged canal and water is going trough paddy field","Description":"Canal reservation protection by concrete lining  For  100mm thick , 0.3m  wide  and 0.3m high canal -double banking\nMiscellaneous\nContingancies 10%","Amount (Rs.)":132000,"photopath":"https://raw.githubusercontent.com/MWS003-GIS/MWS003-GIS.github.io/main/IWWRMP/Data/EXD/200_photo/MWS_113_1/Palkade yaye ela.jpg"},"geometry":{"type":"Point","coordinates":[80.591369,7.346889]}},
{"type":"Feature","properties":{"No":69,"GND No.":482,"Scheme":"Development the canal & cultivation road @ Aswedduna  Yaya","N":7.350686,"E":80.59486,"Observation":"due to a land slide canal has been blocked and damaged. Has been repaired by  villagers but need more","Description":"Canal reservation protection by concrete lining  For  100mm thick , 0.3m  wide  and 0.3m high canal -double banking\nMiscellaneous\nContingancies 10%","Amount (Rs.)":660000,"photopath":"https://raw.githubusercontent.com/MWS003-GIS/MWS003-GIS.github.io/main/IWWRMP/Data/EXD/200_photo/MWS_113_1/Aswedduma yaye ela.jpg"},"geometry":{"type":"Point","coordinates":[80.59486,7.350686]}},
{"type":"Feature","properties":{"No":70,"GND No.":482,"Scheme":"Development the canal & cultivation road @ Harankaha thenna","N":7.345397,"E":80.593624,"Observation":"About 10 ac of land can be cultivated using .even not visible as a functioning canal.","Description":"Dry Silt removing from Canal or Tank beds and haul the surplus materials up to 1.6 km distance by machinery.(This rate is excluding of transporting of machinery)\nFor rehabilitation of canal and access road\nMiscellaneous\nContingencies 10% \n","Amount (Rs.)":566500,"photopath":"https://raw.githubusercontent.com/MWS003-GIS/MWS003-GIS.github.io/main/IWWRMP/Data/EXD/200_photo/MWS_113_1/Harankaha thenna canal.jpg"},"geometry":{"type":"Point","coordinates":[80.593624,7.345397]}},
{"type":"Feature","properties":{"No":71,"GND No.":482,"Scheme":"Restoration the Slide wall &  cannel for Kamaranga canal route","N":7.349723,"E":80.593927,"Observation":"7 ac land is cultivated from the canal .300m length has been damaged .damaged canal route in several places","Description":"Leveling & Trimming Earth\nDry rubble packing (with locally found rubble, size over 225mm )\nMiscellaneous\nContingencies 10% \n","Amount (Rs.)":203500,"photopath":"https://raw.githubusercontent.com/MWS003-GIS/MWS003-GIS.github.io/main/IWWRMP/Data/EXD/200_photo/MWS_113_1/Kabaranga ela.jpg"},"geometry":{"type":"Point","coordinates":[80.593927,7.349723]}}
]}