{"type":"FeatureCollection","name":"SR","crs":{"type":"name","properties":{"name":"urn:ogc:def:crs:OGC:1.3:CRS84"}},"features":[
{"type":"Feature","properties":{"No":47,"GND No.":408,"Scheme":"Hapugoda Allena Oya","N":7.349033,"E":80.610542,"Observation":"20m of the stream bank and related sub road has been damaged near the hapugoda brige.people have has repaired temporally","Description":"Stream / canal  reservation protection by earth filling of  strip   of 1.5m to 2m wide  and average Depth of 0.5m - To refill the tank bund\nDry rubble packing (with locally found rubble, size over 225mm )-Along the river banks\nContingencies (10%)","Amount (Rs.)":216876,"photopath":"https://raw.githubusercontent.com/MWS003-GIS/MWS003-GIS.github.io/main/IWWRMP/Data/EXD/200_photo/MWS_113_1/Hapugoda ellena oya.jpg"},"geometry":{"type":"Point","coordinates":[80.610542,7.349033]}},
{"type":"Feature","properties":{"No":48,"GND No.":412,"Scheme":"Mahayaya ela","N":7.342503,"E":80.613979,"Observation":"Highly damaged the bund of the canal like in 100 m length.15 ac land is cultivated using this. The length of the canal is 200 m","Description":"Canals reservation protection by concrete lining  For  125mm thick , 0.5m  wide  and 0.4m high canal ?double banking - Damage parts of the canal","Amount (Rs.)":4081000,"photopath":"https://raw.githubusercontent.com/MWS003-GIS/MWS003-GIS.github.io/main/IWWRMP/Data/EXD/200_photo/MWS_113_1/Mahayaya ela.jpg"},"geometry":{"type":"Point","coordinates":[80.613979,7.342503]}},
{"type":"Feature","properties":{"No":49,"GND No.":412,"Scheme":"Matigannawela  ela road","N":7.339413,"E":80.609216,"Observation":"The concrete channel has been fully damaged then the water is going trough the paddy field not the usual path.it damages 4 ac of paddy filed.","Description":"Canals reservation protection by concrete lining  For  125mm thick , 0.5m  wide  and 0.4m high canal ?double banking - Damage parts of the canal","Amount (Rs.)":102025,"photopath":"https://raw.githubusercontent.com/MWS003-GIS/MWS003-GIS.github.io/main/IWWRMP/Data/EXD/200_photo/MWS_113_1/Metigannavela.jpg"},"geometry":{"type":"Point","coordinates":[80.609216,7.339413]}},
{"type":"Feature","properties":{"No":50,"GND No.":412,"Scheme":"Galahitiyawa yaya ela margaya","N":7.341151,"E":80.614035,"Observation":"canal has been abounded it's like there is no visible canal. The water flow is going trough the paddy field. And also due to human activities canal has reduced its size.10 ac of land is cultivated this canal 2km length.","Description":"repair the canal fully 2km remake the path and repair the place where water is going to field land\nContingencies (10%)","Amount (Rs.)":165000,"photopath":"https://raw.githubusercontent.com/MWS003-GIS/MWS003-GIS.github.io/main/IWWRMP/Data/EXD/200_photo/MWS_113_1/Galahitiyava ela.jpg"},"geometry":{"type":"Point","coordinates":[80.614035,7.341151]}},
{"type":"Feature","properties":{"No":51,"GND No.":453,"Scheme":"Bandara Aswedduma Aralu Ela(Ambul puraya)","N":7.335224,"E":80.598698,"Observation":"there is a big damage of the bunds of the canal in several places ,water and sand accumulation in paddy fileds.1km length and 15-20 ac land is cultivated.","Description":"Construction of 1.0m high 1:3:6 (40mm) cement concrete Retaining Wall - Places where necessary","Amount (Rs.)":13200000,"photopath":"https://raw.githubusercontent.com/MWS003-GIS/MWS003-GIS.github.io/main/IWWRMP/Data/EXD/200_photo/MWS_113_1/aralu ela.jpg"},"geometry":{"type":"Point","coordinates":[80.598698,7.335224]}},
{"type":"Feature","properties":{"No":52,"GND No.":457,"Scheme":"Yahalathenna Kanda ela route","N":7.319523,"E":80.5737,"Observation":"There is damage of the bunds of the canal in several places.","Description":"Vegetative cover improving for narrow strips (1.5m?2.0m wide) with Arecanut seedlings at 1.5m spacing in 2 rows, Betel plants VP at 3m spacing in 1 row, Green gram as a cover crop - Along the canal banks\nReplanting bamboo species around the river bank","Amount (Rs.)":581900,"photopath":"https://raw.githubusercontent.com/MWS003-GIS/MWS003-GIS.github.io/main/IWWRMP/Data/EXD/200_photo/MWS_113_1/Canal_4838.jpg"},"geometry":{"type":"Point","coordinates":[80.5737,7.319523]}},
{"type":"Feature","properties":{"No":53,"GND No.":464,"Scheme":"Canal bund/ wall in the Kondadeniya paddy field at the boundary of Edaruthenna","N":7.339614,"E":80.58772,"Observation":"Due to the landslide, the drainage system is blocked. That's why water flows through the paddy fields.   10 acres","Description":"Construction of 1.5m high 1:3:6 (40mm) cement concrete Retaining Wall- for the damaged parts of the drain","Amount (Rs.)":7920000,"photopath":"https://raw.githubusercontent.com/MWS003-GIS/MWS003-GIS.github.io/main/IWWRMP/Data/EXD/200_photo/MWS_113_1/kondadeniya well yaye bridge (1).jpg"},"geometry":{"type":"Point","coordinates":[80.58772,7.339614]}},
{"type":"Feature","properties":{"No":54,"GND No.":466,"Scheme":"Hunnan oya","N":7.345123,"E":80.572688,"Observation":"Sand mining is taking place, and there are unauthorized constructions can be seen, as well as broken canal banks","Description":"Vegetative cover improving for narrow strips (1.5m?2.0m wide) with Arecanut seedlings at 1.5m spacing in 2 rows, Betel plants VP at 3m spacing in 1 row, Green gram as a cover crop - Along the canal banks","Amount (Rs.)":369600,"photopath":"https://raw.githubusercontent.com/MWS003-GIS/MWS003-GIS.github.io/main/IWWRMP/Data/EXD/200_photo/MWS_113_1/hunnan canal (4).jpg"},"geometry":{"type":"Point","coordinates":[80.572688,7.345123]}},
{"type":"Feature","properties":{"No":55,"GND No.":467,"Scheme":"the construction of a canal route with slide walls in the Nugaththegoda area","N":7.34395,"E":80.587219,"Observation":"bottom of the canal has been eroded there is no proper path .due to a water line coming from the upper area canal bund has been erroded.only 8 ac is cultivated now though 12 ac is avilable.600m is damaged in different methods","Description":"Canals reservation protection by concrete lining  For  125mm thick , 0.5m  wide  and 0.4m high canal ?double banking - Damage parts of the canal\nMake a path to access upper water stream to avoid bank erosion \nContingencies (10%)","Amount (Rs.)":6816150,"photopath":"https://raw.githubusercontent.com/MWS003-GIS/MWS003-GIS.github.io/main/IWWRMP/Data/EXD/200_photo/MWS_113_1/Nugaththegoda yaya.jpg"},"geometry":{"type":"Point","coordinates":[80.587219,7.34395]}},
{"type":"Feature","properties":{"No":56,"GND No.":467,"Scheme":"Development the Harankahadeniya canal route","N":7.344284,"E":80.582653,"Observation":"eroded and damaged the path of the canal about 20 m,about 5 ac of land is cultivated by this canal.","Description":"Canals reservation protection by concrete lining  For  125mm thick , 0.5m  wide  and 0.4m high canal ?double banking - Eroded parts of the canal","Amount (Rs.)":408100,"photopath":"https://raw.githubusercontent.com/MWS003-GIS/MWS003-GIS.github.io/main/IWWRMP/Data/EXD/200_photo/MWS_113_1/Harankahadeniya yaya ela.jpg"},"geometry":{"type":"Point","coordinates":[80.582653,7.344284]}},
{"type":"Feature","properties":{"No":57,"GND No.":467,"Scheme":"Development the Malwaththa anicut","N":7.342724,"E":80.582048,"Observation":"no door available for this anicut. Important for cultivation of 10 ac land","Description":"Construct an anicut by providing openings (4.5 ft x 4.5 ft, 4 ft x 4 ft two doors, 2 ft x 2 ft two doors)\nContingencies (10%)","Amount (Rs.)":220000,"photopath":"https://raw.githubusercontent.com/MWS003-GIS/MWS003-GIS.github.io/main/IWWRMP/Data/EXD/200_photo/MWS_113_1/Malwatta amuna.jpg"},"geometry":{"type":"Point","coordinates":[80.582048,7.342724]}},
{"type":"Feature","properties":{"No":58,"GND No.":467,"Scheme":"Restoration the canal which is near the Punchi Kumarihami's paddy felid in the Doradeniya yaya canal route.","N":7.341984,"E":80.580629,"Observation":"2 ac of paddy filed has damaged with this canal bund damage. Have remake temporally by farmers. Bund is damaging due to a stone in the other side of the canal and due to that water flow is directing to the canal bund.","Description":"Construction of 1.5m high 1:3:6 (40mm) cement concrete Retaining Wall- for the damaged parts of the drain","Amount (Rs.)":316800,"photopath":"https://raw.githubusercontent.com/MWS003-GIS/MWS003-GIS.github.io/main/IWWRMP/Data/EXD/200_photo/MWS_113_1/Doradeniya yaya ela.jpg"},"geometry":{"type":"Point","coordinates":[80.580629,7.341984]}},
{"type":"Feature","properties":{"No":59,"GND No.":469,"Scheme":"Gal Amuna ella route","N":7.328283,"E":80.564744,"Observation":"canal bank erosion in several places. Some places sever damaged. garbage also accumulate. some places overgrowing","Description":"Vegetative cover improving for narrow strips (1.5m?2.0m wide) with Arecanut seedlings at 1.5m spacing in 2 rows, Betel plants VP at 3m spacing in 1 row, Green gram as a cover crop - Along the canal banks\nReplanting bamboo species around the river bank ","Amount (Rs.)":1161600,"photopath":"https://raw.githubusercontent.com/MWS003-GIS/MWS003-GIS.github.io/main/IWWRMP/Data/EXD/200_photo/MWS_113_1/Gal Amuna Canal_4967.jpg"},"geometry":{"type":"Point","coordinates":[80.564744,7.328283]}},
{"type":"Feature","properties":{"No":60,"GND No.":469,"Scheme":"Higuruwana oya","N":7.324152,"E":80.564744,"Observation":"bank erosion in some places. due to overgrowing some places cant reach the canal and not properly drainage.","Description":"Vegetative cover improving for narrow strips (1.5m?2.0m wide) with Arecanut seedlings at 1.5m spacing in 2 rows, Betel plants VP at 3m spacing in 1 row, Green gram as a cover crop - Along the canal banks\nReplanting bamboo species around the river bank","Amount (Rs.)":471900,"photopath":"https://raw.githubusercontent.com/MWS003-GIS/MWS003-GIS.github.io/main/IWWRMP/Data/EXD/200_photo/MWS_113_1/Higuruwana Oya_4971.jpg"},"geometry":{"type":"Point","coordinates":[80.564744,7.324152]}},
{"type":"Feature","properties":{"No":61,"GND No.":470,"Scheme":"Kumburuwala Thenna ela wella","N":7.337072,"E":80.570419,"Observation":"35 acres, during the rainy seasons, the paddy fields are flooded.","Description":"Supply and install 2 ft by 2 ft drain canal for the damage parts for 350 m\nContingencies (10%)","Amount (Rs.)":550000,"photopath":"https://raw.githubusercontent.com/MWS003-GIS/MWS003-GIS.github.io/main/IWWRMP/Data/EXD/200_photo/MWS_113_1/kumburuwalathanna anga (2).jpg"},"geometry":{"type":"Point","coordinates":[80.570419,7.337072]}},
{"type":"Feature","properties":{"No":62,"GND No.":470,"Scheme":"Beragama ela wella","N":7.336877,"E":80.571565,"Observation":"The slit is sediment in the canal. 35 acres.","Description":"Construction of 1.5m high 1:3:6 (40mm) cement concrete Retaining Wall- for the damaged parts of the canal\nClean the canal\nContingencies (10%)","Amount (Rs.)":10890000,"photopath":"https://raw.githubusercontent.com/MWS003-GIS/MWS003-GIS.github.io/main/IWWRMP/Data/EXD/200_photo/MWS_113_1/beragama canal (2).jpg"},"geometry":{"type":"Point","coordinates":[80.571565,7.336877]}},
{"type":"Feature","properties":{"No":63,"GND No.":471,"Scheme":"Aladeniya ela","N":7.33931,"E":80.56317,"Observation":"sever damaged to canal embark in several places, garbage also accumulated. overflowing during rainy season and damaged to paddy field. About 9 families cultivating 4 acres paddy field. In some places already arecenut planted.","Description":"Vegetative cover improving for narrow strips (1.5m?2.0m wide) with Arecanut seedlings at 1.5m spacing in 2 rows, Betel plants VP at 3m spacing in 1 row, Green gram as a cover crop - Along the canal banks\nReplanting bamboo species around the river bank ","Amount (Rs.)":1161600,"photopath":"https://raw.githubusercontent.com/MWS003-GIS/MWS003-GIS.github.io/main/IWWRMP/Data/EXD/200_photo/MWS_113_1/aladeniya canal.jpg"},"geometry":{"type":"Point","coordinates":[80.56317,7.33931]}},
{"type":"Feature","properties":{"No":64,"GND No.":491,"Scheme":"Cleaning the Wahalawela canal route (Located in Wathuwala GN)","N":7.322618,"E":80.599515,"Observation":"Canal is not visible in some places during to overgrowing. Currently not it use for work to paddy field. There is garbage in the canal. Also construct building blocking canal.","Description":"Rebuild the canal in necessary places\nDisplay notice boards to stop the waste accumulation\nContingencies (10%)","Amount (Rs.)":220000,"photopath":"https://raw.githubusercontent.com/MWS003-GIS/MWS003-GIS.github.io/main/IWWRMP/Data/EXD/200_photo/MWS_113_1/Wahalawela Yaaya Canal.jpg"},"geometry":{"type":"Point","coordinates":[80.599515,7.322618]}}
]}