{"type":"FeatureCollection","name":"SWC_ON","crs":{"type":"name","properties":{"name":"urn:ogc:def:crs:OGC:1.3:CRS84"}},"features":[
{"type":"Feature","properties":{"No.":9,"GND No.":408,"GND Name":"Hapugoda","Key Activities proposed for Soil and Water conservation":"1. Soil conservation practices - Public cemetery of Hapugoda (45°-55°)","Priority based on Soil Erosion Hazard":1,"N":7.347704,"E":80.60257,"Quantity":"1 ha","Proposed measure/s":"1. Establishing SALT  - 800 m/ 2. Lock and spills - 100 m/ 3. Stone terracing - 100 m/ 4. Agronomic practices should be adapted at optimum level (conservation tillage, crop rotation and diversification, cover crops, mulching, contour farming, windbreaks","Uniti_Cost":"250.00 m-1/ 400.00 m-1/ 2500.00 m-1","Total_Cost":490000,"Contribution (Local Community, LA, and the project)":"Labour and other basic services by the Local community","Time frame for the implementation":"0.25 Years","photopath":"https://raw.githubusercontent.com/MWS003-GIS/MWS003-GIS.github.io/main/IWWRMP/Data/EXD/200_photo/MWS_113_1/Hapogoda sematary.jpg"},"geometry":{"type":"Point","coordinates":[80.60257,7.347704]}},
{"type":"Feature","properties":{"No.":10,"GND No.":466,"GND Name":"Ulladupitiya West","Key Activities proposed for Soil and Water conservation":"1. Soil conservation practices -  Near Mr. Dissanayake's home (30°-40°)","Priority based on Soil Erosion Hazard":3,"N":7.337585,"E":80.581317,"Quantity":"8 ha","Proposed measure/s":"1. Establishing SALT  - 3000 m/ 2. Live fencing - 3000 m/ 3. Lock and spills - 1000 m/ 4. Stone terracing - 1000 m/ 5. Agronomic practices should be adapted at optimum level (conservation tillage, crop rotation and diversification, cover crops, mulching,","Uniti_Cost":"250.00 m-1/ 120.00 m-1/ 400.00 m-1/ 2500.00 m-1","Total_Cost":7270000,"Contribution (Local Community, LA, and the project)":"Labour and other basic services by the Local community","Time frame for the implementation":"0.25 Years","photopath":"https://raw.githubusercontent.com/MWS003-GIS/MWS003-GIS.github.io/main/IWWRMP/Data/EXD/200_photo/MWS_113_1/soil conservation (1).jpg"},"geometry":{"type":"Point","coordinates":[80.581317,7.337585]}},
{"type":"Feature","properties":{"No.":11,"GND No.":466,"GND Name":"Ulladupitiya West","Key Activities proposed for Soil and Water conservation":"1. Soil conservation practices -  Near Mr. Nishantha Ekanayake's home (30°-40°)","Priority based on Soil Erosion Hazard":4,"N":7.3372,"E":80.58132,"Quantity":"8 ha","Proposed measure/s":"1. Establishing SALT  - 3000 m/ 2. Live fencing - 3000 m/ 3. Lock and spills - 1000 m/ 4. Stone terracing - 1000 m/ 5. Agronomic practices should be adapted at optimum level (conservation tillage, crop rotation and diversification, cover crops, mulching,","Uniti_Cost":"250.00 m-1/ 120.00 m-1/ 400.00 m-1/ 2500.00 m-1","Total_Cost":4010000,"Contribution (Local Community, LA, and the project)":"Labour and other basic services by the Local community","Time frame for the implementation":"0.25 Years","photopath":"https://raw.githubusercontent.com/MWS003-GIS/MWS003-GIS.github.io/main/IWWRMP/Data/EXD/200_photo/MWS_113_1/soil conservation (2).jpg"},"geometry":{"type":"Point","coordinates":[80.58132,7.3372]}},
{"type":"Feature","properties":{"No.":12,"GND No.":471,"GND Name":"Aladeniya","Key Activities proposed for Soil and Water conservation":"1. Soil conservation practices -  Galwalagawa Hena (50°-60°)","Priority based on Soil Erosion Hazard":4,"N":7.341931,"E":80.562837,"Quantity":"1 ha","Proposed measure/s":"1. Establishing SALT  - 500 m/2. Lock and spills - 250 m/3. Stone terracing - 250 m/ 4. Agronomic practices should be adapted at optimum level (conservation tillage, crop rotation and diversification, cover crops, mulching, contour farming, windbreaks an","Uniti_Cost":"250.00 m-1/ 400.00 m-1/ 2500.00 m-1","Total_Cost":850000,"Contribution (Local Community, LA, and the project)":"Labour and other basic services by the Local community","Time frame for the implementation":"0.25 Years","photopath":"https://raw.githubusercontent.com/MWS003-GIS/MWS003-GIS.github.io/main/IWWRMP/Data/EXD/200_photo/MWS_113_1/galwala hena disaster.jpg"},"geometry":{"type":"Point","coordinates":[80.562837,7.341931]}},
{"type":"Feature","properties":{"No.":13,"GND No.":481,"GND Name":"Attaragama East","Key Activities proposed for Soil and Water conservation":"1. Soil conservation practices -  Attaragama East (25°-45°)","Priority based on Soil Erosion Hazard":4,"N":7.351928,"E":80.57932,"Quantity":"2 ha","Proposed measure/s":"1. Establishing SALT  - 500 m/ 2. Lock and spills - 1000 m/ 3. Stone terracing - 750 m/ 4. Agronomic practices should be adapted at optimum level (conservation tillage, crop rotation and diversification, cover crops, mulching, contour farming, windbreaks","Uniti_Cost":"250.00 m-1/ 400.00 m-1/ 2500.00 m-1","Total_Cost":2400000,"Contribution (Local Community, LA, and the project)":"Labour and other basic services by the Local community","Time frame for the implementation":"0.25 Years","photopath":"https://raw.githubusercontent.com/MWS003-GIS/MWS003-GIS.github.io/main/IWWRMP/Data/EXD/200_photo/MWS_113_1/Soil Conservation 2.jpg"},"geometry":{"type":"Point","coordinates":[80.57932,7.351928]}},
{"type":"Feature","properties":{"No.":14,"GND No.":482,"GND Name":"Attaragama South","Key Activities proposed for Soil and Water conservation":"1. Soil conservation practices -  Gardens (60°-70°)","Priority based on Soil Erosion Hazard":4,"N":7.346238,"E":80.593164,"Quantity":"3 ha","Proposed measure/s":"1. Establishing SALT  - 1000 m/ 2. Live fencing  - 1000 m/ 3. Lock and spills - 500 m/ 4. Stone terracing - 500 m/ 5. Agronomic practices should be adapted at optimum level (conservation tillage, crop rotation and diversification, cover crops, mulching,","Uniti_Cost":"250.00 m-1/ 120.00 m-1/ 400.00 m-1/ 2500.00 m-1","Total_Cost":1820000,"Contribution (Local Community, LA, and the project)":"Labour and other basic services by the Local community","Time frame for the implementation":"0.25 Years","photopath":"https://raw.githubusercontent.com/MWS003-GIS/MWS003-GIS.github.io/main/IWWRMP/Data/EXD/200_photo/MWS_113_1/Soil Conservation 2.jpg"},"geometry":{"type":"Point","coordinates":[80.593164,7.346238]}}
]}