{
  "type": "FeatureCollection",
  "name": "Landslides",
  "crs": {
    "type": "name",
    "properties": {
      "name": "urn:ogc:def:crs:OGC:1.3:CRS84"
    }
  },
  "features": [
    {
      "type": "Feature",
      "properties": {
        "No.": 1,
        "GN Division No.": "508 D",
        "GN Division": "Ampitigoda",
        "Land Slides": "Landsliding of houses and lands - Wellagiriya",
        "N": 7.070439,
        "E": 80.793133,
        "NBRO Recommendation": "NBRO is aware",
        "Proposed Measures": "This land is owned by the government. A reservation needs to be allocated and forest crops need to be planted.",
        "photopath": "https://raw.githubusercontent.com/MWS003-GIS/MWS003-GIS.github.io/main/IWWRMP/Data/EXD/200_photo/MWS_017/AM3 (2).jpg"
      },
      "geometry": {
        "type": "Point",
        "coordinates": [
          80.793133,
          7.070439
        ]
      }
    },
    {
      "type": "Feature",
      "properties": {
        "No.": 4,
        "GN Division No.": "508 B",
        "GN Division": "Gonakele",
        "Land Slides": "Irrigation canal overflowing to the houses - Marketplace of Gonakale",
        "N": 7.057311,
        "E": 80.821513,
        "NBRO Recommendation": "Needs NBRO concern",
        "Proposed Measures": "Oluwawatta canal needs to be concrete lined.",
        "photopath": "Not_Available"
      },
      "geometry": {
        "type": "Point",
        "coordinates": [
          80.821513,
          7.057311
        ]
      }
    },
    {
      "type": "Feature",
      "properties": {
        "No.": 6,
        "GN Division No.": "512 C",
        "GN Division": "Goodwood",
        "Land Slides": "High water flow across the road during rainy days - Bangala Kadura road",
        "N": 7.053026,
        "E": 80.788387,
        "NBRO Recommendation": "Needs NBRO concern",
        "Proposed Measures": "A culvert/ bridge need to be constructed. (L - 9 m, W - 1.8 m, T - 0.5 m, Opening L - 3 m, W - 0.9 m)",
        "photopath": "https://raw.githubusercontent.com/MWS003-GIS/MWS003-GIS.github.io/main/IWWRMP/Data/EXD/200_photo/MWS_017/GW12.jpg"
      },
      "geometry": {
        "type": "Point",
        "coordinates": [
          80.788387,
          7.053026
        ]
      }
    },
    {
      "type": "Feature",
      "properties": {
        "No.": 7,
        "GN Division No.": "508",
        "GN Division": "Ketayapathana",
        "Land Slides": "1. Wall collapsing near Ketayapathana Udagama Road",
        "N": 7.074577,
        "E": 80.804551,
        "NBRO Recommendation": "Needs NBRO concern",
        "Proposed Measures": "Establishing a retaining/side wall (L - 10.5 m, W - 0.5 m, H - 3 m)",
        "photopath": "https://raw.githubusercontent.com/MWS003-GIS/MWS003-GIS.github.io/main/IWWRMP/Data/EXD/200_photo/MWS_017/K11.jpg"
      },
      "geometry": {
        "type": "Point",
        "coordinates": [
          80.804551,
          7.074577
        ]
      }
    },
    {
      "type": "Feature",
      "properties": {
        "No.": 8,
        "GN Division No.": "512 E",
        "GN Division": "Labuhenwala",
        "Land Slides": "1. Landsliding a part of the road",
        "N": 7.058675,
        "E": 80.781456,
        "NBRO Recommendation": "Needs NBRO concern",
        "Proposed Measures": "Establishing a side wall (L - 30 m, W - 0.5 m, H - 3.6 m)",
        "photopath": "Not_Available"
      },
      "geometry": {
        "type": "Point",
        "coordinates": [
          80.781456,
          7.058675
        ]
      }
    },
    {
      "type": "Feature",
      "properties": {
        "No.": 9,
        "GN Division No.": "512 E",
        "GN Division": "Labuhenwala",
        "Land Slides": "2. Soil erosion of the lands",
        "N": 7.056603,
        "E": 80.78379,
        "NBRO Recommendation": "Needs NBRO concern",
        "Proposed Measures": "Establishing a retaining walls",
        "photopath": "Not_Available"
      },
      "geometry": {
        "type": "Point",
        "coordinates": [
          80.78379,
          7.056603
        ]
      }
    },
    {
      "type": "Feature",
      "properties": {
        "No.": 10,
        "GN Division No.": "512 E",
        "GN Division": "Labuhenwala",
        "Land Slides": "3. Sinking of the road",
        "N": 7.059493,
        "E": 80.78088,
        "NBRO Recommendation": "Needs NBRO concern",
        "Proposed Measures": "Establishing a retaining wall (L - 8 m, W - 0.5 m, H - 1.8 m)",
        "photopath": "Not_Available"
      },
      "geometry": {
        "type": "Point",
        "coordinates": [
          80.78088,
          7.059493
        ]
      }
    },
    {
      "type": "Feature",
      "properties": {
        "No.": 11,
        "GN Division No.": "512 E",
        "GN Division": "Labuhenwala",
        "Land Slides": "4. Soil erosion of the school land due to high flow of water from above lands",
        "N": 7.055506,
        "E": 80.778424,
        "NBRO Recommendation": "Needs NBRO concern",
        "Proposed Measures": "Establishing a side wall at the middle of the school's land (L - 30 m, W - 0.5 m, H - 7.5 m)",
        "photopath": "Not_Available"
      },
      "geometry": {
        "type": "Point",
        "coordinates": [
          80.778424,
          7.055506
        ]
      }
    },
    {
      "type": "Feature",
      "properties": {
        "No.": 12,
        "GN Division No.": "512 E",
        "GN Division": "Labuhenwala",
        "Land Slides": "5. Soil erosion of the school land",
        "N": 7.055506,
        "E": 80.778424,
        "NBRO Recommendation": "Needs NBRO concern",
        "Proposed Measures": "Establishing a wall (L - 30 m, W - 0.5 m, H - 1.2 m)",
        "photopath": "Not_Available"
      },
      "geometry": {
        "type": "Point",
        "coordinates": [
          80.778424,
          7.055506
        ]
      }
    },
    {
      "type": "Feature",
      "properties": {
        "No.": 13,
        "GN Division No.": "512 E",
        "GN Division": "Labuhenwala",
        "Land Slides": "6. Soil erosion of the lands",
        "N": 7.053351,
        "E": 80.780407,
        "NBRO Recommendation": "Needs NBRO concern",
        "Proposed Measures": "Soil conservation practices need to be introduced to lands above.",
        "photopath": "Not_Available"
      },
      "geometry": {
        "type": "Point",
        "coordinates": [
          80.780407,
          7.053351
        ]
      }
    },
    {
      "type": "Feature",
      "properties": {
        "No.": 14,
        "GN Division No.": "509",
        "GN Division": "Mathurata",
        "Land Slides": "1. Bank collapsing and bank erosion along 30 m of the canal - Danda Arawa canal",
        "N": 7.072754,
        "E": 80.802379,
        "NBRO Recommendation": "Needs NBRO concern",
        "Proposed Measures": "A pipe needs to be applied from the anicut (D - 9\", L - 200 m)",
        "photopath": "Not_Available"
      },
      "geometry": {
        "type": "Point",
        "coordinates": [
          80.802379,
          7.072754
        ]
      }
    },
    {
      "type": "Feature",
      "properties": {
        "No.": 15,
        "GN Division No.": "509",
        "GN Division": "Mathurata",
        "Land Slides": "2. Erosion of the canal (20 m) - Danda Arawa canal",
        "N": 7.072754,
        "E": 80.802374,
        "NBRO Recommendation": "NBRO has issued Red Notice",
        "Proposed Measures": "Establishing a side wall (L - 20 m, W - 0.5 m, H - 3 m)",
        "photopath": "Not_Available"
      },
      "geometry": {
        "type": "Point",
        "coordinates": [
          80.802374,
          7.072754
        ]
      }
    },
    {
      "type": "Feature",
      "properties": {
        "No.": 20,
        "GN Division No.": "512 F",
        "GN Division": "Wewathenna",
        "Land Slides": "1. Collapsing trees in Wewathenna reservation",
        "N": 7.059137,
        "E": 80.788257,
        "NBRO Recommendation": "Needs NBRO concern",
        "Proposed Measures": "Trees need to be removed in a 3 m width area on both sides of the road.",
        "photopath": "https://raw.githubusercontent.com/MWS003-GIS/MWS003-GIS.github.io/main/IWWRMP/Data/EXD/200_photo/MWS_017/WW9 (2).jpg"
      },
      "geometry": {
        "type": "Point",
        "coordinates": [
          80.788257,
          7.059137
        ]
      }
    },
    {
      "type": "Feature",
      "properties": {
        "No.": 21,
        "GN Division No.": "512 F",
        "GN Division": "Wewathenna",
        "Land Slides": "2. Bank collapsing near the - Infront of the Wewathenna Nawarathna Stores",
        "N": 7.060776,
        "E": 80.787607,
        "NBRO Recommendation": "Needs NBRO concern",
        "Proposed Measures": "Establishing a side/retaining wall earth filling (L - 6 m, W - 0.5 m, H - 9 m)",
        "photopath": "https://raw.githubusercontent.com/MWS003-GIS/MWS003-GIS.github.io/main/IWWRMP/Data/EXD/200_photo/MWS_017/WW10.jpg"
      },
      "geometry": {
        "type": "Point",
        "coordinates": [
          80.787607,
          7.060776
        ]
      }
    }
  ]
}