{
  "type": "FeatureCollection",
  "name": "WP",
  "crs": {
    "type": "name",
    "properties": {
      "name": "urn:ogc:def:crs:OGC:1.3:CRS84"
    }
  },
  "features": [
    {
      "type": "Feature",
      "properties": {
        "No.": 4,
        "GND No.": "508 B",
        "GN Division": "Gonakele",
        "Non-point sources of pollution": "Addition of household wastes/garbage - Oluwawatta",
        "N": 7.057816,
        "E": 80.821339,
        "Point sources of pollution": null,
        "Add. N ": null,
        "Add. E ": null,
        "Recommended water quality improvement measures": "Preparing a separate place in home gardens for disposing household waste\nAwareness program on how to disposal household waste properly and converting them to usable products such as compost\nFacilitating garbage collection",
        "Unit Cost (Rs.)": null,
        "Total Cost (Rs.)": "50,000",
        "Contributions (Local Community, LA, Project)": "Local/Central governments",
        "Time frame for the implementation": "0.5 Years",
        "photopath": "Not_Available"
      },
      "geometry": {
        "type": "Point",
        "coordinates": [
          80.821339,
          7.057816
        ]
      }
    },
    {
      "type": "Feature",
      "properties": {
        "No.": 5,
        "GND No.": "508 F",
        "GN Division": "Gonapitiya",
        "Non-point sources of pollution": "Improper disposal of domestic waste of line houses in estate and mixing with the springs and stream located below - Gonapitiya Watta estate",
        "N": 7.05167,
        "E": 80.79809,
        "Point sources of pollution": null,
        "Add. N ": null,
        "Add. E ": null,
        "Recommended water quality improvement measures": "Awareness program on how to disposal household waste properly and converting them to usable products such as compost\nIntroduce waste collecting methods and converting them into productive output with the mediation of Local Governments.",
        "Unit Cost (Rs.)": null,
        "Total Cost (Rs.)": "50,000",
        "Contributions (Local Community, LA, Project)": "Local/Central governments",
        "Time frame for the implementation": "0.5 Years",
        "photopath": "Not_Available"
      },
      "geometry": {
        "type": "Point",
        "coordinates": [
          80.79809,
          7.05167
        ]
      }
    },
    {
      "type": "Feature",
      "properties": {
        "No.": 7,
        "GND No.": "508",
        "GN Division": "Ketayapathana",
        "Non-point sources of pollution": "Discarding domestic waste to torrent - Maussawa torrent",
        "N": 7.071182,
        "E": 80.805247,
        "Point sources of pollution": null,
        "Add. N ": null,
        "Add. E ": null,
        "Recommended water quality improvement measures": "Awareness program on how to dispose of household waste properly and converting them to usable products such as compost\nIntroduce waste collecting methods and converting them into productive output with the mediation of Local Governments.",
        "Unit Cost (Rs.)": null,
        "Total Cost (Rs.)": "50,000",
        "Contributions (Local Community, LA, Project)": "Local/Central governments",
        "Time frame for the implementation": "0.5 Years",
        "photopath": "Not_Available"
      },
      "geometry": {
        "type": "Point",
        "coordinates": [
          80.805247,
          7.071182
        ]
      }
    },
    {
      "type": "Feature",
      "properties": {
        "No.": 12,
        "GND No.": "508 C",
        "GN Division": "Ketayapathana Udagama",
        "Non-point sources of pollution": "Discarding domestic waste to torrent - Torrent near the Upali Stores",
        "N": 7.070337,
        "E": 80.805148,
        "Point sources of pollution": null,
        "Add. N ": null,
        "Add. E ": null,
        "Recommended water quality improvement measures": "Awareness program on how to disposal household waste properly and converting them to usable products such as compost\nIntroduce waste collecting methods and converting them into productive output with the mediation of Local Governments.",
        "Unit Cost (Rs.)": null,
        "Total Cost (Rs.)": "50,000",
        "Contributions (Local Community, LA, Project)": "Local/Central governments",
        "Time frame for the implementation": "0.5 Years",
        "photopath": "https://raw.githubusercontent.com/MWS003-GIS/MWS003-GIS.github.io/main/IWWRMP/Data/EXD/200_photo/MWS_017/KU2.jpg"
      },
      "geometry": {
        "type": "Point",
        "coordinates": [
          80.805148,
          7.070337
        ]
      }
    }
  ]
}