{"type":"FeatureCollection","name":"DWS","crs":{"type":"name","properties":{"name":"urn:ogc:def:crs:OGC:1.3:CRS84"}},"features":[
{"type":"Feature","properties":{"No":1,"GND No.":840,"Scheme":"Kevulgama village","N":7.284024,"E":80.867323,"Observation":"Spring is located on a mountain belonging to the Nugethenna East Division and is inaccessible because the access road has not been cleared. A 10,000 liters water storage tank has been constructed and water is being distributed to 45 families. A small wat","Description":"Construction of Concrete water storage tank of 20 cum - size internal 3mx3mx2.5\n\nSite preparation & setting out\n\nPlywood form work including making, fixing & removing for structure -05 uses\n\nCutting, Bending & Placing tor steel reinforcement bars\n\n1:2:4","Estimated Cost":"742,500.00","photopath":"https://raw.githubusercontent.com/MWS003-GIS/MWS003-GIS.github.io/main/IWWRMP/Data/EXD/200_photo/MWS_079/Samadhi Community WP.jpg"},"geometry":{"type":"Point","coordinates":[80.867323,7.284024]}},
{"type":"Feature","properties":{"No":2,"GND No.":842,"Scheme":"Spring at the land of Sri Lanka State Plantations Corporation at Nugagalawatta, Hunnasgiriya","N":7.289041,"E":80.854285,"Observation":"Water collected from the Nugagala Estate water spring is stored in a 12,500 liters tank constructed at this location and distributed through it to about 40 families. Minor repairs need to be made to the existing water tank. Since the capacity of this tan","Description":"Construction of Concrete water storage tank of 20 cum - size internal 3mx3mx2.5\n\nPlywood form work including making, fixing & removing for structure -05 uses\n\nCutting, Bending & Placing tor steel reinforcement bars\n\n1:2:4 (20mm) concrete with concrete mi","Estimated Cost":"1,100,000.00","photopath":"https://raw.githubusercontent.com/MWS003-GIS/MWS003-GIS.github.io/main/IWWRMP/Data/EXD/200_photo/MWS_079/Nugagalawatta Spring.jpg"},"geometry":{"type":"Point","coordinates":[80.854285,7.289041]}},
{"type":"Feature","properties":{"No":3,"GND No.":844,"Scheme":"Upper part of the Denapitiya village","N":7.299694,"E":80.861306,"Observation":"No tank has been built at the water source, and about 35 families are obtain water using PVC pipes.","Description":"Construction of Concrete water storage tank of 20 cum - size internal 3mx3mx2.5\n\nSite preparation & setting out\n\nPlywood form work including making, fixing & removing for structure -05 uses\n\nCutting, Bending & Placing tor steel reinforcement bars\n\n1:2:4","Estimated Cost":"742,500.00","photopath":"Not_Available"},"geometry":{"type":"Point","coordinates":[80.861306,7.299694]}},
{"type":"Feature","properties":{"No":4,"GND No.":846,"Scheme":"Mendiriya village","N":7.309363,"E":80.879721,"Observation":"A tank of 3.0m long,  3.0m wide and 1.5m depth  is Constructed of rubble. About 30 families obtain water for bathing and household needs. Water is leaking from the tank walls.","Description":"Scarifying existing rock or concrete surface\n\nPlaster 12mm thick in 1:3 cement and sand finished smooth with gray cement floating\n\nTidying up\n\nContingencies 10%","Estimated Cost":"33,000.00","photopath":"Not_Available"},"geometry":{"type":"Point","coordinates":[80.879721,7.309363]}},
{"type":"Feature","properties":{"No":5,"GND No.":848,"Scheme":"Nawanagala Dinsten Division","N":7.324588,"E":80.861094,"Observation":"Located as a stream, Water is being obtained irregularly using PVC pipes in some places. About 20 families use water for domestic needs","Description":"Construction of Concrete water storage tank of 20 cum - size internal 3mx3mx2.5\n\nSite preparation & setting out\n\nPlywood form work including making, fixing & removing for structure -05 uses\n\nCutting, Bending & Placing tor steel reinforcement bars\n\n1:2:4","Estimated Cost":"836,000.00","photopath":"https://raw.githubusercontent.com/MWS003-GIS/MWS003-GIS.github.io/main/IWWRMP/Data/EXD/200_photo/MWS_079/Nawanagala water project stock tank.jpg"},"geometry":{"type":"Point","coordinates":[80.861094,7.324588]}},
{"type":"Feature","properties":{"No":6,"GND No.":848,"Scheme":"The area below the estate office","N":7.318302,"E":80.861043,"Observation":"Located as a stream, Water is being obtained irregularly using PVC pipes in some places. About 40 families use water for domestic needs","Description":"Construction of Concrete water storage tank of 20 cum - size internal 3mx3mx2.5\n\nSite preparation & setting out\n\nPlywood form work including making, fixing & removing for structure -05 uses\n\nCutting, Bending & Placing tor steel reinforcement bars\n\n1:2:4","Estimated Cost":"836,000.00","photopath":"Not_Available"},"geometry":{"type":"Point","coordinates":[80.861043,7.318302]}},
{"type":"Feature","properties":{"No":7,"GND No.":848,"Scheme":"Upper area of Nawanagala Quarters Road","N":7.315444,"E":80.858961,"Observation":"Located in forest land, Located as a stream, 4.0m long rubble wall is built and water is obtained using PVC pipes. About 60 families use water for domestic needs","Description":"Construction of Concrete water storage tank of 20 cum - size internal 3mx3mx2.5\n\nSite preparation & setting out\n\nPlywood form work including making, fixing & removing for structure -05 uses\n\nCutting, Bending & Placing tor steel reinforcement bars\n\n1:2:4","Estimated Cost":"836,000.00","photopath":"Not_Available"},"geometry":{"type":"Point","coordinates":[80.858961,7.315444]}},
{"type":"Feature","properties":{"No":8,"GND No.":851,"Scheme":"Koswatta road of Kiripattiya village","N":7.296813,"E":80.869141,"Observation":"No tank has been built near the spring, Water is collected using a PVC pipe from the spring to the water storage tank below. A tank has not been built at the spring site as permission has not been obtained from the Forest Conservation Department.About 20","Description":"Construction of Concrete water storage tank of 20 cum - size internal 3mx3mx2.5\n\nSite preparation & setting out\n\nPlywood form work including making, fixing & removing for structure -05 uses\n\nCutting, Bending & Placing tor steel reinforcement bars\n\n1:2:4","Estimated Cost":"742,500.00","photopath":"https://raw.githubusercontent.com/MWS003-GIS/MWS003-GIS.github.io/main/IWWRMP/Data/EXD/200_photo/MWS_079/Kiripattiya WP Stock Tank.jpg"},"geometry":{"type":"Point","coordinates":[80.869141,7.296813]}}
]}