{"type":"FeatureCollection","name":"Landslide","crs":{"type":"name","properties":{"name":"urn:ogc:def:crs:OGC:1.3:CRS84"}},"features":[
{"type":"Feature","properties":{"No.":1,"GN Division No.":839,"GN Division":"Ganegala","Landslides":"Soil erosion - Mudune Yaaya","N":7.273902,"E":80.868896,"NBRO Recommendation N/A":"Needs NBRO concern","Proposed Measures":"Apply basic soil conservation measures","photopath":"Not_Available"},"geometry":{"type":"Point","coordinates":[80.868896,7.273902]}},
{"type":"Feature","properties":{"No.":2,"GN Division No.":840,"GN Division":"Kevulgama","Landslides":"Bank collapsing - Kevulgama","N":7.278774,"E":80.863937,"NBRO Recommendation N/A":"NBRO is aware","Proposed Measures":"Follow NBRO recommendations","photopath":"https://raw.githubusercontent.com/MWS003-GIS/MWS003-GIS.github.io/main/IWWRMP/Data/EXD/200_photo/MWS_079/Landslide area L3.jpg"},"geometry":{"type":"Point","coordinates":[80.863937,7.278774]}},
{"type":"Feature","properties":{"No.":3,"GN Division No.":841,"GN Division":"Nugethenna West","Landslides":"Soil sloughing - Nugethenna West village area","N":7.285936,"E":80.853021,"NBRO Recommendation N/A":"NBRO is aware","Proposed Measures":"Follow NBRO recommendations","photopath":"https://raw.githubusercontent.com/MWS003-GIS/MWS003-GIS.github.io/main/IWWRMP/Data/EXD/200_photo/MWS_079/Landslide Place 1.jpg"},"geometry":{"type":"Point","coordinates":[80.853021,7.285936]}},
{"type":"Feature","properties":{"No.":4,"GN Division No.":842,"GN Division":"Nugethenna East","Landslides":"1. Landsliding, Sinking the road - Nugethenna Temple road","N":7.289176,"E":80.856688,"NBRO Recommendation N/A":"NBRO is aware","Proposed Measures":"Follow NBRO recommendations","photopath":"https://raw.githubusercontent.com/MWS003-GIS/MWS003-GIS.github.io/main/IWWRMP/Data/EXD/200_photo/MWS_079/Temple Road Landslide 1.jpg"},"geometry":{"type":"Point","coordinates":[80.856688,7.289176]}},
{"type":"Feature","properties":{"No.":5,"GN Division No.":842,"GN Division":"Nugethenna East","Landslides":"2. Cracking the walls of houses, Emerging of water springs - Both sides of the Nugethenna East Temple road","N":7.289357,"E":80.856645,"NBRO Recommendation N/A":"NBRO is aware","Proposed Measures":"Follow NBRO recommendations","photopath":"https://raw.githubusercontent.com/MWS003-GIS/MWS003-GIS.github.io/main/IWWRMP/Data/EXD/200_photo/MWS_079/Temple Road Landslide 2.jpg"},"geometry":{"type":"Point","coordinates":[80.856645,7.289357]}},
{"type":"Feature","properties":{"No.":8,"GN Division No.":845,"GN Division":"Halyala","Landslides":"Landsliding, collapsing boulders - Main road from Kahatagolla Oya to Ekkassa upto the boundary of Halyala","N":7.310801,"E":80.870086,"NBRO Recommendation N/A":"Needs NBRO concern","Proposed Measures":"Consult NBRO and follow its recommendations","photopath":"https://raw.githubusercontent.com/MWS003-GIS/MWS003-GIS.github.io/main/IWWRMP/Data/EXD/200_photo/MWS_079/Earth slip in Road.jpg"},"geometry":{"type":"Point","coordinates":[80.870086,7.310801]}},
{"type":"Feature","properties":{"No.":10,"GN Division No.":847,"GN Division":"Udadumbara","Landslides":"1. Landsliding, Bank collapsing - Kandy - Mahiyanganaya Road upto Udadumbara City","N":7.317036,"E":80.876936,"NBRO Recommendation N/A":"Needs NBRO concern","Proposed Measures":"Inform RDA and take appropriate action","photopath":"https://raw.githubusercontent.com/MWS003-GIS/MWS003-GIS.github.io/main/IWWRMP/Data/EXD/200_photo/MWS_079/Kandy to Mahiyangana road earth slip.jpg"},"geometry":{"type":"Point","coordinates":[80.876936,7.317036]}},
{"type":"Feature","properties":{"No.":11,"GN Division No.":847,"GN Division":"Udadumbara","Landslides":"2. Earth fissures of the road, sinking the land - 30 m rea near the meeting hall at Hapugaskumbura Road","N":7.319252,"E":80.876308,"NBRO Recommendation N/A":"Needs NBRO concern","Proposed Measures":"Follow NBRO recommendations","photopath":"https://raw.githubusercontent.com/MWS003-GIS/MWS003-GIS.github.io/main/IWWRMP/Data/EXD/200_photo/MWS_079/Hapugaskumbura road earth slip.jpg"},"geometry":{"type":"Point","coordinates":[80.876308,7.319252]}},
{"type":"Feature","properties":{"No.":12,"GN Division No.":848,"GN Division":"Nawanagala","Landslides":"1. Landsliding, Sinking - Estate Hospital nearby area","N":7.313028,"E":80.863402,"NBRO Recommendation N/A":"NBRO is aware","Proposed Measures":"It is advisable for the Estate Authority to obtain NBRO reports and take appropriate actions acccordingly","photopath":"https://raw.githubusercontent.com/MWS003-GIS/MWS003-GIS.github.io/main/IWWRMP/Data/EXD/200_photo/MWS_079/Near the wathu Hospital.jpg"},"geometry":{"type":"Point","coordinates":[80.863402,7.313028]}},
{"type":"Feature","properties":{"No.":13,"GN Division No.":848,"GN Division":"Nawanagala","Landslides":"2. Landsliding - Meda Laima Pahala Division","N":7.315888,"E":80.862136,"NBRO Recommendation N/A":"Needs NBRO concern","Proposed Measures":"It is advisable for the Estate Authority to obtain NBRO reports and take appropriate actions accordingly","photopath":"https://raw.githubusercontent.com/MWS003-GIS/MWS003-GIS.github.io/main/IWWRMP/Data/EXD/200_photo/MWS_079/Meda laima  earth slip area.jpg"},"geometry":{"type":"Point","coordinates":[80.862136,7.315888]}},
{"type":"Feature","properties":{"No.":14,"GN Division No.":848,"GN Division":"Nawanagala","Landslides":"3. Landsliding - Meenagolla","N":7.324564,"E":80.861117,"NBRO Recommendation N/A":"Needs NBRO concern","Proposed Measures":"Appropriate action should be taken after receiving the NBRO report","photopath":"https://raw.githubusercontent.com/MWS003-GIS/MWS003-GIS.github.io/main/IWWRMP/Data/EXD/200_photo/MWS_079/Nagolla earth slip.jpg"},"geometry":{"type":"Point","coordinates":[80.861117,7.324564]}},
{"type":"Feature","properties":{"No.":17,"GN Division No.":851,"GN Division":"Kiripattiya","Landslides":"1. Landsliding - Enamalhena entrance road","N":7.297094,"E":80.866291,"NBRO Recommendation N/A":"Needs NBRO concern","Proposed Measures":"Inform PRDA and take appropriate actions accordingly","photopath":"https://raw.githubusercontent.com/MWS003-GIS/MWS003-GIS.github.io/main/IWWRMP/Data/EXD/200_photo/MWS_079/Landslide Enamalpotha Road.jpg"},"geometry":{"type":"Point","coordinates":[80.866291,7.297094]}},
{"type":"Feature","properties":{"No.":18,"GN Division No.":851,"GN Division":"Kiripattiya","Landslides":"2. Landsliding - Road near the Kahatagolla Oya","N":7.305791,"E":80.870234,"NBRO Recommendation N/A":"Needs NBRO concern","Proposed Measures":"Inform RDA and take appropriate actions accordingly","photopath":"https://raw.githubusercontent.com/MWS003-GIS/MWS003-GIS.github.io/main/IWWRMP/Data/EXD/200_photo/MWS_079/Landslide Main Road.jpg"},"geometry":{"type":"Point","coordinates":[80.870234,7.305791]}}
]}