{"type":"FeatureCollection","name":"MI","crs":{"type":"name","properties":{"name":"urn:ogc:def:crs:OGC:1.3:CRS84"}},"features":[
{"type":"Feature","properties":{"No":1,"GND No.":839,"Scheme":"Canal and anicut of Udupitiya","N":7.276641,"E":80.85988,"Observation":"The anicut is built of concrete and needs to be repair. A earthen canal about 500m long, The canal is in a very dilapidated condition. Command area = 7.0 acres","Description":"Construction of 1.0m high 350m long 1:3:6 (40mm) cement concrete Retaining Wall\n\nSite preparation & setting out\n\nEarth excavation for foundation or quarry materials and haul the surplus materials up to 30m by Manually.\n\nPlywood form work including making","Amount (Rs.)":"24,959,000.00","photopath":"https://raw.githubusercontent.com/MWS003-GIS/MWS003-GIS.github.io/main/IWWRMP/Data/EXD/200_photo/MWS_079/Udupitiyekumbura Canal.jpg"},"geometry":{"type":"Point","coordinates":[80.85988,7.276641]}},
{"type":"Feature","properties":{"No":2,"GND No.":839,"Scheme":"Polgaspitiya anicut","N":7.27596,"E":80.862593,"Observation":"The anicut is built of concrete and needs to be repair. A earthen canal about 250m long,  Command area = 7.0acres","Description":"Canal reservation protection by 50m long concrete lining 0.3m  wide  and 0.3m high canal -double banking (100mm thick)\n\nSite preparation and settingout\n\nPlywood form work including making, fixing & removing for structure -05 uses\n\nCutting, Bending & Plac","Amount (Rs.)":"1,078,000.00","photopath":"https://raw.githubusercontent.com/MWS003-GIS/MWS003-GIS.github.io/main/IWWRMP/Data/EXD/200_photo/MWS_079/Polgaspitiya Anicut 1.jpg"},"geometry":{"type":"Point","coordinates":[80.862593,7.27596]}},
{"type":"Feature","properties":{"No":3,"GND No.":839,"Scheme":"Anicut and canal of Gamawela","N":7.276296,"E":80.864986,"Observation":"Anicut is built with stones and earth, The  part of the canal has been concreted. The 500m long section of the earthen canal should be concreted. Command area  = 25.0 acres","Description":"Construction of 0.90m high x 20.0m long Weir\n\nSite clearing, site preparation & settingout\n\nConstruction of 0.9 m high Weir across stream excluding abutments and stop planks\n\nConstruction of 1.0m high 1:3:6 (40mm) cement concrete Retaining Wall\n\n\n75mm tk","Amount (Rs.)":"3,965,500.00","photopath":"https://raw.githubusercontent.com/MWS003-GIS/MWS003-GIS.github.io/main/IWWRMP/Data/EXD/200_photo/MWS_079/Gamawela Anicut.jpg"},"geometry":{"type":"Point","coordinates":[80.864986,7.276296]}},
{"type":"Feature","properties":{"No":4,"GND No.":839,"Scheme":"Polkotuwa anicut","N":7.274175,"E":80.865516,"Observation":"Anicut is built with stones and earth, A earthen canal about 100m long,  Command area = 6.0acres","Description":"Construction of 0.90m high x 20.0m long Weir\n\nSite clearing, site preparation & settingout\n\nConstruction of 0.9 m high Weir across stream excluding abutments and stop planks\n\nConstruction of 1.0m high 1:3:6 (40mm) cement concrete Retaining Wall\n\n\n75mm tk","Amount (Rs.)":"2,728,000.00","photopath":"https://raw.githubusercontent.com/MWS003-GIS/MWS003-GIS.github.io/main/IWWRMP/Data/EXD/200_photo/MWS_079/Polkotowe Anicut.jpg"},"geometry":{"type":"Point","coordinates":[80.865516,7.274175]}},
{"type":"Feature","properties":{"No":5,"GND No.":839,"Scheme":"Canal of Kalagolla","N":7.270282,"E":80.867655,"Observation":"A earthen canal about 700m long,  Command area = 5.5 acres","Description":"Canal reservation protection by concrete lining  For  100mm thick , 0.3m  wide  and 0.3m high canal -double banking\n\nStream / canal  reservation protection by earthfilling of  strip   of 1.5m to 2m wide  and average Depth of 0.5m\n\nVegetative cover improv","Amount (Rs.)":"1,463,000.00","photopath":"https://raw.githubusercontent.com/MWS003-GIS/MWS003-GIS.github.io/main/IWWRMP/Data/EXD/200_photo/MWS_079/Kalagolla Anicut.jpg"},"geometry":{"type":"Point","coordinates":[80.867655,7.270282]}},
{"type":"Feature","properties":{"No":6,"GND No.":839,"Scheme":"Hewanewala canal","N":7.269396,"E":80.868724,"Observation":"The  part of the canal has been concreted. The 300m long section of the earthen canal should be concreted. Command area  = 6.0 acres","Description":"Canal reservation protection by concrete lining  For  100mm thick , 0.3m  wide  and 0.3m high canal -double banking\n\nStream / canal  reservation protection by earthfilling of  strip   of 1.5m to 2m wide  and average Depth of 0.5m\n\nVegetative cover improv","Amount (Rs.)":"1,309,000.00","photopath":"https://raw.githubusercontent.com/MWS003-GIS/MWS003-GIS.github.io/main/IWWRMP/Data/EXD/200_photo/MWS_079/Havanewala Anicut.jpg"},"geometry":{"type":"Point","coordinates":[80.868724,7.269396]}},
{"type":"Feature","properties":{"No":7,"GND No.":840,"Scheme":"Gangoda canal","N":7.281638,"E":80.863748,"Observation":"The  part of the canal has been concreted. The 200m long section of the earthen canal should be concreted. Command area =15.0 acres","Description":"Canal reservation protection by concrete lining  For  100mm thick , 0.3m  wide  and 0.3m high canal -double banking\n\nStream / canal  reservation protection by earthfilling of  strip   of 1.5m to 2m wide  and average Depth of 0.5m\n\nVegetative cover improv","Amount (Rs.)":"1,540,000.00","photopath":"https://raw.githubusercontent.com/MWS003-GIS/MWS003-GIS.github.io/main/IWWRMP/Data/EXD/200_photo/MWS_079/Gangoda Canal Location 1.jpg"},"geometry":{"type":"Point","coordinates":[80.863748,7.281638]}},
{"type":"Feature","properties":{"No":8,"GND No.":840,"Scheme":"Thennapita canal","N":7.281353,"E":80.864996,"Observation":"The  part of the canal has been concreted. The 225m long section of the earthen canal should be concreted. Command area =7.0 acres","Description":"Canal reservation protection by concrete lining  For  100mm thick , 0.3m  wide  and 0.3m high canal -double banking\n\nStream / canal  reservation protection by earthfilling of  strip   of 1.5m to 2m wide  and average Depth of 0.5m\n\nVegetative cover improv","Amount (Rs.)":"841,500.00","photopath":"https://raw.githubusercontent.com/MWS003-GIS/MWS003-GIS.github.io/main/IWWRMP/Data/EXD/200_photo/MWS_079/Thennepita Canal.jpg"},"geometry":{"type":"Point","coordinates":[80.864996,7.281353]}},
{"type":"Feature","properties":{"No":9,"GND No.":840,"Scheme":"Anicut of Keliyal Kotuwa","N":7.279463,"E":80.865291,"Observation":"The anicut was built of concrete and a 9.0m long section has broken off. That broken part must be rebuilt. Command area = 6.0 acres","Description":"Clearing and preparing the site & settingout\n\nConstruction of 3.0m high 1:3:6 (40mm) cement concrete Retaining Wall \n\nProviding sand bags for cofferdam\n\nWater Pump 2\" dia ( Without operator)\n\nMiscellaneous\n\nContingancies 10%","Amount (Rs.)":"1,133,000.00","photopath":"https://raw.githubusercontent.com/MWS003-GIS/MWS003-GIS.github.io/main/IWWRMP/Data/EXD/200_photo/MWS_079/Keliyal Kotuwe Anicut.jpg"},"geometry":{"type":"Point","coordinates":[80.865291,7.279463]}},
{"type":"Feature","properties":{"No":10,"GND No.":840,"Scheme":"Canal of Welimulla","N":7.280046,"E":80.865697,"Observation":"The first part of the canal has been concreted. The 30m long section of the earthen canal should be concreted. Command area = 5.0 acres","Description":"Canal reservation protection by concrete lining  For  100mm thick , 0.3m  wide  and 0.3m high canal -double banking\n\nMiscellaneous\n\nContingancies 10%","Amount (Rs.)":"423,500.00","photopath":"https://raw.githubusercontent.com/MWS003-GIS/MWS003-GIS.github.io/main/IWWRMP/Data/EXD/200_photo/MWS_079/Welimulla Canal Location 1.jpg"},"geometry":{"type":"Point","coordinates":[80.865697,7.280046]}},
{"type":"Feature","properties":{"No":11,"GND No.":840,"Scheme":"Hindakaralwela anicut","N":7.281332,"E":80.863686,"Observation":"The concrete anicut is in very good condition,  The 4 oppening of the anicut need to be planked. Command area = 11.0 acres","Description":"75mm tk. Stop planks (kumbuk ) with 10mm dia. 2nos. M. S. Iron hooks and applies 2 coats of hot tar.\n\nMiscellaneous\n\nContingancies 10%","Amount (Rs.)":"236,500.00","photopath":"https://raw.githubusercontent.com/MWS003-GIS/MWS003-GIS.github.io/main/IWWRMP/Data/EXD/200_photo/MWS_079/Hindakarandawela Anicut.jpg"},"geometry":{"type":"Point","coordinates":[80.863686,7.281332]}},
{"type":"Feature","properties":{"No":12,"GND No.":841,"Scheme":"Gorok canal","N":7.285848,"E":80.853219,"Observation":"The  part of the canal has been concreted. The 500m long section of the earthen canal should be concreted. 35m long section of canalhas collapsed, so water currently being obtained using PVC pipes.Command area = 35.0 acres","Description":"Canals reservation protection by concrete lining  For  125mm thick , 0.5m  wide  and 0.4m high canal -double banking\n\nStream / canal  reservation protection by earthfilling of  strip   of 1.5m to 2m wide  and average Depth of 0.5m\n\nVegetative cover impro","Amount (Rs.)":"4,713,500.00","photopath":"https://raw.githubusercontent.com/MWS003-GIS/MWS003-GIS.github.io/main/IWWRMP/Data/EXD/200_photo/MWS_079/Gorokgaha Canal 2.jpg"},"geometry":{"type":"Point","coordinates":[80.853219,7.285848]}},
{"type":"Feature","properties":{"No":13,"GND No.":841,"Scheme":"Medawela canal","N":7.286391,"E":80.853523,"Observation":"Part of the canal has been concreted and asection oabout 300m long section needs to be  concreted. Command area 20.0 acres","Description":"Canal reservation protection by concrete lining  For  100mm thick , 0.3m  wide  and 0.3m high canal -double banking\n\nStream / canal  reservation protection by earthfilling of  strip   of 1.5m to 2m wide  and average Depth of 0.5m\n\nVegetative cover improv","Amount (Rs.)":"907,500.00","photopath":"https://raw.githubusercontent.com/MWS003-GIS/MWS003-GIS.github.io/main/IWWRMP/Data/EXD/200_photo/MWS_079/Medawela Canal.jpg"},"geometry":{"type":"Point","coordinates":[80.853523,7.286391]}},
{"type":"Feature","properties":{"No":14,"GND No.":841,"Scheme":"Ilukthenna canal","N":7.285755,"E":80.855484,"Observation":"Part of the canal has been concreted and asection oabout 300m long section needs to be  concreted. Command area 10.0 acres","Description":"Canal reservation protection by concrete lining  For  100mm thick , 0.3m  wide  and 0.3m high canal -double banking\n\nStream / canal  reservation protection by earthfilling of  strip   of 1.5m to 2m wide  and average Depth of 0.5m\n\nVegetative cover improv","Amount (Rs.)":"907,500.00","photopath":"https://raw.githubusercontent.com/MWS003-GIS/MWS003-GIS.github.io/main/IWWRMP/Data/EXD/200_photo/MWS_079/Ilukthenna Canal.jpg"},"geometry":{"type":"Point","coordinates":[80.855484,7.285755]}},
{"type":"Feature","properties":{"No":15,"GND No.":841,"Scheme":"Wewalamulle canal","N":7.274305,"E":80.852625,"Observation":"No anicut has been built yet, but a small earth bund has been built using stones and soil. An earthen canal about 150m long.. Command area 8.0 acres","Description":"Construction of 0.90m high x 7.0m long Weir\n\nSite clearing, site preparation & settingout\n\nConstruction of 0.9 m high Weir across stream excluding abutments and stop planks\n\nConstruction of 1.0m high 1:3:6 (40mm) cement concrete Retaining Wall\n\n\n75mm tk.","Amount (Rs.)":"1,683,000.00","photopath":"https://raw.githubusercontent.com/MWS003-GIS/MWS003-GIS.github.io/main/IWWRMP/Data/EXD/200_photo/MWS_079/Wewalamulla Canal.jpg"},"geometry":{"type":"Point","coordinates":[80.852625,7.274305]}},
{"type":"Feature","properties":{"No":16,"GND No.":842,"Scheme":"Hingurumana main canal","N":7.290016,"E":80.855243,"Observation":"The total length of the canal is about 1.0km, and about 600m length have been concreted in place to place. This wall is built as a side wall on the left hand side of the canal, in some places as concrete and rubble walls. Some of the walls are about 50 y","Description":"Construction of curtain wall (0.075mm thk) with 1:2:4 (3/4\") concrete, 1/2\" dowels at 600mm x 600mm intervals and embedded with chicken mesh\n\nConstruction of 1.0m high 1:3:6 (40mm) cement concrete Retaining Wall \n\nMiscellaneous\n\nContingancies 10%","Amount (Rs.)":"16,401,000.00","photopath":"https://raw.githubusercontent.com/MWS003-GIS/MWS003-GIS.github.io/main/IWWRMP/Data/EXD/200_photo/MWS_079/Hinguramana Canal 2.jpg"},"geometry":{"type":"Point","coordinates":[80.855243,7.290016]}},
{"type":"Feature","properties":{"No":17,"GND No.":842,"Scheme":"Pitiyegedara canal","N":7.286786,"E":80.856712,"Observation":"Part of the canal has been concreted and asection oabout 100m long section needs to be newly concreted. Command area 20.0 acres","Description":"Canal reservation protection by concrete lining  For  100mm thick , 0.3m  wide  and 0.3m high canal -double banking\n\nStream / canal  reservation protection by earthfilling of  strip   of 1.5m to 2m wide  and average Depth of 0.5m\n\nVegetative cover improv","Amount (Rs.)":"770,000.00","photopath":"https://raw.githubusercontent.com/MWS003-GIS/MWS003-GIS.github.io/main/IWWRMP/Data/EXD/200_photo/MWS_079/Pitiyegedara Canal.jpg"},"geometry":{"type":"Point","coordinates":[80.856712,7.286786]}},
{"type":"Feature","properties":{"No":18,"GND No.":842,"Scheme":"Pallekumbura canal","N":7.284941,"E":80.856883,"Observation":"Part of the canal has been concreted and asection oabout 100m long section needs to be newly concreted. Command area 15.0 acres","Description":"Canal reservation protection by concrete lining  For  100mm thick , 0.3m  wide  and 0.3m high canal -double banking\n\nStream / canal  reservation protection by earthfilling of  strip   of 1.5m to 2m wide  and average Depth of 0.5m\n\nVegetative cover improv","Amount (Rs.)":"770,000.00","photopath":"https://raw.githubusercontent.com/MWS003-GIS/MWS003-GIS.github.io/main/IWWRMP/Data/EXD/200_photo/MWS_079/Pallekumbura Canal.jpg"},"geometry":{"type":"Point","coordinates":[80.856883,7.284941]}},
{"type":"Feature","properties":{"No":19,"GND No.":844,"Scheme":"Naththaranmulla Meda Anicut and canal","N":7.297717,"E":80.858629,"Observation":"The anicut is built of concrete. Planks should be installed for anicut, The canal is 700m long, and currently a section of 110m has been concreted. The balance part should be concreted. Command area = 40.0 acres","Description":"Canal reservation protection by concrete lining  For  125mm thick , 0.5m  wide  and 0.4m high canal -double banking\n\nStream / canal  reservation protection by earthfilling of  strip   of 1.5m to 2m wide  and average Depth of 0.5m\n\nVegetative cover improv","Amount (Rs.)":"2,436,500.00","photopath":"https://raw.githubusercontent.com/MWS003-GIS/MWS003-GIS.github.io/main/IWWRMP/Data/EXD/200_photo/MWS_079/Nattaranmulla Middle Canal.jpg"},"geometry":{"type":"Point","coordinates":[80.858629,7.297717]}},
{"type":"Feature","properties":{"No":20,"GND No.":844,"Scheme":"Gorokgaha Ela","N":7.297507,"E":80.857742,"Observation":"The first part of the canal has been concreted. The 300m long section of the earthen canal should be concreted. Command area = 8.0 acres","Description":"Canal reservation protection by concrete lining  For  100mm thick , 0.3m  wide  and 0.3m high canal -double banking\n\nStream / canal  reservation protection by earthfilling of  strip   of 1.5m to 2m wide  and average Depth of 0.5m\n\nVegetative cover improv","Amount (Rs.)":"841,500.00","photopath":"https://raw.githubusercontent.com/MWS003-GIS/MWS003-GIS.github.io/main/IWWRMP/Data/EXD/200_photo/MWS_079/Gorokgahakumbura Canal Location 1.jpg"},"geometry":{"type":"Point","coordinates":[80.857742,7.297507]}},
{"type":"Feature","properties":{"No":21,"GND No.":844,"Scheme":"Karanda Kumbura canal","N":7.294222,"E":80.857935,"Observation":"The first part of the canal has been concreted. The 60m long section of the earthen canal should be concreted. Command area = 6.0 acres","Description":"Canal reservation protection by concrete lining  For  100mm thick , 0.3m  wide  and 0.3m high canal -double banking\n\nStream / canal  reservation protection by earthfilling of  strip   of 1.5m to 2m wide  and average Depth of 0.5m\n\nVegetative cover improv","Amount (Rs.)":"462,000.00","photopath":"https://raw.githubusercontent.com/MWS003-GIS/MWS003-GIS.github.io/main/IWWRMP/Data/EXD/200_photo/MWS_079/Karandakumbura Canal.jpg"},"geometry":{"type":"Point","coordinates":[80.857935,7.294222]}},
{"type":"Feature","properties":{"No":22,"GND No.":844,"Scheme":"Koswetiye Kumbura canal","N":7.294873,"E":80.857029,"Observation":"The first part of the canal has been concreted. The 50m long section of the earthen canal should be concreted. Command area = 6.0 acres","Description":"Canal reservation protection by concrete lining  For  100mm thick , 0.3m  wide  and 0.3m high canal -double banking\n\nStream / canal  reservation protection by earthfilling of  strip   of 1.5m to 2m wide  and average Depth of 0.5m\n\nVegetative cover improv","Amount (Rs.)":"385,000.00","photopath":"https://raw.githubusercontent.com/MWS003-GIS/MWS003-GIS.github.io/main/IWWRMP/Data/EXD/200_photo/MWS_079/Koswetiya Canal.jpg"},"geometry":{"type":"Point","coordinates":[80.857029,7.294873]}},
{"type":"Feature","properties":{"No":23,"GND No.":845,"Scheme":"Maha Ela","N":7.311694,"E":80.872246,"Observation":"The total length of the canal is about 1.5km, part of which is concreted. The 500m long section of the earthen canal should be concreted. The existing canal is in dilapidated condition in some places and needs to be repaired. Command area = 65.0 acres","Description":"Repairs to the damaged canal sections\n\n1:3:6 (40mm) concrete with concrete mixer  (volume batching)\n\nCanal reservation protection by concrete lining  For  125mm thick , 0.5m  wide  and 0.4m high canal -double banking\n\nStream / canal  reservation protecti","Amount (Rs.)":"3,850,000.00","photopath":"Not_Available"},"geometry":{"type":"Point","coordinates":[80.872246,7.311694]}},
{"type":"Feature","properties":{"No":24,"GND No.":845,"Scheme":"Henawala anicut","N":7.310059,"E":80.871412,"Observation":"No anicut has been built yet, but a small earth bund has been built using stones and soil.","Description":"Construction of 0.9 m high Weir across stream excluding abutments and stop planks\n\nConstruction of 1.0m high 1:3:6 (40mm) cement concrete Retaining Wall \n\n75mm tk. Stop planks (kumbuk ) with 10mm dia. 2nos. M. S. Iron hooks and applies 2 coats of hot tar","Amount (Rs.)":"946,000.00","photopath":"Not_Available"},"geometry":{"type":"Point","coordinates":[80.871412,7.310059]}},
{"type":"Feature","properties":{"No":25,"GND No.":845,"Scheme":"Heenapita Kumbura Canal","N":7.309051,"E":80.873389,"Observation":"An earthen canal about 300m long.. Command area 7.0 acres","Description":"Canal reservation protection by concrete lining  For  100mm thick , 0.3m  wide  and 0.3m high canal -double banking\n\nStream / canal  reservation protection by earthfilling of  strip   of 1.5m to 2m wide  and average Depth of 0.5m\n\nVegetative cover improv","Amount (Rs.)":"841,500.00","photopath":"https://raw.githubusercontent.com/MWS003-GIS/MWS003-GIS.github.io/main/IWWRMP/Data/EXD/200_photo/MWS_079/Heenapitakumbura Canal.jpg"},"geometry":{"type":"Point","coordinates":[80.873389,7.309051]}},
{"type":"Feature","properties":{"No":26,"GND No.":845,"Scheme":"Puwakgasmulla canal","N":7.307864,"E":80.873908,"Observation":"An earthen canal about 300m long.. Command area 12.0 acres","Description":"Canal reservation protection by concrete lining  For  100mm thick , 0.3m  wide  and 0.3m high canal -double banking\n\nStream / canal  reservation protection by earthfilling of  strip   of 1.5m to 2m wide  and average Depth of 0.5m\n\nVegetative cover improv","Amount (Rs.)":"1,540,000.00","photopath":"https://raw.githubusercontent.com/MWS003-GIS/MWS003-GIS.github.io/main/IWWRMP/Data/EXD/200_photo/MWS_079/Puwakgas Mulla Canal Mid.jpg"},"geometry":{"type":"Point","coordinates":[80.873908,7.307864]}},
{"type":"Feature","properties":{"No":27,"GND No.":845,"Scheme":"Kumburukotuwa canal","N":7.313321,"E":80.875292,"Observation":"An earthen canal about 300m long.. Command area 12.0 acres","Description":"Canal reservation protection by concrete lining  For  100mm thick , 0.3m  wide  and 0.3m high canal -double banking\n\nStream / canal  reservation protection by earthfilling of  strip   of 1.5m to 2m wide  and average Depth of 0.5m\n\nVegetative cover improv","Amount (Rs.)":"1,540,000.00","photopath":"https://raw.githubusercontent.com/MWS003-GIS/MWS003-GIS.github.io/main/IWWRMP/Data/EXD/200_photo/MWS_079/Kumburukotuwa Canal.jpg"},"geometry":{"type":"Point","coordinates":[80.875292,7.313321]}},
{"type":"Feature","properties":{"No":28,"GND No.":846,"Scheme":"Nugagahadiyawala anicut and canal","N":7.308899,"E":80.876831,"Observation":"No anicut has been built yet, but a small earth bund has been built using stones and soil. An earthen canal about 200m long.. Command area 5.0 acres","Description":"Construction of 0.90m high x 7.0m long Weir\n\nSite clearing, site preparation & settingout\n\nConstruction of 0.9 m high Weir across stream excluding abutments and stop planks\n\nConstruction of 1.0m high 1:3:6 (40mm) cement concrete Retaining Wall\n\n\n75mm tk.","Amount (Rs.)":"2,282,500.00","photopath":"https://raw.githubusercontent.com/MWS003-GIS/MWS003-GIS.github.io/main/IWWRMP/Data/EXD/200_photo/MWS_079/Nugagahadiyawala Anicut.jpg"},"geometry":{"type":"Point","coordinates":[80.876831,7.308899]}},
{"type":"Feature","properties":{"No":29,"GND No.":846,"Scheme":"Kosgahayata Ela anicut","N":7.308863,"E":80.877163,"Observation":"Earthen canal about 200m long. Concreting of essential areas that have become dilapidated in some places. Command area 10.0 acres","Description":"Canal reservation protection by concrete lining  For  100mm thick , 0.3m  wide  and 0.3m high canal -double banking\n\nStream / canal  reservation protection by earthfilling of  strip   of 1.5m to 2m wide  and average Depth of 0.5m\n\nVegetative cover improv","Amount (Rs.)":"456,500.00","photopath":"https://raw.githubusercontent.com/MWS003-GIS/MWS003-GIS.github.io/main/IWWRMP/Data/EXD/200_photo/MWS_079/Kosgahayata Canal.jpg"},"geometry":{"type":"Point","coordinates":[80.877163,7.308863]}},
{"type":"Feature","properties":{"No":30,"GND No.":846,"Scheme":"Moragahamadiththta Uda canal","N":7.305839,"E":80.879538,"Observation":"The anicut belongs to this Division, and the canal and paddy fields belongs to the Mediwaka Division. The anicut is buil of concrete and needs to be repaired and providinf and installing planks of 2 nos of 1.5m x 0.9m oppenings.","Description":"75mm tk. Stop planks (kumbuk ) with 10mm dia. 2nos. M. S. Iron hooks and applies 2 coats of hot tar.\n\nMinor repairs to the anicut concrete wall\n\n1:3:6 (40mm) concrete with concrete mixer  (volume batching)\n\nMiscellaneous\n\nContingancies 10%","Amount (Rs.)":"258,500.00","photopath":"https://raw.githubusercontent.com/MWS003-GIS/MWS003-GIS.github.io/main/IWWRMP/Data/EXD/200_photo/MWS_079/Moragahamaditta Canal.jpg"},"geometry":{"type":"Point","coordinates":[80.879538,7.305839]}},
{"type":"Feature","properties":{"No":31,"GND No.":849,"Scheme":"Gamawele canal","N":7.289316,"E":80.871822,"Observation":"Part of the canal has been concreted and a section about 400m long section needs to be  concreted. Command area 30.0 acres","Description":"Canal reservation protection by concrete lining  For  100mm thick , 0.3m  wide  and 0.3m high canal -double banking\n\nStream / canal  reservation protection by earthfilling of  strip   of 1.5m to 2m wide  and average Depth of 0.5m\n\nVegetative cover improv","Amount (Rs.)":"1,540,000.00","photopath":"https://raw.githubusercontent.com/MWS003-GIS/MWS003-GIS.github.io/main/IWWRMP/Data/EXD/200_photo/MWS_079/Gamewela Canal.jpg"},"geometry":{"type":"Point","coordinates":[80.871822,7.289316]}},
{"type":"Feature","properties":{"No":32,"GND No.":849,"Scheme":"Yakgethenna Canal","N":7.294403,"E":80.871088,"Observation":"An earthen canal about 400m long.. Command area 6.0 acres","Description":"Canal reservation protection by concrete lining  For  100mm thick , 0.3m  wide  and 0.3m high canal -double banking\n\nStream / canal  reservation protection by earthfilling of  strip   of 1.5m to 2m wide  and average Depth of 0.5m\n\nVegetative cover improv","Amount (Rs.)":"1,540,000.00","photopath":"https://raw.githubusercontent.com/MWS003-GIS/MWS003-GIS.github.io/main/IWWRMP/Data/EXD/200_photo/MWS_079/Yakgethenna Canal.jpg"},"geometry":{"type":"Point","coordinates":[80.871088,7.294403]}},
{"type":"Feature","properties":{"No":33,"GND No.":849,"Scheme":"Dunumadalakola canal","N":7.288218,"E":80.870839,"Observation":"Part of the canal has been concreted and a section about 200m long section needs to be  concreted. Command area 15.0 acres","Description":"Canal reservation protection by concrete lining  For  100mm thick , 0.3m  wide  and 0.3m high canal -double banking\n\nStream / canal  reservation protection by earthfilling of  strip   of 1.5m to 2m wide  and average Depth of 0.5m\n\nVegetative cover improv","Amount (Rs.)":"770,000.00","photopath":"https://raw.githubusercontent.com/MWS003-GIS/MWS003-GIS.github.io/main/IWWRMP/Data/EXD/200_photo/MWS_079/Dunumadalagolla Canal.jpg"},"geometry":{"type":"Point","coordinates":[80.870839,7.288218]}},
{"type":"Feature","properties":{"No":34,"GND No.":849,"Scheme":"Wewelmadiththa canal","N":7.286859,"E":80.874172,"Observation":"Part of the canal has been concreted and a section about 200m long section needs to be  concreted. Command area 10.0 acres","Description":"Canal reservation protection by concrete lining  For  100mm thick , 0.3m  wide  and 0.3m high canal -double banking\n\nStream / canal  reservation protection by earthfilling of  strip   of 1.5m to 2m wide  and average Depth of 0.5m\n\nVegetative cover improv","Amount (Rs.)":"770,000.00","photopath":"https://raw.githubusercontent.com/MWS003-GIS/MWS003-GIS.github.io/main/IWWRMP/Data/EXD/200_photo/MWS_079/Wewelmaditta Canal.jpg"},"geometry":{"type":"Point","coordinates":[80.874172,7.286859]}},
{"type":"Feature","properties":{"No":35,"GND No.":850,"Scheme":"Mawipitiya canal","N":7.284618,"E":80.876086,"Observation":"Total length of canal = about 2.0km, Part of the canal has been concreted and a section about 800m long section needs to be  concreted. Command area 25.0 acres","Description":"Canal reservation protection by concrete lining  For  100mm thick , 0.3m  wide  and 0.3m high canal -double banking\n\nStream / canal  reservation protection by earthfilling of  strip   of 1.5m to 2m wide  and average Depth of 0.5m\n\nVegetative cover improv","Amount (Rs.)":"2,376,000.00","photopath":"https://raw.githubusercontent.com/MWS003-GIS/MWS003-GIS.github.io/main/IWWRMP/Data/EXD/200_photo/MWS_079/Mavee Pitiya Canal 1.jpg"},"geometry":{"type":"Point","coordinates":[80.876086,7.284618]}},
{"type":"Feature","properties":{"No":36,"GND No.":850,"Scheme":"Ambagahalanda canal","N":7.291967,"E":80.879274,"Observation":"The first part of the canal belongs to the karandagolla division, An earthen canal about 500m long.. Command area 25.0 acres (Only this division)","Description":"Canal reservation protection by concrete lining  For  100mm thick , 0.3m  wide  and 0.3m high canal -double banking\n\nStream / canal  reservation protection by earthfilling of  strip   of 1.5m to 2m wide  and average Depth of 0.5m\n\nVegetative cover improv","Amount (Rs.)":"1,677,500.00","photopath":"https://raw.githubusercontent.com/MWS003-GIS/MWS003-GIS.github.io/main/IWWRMP/Data/EXD/200_photo/MWS_079/Ambagahalanda Canal.jpg"},"geometry":{"type":"Point","coordinates":[80.879274,7.291967]}},
{"type":"Feature","properties":{"No":37,"GND No.":850,"Scheme":"Thappe Pita Ela","N":7.286241,"E":80.873825,"Observation":"Part of the canal has been concreted and a section about 80m long section needs to be  concreted. Command area 7.0 acres","Description":"Canal reservation protection by concrete lining  For  100mm thick , 0.3m  wide  and 0.3m high canal -double banking\n\nStream / canal  reservation protection by earthfilling of  strip   of 1.5m to 2m wide  and average Depth of 0.5m\n\nVegetative cover improv","Amount (Rs.)":"489,500.00","photopath":"https://raw.githubusercontent.com/MWS003-GIS/MWS003-GIS.github.io/main/IWWRMP/Data/EXD/200_photo/MWS_079/Thappepita Canal 1.jpg"},"geometry":{"type":"Point","coordinates":[80.873825,7.286241]}},
{"type":"Feature","properties":{"No":38,"GND No.":850,"Scheme":"Madiththa Meegahamula canal","N":7.290775,"E":80.878012,"Observation":"An earthen canal about 500m long. and a section about 200m long section needs to be  concreted.Command area 25.0 acres","Description":"Canal reservation protection by concrete lining  For  100mm thick , 0.3m  wide  and 0.3m high canal -double banking\n\nStream / canal  reservation protection by earthfilling of  strip   of 1.5m to 2m wide  and average Depth of 0.5m\n\nVegetative cover improv","Amount (Rs.)":"841,500.00","photopath":"https://raw.githubusercontent.com/MWS003-GIS/MWS003-GIS.github.io/main/IWWRMP/Data/EXD/200_photo/MWS_079/Maditta Meegahamula Canal.jpg"},"geometry":{"type":"Point","coordinates":[80.878012,7.290775]}},
{"type":"Feature","properties":{"No":39,"GND No.":851,"Scheme":"Karanda gaha langa canal and anicut","N":7.299158,"E":80.874645,"Observation":"No anicut has been built yet, but a small earth bund has been built using stones and soil. An earthen canal about 200m long.. Command area 5.0 acres","Description":"Construction of 0.90m high x 6.0m long Weir\n\nSite clearing, site preparation & settingout\n\nConstruction of 0.9 m high Weir across stream excluding abutments and stop planks\n\nConstruction of 1.0m high 1:3:6 (40mm) cement concrete Retaining Wall\n\n\n75mm tk.","Amount (Rs.)":"2,200,000.00","photopath":"Not_Available"},"geometry":{"type":"Point","coordinates":[80.874645,7.299158]}},
{"type":"Feature","properties":{"No":40,"GND No.":851,"Scheme":"Conserving the Meda Amuna canal","N":7.305576,"E":80.875716,"Observation":"Part of the canal has been concreted and a section about 100m long section needs to be  concreted. Command area 10.0 acres","Description":"Canal reservation protection by concrete lining  For  100mm thick , 0.3m  wide  and 0.3m high canal -double banking\n\nStream / canal  reservation protection by earthfilling of  strip   of 1.5m to 2m wide  and average Depth of 0.5m\n\nVegetative cover improv","Amount (Rs.)":"907,500.00","photopath":"https://raw.githubusercontent.com/MWS003-GIS/MWS003-GIS.github.io/main/IWWRMP/Data/EXD/200_photo/MWS_079/Meda Amuna Canal.jpg"},"geometry":{"type":"Point","coordinates":[80.875716,7.305576]}},
{"type":"Feature","properties":{"No":41,"GND No.":851,"Scheme":"Canal near Thotupala","N":7.305722,"E":80.874222,"Observation":"Part of the canal has been concreted and asection oabout 500m long section needs to be  concreted. Command area 15.0 acres","Description":"Canal reservation protection by concrete lining  For  100mm thick , 0.3m  wide  and 0.3m high canal -double banking\n\nStream / canal  reservation protection by earthfilling of  strip   of 1.5m to 2m wide  and average Depth of 0.5m\n\nVegetative cover improv","Amount (Rs.)":"907,500.00","photopath":"https://raw.githubusercontent.com/MWS003-GIS/MWS003-GIS.github.io/main/IWWRMP/Data/EXD/200_photo/MWS_079/Canal Near Thotupala gava Amuna.jpg"},"geometry":{"type":"Point","coordinates":[80.874222,7.305722]}},
{"type":"Feature","properties":{"No":42,"GND No.":851,"Scheme":"Developing the Wewthenna canal","N":7.298481,"E":80.875385,"Observation":"No anicut has been built yet, but a small earth bund has been built using stones and soil. An earthen canal about 500m long.. Command area 15.0 acres","Description":"Construction of 0.90m high x 5.0m long Weir\n\nSite clearing, site preparation & settingout\n\nConstruction of 0.9 m high Weir across stream excluding abutments and stop planks\n\nConstruction of 1.0m high 1:3:6 (40mm) cement concrete Retaining Wall\n\n\n75mm tk.","Amount (Rs.)":"3,120,700.00","photopath":"https://raw.githubusercontent.com/MWS003-GIS/MWS003-GIS.github.io/main/IWWRMP/Data/EXD/200_photo/MWS_079/Wewethenna Canal.jpg"},"geometry":{"type":"Point","coordinates":[80.875385,7.298481]}},
{"type":"Feature","properties":{"No":43,"GND No.":853,"Scheme":"Uda Amuna canal","N":7.298766,"E":80.880544,"Observation":"The total length of the canal is about 900m, part of which is concreted. The 200m long section of the earthen canal should be concreted. The existing earth canal is in dilapidated condition in some places and needs to be constructed side wall on LHS of t","Description":"Canal reservation protection by concrete lining  For  100mm thick , 0.3m  wide  and 0.3m high canal -double banking\n\nStream / canal  reservation protection by earthfilling of  strip   of 1.5m to 2m wide  and average Depth of 0.5m\n\nVegetative cover improv","Amount (Rs.)":"4,867,500.00","photopath":"https://raw.githubusercontent.com/MWS003-GIS/MWS003-GIS.github.io/main/IWWRMP/Data/EXD/200_photo/MWS_079/Uda Amuna Canal.jpg"},"geometry":{"type":"Point","coordinates":[80.880544,7.298766]}},
{"type":"Feature","properties":{"No":44,"GND No.":853,"Scheme":"Wathura Kumbura canal","N":7.299488,"E":80.88145,"Observation":"An earthen canal about 150m long.. Command area 6.0 acres","Description":"Canal reservation protection by concrete lining  For  100mm thick , 0.3m  wide  and 0.3m high canal -double banking\n\nStream / canal  reservation protection by earthfilling of  strip   of 1.5m to 2m wide  and average Depth of 0.5m\n\nVegetative cover improv","Amount (Rs.)":"841,500.00","photopath":"Not_Available"},"geometry":{"type":"Point","coordinates":[80.88145,7.299488]}},
{"type":"Feature","properties":{"No":45,"GND No.":853,"Scheme":"Bogahayata canal","N":7.298694,"E":80.881338,"Observation":"Part of the canal has been concreted and a section about 100m long section needs to be  concreted. Command area 6.0 acres","Description":"Canal reservation protection by concrete lining  For  100mm thick , 0.3m  wide  and 0.3m high canal -double banking\n\nStream / canal  reservation protection by earthfilling of  strip   of 1.5m to 2m wide  and average Depth of 0.5m\n\nVegetative cover improv","Amount (Rs.)":"770,000.00","photopath":"https://raw.githubusercontent.com/MWS003-GIS/MWS003-GIS.github.io/main/IWWRMP/Data/EXD/200_photo/MWS_079/Bogaha Kumbura Canal.jpg"},"geometry":{"type":"Point","coordinates":[80.881338,7.298694]}},
{"type":"Feature","properties":{"No":46,"GND No.":853,"Scheme":"Thigolmadiththa canal","N":7.297336,"E":80.881548,"Observation":"Part of the canal has been concreted and a section about 200m long section needs to be  concreted. Command area 8.0 acres","Description":"Canal reservation protection by concrete lining  For  100mm thick , 0.3m  wide  and 0.3m high canal -double banking\n\nStream / canal  reservation protection by earthfilling of  strip   of 1.5m to 2m wide  and average Depth of 0.5m\n\nVegetative cover improv","Amount (Rs.)":"770,000.00","photopath":"https://raw.githubusercontent.com/MWS003-GIS/MWS003-GIS.github.io/main/IWWRMP/Data/EXD/200_photo/MWS_079/Thigolmaditta Canal.jpg"},"geometry":{"type":"Point","coordinates":[80.881548,7.297336]}},
{"type":"Feature","properties":{"No":47,"GND No.":853,"Scheme":"Ambagahalanda canal","N":7.294478,"E":80.880246,"Observation":"An earthen canal about 400m long.. Command area 15.0 acres","Description":"Canal reservation protection by concrete lining  For  100mm thick , 0.3m  wide  and 0.3m high canal -double banking\n\nStream / canal  reservation protection by earthfilling of  strip   of 1.5m to 2m wide  and average Depth of 0.5m\n\nVegetative cover improv","Amount (Rs.)":"1,540,000.00","photopath":"https://raw.githubusercontent.com/MWS003-GIS/MWS003-GIS.github.io/main/IWWRMP/Data/EXD/200_photo/MWS_079/Ambagahalanda Canal.jpg"},"geometry":{"type":"Point","coordinates":[80.880246,7.294478]}}
]}