{"type":"FeatureCollection","name":"SWC_OFF","crs":{"type":"name","properties":{"name":"urn:ogc:def:crs:OGC:1.3:CRS84"}},"features":[
{"type":"Feature","properties":{"No.":10,"GND No.":848,"GND Name":"Nawanagala","Key Activities proposed for Soil and Water conservation":"1. Establishing a retaining wall - Near the Mr. Wilson's house","Priority based on Soil Erosion Hazard":3,"N":7.314607,"E":80.861751,"Quantity":"10 m x 3 m","Proposed measure/s":"Retaining Wall (Concrete)","Total_Cost":"1,171,500.00","Contribution (Local Community, LA, and the project)":"By the project","Time frame for the implementation":"0.25 Years","photopath":"Not_Available"},"geometry":{"type":"Point","coordinates":[80.861751,7.314607]}},
{"type":"Feature","properties":{"No.":11,"GND No.":848,"GND Name":"Nawanagala","Key Activities proposed for Soil and Water conservation":"2. Establishing a retaining wall","Priority based on Soil Erosion Hazard":4,"N":7.311556,"E":80.863683,"Quantity":"10 m x 2 m","Proposed measure/s":"Retaining Wall (Masonary)","Total_Cost":"440,000.00","Contribution (Local Community, LA, and the project)":"By the project","Time frame for the implementation":"0.25 Years","photopath":"Not_Available"},"geometry":{"type":"Point","coordinates":[80.863683,7.311556]}},
{"type":"Feature","properties":{"No.":12,"GND No.":848,"GND Name":"Nawanagala","Key Activities proposed for Soil and Water conservation":"3. Establishing a drain","Priority based on Soil Erosion Hazard":3,"N":7.311753,"E":80.86406,"Quantity":"50 m","Proposed measure/s":"Concrete Drain","Total_Cost":"3,008,500.00","Contribution (Local Community, LA, and the project)":"By the project","Time frame for the implementation":"0.25 Years","photopath":"Not_Available"},"geometry":{"type":"Point","coordinates":[80.86406,7.311753]}}
]}