{"type":"FeatureCollection","name":"WSP","crs":{"type":"name","properties":{"name":"urn:ogc:def:crs:OGC:1.3:CRS84"}},"features":[
{"type":"Feature","properties":{"No":1,"GND No.":839,"Name of the Tank":"Kotuwekumbura spring (Palama Ela)","N":7.273737,"E":80.865096,"Observation":"1.0m long, 1.0m wide and 1.0m high tank has been built at the side of the spring, but it is in dilapidated condition. Below the spring, a tank 2.4m long, 2.4m wide and 1.8m high has been built for bathing, but it is also dilapidated condition.","Description":"Clean around the tanks\n\nPlaster 12mm thick in 1:3 cement and sand \nfinished smooth with gray cement floating- Both Tanks\n\n Fabricating & fixing security weld mesh in open\ntype buildings in GI weld mesh 50mm x 50mm \nSWG 10, welded on 40mm x 40mm x 5mm \nan","Amount (Rs.)":"118,800.00","photopath":"https://raw.githubusercontent.com/MWS003-GIS/MWS003-GIS.github.io/main/IWWRMP/Data/EXD/200_photo/MWS_079/Kotuwekumbura Spring.jpg"},"geometry":{"type":"Point","coordinates":[80.865096,7.273737]}},
{"type":"Feature","properties":{"No":2,"GND No.":839,"Name of the Tank":"Arambe Ulpatha (Temple Rd, Medagammedda)","N":7.272752,"E":80.863398,"Observation":"A well 1.5m long, 1.5m wide and 1.5m deep has been built with rubble. Well is dilapidated condition. About 15 families use water for bathing","Description":"Well repair\n\nPlaster 12mm thick in 1:3 cement and sand \nfinished smooth with gray cement floating- For well\n\n Fabricating & fixing security weld mesh in open\ntype buildings in GI weld mesh 50mm x 50mm \nSWG 10, welded on 40mm x 40mm x 5mm \nangle frame com","Amount (Rs.)":"81,400.00","photopath":"https://raw.githubusercontent.com/MWS003-GIS/MWS003-GIS.github.io/main/IWWRMP/Data/EXD/200_photo/MWS_079/Arambe Well.jpg"},"geometry":{"type":"Point","coordinates":[80.863398,7.272752]}},
{"type":"Feature","properties":{"No":3,"GND No.":840,"Name of the Tank":"Well at Rajakumbura","N":7.286039,"E":80.857395,"Observation":"A well 1.5m long, 1.5m wide and 1.5m deep has been built with rubble. Well is good condition. About 6 families use water for bathing and drinking.","Description":"Fabricating & fixing security weld mesh in open\ntype buildings in GI weld mesh 50mm x 50mm \nSWG 10, welded on 40mm x 40mm x 5mm \nangle frame complete with application of two \ncoats enamel paint over two coats of \nanticorrosive paint and complete.\n All as","Amount (Rs.)":"26,400.00","photopath":"https://raw.githubusercontent.com/MWS003-GIS/MWS003-GIS.github.io/main/IWWRMP/Data/EXD/200_photo/MWS_079/Rajakumbure Well.jpg"},"geometry":{"type":"Point","coordinates":[80.857395,7.286039]}},
{"type":"Feature","properties":{"No":4,"GND No.":840,"Name of the Tank":"Well at Alakola Madiththa","N":7.283101,"E":80.865813,"Observation":"A well 2.0m long, 2.0m wide and 2.5m deep has been built with rubble. The walls of the well are in a dilapidated condition. About 20 families use water for bathing and drinking.","Description":"Well cleaning\n\n 1:2:4 (20mm) concrete manual mix  (volume- For well walls\n\nPlaster 12mm thick in 1:3 cement and sand \nfinished smooth with gray cement floating- For well walls\n\nMiscellaneous\n\nContingencies (10%)","Amount (Rs.)":"77,000.00","photopath":"https://raw.githubusercontent.com/MWS003-GIS/MWS003-GIS.github.io/main/IWWRMP/Data/EXD/200_photo/MWS_079/Alakolamaditta Well.jpg"},"geometry":{"type":"Point","coordinates":[80.865813,7.283101]}},
{"type":"Feature","properties":{"No":5,"GND No.":840,"Name of the Tank":"Well at Dambagolla","N":7.280144,"E":80.866182,"Observation":"A well 2.0m long, 2.0m wide and 2.0m deep has been built with rubble. About 20 families use water for bathing and drinking.","Description":"Wire brushing the well walls\n\nPlaster 12mm thick in 1:3 cement and sand \nfinished smooth with gray cement floating- For well walls\n\nMiscellaneous\n\nContingencies (10%)","Amount (Rs.)":"55,550.00","photopath":"https://raw.githubusercontent.com/MWS003-GIS/MWS003-GIS.github.io/main/IWWRMP/Data/EXD/200_photo/MWS_079/Dambagolla Well.jpg"},"geometry":{"type":"Point","coordinates":[80.866182,7.280144]}},
{"type":"Feature","properties":{"No":6,"GND No.":840,"Name of the Tank":"Arambe well","N":7.279205,"E":80.863865,"Observation":"A well 2.0m long, 2.0m wide and 1.5m deep has been built with rubble. 2 families use water for bathing and drinking.","Description":"Well cleaning\n\n 1:2:4 (20mm) concrete manual mix  (volume- For well walls\n\nPlaster 12mm thick in 1:3 cement and sand \nfinished smooth with gray cement floating- For well walls\n\n Fabricating & fixing security weld mesh in open\ntype buildings in GI weld me","Amount (Rs.)":"113,850.00","photopath":"https://raw.githubusercontent.com/MWS003-GIS/MWS003-GIS.github.io/main/IWWRMP/Data/EXD/200_photo/MWS_079/Arambe Well.jpg"},"geometry":{"type":"Point","coordinates":[80.863865,7.279205]}},
{"type":"Feature","properties":{"No":7,"GND No.":841,"Name of the Tank":"Water source of Nugethenna West Udagedarawatta","N":7.286068,"E":80.851601,"Observation":"A water storage tank has been constructed and a bathing place has been constructed with the funds provided by the Hadabima Authority.","Description":"Fabricating & fixing security weld mesh in open\ntype buildings in GI weld mesh 50mm x 50mm \nSWG 10, welded on 40mm x 40mm x 5mm \nangle frame complete with application of two \ncoats enamel paint over two coats of \nanticorrosive paint and complete.\n All as","Amount (Rs.)":"68,750.00","photopath":"https://raw.githubusercontent.com/MWS003-GIS/MWS003-GIS.github.io/main/IWWRMP/Data/EXD/200_photo/MWS_079/Udagedarawatta Water Tank.jpg"},"geometry":{"type":"Point","coordinates":[80.851601,7.286068]}},
{"type":"Feature","properties":{"No":8,"GND No.":841,"Name of the Tank":"Rodigommana water source","N":7.280645,"E":80.854774,"Observation":"The water from this spring flows naturally as a stream, and a paddy field is cultivated with it.","Description":"Vegetative cover improving around structures (5m x 10m) with , Kumbuk/ Mee/ Godapara/ Kaduru/ Aththikka/ Wal Del/ Kekuna/ randomly mixed \nseedlings and planting at 3.5m x 3.5 m grid interval","Amount (Rs.)":"31,300.00","photopath":"https://raw.githubusercontent.com/MWS003-GIS/MWS003-GIS.github.io/main/IWWRMP/Data/EXD/200_photo/MWS_079/Rodigammana Spring.jpg"},"geometry":{"type":"Point","coordinates":[80.854774,7.280645]}},
{"type":"Feature","properties":{"No":9,"GND No.":842,"Name of the Tank":"Spring at the Hunnasgiriya - Nugalaa Estate in Plantation Corporation owned land","N":7.290653,"E":80.852066,"Observation":"No tank has been built near the spring, Water is collected using a PVC pipe from the spring to the water storage tank below. About 40 families use water for domestic needs","Description":"Water Stock tank construction\n\n Site preparation & setting out\n\nPlywood form work including making, fixing & \nremoving for structure ?05 uses\n\nCutting, Bending & Placing tor steel \nreinforcement bars\n\n 1:2:4 (20mm) concrete manual mix  (volume batching)\n","Amount (Rs.)":"210,650.00","photopath":"https://raw.githubusercontent.com/MWS003-GIS/MWS003-GIS.github.io/main/IWWRMP/Data/EXD/200_photo/MWS_079/Nugagalawatta Spring.jpg"},"geometry":{"type":"Point","coordinates":[80.852066,7.290653]}},
{"type":"Feature","properties":{"No":10,"GND No.":843,"Name of the Tank":"Mangala Pokuna spring","N":7.295685,"E":80.850989,"Observation":"Water is being obtained for 40 family units using PVC pipes. In addition, a Bathing place has been built. The side wall built to prevent sewage from flowing into the canal near the bathing place should be repaired.","Description":"Water Stock tank construction\n\n Site preparation & setting out\n\nPlywood form work including making, fixing & \nremoving for structure ?05 uses\n\nCutting, Bending & Placing tor steel \nreinforcement bars\n\n 1:2:4 (20mm) concrete manual mix  (volume batching)\n","Amount (Rs.)":"240,900.00","photopath":"https://raw.githubusercontent.com/MWS003-GIS/MWS003-GIS.github.io/main/IWWRMP/Data/EXD/200_photo/MWS_079/Mangala Pokuna Spring.jpg"},"geometry":{"type":"Point","coordinates":[80.850989,7.295685]}},
{"type":"Feature","properties":{"No":11,"GND No.":843,"Name of the Tank":"Spring near Sri Paththini Devalaya of Nugagalawatta","N":7.298837,"E":80.853882,"Observation":"The well is covered by the roots of a large tree, as it was built near it. Therefore, the well cannot be repaired. By constructing a water storage tank near the well and constructing a water pipe system, water can be supplied to about 30 families downstr","Description":"Water Stock tank construction\n\n Site preparation & setting out\n\nPlywood form work including making, fixing & \nremoving for structure ?05 uses\n\nCutting, Bending & Placing tor steel \nreinforcement bars\n\n 1:2:4 (20mm) concrete manual mix  (volume batching)\n","Amount (Rs.)":"320,100.00","photopath":"https://raw.githubusercontent.com/MWS003-GIS/MWS003-GIS.github.io/main/IWWRMP/Data/EXD/200_photo/MWS_079/Spring near the Devalaya.jpg"},"geometry":{"type":"Point","coordinates":[80.853882,7.298837]}},
{"type":"Feature","properties":{"No":12,"GND No.":844,"Name of the Tank":"Spring of Meeriyagahamadiththa Kandura","N":7.299124,"E":80.859361,"Observation":"No tank has been built at the water source, A water storage tank measuring 2.5m long, 2.5m wide and 2.5m high has been constructed and covered, But there is not enough water in the spring to fill the tank. Currently, Small earth dam is being built across","Description":"Water Stock tank construction\n\n Site preparation & setting out\n\nPlywood form work including making, fixing & \nremoving for structure ?05 uses\n\nCutting, Bending & Placing tor steel \nreinforcement bars\n\n 1:2:4 (20mm) concrete manual mix  (volume batching)\n","Amount (Rs.)":"297,000.00","photopath":"https://raw.githubusercontent.com/MWS003-GIS/MWS003-GIS.github.io/main/IWWRMP/Data/EXD/200_photo/MWS_079/Meeriya Gaha Maditta Spring.jpg"},"geometry":{"type":"Point","coordinates":[80.859361,7.299124]}},
{"type":"Feature","properties":{"No":13,"GND No.":844,"Name of the Tank":"Spring near the Banyan tree at Denapitiya Ihala Division","N":7.299694,"E":80.861306,"Observation":"No tank has been built at the water source, and about 35 families are obtain water using PVC pipes.","Description":"Water Stock tank construction\n\n Site preparation & setting out\n\nPlywood form work including making, fixing & \nremoving for structure ?05 uses\n\nCutting, Bending & Placing tor steel \nreinforcement bars\n\n 1:2:4 (20mm) concrete manual mix  (volume batching)\n","Amount (Rs.)":"210,650.00","photopath":"https://raw.githubusercontent.com/MWS003-GIS/MWS003-GIS.github.io/main/IWWRMP/Data/EXD/200_photo/MWS_079/Spring near Nuga Tree (Denapitiya Upper).jpg"},"geometry":{"type":"Point","coordinates":[80.861306,7.299694]}},
{"type":"Feature","properties":{"No":14,"GND No.":845,"Name of the Tank":"Spring of Udagolla","N":7.309782,"E":80.87417,"Observation":"This spring is located near a paddy fields and a bathing place (Pihilla) has been prepared for bathing.","Description":"Water Stock tank construction\n\n Site preparation & setting out\n\nPlywood form work including making, fixing & \nremoving for structure ?05 uses\n\nCutting, Bending & Placing tor steel \nreinforcement bars\n\n 1:2:4 (20mm) concrete manual mix  (volume batching)\n","Amount (Rs.)":"303,600.00","photopath":"https://raw.githubusercontent.com/MWS003-GIS/MWS003-GIS.github.io/main/IWWRMP/Data/EXD/200_photo/MWS_079/Udagolle Spring.jpg"},"geometry":{"type":"Point","coordinates":[80.87417,7.309782]}},
{"type":"Feature","properties":{"No":15,"GND No.":845,"Name of the Tank":"Kahatagolla Spring","N":7.312712,"E":80.871378,"Observation":"This spring is located near a paddy fields and a bathing place (Pihilla) has been prepared for bathing.","Description":"Clean the concrete wall and repair\n\nContingencies (10%)","Amount (Rs.)":"22,000.00","photopath":"https://raw.githubusercontent.com/MWS003-GIS/MWS003-GIS.github.io/main/IWWRMP/Data/EXD/200_photo/MWS_079/Kahatagolle Pihilla.jpg"},"geometry":{"type":"Point","coordinates":[80.871378,7.312712]}},
{"type":"Feature","properties":{"No":16,"GND No.":848,"Name of the Tank":"Kallumale canal, Nawanagala mountain","N":7.315444,"E":80.858961,"Observation":"Located in forest land, Located as a stream, 4.0m long rubble wall is built and water is obtained using PVC pipes. About 60 families use water for domestic needs","Description":"Water Stock tank construction\n\n Site preparation & setting out\n\n150mm x 225mm Random Rubble masonry work in 1:5 cement and sand mortar in structure\n\nPlaster 12mm thick in 1:3 cement and sand \nfinished smooth with gray cement floating\n\n1:2:4 (20mm) concre","Amount (Rs.)":"119,350.00","photopath":"https://raw.githubusercontent.com/MWS003-GIS/MWS003-GIS.github.io/main/IWWRMP/Data/EXD/200_photo/MWS_079/Kallumale canal(kandura).jpg"},"geometry":{"type":"Point","coordinates":[80.858961,7.315444]}},
{"type":"Feature","properties":{"No":17,"GND No.":848,"Name of the Tank":"Karagankannu canal, Nawanagala mountain","N":7.318302,"E":80.861043,"Observation":"Located as a stream, Water is being obtained irregularly using PVC pipes in some places. About 40 families use water for domestic needs","Description":"Water Stock tank construction\n\n Site preparation & setting out\n\n150mm x 225mm Random Rubble masonry work in 1:5 cement and sand mortar in structure\n\nPlaster 12mm thick in 1:3 cement and sand \nfinished smooth with gray cement floating\n\n1:2:4 (20mm) concre","Amount (Rs.)":"119,350.00","photopath":"https://raw.githubusercontent.com/MWS003-GIS/MWS003-GIS.github.io/main/IWWRMP/Data/EXD/200_photo/MWS_079/Karankanu spring.jpg"},"geometry":{"type":"Point","coordinates":[80.861043,7.318302]}},
{"type":"Feature","properties":{"No":18,"GND No.":848,"Name of the Tank":"Makmanmale canal, Dinstan Ihala Division","N":7.324588,"E":80.861094,"Observation":"Located as a stream, Water is being obtained irregularly using PVC pipes in some places. About 20 families use water for domestic needs","Description":"Water Stock tank construction\n\n Site preparation & setting out\n\n150mm x 225mm Random Rubble masonry work in 1:5 cement and sand mortar in structure\n\nPlaster 12mm thick in 1:3 cement and sand \nfinished smooth with gray cement floating\n\n1:2:4 (20mm) concre","Amount (Rs.)":"119,350.00","photopath":"https://raw.githubusercontent.com/MWS003-GIS/MWS003-GIS.github.io/main/IWWRMP/Data/EXD/200_photo/MWS_079/Dintan ihala kotasa spring.jpg"},"geometry":{"type":"Point","coordinates":[80.861094,7.324588]}},
{"type":"Feature","properties":{"No":19,"GND No.":849,"Name of the Tank":"Wewalmaditta well","N":7.286326,"E":80.873542,"Observation":"A well 2.4m long, 2.4m wide and 2.5m deep has been built with rubble. About 10 families use water for bathing. The well walls are in dilapidated condition,","Description":"1:2:4 (20mm) concrete manual mix  (volume batching)-For broken parts of the well\n\nPlaster 12mm thick in 1:3 cement and sand \nfinished smooth with gray cement floating-well walls\n\nMiscellaneous\n\nContingencies (10%)","Amount (Rs.)":"44,550.00","photopath":"https://raw.githubusercontent.com/MWS003-GIS/MWS003-GIS.github.io/main/IWWRMP/Data/EXD/200_photo/MWS_079/Wewelmaditta Well.jpg"},"geometry":{"type":"Point","coordinates":[80.873542,7.286326]}},
{"type":"Feature","properties":{"No":20,"GND No.":850,"Name of the Tank":"Well near the Bakmee tree","N":7.287635,"E":80.874271,"Observation":"A well 1.8m long, 2.0m wide and 2.5m deep has been built with rubble. About 15 families use water for bathing. The well walls are in dilapidated condition,","Description":"Plaster 12mm thick in 1:3 cement and sand \nfinished smooth with gray cement floating-well walls\n\nMiscellaneous\n\nContingencies (10%)","Amount (Rs.)":"6,050.00","photopath":"https://raw.githubusercontent.com/MWS003-GIS/MWS003-GIS.github.io/main/IWWRMP/Data/EXD/200_photo/MWS_079/Bakmeegahayata Well.jpg"},"geometry":{"type":"Point","coordinates":[80.874271,7.287635]}},
{"type":"Feature","properties":{"No":21,"GND No.":851,"Name of the Tank":"Kiripattiya spring","N":7.296813,"E":80.869141,"Observation":"No tank has been built near the spring, Water is collected using a PVC pipe from the spring to the water storage tank below. A tank has not been built at the spring site as permission has not been obtained from the Forest Conservation Department.About 20","Description":"Water Stock tank construction\n\n Site preparation & setting out\n\n150mm x 225mm Random Rubble masonry work in 1:5 cement and sand mortar in structure\n\nPlaster 12mm thick in 1:3 cement and sand \nfinished smooth with gray cement floating\n\n1:2:4 (20mm) concre","Amount (Rs.)":"60,500.00","photopath":"https://raw.githubusercontent.com/MWS003-GIS/MWS003-GIS.github.io/main/IWWRMP/Data/EXD/200_photo/MWS_079/Kiripattiya Spring.jpg"},"geometry":{"type":"Point","coordinates":[80.869141,7.296813]}},
{"type":"Feature","properties":{"No":22,"GND No.":851,"Name of the Tank":"Wewekumbure Well","N":7.299822,"E":80.874202,"Observation":"A well 2.2m long, 2.2m wide and 2.5m deep has been built with rubble. About 10 families use water for bathing. The well walls are in dilapidated condition,","Description":"Wire brush the well walls\n\nPlaster 12mm thick in 1:3 cement and sand \nfinished smooth with gray cement floating-Well walls\n\n Fabricating & fixing security weld mesh in open\ntype buildings in GI weld mesh 50mm x 50mm \nSWG 10, welded on 40mm x 40mm x 5mm \n","Amount (Rs.)":"92,400.00","photopath":"https://raw.githubusercontent.com/MWS003-GIS/MWS003-GIS.github.io/main/IWWRMP/Data/EXD/200_photo/MWS_079/Wewekumbura Well.jpg"},"geometry":{"type":"Point","coordinates":[80.874202,7.299822]}},
{"type":"Feature","properties":{"No":23,"GND No.":851,"Name of the Tank":"2 Kanuwa Well","N":7.298642,"E":80.873292,"Observation":"A well 2.4m long, 1.5m wide and 2.0m deep has been built with rubble. About 12 families use water for bathing. The well walls are in good condition, but there is a slight water leak.","Description":"Minor Repairs for well walls\n\nPlaster 12mm thick in 1:3 cement and sand \nfinished smooth with gray cement floating-Well walls\n\nFabricating & fixing security weld mesh in open\ntype buildings in GI weld mesh 50mm x 50mm \nSWG 10, welded on 40mm x 40mm x 5mm","Amount (Rs.)":"63,800.00","photopath":"https://raw.githubusercontent.com/MWS003-GIS/MWS003-GIS.github.io/main/IWWRMP/Data/EXD/200_photo/MWS_079/2 Kanuwa Well.jpg"},"geometry":{"type":"Point","coordinates":[80.873292,7.298642]}},
{"type":"Feature","properties":{"No":24,"GND No.":851,"Name of the Tank":"Katukeeriyagahalaga Linda spring","N":7.304825,"E":80.877599,"Observation":"A well 2.0m long, 1.8m wide and 3.0m deep has been built with bricks. The well walls is in need of repair.About 20 families use water for bathing.","Description":"Wire brush the well walls\n\nPlaster 12mm thick in 1:3 cement and sand \nfinished smooth with gray cement floating-Well walls\n\nFabricating & fixing security weld mesh in open\ntype buildings in GI weld mesh 50mm x 50mm \nSWG 10, welded on 40mm x 40mm x 5mm \na","Amount (Rs.)":"83,600.00","photopath":"https://raw.githubusercontent.com/MWS003-GIS/MWS003-GIS.github.io/main/IWWRMP/Data/EXD/200_photo/MWS_079/Well Near Katukeeriya Tree.jpg"},"geometry":{"type":"Point","coordinates":[80.877599,7.304825]}},
{"type":"Feature","properties":{"No":25,"GND No.":853,"Name of the Tank":"Gedaragawa Kumbura","N":7.294249,"E":80.878058,"Observation":"A well 2.0m long, 2.0m wide and 2.5m deep has been built with rubble. About 30 families use water for drinking and  bathing during the dry season. The well walls are in need of plastering,","Description":"Wire brush the well walls\n\nPlaster 12mm thick in 1:3 cement and sand \nfinished smooth with gray cement floating-Well walls\n\nFabricating & fixing security weld mesh in open\ntype buildings in GI weld mesh 50mm x 50mm \nSWG 10, welded on 40mm x 40mm x 5mm \na","Amount (Rs.)":"78,100.00","photopath":"Not_Available"},"geometry":{"type":"Point","coordinates":[80.878058,7.294249]}},
{"type":"Feature","properties":{"No":26,"GND No.":853,"Name of the Tank":"Mahakumbure Linda","N":7.296072,"E":80.879473,"Observation":"A well 2.0m long, 2.0m wide and 2.5m deep has been built with rubble. About 30 families use water for drinking and  bathing during the dry season. The well walls are in need of plastering,","Description":"Wire brush the well walls\n\nPlaster 12mm thick in 1:3 cement and sand \nfinished smooth with gray cement floating-Well walls\n\nFabricating & fixing security weld mesh in open\ntype buildings in GI weld mesh 50mm x 50mm \nSWG 10, welded on 40mm x 40mm x 5mm \na","Amount (Rs.)":"78,100.00","photopath":"https://raw.githubusercontent.com/MWS003-GIS/MWS003-GIS.github.io/main/IWWRMP/Data/EXD/200_photo/MWS_079/Mahakumbure Well.jpg"},"geometry":{"type":"Point","coordinates":[80.879473,7.296072]}},
{"type":"Feature","properties":{"No":27,"GND No.":846,"Name of the Tank":"Upper catchment area of Galpoththe canal","N":7.309673,"E":80.880232,"Observation":"This stream begins at the springs in the reserve at the top of the mountain.","Description":"Vegetative cover improving around structures (5m x 10m) with, Kumbuk/ Mee/ Godapara/ Kaduru/ Aththikka/ Wal Del/ Kekuna/ randomly mixed \nseedlings and planting at 3.5m x 3.5 m grid interval","Amount (Rs.)":"313,000.00","photopath":"https://raw.githubusercontent.com/MWS003-GIS/MWS003-GIS.github.io/main/IWWRMP/Data/EXD/200_photo/MWS_079/Galpotta Stream.jpg"},"geometry":{"type":"Point","coordinates":[80.880232,7.309673]}},
{"type":"Feature","properties":{"No":28,"GND No.":846,"Name of the Tank":"Upper catchment area of Galkande canal","N":7.310913,"E":80.879587,"Observation":"This stream begins at the springs in the reserve at the top of the mountain.","Description":"Vegetative cover improving around structures (5m x 10m) with, Kumbuk/ Mee/ Godapara/ Kaduru/ Aththikka/ Wal Del/ Kekuna/ randomly mixed \nseedlings and planting at 3.5m x 3.5 m grid interval","Amount (Rs.)":"313,000.00","photopath":"https://raw.githubusercontent.com/MWS003-GIS/MWS003-GIS.github.io/main/IWWRMP/Data/EXD/200_photo/MWS_079/Galkande Stream.jpg"},"geometry":{"type":"Point","coordinates":[80.879587,7.310913]}},
{"type":"Feature","properties":{"No":29,"GND No.":846,"Name of the Tank":"Upper catchment area of Ilukketiye canal","N":7.315017,"E":80.882938,"Observation":"This stream begins at the springs in the reserve at the top of the mountain.","Description":"Vegetative cover improving around structures (5m x 10m) with, Kumbuk/ Mee/ Godapara/ Kaduru/ Aththikka/ Wal Del/ Kekuna/ randomly mixed \nseedlings and planting at 3.5m x 3.5 m grid interval","Amount (Rs.)":"313,000.00","photopath":"https://raw.githubusercontent.com/MWS003-GIS/MWS003-GIS.github.io/main/IWWRMP/Data/EXD/200_photo/MWS_079/Ilukketiya Stream 1.jpg"},"geometry":{"type":"Point","coordinates":[80.882938,7.315017]}}
]}