{
"type": "FeatureCollection",
"name": "Landslides",
"crs": { "type": "name", "properties": { "name": "urn:ogc:def:crs:OGC:1.3:CRS84" } },
"features": [
{ "type": "Feature", "properties": { "No.": 1, "GN Division No.": 565, "GN Division": "Thelambugahawatta", "Landslides": "1. Bank collapsing - Above the school on Thelambugahawatta Road", "N": 7.372449, "E": 80.628102, "NBRO Recommendation N/A": "Needs NBRO concern", "Proposed Measures": "Formalizing the drain system and drainage is essential. Construct a concrete drain (100 m).", "photopath": "https://raw.githubusercontent.com/MWS003-GIS/MWS003-GIS.github.io/main/IWWRMP/Data/EXD/200_photo/MWS_108_2/21-05-2026_11-29-39_6120.jpg" }, "geometry": { "type": "Point", "coordinates": [ 80.628102, 7.372449 ] } },
{ "type": "Feature", "properties": { "No.": 2, "GN Division No.": 565, "GN Division": "Thelambugahawatta", "Landslides": "2. Erosion of the road - Near the meat shop on Thelambugahawatta Road", "N": 7.370785, "E": 80.625398, "NBRO Recommendation N/A": "Needs NBRO concern", "Proposed Measures": "Constructing a retaining wall (50 m). Follow NBRO recommendations.", "photopath": "https://raw.githubusercontent.com/MWS003-GIS/MWS003-GIS.github.io/main/IWWRMP/Data/EXD/200_photo/MWS_108_2/21-05-2026_11-27-48_8932.jpg" }, "geometry": { "type": "Point", "coordinates": [ 80.625398, 7.370785 ] } },
{ "type": "Feature", "properties": { "No.": 3, "GN Division No.": 573, "GN Division": "Pangollamada", "Landslides": "Landsliding - Pangollamada", "N": 7.3868032, "E": 80.644546, "NBRO Recommendation N/A": "NBRO is aware", "Proposed Measures": "Formalizing the drain system and drainage is essential. Construct a concrete drain (500 m).", "photopath": "https://raw.githubusercontent.com/MWS003-GIS/MWS003-GIS.github.io/main/IWWRMP/Data/EXD/200_photo/MWS_108_2/Pangollamada landslide.jpg" }, "geometry": { "type": "Point", "coordinates": [ 80.644546, 7.3868032 ] } }
]
}
