{
"type": "FeatureCollection",
"name": "SR",
"crs": { "type": "name", "properties": { "name": "urn:ogc:def:crs:OGC:1.3:CRS84" } },
"features": [
{ "type": "Feature", "properties": { "No": 1, "GND No.": 570, "Scheme": "Daluwathuru Oya", "N": 7.379697, "E": 80.625969, "Observation": "bank errosion happen in some places", "Description": "Preliminaries \n\nPlanting Bamboo species in  5m spacing  for 500 m along oya where possible \n\nSupplying of Bamboo seeldings\n \nGround preparation & maintenance\n[7 L/days per 100.0m x 2.0m]\n\nContingencies (10%)", "Amount (Rs.)": 72050, "photopath": "https://raw.githubusercontent.com/MWS003-GIS/MWS003-GIS.github.io/main/IWWRMP/Data/EXD/200_photo/MWS_108_2/Danwatura oya_9271.jpg" }, "geometry": { "type": "Point", "coordinates": [ 80.625969, 7.379697 ] } }
]
}
