{"type":"FeatureCollection","name":"SWC_ON","crs":{"type":"name","properties":{"name":"urn:ogc:def:crs:OGC:1.3:CRS84"}},"features":[
{"type":"Feature","properties":{"No.":1,"GND No.":142,"GND Name":"Ihala Kobbekaduwa","Key Activities proposed for Soil and Water conservation":"te","Priority based on Soil Erosion Hazard":4,"N":7.316105,"E":80.562154,"Quantity":"1 ha","Proposed measure/s":"1. Establishing SALT  - 1000 m\n2. Lock and spills - 500 m\n3. Stone terracing - 500 m\n4. Agronomic practices should be adapted at optimum level (conservation tillage, crop rotation and diversification, cover crops, mulching, contour farming, windbreaks an","Uniti_Cost":"250.00 m-1\n400.00 m-1\n2500.00 m-1","Total_Cost":1700000,"Contribution (Local Community, LA, and the project)":"Labour and other basic services by the Local community","Time frame for the implementation":"0.25 Years","photopath":"https://raw.githubusercontent.com/MWS003-GIS/MWS003-GIS.github.io/main/IWWRMP/Data/EXD/200_photo/MWS_114_1/Getathale Sri Samawardanaramaya.jpg"},"geometry":{"type":"Point","coordinates":[80.562154,7.316105]}}
]}