{"type":"FeatureCollection","name":"DWS","crs":{"type":"name","properties":{"name":"urn:ogc:def:crs:OGC:1.3:CRS84"}},"features":[
{"type":"Feature","properties":{"No":1,"GND No.":655,"Scheme":"Near the Mr. Abesuriya home","N":7.298132,"E":80.659062,"Observation":"The tube well is broken","Description":"Repairs to the existing tube well\n\nContingancies 10%","Estimated Cost":"22,000.00","photopath":"Not_Available"},"geometry":{"type":"Point","coordinates":[80.659062,7.298132]}},
{"type":"Feature","properties":{"No":2,"GND No.":656,"Scheme":"Tewarawaththa","N":7.313828,"E":80.668742,"Observation":"The tube well is broken","Description":"Repairs to the existing tube well\n\nContingancies 10%","Estimated Cost":"22,000.00","photopath":"https://raw.githubusercontent.com/MWS003-GIS/MWS003-GIS.github.io/main/IWWRMP/Data/EXD/200_photo/MWS_102/Tewarawaththa Tube well_20250102_102114.jpg"},"geometry":{"type":"Point","coordinates":[80.668742,7.313828]}},
{"type":"Feature","properties":{"No":3,"GND No.":656,"Scheme":"Imbulkotadeniya","N":7.315503,"E":80.669396,"Observation":"The tube well is broken","Description":"Repairs to the existing tube well\n\nContingancies 10%","Estimated Cost":"22,000.00","photopath":"https://raw.githubusercontent.com/MWS003-GIS/MWS003-GIS.github.io/main/IWWRMP/Data/EXD/200_photo/MWS_102/Imbuldeniya tube well.jpg"},"geometry":{"type":"Point","coordinates":[80.669396,7.315503]}},
{"type":"Feature","properties":{"No":4,"GND No.":663,"Scheme":"Near the aluamba kadaya","N":7.299301,"E":80.67688,"Observation":"Good condition","Description":"Repairs to the existing tube well\n\nContingancies 10%","Estimated Cost":"22,000.00","photopath":"https://raw.githubusercontent.com/MWS003-GIS/MWS003-GIS.github.io/main/IWWRMP/Data/EXD/200_photo/MWS_102/Aluamba kade gawa nala linda.jpg"},"geometry":{"type":"Point","coordinates":[80.67688,7.299301]}},
{"type":"Feature","properties":{"No":5,"GND No.":663,"Scheme":"Near the Mr.Kamal,s home","N":7.302705,"E":80.679135,"Observation":"The tube well is broken","Description":"Repairs to the existing tube well\n\nContingancies 10%","Estimated Cost":"22,000.00","photopath":"Not_Available"},"geometry":{"type":"Point","coordinates":[80.679135,7.302705]}},
{"type":"Feature","properties":{"No":6,"GND No.":663,"Scheme":"Near the Rambus's home","N":7.300958,"E":80.681635,"Observation":"The tube well is broken","Description":"Repairs to the existing tube well\n\nContingancies 10%","Estimated Cost":"22,000.00","photopath":"Not_Available"},"geometry":{"type":"Point","coordinates":[80.681635,7.300958]}},
{"type":"Feature","properties":{"No":7,"GND No.":648,"Scheme":"Yakadakumburuwe Tube Well","N":7.347529,"E":80.700129,"Observation":"The tube well is good condition but problem is rust in water","Description":"Repairs to the existing tube well\n\nContingancies 10%","Estimated Cost":"22,000.00","photopath":"Not_Available"},"geometry":{"type":"Point","coordinates":[80.700129,7.347529]}}
]}