{"type":"FeatureCollection","name":"MI","crs":{"type":"name","properties":{"name":"urn:ogc:def:crs:OGC:1.3:CRS84"}},"features":[
{"type":"Feature","properties":{"No":1,"GND No.":650,"Scheme":"Welakumbururaya ela","N":7.30372,"E":80.654977,"Observation":"The canal has been filled with soil and the jungle has grown","Description":"Dry Silt removing from Canal or Tank beds and haul the surplus materials up to 1.6 km distance by machinery.(This rate is excluding of transporting of machinery)\n\nCanals reservation protection by concrete lining  For  125mm thick , 0.5m  wide  and 0.4m h","Amount (Rs.)":"2,656,500.00","photopath":"https://raw.githubusercontent.com/MWS003-GIS/MWS003-GIS.github.io/main/IWWRMP/Data/EXD/200_photo/MWS_102/Watakepotha ela.jpg","Unnamed: 9":null},"geometry":{"type":"Point","coordinates":[80.654977,7.30372]}},
{"type":"Feature","properties":{"No":2,"GND No.":650,"Scheme":"Vatakepotha","N":7.305842,"E":80.655395,"Observation":"During the rainy season when too much water flows, Bank erosion occurs","Description":"Dry rubble packing (with locally found rubble, size over 225mm )\n\nCanals reservation protection by concrete lining  For  125mm thick , 0.5m  wide  and 0.4m high canal -double banking\n\nStream / canal  reservation protection by earthfilling of  strip   of","Amount (Rs.)":"2,343,000.00","photopath":"https://raw.githubusercontent.com/MWS003-GIS/MWS003-GIS.github.io/main/IWWRMP/Data/EXD/200_photo/MWS_102/Welakumbura diya maruwa.jpg","Unnamed: 9":null},"geometry":{"type":"Point","coordinates":[80.655395,7.305842]}},
{"type":"Feature","properties":{"No":3,"GND No.":650,"Scheme":"Welakumbururaya Diyamaruwa canal","N":7.305702,"E":80.653691,"Observation":"During the rainy season when too much water flows, Bank erosion occurs","Description":"Canals reservation protection by concrete lining  For  125mm thick , 0.5m  wide  and 0.4m high canal -double banking\n\nVegetative cover improving for narrow strips (1.5m-2.0m wide) with Arecanut seedlings at 1.5m spacing in 2 rows, Betel plants VP at 3m s","Amount (Rs.)":"1,050,500.00","photopath":"https://raw.githubusercontent.com/MWS003-GIS/MWS003-GIS.github.io/main/IWWRMP/Data/EXD/200_photo/MWS_102/Welakumbura diya maruwa.jpg","Unnamed: 9":null},"geometry":{"type":"Point","coordinates":[80.653691,7.305702]}},
{"type":"Feature","properties":{"No":4,"GND No.":651,"Scheme":"Sirimalwaththa patha canal","N":7.306637,"E":80.65362,"Observation":"The total length of the canal is about1000m, About150 m have been concreted. The balance part of the canal is earthen. There are two parts to the canal.The respective landlord is unwilling to allow this to connection.","Description":"Canals reservation protection by concrete lining  For  125mm thick , 0.5m  wide  and 0.4m high canal -double banking\n\nStream / canal  reservation protection by earthfilling of  strip   of 1.5m to 2m wide  and average Depth of 0.5m\n\nVegetative cover impro","Amount (Rs.)":"1,094,500.00","photopath":"Not_Available","Unnamed: 9":null},"geometry":{"type":"Point","coordinates":[80.65362,7.306637]}},
{"type":"Feature","properties":{"No":5,"GND No.":651,"Scheme":"Bamunella canal","N":7.310692,"E":80.658014,"Observation":"Existing is a Earthen canal. Water from this canal is used to grow paddy on an area of about 8 acres. During the rainy season when too much water flows, Bank erosion occurs. Paddy fields have submerged due to the increase in water during the rainy season","Description":"Construction of 2.5m high 1:3:6 (40mm) cement concrete Retaining Wall \n\nStream / canal  reservation protection by earthfilling of  strip   of 1.5m to 2m wide  and average Depth of 0.5m\n\nVegetative cover improving for narrow strips (1.5m-2.0m wide) with A","Amount (Rs.)":"2,689,500.00","photopath":"Not_Available","Unnamed: 9":null},"geometry":{"type":"Point","coordinates":[80.658014,7.310692]}},
{"type":"Feature","properties":{"No":6,"GND No.":652,"Scheme":"Gedarawela yaya ela","N":7.295811,"E":80.667467,"Observation":"The total length of the canal is about 1000m, About 25m have been(800mm x 800mm) rectangular concreted. The balance part of the canal is earthen. Water from this canal is used to grow paddy on an area of about 20 acre. During the rainy season when too mu","Description":"Canal reservation protection by concrete lining  For  100mm thick , 0.3m  wide  and 0.3m high canal -double banking\n\nDemolish existing culvert\n\nConstruction of 750mm Dia pipe culvert \n\nSite clearing, preperation & settingout\n\nConstruction of 1.0m high 1:","Amount (Rs.)":"1,287,000.00","photopath":"Not_Available","Unnamed: 9":null},"geometry":{"type":"Point","coordinates":[80.667467,7.295811]}},
{"type":"Feature","properties":{"No":7,"GND No.":652,"Scheme":"Alugollayaya ela","N":7.296311,"E":80.666921,"Observation":"Existing is a Earthen canal. The total length of the canal is about 1200m.Water from this canal is used to grow paddy on an area of about 15 acres.During the rainy season when too much water flows, Bank erosion occurs. Paddy fields have submerged due to","Description":"Construction of 1.5m high 1:3:6 (40mm) cement concrete Retaining Wall \n\nStream / canal  reservation protection by earthfilling of  strip   of 1.5m to 2m wide  and average Depth of 0.5m\n\nVegetative cover improving for narrow strips (1.5m-2.0m wide) with A","Amount (Rs.)":"2,673,000.00","photopath":"Not_Available","Unnamed: 9":null},"geometry":{"type":"Point","coordinates":[80.666921,7.296311]}},
{"type":"Feature","properties":{"No":8,"GND No.":652,"Scheme":"Mattambaayaya ela","N":7.302804,"E":80.662619,"Observation":"The total length of the canal is about300m, Existing is a Earthen canal. Water from this canal is used to grow vegetable on an area of about 3 acres. During the rainy season when too much water flows, Bank erosion occurs.","Description":"Canal reservation protection by concrete lining  For  100mm thick , 0.3m  wide  and 0.3m high canal -double banking\n\nStream / canal  reservation protection by earthfilling of  strip   of 1.5m to 2m wide  and average Depth of 0.5m\n\nVegetative cover improv","Amount (Rs.)":"561,000.00","photopath":"Not_Available","Unnamed: 9":null},"geometry":{"type":"Point","coordinates":[80.662619,7.302804]}},
{"type":"Feature","properties":{"No":9,"GND No.":652,"Scheme":"Veangayaya ela","N":7.296703,"E":80.666013,"Observation":"The total length of the canal is about300m, Existing is a Earthen canal. Water from this canal is used to grow paddy on an area of about 3.5 acres.During the rainy season when too much water flows, Bank erosion occurs.","Description":"Canal reservation protection by concrete lining  For  100mm thick , 0.3m  wide  and 0.3m high canal -double banking\n\nStream / canal  reservation protection by earthfilling of  strip   of 1.5m to 2m wide  and average Depth of 0.5m\n\nVegetative cover improv","Amount (Rs.)":"561,000.00","photopath":"Not_Available","Unnamed: 9":null},"geometry":{"type":"Point","coordinates":[80.666013,7.296703]}},
{"type":"Feature","properties":{"No":10,"GND No.":653,"Scheme":"Pin angapatha canal","N":7.299994,"E":80.66167,"Observation":"The total length of the canal is about1000m, About150 m have been concreted. The balance part of the canal is earthen and some places are in a very dilapidated condition. Water from this canal is used to grow paddy on an area of about 7 acres.","Description":"Canal reservation protection by concrete lining  For  100mm thick , 0.3m  wide  and 0.3m high canal -double banking\n\nStream / canal  reservation protection by earthfilling of  strip   of 1.5m to 2m wide  and average Depth of 0.5m\n\nVegetative cover improv","Amount (Rs.)":"561,000.00","photopath":"Not_Available","Unnamed: 9":null},"geometry":{"type":"Point","coordinates":[80.66167,7.299994]}},
{"type":"Feature","properties":{"No":11,"GND No.":653,"Scheme":"Galahetiyawa ela","N":7.306198,"E":80.66082,"Observation":"Existing is a Earthen canal .The total length of the canal is about1500m,  some places are in a very dilapidated condition. Water from this canal is used to grow paddy on an area of about12 acres.During the rainy season when too much water flows,","Description":"Construction of 1.0m high 1:3:6 (40mm) cement concrete Retaining Wall \n\nStream / canal  reservation protection by earthfilling of  strip   of 1.5m to 2m wide  and average Depth of 0.5m\n\nVegetative cover improving for narrow strips (1.5m-2.0m wide) with A","Amount (Rs.)":"1,947,000.00","photopath":"Not_Available","Unnamed: 9":null},"geometry":{"type":"Point","coordinates":[80.66082,7.306198]}},
{"type":"Feature","properties":{"No":12,"GND No.":653,"Scheme":"Dunumadalawa ela","N":7.302989,"E":80.658937,"Observation":"Existing is a Earthen canal. During the rainy season when too much water flows","Description":"Dry rubble packing (with locally found rubble, size over 225mm )\n\nPlanting Bamboo species and Vetiver grass or Riparian species\n\nMiscellaneous\n\nContigencies (10%)","Amount (Rs.)":"550,000.00","photopath":"Not_Available","Unnamed: 9":null},"geometry":{"type":"Point","coordinates":[80.658937,7.302989]}},
{"type":"Feature","properties":{"No":13,"GND No.":654,"Scheme":"Atikehllanda-Nellegala canal","N":7.289467,"E":80.668556,"Observation":"The total length of the canal is about 800m, About30 m have been concreted. The balance part of the canal is earthen and some places are in a very dilapidated condition. Water from this canal is used to grow paddy on an area of about 8 acres.","Description":"Construction of 1.0m high 1:3:6 (40mm) cement concrete Retaining Wall \n\nCanal reservation protection by concrete lining  For  100mm thick , 0.3m  wide  and 0.3m high canal -double banking\n\nStream / canal  reservation protection by earthfilling of  strip","Amount (Rs.)":"2,684,000.00","photopath":"Not_Available","Unnamed: 9":null},"geometry":{"type":"Point","coordinates":[80.668556,7.289467]}},
{"type":"Feature","properties":{"No":14,"GND No.":655,"Scheme":"Daluggala kumbura ela","N":7.294477,"E":80.661476,"Observation":"The total length of the canal is about150m, About30 m have been concreted. The balance part of the canal is earthen and some places are in a very dilapidated condition. Water from this canal is used to grow paddy on an area of about 5 acres.","Description":"Construction of 1.0m high 1:3:6 (40mm) cement concrete Retaining Wall \n\nStream / canal  reservation protection by earthfilling of  strip   of 1.5m to 2m wide  and average Depth of 0.5m\n\nVegetative cover improving for narrow strips (1.5m-2.0m wide) with A","Amount (Rs.)":"599,500.00","photopath":"Not_Available","Unnamed: 9":null},"geometry":{"type":"Point","coordinates":[80.661476,7.294477]}},
{"type":"Feature","properties":{"No":15,"GND No.":655,"Scheme":"Levelllagamayaya Left side canal","N":7.297105,"E":80.660782,"Observation":"The total length of the canal is about 600m, About500 have been(450mm xn500mm)rectangular concreted. The balance part of the canal is earthen. Water from this canal is used to grow paddy on an area of about 15acre","Description":"Canal reservation protection by concrete lining  For  100mm thick , 0.3m  wide  and 0.3m high canal -double banking\n\nStream / canal  reservation protection by earthfilling of  strip   of 1.5m to 2m wide  and average Depth of 0.5m\n\nVegetative cover improv","Amount (Rs.)":"770,000.00","photopath":"https://raw.githubusercontent.com/MWS003-GIS/MWS003-GIS.github.io/main/IWWRMP/Data/EXD/200_photo/MWS_102/Levellegama left canal.jpg","Unnamed: 9":null},"geometry":{"type":"Point","coordinates":[80.660782,7.297105]}},
{"type":"Feature","properties":{"No":16,"GND No.":655,"Scheme":"Levelllagamayaya Right side canal","N":7.298168,"E":80.659887,"Observation":"Existing 500mm x 600mm rectangle concrete canal canal .A concrete slab has been placed over the canal for a side road.Through that, a large amount of water flows in to the road. The  canal overflows from one place.   During the rainy season when too much","Description":"Fabricating and placing of Iron mesh\n\nRaising of existinng wall\n\nScarifying existing rock or concrete surface\n\nSupplying and fixing M.S. dowels spliced and dovetailed with wedge at one end 16mm dia. And 600mm long, boring holes to 0.3m depth in fixing\n\nP","Amount (Rs.)":"77,000.00","photopath":"https://raw.githubusercontent.com/MWS003-GIS/MWS003-GIS.github.io/main/IWWRMP/Data/EXD/200_photo/MWS_102/Levellegama Right canal.jpg","Unnamed: 9":null},"geometry":{"type":"Point","coordinates":[80.659887,7.298168]}},
{"type":"Feature","properties":{"No":17,"GND No.":656,"Scheme":"Higurugollawapatha canal","N":7.316616,"E":80.673569,"Observation":"The total length of the canal is about1200m, About150 m have been concreted. The balance part of the canal is earthen and some places are in a very dilapidated condition. Water from this canal is used to grow paddy on an area of about12 acres.","Description":"Dry Silt removing from Canal or Tank beds and haul the surplus materials up to 30m. distance by Manually.\n\nCanal reservation protection by concrete lining  For  100mm thick , 0.3m  wide  and 0.3m high canal -double banking\n\nStream / canal  reservation pr","Amount (Rs.)":"1,435,500.00","photopath":"https://raw.githubusercontent.com/MWS003-GIS/MWS003-GIS.github.io/main/IWWRMP/Data/EXD/200_photo/MWS_102/Higrugollawa patha canal_20250102_093536.jpg","Unnamed: 9":null},"geometry":{"type":"Point","coordinates":[80.673569,7.316616]}},
{"type":"Feature","properties":{"No":18,"GND No.":656,"Scheme":"Imbulkotadeniya canal","N":7.317372,"E":80.67286,"Observation":"The total length of the canal is about 1500m, About 180 m have been concreted. The balance part of the canal is earthen and some places are in a very dilapidated condition. During the rainy season when too much water flows, Bank erosion occurs. Paddy fie","Description":"Canal reservation protection by concrete lining  For  100mm thick , 0.3m  wide  and 0.3m high canal -double banking\n\nStream / canal  reservation protection by earthfilling of  strip   of 1.5m to 2m wide  and average Depth of 0.5m\n\nVegetative cover improv","Amount (Rs.)":"2,904,000.00","photopath":"https://raw.githubusercontent.com/MWS003-GIS/MWS003-GIS.github.io/main/IWWRMP/Data/EXD/200_photo/MWS_102/Imbulkotadeniya canal_20250102_095152.jpg","Unnamed: 9":"  "},"geometry":{"type":"Point","coordinates":[80.67286,7.317372]}},
{"type":"Feature","properties":{"No":19,"GND No.":657,"Scheme":"Thumpokuna ela No 1","N":7.312541,"E":80.664196,"Observation":"Existing Earthen canal","Description":"Canal reservation protection by concrete lining  For  100mm thick , 0.3m  wide  and 0.3m high canal -double banking\n\nStream / canal  reservation protection by earthfilling of  strip   of 1.5m to 2m wide  and average Depth of 0.5m\n\nVegetative cover improv","Amount (Rs.)":"231,000.00","photopath":"https://raw.githubusercontent.com/MWS003-GIS/MWS003-GIS.github.io/main/IWWRMP/Data/EXD/200_photo/MWS_102/Thumpokuna ela No 1.jpg","Unnamed: 9":null},"geometry":{"type":"Point","coordinates":[80.664196,7.312541]}},
{"type":"Feature","properties":{"No":20,"GND No.":657,"Scheme":"Thumpokuna ela No 2","N":7.313632,"E":80.665518,"Observation":"Existing Earthen canal","Description":"Construction of 1.0m high 1:3:6 (40mm) cement concrete Retaining Wall\n\nContigencies (10%)","Amount (Rs.)":"660,000.00","photopath":"https://raw.githubusercontent.com/MWS003-GIS/MWS003-GIS.github.io/main/IWWRMP/Data/EXD/200_photo/MWS_102/Tthumpokuna ela No 2.jpg","Unnamed: 9":null},"geometry":{"type":"Point","coordinates":[80.665518,7.313632]}},
{"type":"Feature","properties":{"No":21,"GND No.":657,"Scheme":"Herassagala ela","N":7.306698,"E":80.664988,"Observation":"The total length of the canal is about1500m, About150m have been concreted. The balance part of the canal is earthen and some places are in a very dilapidated condition. Water from this canal is used to grow paddy on an area of about 20 acres.","Description":"Canal reservation protection by concrete lining  For  100mm thick , 0.3m  wide  and 0.3m high canal -double banking\n\nStream / canal  reservation protection by earthfilling of  strip   of 1.5m to 2m wide  and average Depth of 0.5m\n\nVegetative cover improv","Amount (Rs.)":"1,325,500.00","photopath":"https://raw.githubusercontent.com/MWS003-GIS/MWS003-GIS.github.io/main/IWWRMP/Data/EXD/200_photo/MWS_102/Heerassagala ela.jpg","Unnamed: 9":null},"geometry":{"type":"Point","coordinates":[80.664988,7.306698]}},
{"type":"Feature","properties":{"No":22,"GND No.":657,"Scheme":"Gamawela ela","N":7.307216,"E":80.663231,"Observation":"The total length of the canal is about1500m, About1300m have been concreted. The balance part of the canal is earthen and some places are in a very dilapidated condition. Water from this canal is used to grow paddy on an area of about 40 acres.","Description":"Canal reservation protection by concrete lining  For  125mm thick , 0.5m  wide  and 0.4m high canal -double banking\n\nStream / canal  reservation protection by earthfilling of  strip   of 1.5m to 2m wide  and average Depth of 0.5m\n\nVegetative cover improv","Amount (Rs.)":"1,232,000.00","photopath":"https://raw.githubusercontent.com/MWS003-GIS/MWS003-GIS.github.io/main/IWWRMP/Data/EXD/200_photo/MWS_102/Gamawela ela.jpg","Unnamed: 9":null},"geometry":{"type":"Point","coordinates":[80.663231,7.307216]}},
{"type":"Feature","properties":{"No":23,"GND No.":657,"Scheme":"Geethagalayaye ela","N":7.310672,"E":80.661444,"Observation":"The total length of the canal is about 500m, About 50m have been(900mm x 800mm w x h) concreted.","Description":"Construction of 1.0m high 1:3:6 (40mm) cement concrete Retaining Wall\n\nVegetative cover improving around structures (5m x 10m) with planting Arecanut seedling in 1.5m x 1.5m grid, and planting Kumbuk/ Mee/ Godapara/ Kaduru/ Aththikka/ Wal Del/ Kekuna/ ra","Amount (Rs.)":"1,562,000.00","photopath":"Not_Available","Unnamed: 9":null},"geometry":{"type":"Point","coordinates":[80.661444,7.310672]}},
{"type":"Feature","properties":{"No":24,"GND No.":657,"Scheme":"Dombeyaye ela No 1","N":7.308037,"E":80.665046,"Observation":"Existing Earthen canal .During the rainy season when too much water flows,","Description":"Canals reservation protection by concrete lining  For  125mm thick , 0.5m  wide  and 0.4m high canal -double banking\n\nVegetative cover improving around structures (5m x 10m) with planting Arecanut seedling in 1.5m x 1.5m grid, and planting Kumbuk/ Mee/ G","Amount (Rs.)":"632,500.00","photopath":"https://raw.githubusercontent.com/MWS003-GIS/MWS003-GIS.github.io/main/IWWRMP/Data/EXD/200_photo/MWS_102/Dombeyaya Ela.jpg","Unnamed: 9":null},"geometry":{"type":"Point","coordinates":[80.665046,7.308037]}},
{"type":"Feature","properties":{"No":25,"GND No.":657,"Scheme":"Dombeyaye ela No 2","N":7.307405,"E":80.665045,"Observation":"The total length of the canal is about 500m,Existing Earthen canal and some places are in a very dilapidated condition. Water from this canal is used to grow paddy on an area of about 20 acre","Description":"Canal reservation protection by concrete lining  For  100mm thick , 0.3m  wide  and 0.3m high canal -double banking\n\nStream / canal  reservation protection by earthfilling of  strip   of 1.5m to 2m wide  and average Depth of 0.5m\n\nVegetative cover improv","Amount (Rs.)":"1,325,500.00","photopath":"https://raw.githubusercontent.com/MWS003-GIS/MWS003-GIS.github.io/main/IWWRMP/Data/EXD/200_photo/MWS_102/Dombeyaya ela no 2.jpg","Unnamed: 9":null},"geometry":{"type":"Point","coordinates":[80.665045,7.307405]}},
{"type":"Feature","properties":{"No":26,"GND No.":658,"Scheme":"Hapuwala angayaya ela","N":7.298451,"E":80.672065,"Observation":"The total length of the canal is about300m,Existing Earthen canal and some places are in a very dilapidated condition. Water from this canal is used to grow paddy on an area of about 4 acre","Description":"Construction of 1.5m high 1:3:6 (40mm) cement concrete Retaining Wall \n\nCanal reservation protection by concrete lining  For  100mm thick , 0.3m  wide  and 0.3m high canal -double banking\n\nStream / canal  reservation protection by earthfilling of  strip","Amount (Rs.)":"1,177,000.00","photopath":"Not_Available","Unnamed: 9":null},"geometry":{"type":"Point","coordinates":[80.672065,7.298451]}},
{"type":"Feature","properties":{"No":27,"GND No.":658,"Scheme":"Hapuwala angayaya ela No 2","N":7.298225,"E":80.672692,"Observation":"The total length of the canal is about300m,Existing Earthen canal and some places are in a very dilapidated condition. Water from this canal is used to grow paddy on an area of about 4 acre","Description":"Construction of 1.5m high 1:3:6 (40mm) cement concrete Retaining Wall \n\nCanal reservation protection by concrete lining  For  100mm thick , 0.3m  wide  and 0.3m high canal -double banking\n\nStream / canal  reservation protection by earthfilling of  strip","Amount (Rs.)":"1,100,000.00","photopath":"https://raw.githubusercontent.com/MWS003-GIS/MWS003-GIS.github.io/main/IWWRMP/Data/EXD/200_photo/MWS_102/Hapuwalaangayaya ela No 2_20241226_093205.jpg","Unnamed: 9":null},"geometry":{"type":"Point","coordinates":[80.672692,7.298225]}},
{"type":"Feature","properties":{"No":28,"GND No.":658,"Scheme":"Thalwaragedara gedara angayaya ela","N":7.300447,"E":80.670161,"Observation":"The total length of the canal is about300m,Existing Earthen canal and some places are in a very dilapidated condition. Water from this canal is used to grow paddy on an area of about 4 acre","Description":"Construction of 1.5m high 1:3:6 (40mm) cement concrete Retaining Wall \n\nCanal reservation protection by concrete lining  For  100mm thick , 0.3m  wide  and 0.3m high canal -double banking\n\nStream / canal  reservation protection by earthfilling of  strip","Amount (Rs.)":"1,177,000.00","photopath":"Not_Available","Unnamed: 9":null},"geometry":{"type":"Point","coordinates":[80.670161,7.300447]}},
{"type":"Feature","properties":{"No":29,"GND No.":659,"Scheme":"Deekirimadawala welyaya canal","N":7.303545,"E":80.666742,"Observation":"The total length of the canal is about 1.0km, About 500m have been concreted. The balance part of the canal is earthen and some places are in a very dilapidated condition. Water from this canal is used to grow paddy on an area of about 20 acres.","Description":"Construction of 1.5m high 1:3:6 (40mm) cement concrete Retaining Wall \n\nCanal reservation protection by concrete lining  For  100mm thick , 0.3m  wide  and 0.3m high canal -double banking\n\nStream / canal  reservation protection by earthfilling of  strip","Amount (Rs.)":"3,234,000.00","photopath":"https://raw.githubusercontent.com/MWS003-GIS/MWS003-GIS.github.io/main/IWWRMP/Data/EXD/200_photo/MWS_102/659 Deekirimadala welyaye elaIMG_20241213_085452.jpg","Unnamed: 9":null},"geometry":{"type":"Point","coordinates":[80.666742,7.303545]}},
{"type":"Feature","properties":{"No":30,"GND No.":660,"Scheme":"Uradeniya canal","N":7.30797,"E":80.680047,"Observation":"The total length of the canal is about 1.0km, About 500m have been concreted. The balance part of the canal is earthen and some places are in a very dilapidated condition. Water from this canal is used to grow paddy on an area of about 13 acres.","Description":"Canal reservation protection by concrete lining  For  100mm thick , 0.3m  wide  and 0.3m high canal -double banking\n\nStream / canal  reservation protection by earthfilling of  strip   of 1.5m to 2m wide  and average Depth of 0.5m\n\nVegetative cover improv","Amount (Rs.)":"1,325,500.00","photopath":"https://raw.githubusercontent.com/MWS003-GIS/MWS003-GIS.github.io/main/IWWRMP/Data/EXD/200_photo/MWS_102/Uradeniya canal No 1.jpg","Unnamed: 9":null},"geometry":{"type":"Point","coordinates":[80.680047,7.30797]}},
{"type":"Feature","properties":{"No":31,"GND No.":660,"Scheme":"Uradeniya canal No 2","N":7.307437,"E":80.682178,"Observation":"The total length of the canal is about 1.0km, About 500m have been concreted. The balance part of the canal is earthen and some places are in a very dilapidated condition. Water from this canal is used to grow paddy on an area of about 13 acres.","Description":"Canal reservation protection by concrete lining  For  100mm thick , 0.3m  wide  and 0.3m high canal -double banking\n\nStream / canal  reservation protection by earthfilling of  strip   of 1.5m to 2m wide  and average Depth of 0.5m\n\nVegetative cover improv","Amount (Rs.)":"1,325,500.00","photopath":"https://raw.githubusercontent.com/MWS003-GIS/MWS003-GIS.github.io/main/IWWRMP/Data/EXD/200_photo/MWS_102/Uradeniya canal No 2.jpg","Unnamed: 9":null},"geometry":{"type":"Point","coordinates":[80.682178,7.307437]}},
{"type":"Feature","properties":{"No":32,"GND No.":660,"Scheme":"Gal edandayaya canal","N":7.306689,"E":80.673502,"Observation":"The total length of the canal is about 2.0km, About 500m have been concreted. The balance part of the canal is earthen and some places are in a very dilapidated condition. Water from this canal is used to grow paddy on an area of about 45 acres.","Description":"Construction of 1.5m high 1:3:6 (40mm) cement concrete Retaining Wall \n\nCanals reservation protection by concrete lining  For  125mm thick , 0.5m  wide  and 0.4m high canal -double banking\n\nStream / canal  reservation protection by earthfilling of  strip","Amount (Rs.)":"4,636,500.00","photopath":"https://raw.githubusercontent.com/MWS003-GIS/MWS003-GIS.github.io/main/IWWRMP/Data/EXD/200_photo/MWS_102/Galedandayaye  ela.jpg","Unnamed: 9":null},"geometry":{"type":"Point","coordinates":[80.673502,7.306689]}},
{"type":"Feature","properties":{"No":33,"GND No.":660,"Scheme":"Weraluga's yaya canal","N":7.299602,"E":80.672748,"Observation":"The total length of the canal is about 600m, Existing Earthen canal. The canal breaks and water flows throug the fields at some places. are in a very dilapidated condition. Water from this canal is used to grow paddy on an area of about 13 acre.","Description":"Construction of 1.8m high 1:3:6 (40mm) cement concrete Retaining Wall \n\nStream / canal  reservation protection by earthfilling of  strip   of 1.5m to 2m wide  and average Depth of 0.5m\n\nVegetative cover improving for narrow strips (1.5m-2.0m wide) with A","Amount (Rs.)":"2,051,500.00","photopath":"https://raw.githubusercontent.com/MWS003-GIS/MWS003-GIS.github.io/main/IWWRMP/Data/EXD/200_photo/MWS_102/Weralugasangayaye ela20241225_085823.jpg","Unnamed: 9":null},"geometry":{"type":"Point","coordinates":[80.672748,7.299602]}},
{"type":"Feature","properties":{"No":34,"GND No.":660,"Scheme":"Alakolayaye ela","N":7.303322,"E":80.672793,"Observation":"The total length of the canal is about 500m.Existing  canal is earthen and some places are in a very dilapidated condition. Water from this canal is used to grow paddy on an area of about 16 acres.","Description":"Canal reservation protection by concrete lining  For  100mm thick , 0.3m  wide  and 0.3m high canal -double banking\n\nStream / canal  reservation protection by earthfilling of  strip   of 1.5m to 2m wide  and average Depth of 0.5m\n\nVegetative cover improv","Amount (Rs.)":"1,952,500.00","photopath":"https://raw.githubusercontent.com/MWS003-GIS/MWS003-GIS.github.io/main/IWWRMP/Data/EXD/200_photo/MWS_102/Alakolaangayaye ela_20241225_092825.jpg","Unnamed: 9":null},"geometry":{"type":"Point","coordinates":[80.672793,7.303322]}},
{"type":"Feature","properties":{"No":35,"GND No.":662,"Scheme":"Nagamulla welyaya","N":7.296156,"E":80.681736,"Observation":"The total length of the canal is about 500m.Existing  canal is earthen and some places are in a very dilapidated condition. Water from this canal is used to grow paddy on an area of about 10 acres.","Description":"Construction of 1.5m high 1:3:6 (40mm) cement concrete Retaining Wall \n\nStream / canal  reservation protection by earthfilling of  strip   of 1.5m to 2m wide  and average Depth of 0.5m\n\nVegetative cover improving for narrow strips (1.5m-2.0m wide) with A","Amount (Rs.)":"1,133,000.00","photopath":"Not_Available","Unnamed: 9":null},"geometry":{"type":"Point","coordinates":[80.681736,7.296156]}},
{"type":"Feature","properties":{"No":36,"GND No.":662,"Scheme":"Galgodahinnayaya canal","N":7.296138,"E":80.683734,"Observation":"Existing is a Earthen canal and some places are in a very dilapidated Water from this canal is used to grow paddy on an area of about 5 acres. Right bank have been heavily disaster at one place","Description":"Construction of 1.5m high 1:3:6 (40mm) cement concrete Retaining Wall \n\nConstruction of 1.8m high 1:3:6 (40mm) cement concrete Retaining Wall \n\nMiscellaneous\n\nContigencies (10%)","Amount (Rs.)":"825,000.00","photopath":"Not_Available","Unnamed: 9":null},"geometry":{"type":"Point","coordinates":[80.683734,7.296138]}},
{"type":"Feature","properties":{"No":37,"GND No.":662,"Scheme":"Bulathwel yaya kandura canal","N":7.295111,"E":80.685305,"Observation":"Existing is a Earthen canal and some places are in a very dilapidated Water from this canal is used to grow paddy on an area of about 5 acres. Right bank have been heavily disaster at one place","Description":"Construction of 1.5m high 1:3:6 (40mm) cement concrete Retaining Wall \n\nVegetative cover improving around structures (5m x 10m) with planting Arecanut seedling in 1.5m x 1.5m grid, and planting Kumbuk/ Mee/ Godapara/ Kaduru/ Aththikka/ Wal Del/ Kekuna/ r","Amount (Rs.)":"1,430,000.00","photopath":"Not_Available","Unnamed: 9":null},"geometry":{"type":"Point","coordinates":[80.685305,7.295111]}},
{"type":"Feature","properties":{"No":38,"GND No.":663,"Scheme":"Aswaddumayaya","N":7.299184,"E":80.673669,"Observation":"Existing is  Earthen canal.The anicut is Constructed  by earth and  sand bags","Description":"Construction of 1.2 m high Weir across stream excluding abutments and stop planks\n\nConstruction of 1.5m high 1:3:6 (40mm) cement concrete Retaining Wall \n\n75mm tk. Stop planks (kumbuk ) with 10mm dia. 2nos. M. S. Iron hooks and applies 2 coats of hot tar","Amount (Rs.)":"1,688,500.00","photopath":"https://raw.githubusercontent.com/MWS003-GIS/MWS003-GIS.github.io/main/IWWRMP/Data/EXD/200_photo/MWS_102/Aswaddumayaya canal,.jpg","Unnamed: 9":null},"geometry":{"type":"Point","coordinates":[80.673669,7.299184]}},
{"type":"Feature","properties":{"No":39,"GND No.":663,"Scheme":"-","N":7.298818,"E":80.674397,"Observation":"Existing is  Earthen canal .The anicut is Constructed  by earth and  sand bags","Description":"Removing existing anicut, clearing and preparing site \n\nConstruction of 1.2 m high Weir across stream excluding abutments and stop planks\n\nConstruction of 1.5m high 1:3:6 (40mm) cement concrete Retaining Wall \n\n75mm tk. Stop planks (kumbuk ) with 10mm di","Amount (Rs.)":"1,221,000.00","photopath":"Not_Available","Unnamed: 9":null},"geometry":{"type":"Point","coordinates":[80.674397,7.298818]}},
{"type":"Feature","properties":{"No":40,"GND No.":663,"Scheme":"Aswaddumayaya right canal","N":7.298741,"E":80.673567,"Observation":"Existing is a Earthen canal and some places are in a very dilapidated Water from this canal is used to grow paddy on an area of about 5 acres.","Description":"Construction of 3.0m high 1:3:6 (40mm) cement concrete Retaining Wall \n\nConstruction of 1.5m high 1:3:6 (40mm) cement concrete Retaining Wall \n\nMiscellaneous\n\nContigencies (10%)","Amount (Rs.)":"1,567,500.00","photopath":"https://raw.githubusercontent.com/MWS003-GIS/MWS003-GIS.github.io/main/IWWRMP/Data/EXD/200_photo/MWS_102/Aswaddumayaya right canal.jpg","Unnamed: 9":null},"geometry":{"type":"Point","coordinates":[80.673567,7.298741]}},
{"type":"Feature","properties":{"No":41,"GND No.":663,"Scheme":"Moragollayaya","N":7.300393,"E":80.67578,"Observation":"The canal has been filled with soil and the jungle has grown. Cultivation has been abandoned due to animal damage","Description":"Dry Silt removing from Canal or Tank beds and haul the surplus materials up to 30m. distance by Manually.\n\nMiscellaneous\n\nContigencies (10%)","Amount (Rs.)":"33,000.00","photopath":"https://raw.githubusercontent.com/MWS003-GIS/MWS003-GIS.github.io/main/IWWRMP/Data/EXD/200_photo/MWS_102/Moragolla yaya canal.jpg","Unnamed: 9":null},"geometry":{"type":"Point","coordinates":[80.67578,7.300393]}},
{"type":"Feature","properties":{"No":42,"GND No.":663,"Scheme":"Dambagahayaya","N":7.304341,"E":80.677265,"Observation":"The Existing is  Earthen canal.The total length of the canal is about 200m, Water from this canal is used to grow paddy on an area of about 5 acre","Description":"Canal reservation protection by concrete lining  For  100mm thick , 0.3m  wide  and 0.3m high canal -double banking\n\nStream / canal  reservation protection by earthfilling of  strip   of 1.5m to 2m wide  and average Depth of 0.5m\n\nVegetative cover improv","Amount (Rs.)":"803,000.00","photopath":"https://raw.githubusercontent.com/MWS003-GIS/MWS003-GIS.github.io/main/IWWRMP/Data/EXD/200_photo/MWS_102/Dambagahayaya kandura.jpg","Unnamed: 9":null},"geometry":{"type":"Point","coordinates":[80.677265,7.304341]}},
{"type":"Feature","properties":{"No":43,"GND No.":663,"Scheme":"Kotte wawa yaya canaL","N":7.302709,"E":80.681138,"Observation":"The total length of the canal is about 1000m, About 50m have been(600mm x 300mm)rectangular concreted. The balance part of the canal is earthen. Water from this canal is used to grow paddy on an area of about 22 acre","Description":"Canal reservation protection by concrete lining  For  100mm thick , 0.3m  wide  and 0.3m high canal -double banking\n\nStream / canal  reservation protection by earthfilling of  strip   of 1.5m to 2m wide  and average Depth of 0.5m\n\nVegetative cover improv","Amount (Rs.)":"1,952,500.00","photopath":"https://raw.githubusercontent.com/MWS003-GIS/MWS003-GIS.github.io/main/IWWRMP/Data/EXD/200_photo/MWS_102/Kottawewa ela_20241220_105208.jpg","Unnamed: 9":null},"geometry":{"type":"Point","coordinates":[80.681138,7.302709]}},
{"type":"Feature","properties":{"No":44,"GND No.":664,"Scheme":"Dehiattamada yaya","N":7.313907,"E":80.652509,"Observation":"The total length of the canal is about150m, About 20m have been(600mm x 600mm)rectangular concreted. The balance part of the canal is earthen. Water from this canal is used to grow paddy on an area of about 3 acre. The concrete canal system has collapsed","Description":"Clearing and preparing the site\n\nCanal reservation protection by concrete lining  For  100mm thick , 0.3m  wide  and 0.3m high canal -double banking\n\nDemolishing existing culvert\n\nConstruction of 0.60m Dia x 4.8m long culvert\n\nConstruction of 1.0m high 1","Amount (Rs.)":"462,000.00","photopath":"https://raw.githubusercontent.com/MWS003-GIS/MWS003-GIS.github.io/main/IWWRMP/Data/EXD/200_photo/MWS_102/Dehiattamadayaya canal 20250107_130004.jpg","Unnamed: 9":null},"geometry":{"type":"Point","coordinates":[80.652509,7.313907]}},
{"type":"Feature","properties":{"No":45,"GND No.":664,"Scheme":"Galapitiyawa ela","N":7.31958,"E":80.657646,"Observation":"The total length of the canal is about 1000m, Existing Earthen canal.  some places. are in a very dilapidated condition. Water from this canal is used to grow paddy on an area of about 15 acre. The existing retaining walls are broken","Description":"Construction of 1.8m high 1:3:6 (40mm) cement concrete Retaining Wall \n\nStream / canal  reservation protection by earthfilling of  strip   of 1.5m to 2m wide  and average Depth of 0.5m\n\nVegetative cover improving for narrow strips (1.5m-2.0m wide) with A","Amount (Rs.)":"2,772,000.00","photopath":"https://raw.githubusercontent.com/MWS003-GIS/MWS003-GIS.github.io/main/IWWRMP/Data/EXD/200_photo/MWS_102/IGalahitiyawa canal.jpg","Unnamed: 9":null},"geometry":{"type":"Point","coordinates":[80.657646,7.31958]}},
{"type":"Feature","properties":{"No":46,"GND No.":664,"Scheme":"Mahawelyaya canal","N":7.319649,"E":80.655355,"Observation":"The total length of the canal is about 500m, Existing Earthen canal.  some places. are in a very dilapidated condition. Water from this canal is used to grow paddy on an area of about 15 acre. Due to the high level of the culvert built across the road.wa","Description":"Dry Silt removing from Canal or Tank beds and haul the surplus materials up to 30m. distance by Manually.\n\nConstruction of 1.0m high 1:3:6 (40mm) cement concrete Retaining Wall \n\nConstruction of 0.60m Dia x 4.8m long culvert\n\nConstruction of 1.0m high 1:","Amount (Rs.)":"907,500.00","photopath":"https://raw.githubusercontent.com/MWS003-GIS/MWS003-GIS.github.io/main/IWWRMP/Data/EXD/200_photo/MWS_102/Mahayayapatha.,_20250107_143250.jpg","Unnamed: 9":null},"geometry":{"type":"Point","coordinates":[80.655355,7.319649]}},
{"type":"Feature","properties":{"No":47,"GND No.":664,"Scheme":"Canal of near the temple","N":7.319937,"E":80.656076,"Observation":"The total length of the canal is about 200m, Existing Earthen canal.  some places. are in a very dilapidated condition. Water from this canal is used to grow paddy on an area of about 10 acre.","Description":"Construction of 1.0m high 1:3:6 (40mm) cement concrete Retaining Wall \n\nMiscellaneous\n\nContigencies (10%)","Amount (Rs.)":"1,061,500.00","photopath":"Not_Available","Unnamed: 9":null},"geometry":{"type":"Point","coordinates":[80.656076,7.319937]}},
{"type":"Feature","properties":{"No":48,"GND No.":664,"Scheme":"Kottalkumbura yaya canal","N":7.313936,"E":80.658159,"Observation":"The total length of the canal is about 200m, Existing Earthen canal.  some places. are in a very dilapidated condition. Water from this canal is used to grow paddy on an area of about 8 acre.","Description":"Canal reservation protection by concrete lining  For  100mm thick , 0.3m  wide  and 0.3m high canal -double banking\n\nStream / canal  reservation protection by earthfilling of  strip   of 1.5m to 2m wide  and average Depth of 0.5m\n\nVegetative cover improv","Amount (Rs.)":"1,050,500.00","photopath":"https://raw.githubusercontent.com/MWS003-GIS/MWS003-GIS.github.io/main/IWWRMP/Data/EXD/200_photo/MWS_102/Kottalbeddakumbura yaya ela_20250107_143950.jpg","Unnamed: 9":null},"geometry":{"type":"Point","coordinates":[80.658159,7.313936]}},
{"type":"Feature","properties":{"No":49,"GND No.":664,"Scheme":"Balagete yaya canal","N":7.314693,"E":80.659087,"Observation":"The total length of the canal is about 200m, Existing Earthen canal.  some places. are in a very dilapidated condition. Water from this canal is used to grow paddy on an area of about 8 acre.","Description":"Construction of 1.0m high 1:3:6 (40mm) cement concrete Retaining Wall \n\nVegetative cover improving around structures (5m x 10m) with planting Arecanut seedling in 1.5m x 1.5m grid, and planting Kumbuk/ Mee/ Godapara/ Kaduru/ Aththikka/ Wal Del/ Kekuna/ r","Amount (Rs.)":"434,500.00","photopath":"https://raw.githubusercontent.com/MWS003-GIS/MWS003-GIS.github.io/main/IWWRMP/Data/EXD/200_photo/MWS_102/Balagete yaya ela 20250107_150533.jpg","Unnamed: 9":null},"geometry":{"type":"Point","coordinates":[80.659087,7.314693]}},
{"type":"Feature","properties":{"No":50,"GND No.":665,"Scheme":"Kolanwela yaye ela","N":7.317775,"E":80.651342,"Observation":"The total length of the canal is about 800m, About 300m have been(500mm x 500mm)rectangular concreted. The balance part of the canal is earthen. Water from this canal is used to grow paddy on an area of about 10 acre","Description":"Canal reservation protection by concrete lining  For  100mm thick , 0.3m  wide  and 0.3m high canal -double banking\n\nStream / canal  reservation protection by earthfilling of  strip   of 1.5m to 2m wide  and average Depth of 0.5m\n\nVegetative cover improv","Amount (Rs.)":"1,501,500.00","photopath":"https://raw.githubusercontent.com/MWS003-GIS/MWS003-GIS.github.io/main/IWWRMP/Data/EXD/200_photo/MWS_102/Koholanwela canal no 2_20241231_101336.jpg","Unnamed: 9":null},"geometry":{"type":"Point","coordinates":[80.651342,7.317775]}},
{"type":"Feature","properties":{"No":51,"GND No.":665,"Scheme":"Kolanwela yaye ela No 2","N":7.321224,"E":80.651612,"Observation":"The total length of the canal is about 400m, Existing Earthen canal. The canal breaks and water flows throug the fields at some places. are in a very dilapidated condition. Water from this canal is used to grow paddy on an area of about 8 acre.","Description":"Canal reservation protection by concrete lining  For  100mm thick , 0.3m  wide  and 0.3m high canal -double banking\n\nStream / canal  reservation protection by earthfilling of  strip   of 1.5m to 2m wide  and average Depth of 0.5m\n\nVegetative cover improv","Amount (Rs.)":"1,677,500.00","photopath":"https://raw.githubusercontent.com/MWS003-GIS/MWS003-GIS.github.io/main/IWWRMP/Data/EXD/200_photo/MWS_102/Koholanwela canal no 2_20241231_101336.jpg","Unnamed: 9":null},"geometry":{"type":"Point","coordinates":[80.651612,7.321224]}},
{"type":"Feature","properties":{"No":52,"GND No.":665,"Scheme":"Kongahakumbura ela","N":7.320796,"E":80.649184,"Observation":"The total length of the canal is about 500m, Existing Earthen canal.  some places. are in a very dilapidated condition. Water from this canal is used to grow paddy on an area of about 8 acre.","Description":"Canal reservation protection by concrete lining  For  100mm thick , 0.3m  wide  and 0.3m high canal -double banking\n\nStream / canal  reservation protection by earthfilling of  strip   of 1.5m to 2m wide  and average Depth of 0.5m\n\nVegetative cover improv","Amount (Rs.)":"1,540,000.00","photopath":"https://raw.githubusercontent.com/MWS003-GIS/MWS003-GIS.github.io/main/IWWRMP/Data/EXD/200_photo/MWS_102/Kongahakumbura canal_20241231_104021.jpg","Unnamed: 9":null},"geometry":{"type":"Point","coordinates":[80.649184,7.320796]}},
{"type":"Feature","properties":{"No":53,"GND No.":665,"Scheme":"Wadamalpanawa yaya ela","N":7.319972,"E":80.65423,"Observation":"The total length of the canal is about1000m, Existing Earthen canal.  some places. are in a very dilapidated condition. Water from this canal is used to grow paddy on an area of about 5 acre.","Description":"Canal reservation protection by concrete lining  For  100mm thick , 0.3m  wide  and 0.3m high canal -double banking\n\nStream / canal  reservation protection by earthfilling of  strip   of 1.5m to 2m wide  and average Depth of 0.5m\n\nVegetative cover improv","Amount (Rs.)":"1,540,000.00","photopath":"https://raw.githubusercontent.com/MWS003-GIS/MWS003-GIS.github.io/main/IWWRMP/Data/EXD/200_photo/MWS_102/Wadamalpanawa canal_20241231_112919.jpg","Unnamed: 9":null},"geometry":{"type":"Point","coordinates":[80.65423,7.319972]}},
{"type":"Feature","properties":{"No":54,"GND No.":683,"Scheme":"Kalapuraya","N":7.284808,"E":80.676315,"Observation":"The total length of the canal is about700m, Existing Earthen canal.  some places. are in a very dilapidated condition. The water of this canal is not used for cultivation. Houses and wells get water damage during rainy sesion.At some places the concrete","Description":"Canals reservation protection by concrete lining  For  125mm thick , 0.5m  wide  and 0.4m high canal -double banking\n\nSupplying of cover slabs\n\nConstruction of 1.5m high 1:3:6 (40mm) cement concrete Retaining Wall \n\nMiscellaneous\n\nContigencies (10%)","Amount (Rs.)":"1,402,500.00","photopath":"https://raw.githubusercontent.com/MWS003-GIS/MWS003-GIS.github.io/main/IWWRMP/Data/EXD/200_photo/MWS_102/Kalapuraya canal_20250121_105330.jpg","Unnamed: 9":null},"geometry":{"type":"Point","coordinates":[80.676315,7.284808]}},
{"type":"Feature","properties":{"No":55,"GND No.":685,"Scheme":"Wawe gammadda ela","N":7.295187,"E":80.675803,"Observation":"Existing Earthen canal .During the rainy season when too much water flows,some places are in a very dilapidated The total length of the canal is about 600m, Water from this canal is used to grow paddy on an area of about 13 acre","Description":"Construction of 2.0m high 1:3:6 (40mm) cement concrete Retaining Wall \n\nMiscellaneous\n\nContigencies (10%)","Amount (Rs.)":"2,530,000.00","photopath":"https://raw.githubusercontent.com/MWS003-GIS/MWS003-GIS.github.io/main/IWWRMP/Data/EXD/200_photo/MWS_102/Wewegammedda canal .0241227_090025.jpg","Unnamed: 9":null},"geometry":{"type":"Point","coordinates":[80.675803,7.295187]}},
{"type":"Feature","properties":{"No":56,"GND No.":685,"Scheme":"Wewegammedda pathahe ela","N":7.294082,"E":80.674973,"Observation":"The total length of the canal is about 100m, About 50m have been(600mm x 600mm)rectangular concreted. But that destroyed balance part of the canal is earthen. Water from this canal is used to grow paddy on an area of about 6 acre","Description":"Demolish existing damages concrete and remove debris from site\n\nCanal reservation protection by concrete lining  For  100mm thick , 0.3m  wide  and 0.3m high canal -double banking\n\nMiscellaneous\n\nContigencies (10%)","Amount (Rs.)":"726,000.00","photopath":"https://raw.githubusercontent.com/MWS003-GIS/MWS003-GIS.github.io/main/IWWRMP/Data/EXD/200_photo/MWS_102/Wewegammedda patahe ela._20241227_092624.jpg","Unnamed: 9":null},"geometry":{"type":"Point","coordinates":[80.674973,7.294082]}},
{"type":"Feature","properties":{"No":57,"GND No.":685,"Scheme":"Polgaswela Kumburuyaya ela","N":7.294892,"E":80.667735,"Observation":"Existing Earthen canal .During the rainy season when too much water flows,some places are in a very dilapidated The total length of the canal is about 1000m, Water from this canal is used to grow paddy on an area of about 18 acre","Description":"Construction of 2.0m high 1:3:6 (40mm) cement concrete Retaining Wall \n\nConstruction of 03 Nos of Silt Traps\n\nMiscellaneous\n\nContigencies (10%)","Amount (Rs.)":"3,201,000.00","photopath":"https://raw.githubusercontent.com/MWS003-GIS/MWS003-GIS.github.io/main/IWWRMP/Data/EXD/200_photo/MWS_102/Polgaswela kumburuyaye ela_20241227_095311.jpg","Unnamed: 9":null},"geometry":{"type":"Point","coordinates":[80.667735,7.294892]}},
{"type":"Feature","properties":{"No":58,"GND No.":687,"Scheme":"Mahawaththa south canal","N":7.295479,"E":80.681552,"Observation":"The total length of the canal is about 800m, About 200m have been(600mm x 600mm) rectangular concreted. About 20m it is broken. In some places, the concrete has washed away from under it.  Water from this canal is used to grow paddy on an area of about 1","Description":"Canal reservation protection by concrete lining  For  100mm thick , 0.3m  wide  and 0.3m high canal -double banking\n\nConstruction of 1.0m high 1:3:6 (40mm) cement concrete Retaining Wall \n\nContigencies (10%)","Amount (Rs.)":"1,335,400.00","photopath":"https://raw.githubusercontent.com/MWS003-GIS/MWS003-GIS.github.io/main/IWWRMP/Data/EXD/200_photo/MWS_102/Mahawaththa south canal .20250109_110736.jpg","Unnamed: 9":null},"geometry":{"type":"Point","coordinates":[80.681552,7.295479]}},
{"type":"Feature","properties":{"No":59,"GND No.":688,"Scheme":"Kalugala yaya canal","N":7.28782,"E":80.677477,"Observation":"Existing is Earthen canal .During the rainy season when too much water flows, some places are in a very dilapidated The total length of the canal is about 600m, Water from this canal is used to grow paddy on an area of about 6 acres","Description":"Construction of 1.0m high 1:3:6 (40mm) cement concrete Retaining Wall \n\nContigencies (10%)","Amount (Rs.)":"1,320,000.00","photopath":"https://raw.githubusercontent.com/MWS003-GIS/MWS003-GIS.github.io/main/IWWRMP/Data/EXD/200_photo/MWS_102/Kalugala yaya no 2 canal.jpg","Unnamed: 9":null},"geometry":{"type":"Point","coordinates":[80.677477,7.28782]}},
{"type":"Feature","properties":{"No":60,"GND No.":688,"Scheme":"Kalugala yaya canal no 2","N":7.287701,"E":80.679399,"Observation":"Existing is Earthen canal. During the rainy season when too much water flows, Bank erosion occurs The total length of the canal is about 450m, Water from this canal is used to grow paddy on an area of about 4 acres","Description":"Construction of 2.0m high 1:3:6 (40mm) cement concrete Retaining Wall \n\nConstruction of 1.5m high 1:3:6 (40mm) cement concrete Retaining Wall \n\nContigencies (10%)","Amount (Rs.)":"1,496,000.00","photopath":"https://raw.githubusercontent.com/MWS003-GIS/MWS003-GIS.github.io/main/IWWRMP/Data/EXD/200_photo/MWS_102/Kalugalayaya ela No 2_.jpg","Unnamed: 9":null},"geometry":{"type":"Point","coordinates":[80.679399,7.287701]}},
{"type":"Feature","properties":{"No":61,"GND No.":689,"Scheme":"Kalugala anicut and canal","N":7.287868,"E":80.682916,"Observation":"Existing is Earthen canal. During the rainy season when too much water flows, Bank erosion occurs The total length of the canal is about 500m, Water from this canal is used to grow paddy on an area of about 6 acres","Description":"Construction of 1.0m high 1:3:6 (40mm) cement concrete Retaining Wall \n\nContigencies (10%)","Amount (Rs.)":"1,320,000.00","photopath":"https://raw.githubusercontent.com/MWS003-GIS/MWS003-GIS.github.io/main/IWWRMP/Data/EXD/200_photo/MWS_102/Kalugala amuna sluice_20250110_110320.jpg","Unnamed: 9":null},"geometry":{"type":"Point","coordinates":[80.682916,7.287868]}},
{"type":"Feature","properties":{"No":62,"GND No.":689,"Scheme":"Mahawaththagama  canal","N":7.292174,"E":80.682808,"Observation":"The total length of the canal is about 750m, About 50m have been(600mm x 600mm) rectangular concreted. The balance part of the canal is earthen. Water from this canal is used to grow paddy on an area of about 8 acre","Description":"Canal reservation protection by concrete lining  For  100mm thick , 0.3m  wide  and 0.3m high canal -double banking\n\nStream / canal  reservation protection by earthfilling of  strip   of 1.5m to 2m wide  and average Depth of 0.5m\n\nVegetative cover improv","Amount (Rs.)":"907,500.00","photopath":"https://raw.githubusercontent.com/MWS003-GIS/MWS003-GIS.github.io/main/IWWRMP/Data/EXD/200_photo/MWS_102/Mahawaththa patha..._20250110_130941.jpg","Unnamed: 9":null},"geometry":{"type":"Point","coordinates":[80.682808,7.292174]}},
{"type":"Feature","properties":{"No":63,"GND No.":689,"Scheme":"Rukathtanacanal","N":7.287291,"E":80.681704,"Observation":"Existing Earthen canal. During the rainy season when too much water flows, Bank erosion occurs.About100m have been(1.200mm x 900mm)    rectangular concreted. The balance part of the canal is earthen. Water from this canal is used to grow paddy on an area","Description":"Construction of 1.0m high 1:3:6 (40mm) cement concrete Retaining Wall \n\nStream / canal  reservation protection by earthfilling of  strip   of 1.5m to 2m wide  and average Depth of 0.5m\n\nVegetative cover improving for narrow strips (1.5m-2.0m wide) with A","Amount (Rs.)":"1,529,000.00","photopath":"Not_Available","Unnamed: 9":null},"geometry":{"type":"Point","coordinates":[80.681704,7.287291]}},
{"type":"Feature","properties":{"No":64,"GND No.":690,"Scheme":"Galgodahinnayaya canal","N":7.293029,"E":80.684964,"Observation":"The total length of the canal is about 800m, About 300m have been(450mm x 450mm) rectangular concreted. The balance part of the canal is earthen. Water from this canal is used to grow paddy on an area of about 8 acre","Description":"Canal reservation protection by concrete lining  For  100mm thick , 0.3m  wide  and 0.3m high canal -double banking\n\nStream / canal  reservation protection by earthfilling of  strip   of 1.5m to 2m wide  and average Depth of 0.5m\n\nVegetative cover improv","Amount (Rs.)":"1,254,000.00","photopath":"https://raw.githubusercontent.com/MWS003-GIS/MWS003-GIS.github.io/main/IWWRMP/Data/EXD/200_photo/MWS_102/IMG_20250108_094414.jpg","Unnamed: 9":null},"geometry":{"type":"Point","coordinates":[80.684964,7.293029]}},
{"type":"Feature","properties":{"No":65,"GND No.":690,"Scheme":"Galgodahinnayaya  left canal","N":7.293599,"E":80.68422,"Observation":"The total length of the canal is about 800m, About 100m have been(600mm x 450mm) rectangular concreted. The balance part of the canal is earthen. Water from this canal is used to grow paddy on an area of about 8 acre","Description":"Canal reservation protection by concrete lining  For  100mm thick , 0.3m  wide  and 0.3m high canal -double banking\n\nStream / canal  reservation protection by earthfilling of  strip   of 1.5m to 2m wide  and average Depth of 0.5m\n\nVegetative cover improv","Amount (Rs.)":"1,325,500.00","photopath":"https://raw.githubusercontent.com/MWS003-GIS/MWS003-GIS.github.io/main/IWWRMP/Data/EXD/200_photo/MWS_102/Galgodahinna left canal_20250108_100515.jpg","Unnamed: 9":null},"geometry":{"type":"Point","coordinates":[80.68422,7.293599]}},
{"type":"Feature","properties":{"No":66,"GND No.":691,"Scheme":"Puwak gaha kandura yaya","N":7.281817,"E":80.692334,"Observation":"The total length of the canal is about 1000m, About 100m have been(600mm x 450mm) rectangular concreted. The balance part of the canal is earthen. During the rainy season when too much water flows,some places are in a very dilapidated. Because no cultiva","Description":"Canal reservation protection by concrete lining  For  125mm thick , 0.5m  wide  and 0.4m high canal -double banking\n\nStream / canal  reservation protection by earthfilling of  strip   of 1.5m to 2m wide  and average Depth of 0.5m\n\nVegetative cover improv","Amount (Rs.)":"1,644,500.00","photopath":"https://raw.githubusercontent.com/MWS003-GIS/MWS003-GIS.github.io/main/IWWRMP/Data/EXD/200_photo/MWS_102/Puwak kanduruyaya canal_20250131_113122.jpg","Unnamed: 9":null},"geometry":{"type":"Point","coordinates":[80.692334,7.281817]}}
]}