{"type":"FeatureCollection","name":"SWC_ON","crs":{"type":"name","properties":{"name":"urn:ogc:def:crs:OGC:1.3:CRS84"}},"features":[
{"type":"Feature","properties":{"No.":1,"GND No.":650,"GND Name":"Sirimalwaththa East","Key Activities proposed for Soil and Water conservation":"1. Soil conservation practices - Temple garden (40?-60?)","Priority based on Soil Erosion Hazard":1,"N":7.306667,"E":80.655736,"Quantity":"2 ha","Proposed measure/s":"Live fencing/SALT and/or stone terracing/lock and spills, as applied","Uniti_Cost":"250.00 m-1","Total_Cost":"500,000.00","Contribution (Local Community, LA, and the project)":"Labour and other basic services by the Local community","Time frame for the implementation":"0.25 Years","photopath":"https://raw.githubusercontent.com/MWS003-GIS/MWS003-GIS.github.io/main/IWWRMP/Data/EXD/200_photo/MWS_102/Soilconservation.jpg"},"geometry":{"type":"Point","coordinates":[80.655736,7.306667]}},
{"type":"Feature","properties":{"No.":5,"GND No.":654,"GND Name":"Karaththamada","Key Activities proposed for Soil and Water conservation":"1. Soil conservation practices (40?-60?)","Priority based on Soil Erosion Hazard":3,"N":7.291943,"E":80.664345,"Quantity":"12 ha","Proposed measure/s":"Live fencing/SALT and/or stone terracing/lock and spills, as applied","Uniti_Cost":"250.00 m-1","Total_Cost":"3,000,000.00","Contribution (Local Community, LA, and the project)":"Labour and other basic services by the Local community","Time frame for the implementation":"0.5 Years","photopath":"Not_Available"},"geometry":{"type":"Point","coordinates":[80.664345,7.291943]}},
{"type":"Feature","properties":{"No.":6,"GND No.":654,"GND Name":"Karaththamada","Key Activities proposed for Soil and Water conservation":"2. Soil conservation practices (40?-60?)","Priority based on Soil Erosion Hazard":3,"N":7.291214,"E":80.664299,"Quantity":"12 ha","Proposed measure/s":"Live fencing/SALT and/or stone terracing/lock and spills, as applied","Uniti_Cost":"250.00 m-1","Total_Cost":"3,000,000.00","Contribution (Local Community, LA, and the project)":"Labour and other basic services by the Local community","Time frame for the implementation":"0.5 Years","photopath":"Not_Available"},"geometry":{"type":"Point","coordinates":[80.664299,7.291214]}},
{"type":"Feature","properties":{"No.":7,"GND No.":654,"GND Name":"Karaththamada","Key Activities proposed for Soil and Water conservation":"3. Soil conservation practices (40?-60?)","Priority based on Soil Erosion Hazard":2,"N":7.292065,"E":80.665515,"Quantity":"12 ha","Proposed measure/s":"Live fencing/SALT and/or stone terracing/lock and spills, as applied","Uniti_Cost":"250.00 m-1","Total_Cost":"3,000,000.00","Contribution (Local Community, LA, and the project)":"Labour and other basic services by the Local community","Time frame for the implementation":"0.5 Years","photopath":"Not_Available"},"geometry":{"type":"Point","coordinates":[80.665515,7.292065]}},
{"type":"Feature","properties":{"No.":8,"GND No.":655,"GND Name":"Levallagama","Key Activities proposed for Soil and Water conservation":"1. Soil conservation practices - Ranhinda (40?-55?)","Priority based on Soil Erosion Hazard":1,"N":7.296446,"E":80.662203,"Quantity":"4 ha","Proposed measure/s":"Live fencing/SALT and/or stone terracing/lock and spills, as applied","Uniti_Cost":"250.00 m-1","Total_Cost":"1,000,000.00","Contribution (Local Community, LA, and the project)":"Labour and other basic services by the Local community","Time frame for the implementation":"0.5 Years","photopath":"https://raw.githubusercontent.com/MWS003-GIS/MWS003-GIS.github.io/main/IWWRMP/Data/EXD/200_photo/MWS_102/Levellegama patha.jpg"},"geometry":{"type":"Point","coordinates":[80.662203,7.296446]}},
{"type":"Feature","properties":{"No.":10,"GND No.":657,"GND Name":"Amunugama South","Key Activities proposed for Soil and Water conservation":"1. Soil conservation practices (40?-50?)","Priority based on Soil Erosion Hazard":2,"N":7.308305,"E":80.664153,"Quantity":"1.25 ha","Proposed measure/s":"Live fencing/SALT and/or stone terracing/lock and spills, as applied","Uniti_Cost":"250.00 m-1","Total_Cost":"312,500.00","Contribution (Local Community, LA, and the project)":"Labour and other basic services by the Local community","Time frame for the implementation":"0.25 Years","photopath":"https://raw.githubusercontent.com/MWS003-GIS/MWS003-GIS.github.io/main/IWWRMP/Data/EXD/200_photo/MWS_102/Soil conservation.jpg"},"geometry":{"type":"Point","coordinates":[80.664153,7.308305]}},
{"type":"Feature","properties":{"No.":11,"GND No.":658,"GND Name":"Hapuwala","Key Activities proposed for Soil and Water conservation":"1. Soil conservation practices (40?-50?)","Priority based on Soil Erosion Hazard":1,"N":7.300268,"E":80.670563,"Quantity":"2 ha","Proposed measure/s":"Live fencing/SALT and/or stone terracing/lock and spills, as applied","Uniti_Cost":"250.00 m-1","Total_Cost":"500,000.00","Contribution (Local Community, LA, and the project)":"Labour and other basic services by the Local community","Time frame for the implementation":"0.25 Years","photopath":"https://raw.githubusercontent.com/MWS003-GIS/MWS003-GIS.github.io/main/IWWRMP/Data/EXD/200_photo/MWS_102/Soil conservation,._20241226_112709.jpg"},"geometry":{"type":"Point","coordinates":[80.670563,7.300268]}},
{"type":"Feature","properties":{"No.":12,"GND No.":658,"GND Name":"Hapuwala","Key Activities proposed for Soil and Water conservation":"2. Soil conservation practices (40?-50?)","Priority based on Soil Erosion Hazard":1,"N":7.297121,"E":80.672011,"Quantity":"2 ha","Proposed measure/s":"Live fencing/SALT and/or stone terracing/lock and spills, as applied","Uniti_Cost":"250.00 m-1","Total_Cost":"500,000.00","Contribution (Local Community, LA, and the project)":"Labour and other basic services by the Local community","Time frame for the implementation":"0.25 Years","photopath":"https://raw.githubusercontent.com/MWS003-GIS/MWS003-GIS.github.io/main/IWWRMP/Data/EXD/200_photo/MWS_102/Soil conservation,._20241226_112709.jpg"},"geometry":{"type":"Point","coordinates":[80.672011,7.297121]}},
{"type":"Feature","properties":{"No.":13,"GND No.":658,"GND Name":"Hapuwala","Key Activities proposed for Soil and Water conservation":"3. Soil conservation practices (40?-50?)","Priority based on Soil Erosion Hazard":3,"N":7.297961,"E":80.670979,"Quantity":"2 ha","Proposed measure/s":"Live fencing/SALT and/or stone terracing/lock and spills, as applied","Uniti_Cost":"250.00 m-1","Total_Cost":"500,000.00","Contribution (Local Community, LA, and the project)":"Labour and other basic services by the Local community","Time frame for the implementation":"0.25 Years","photopath":"https://raw.githubusercontent.com/MWS003-GIS/MWS003-GIS.github.io/main/IWWRMP/Data/EXD/200_photo/MWS_102/Soil conservation_20241226_101357.jpg"},"geometry":{"type":"Point","coordinates":[80.670979,7.297961]}},
{"type":"Feature","properties":{"No.":15,"GND No.":660,"GND Name":"Pilawala North","Key Activities proposed for Soil and Water conservation":"1. Soil conservation practices - Gardens  (40?-60?)","Priority based on Soil Erosion Hazard":2,"N":7.305405,"E":80.670595,"Quantity":"2 ha","Proposed measure/s":"Live fencing/SALT and/or stone terracing/lock and spills, as applied","Uniti_Cost":"250.00 m-1","Total_Cost":"500,000.00","Contribution (Local Community, LA, and the project)":"Labour and other basic services by the Local community","Time frame for the implementation":"0.25 Years","photopath":"https://raw.githubusercontent.com/MWS003-GIS/MWS003-GIS.github.io/main/IWWRMP/Data/EXD/200_photo/MWS_102/Soilconservation_20241225_091443.jpg"},"geometry":{"type":"Point","coordinates":[80.670595,7.305405]}},
{"type":"Feature","properties":{"No.":16,"GND No.":660,"GND Name":"Pilawala North","Key Activities proposed for Soil and Water conservation":"2. Soil conservation practices - Gardens (40?-60?)","Priority based on Soil Erosion Hazard":1,"N":7.303929,"E":80.672289,"Quantity":"8 ha","Proposed measure/s":"Live fencing/SALT and/or stone terracing/lock and spills, as applied","Uniti_Cost":"250.00 m-1","Total_Cost":"2,000,000.00","Contribution (Local Community, LA, and the project)":"Labour and other basic services by the Local community","Time frame for the implementation":"0.5 Years","photopath":"https://raw.githubusercontent.com/MWS003-GIS/MWS003-GIS.github.io/main/IWWRMP/Data/EXD/200_photo/MWS_102/Soilconservation_20241225_093525.jpg"},"geometry":{"type":"Point","coordinates":[80.672289,7.303929]}},
{"type":"Feature","properties":{"No.":17,"GND No.":660,"GND Name":"Pilawala North","Key Activities proposed for Soil and Water conservation":"3. Soil conservation practices - Gardens (40?-60?)","Priority based on Soil Erosion Hazard":3,"N":7.300759,"E":80.671636,"Quantity":"1 ha","Proposed measure/s":"Live fencing/SALT and/or stone terracing/lock and spills, as applied","Uniti_Cost":"250.00 m-1","Total_Cost":"250,000.00","Contribution (Local Community, LA, and the project)":"Labour and other basic services by the Local community","Time frame for the implementation":"0.25 Years","photopath":"https://raw.githubusercontent.com/MWS003-GIS/MWS003-GIS.github.io/main/IWWRMP/Data/EXD/200_photo/MWS_102/Soilconservetion Pilawala school.jpg"},"geometry":{"type":"Point","coordinates":[80.671636,7.300759]}},
{"type":"Feature","properties":{"No.":18,"GND No.":660,"GND Name":"Pilawala North","Key Activities proposed for Soil and Water conservation":"4. Soil conservation practices - School land (40?-60?)","Priority based on Soil Erosion Hazard":1,"N":7.30572,"E":80.679025,"Quantity":"0.5 ha","Proposed measure/s":"Live fencing/SALT and/or stone terracing/lock and spills, as applied","Uniti_Cost":"250.00 m-1","Total_Cost":"125,000.00","Contribution (Local Community, LA, and the project)":"Labour and other basic services by the Local community","Time frame for the implementation":"0.25 Years","photopath":"https://raw.githubusercontent.com/MWS003-GIS/MWS003-GIS.github.io/main/IWWRMP/Data/EXD/200_photo/MWS_102/Soilconservetion_20241225_092503.jpg"},"geometry":{"type":"Point","coordinates":[80.679025,7.30572]}},
{"type":"Feature","properties":{"No.":19,"GND No.":662,"GND Name":"Pilawala South","Key Activities proposed for Soil and Water conservation":"1. Soil conservation practices (40?-50?)","Priority based on Soil Erosion Hazard":1,"N":7.296179,"E":80.683729,"Quantity":"2 ha","Proposed measure/s":"Live fencing/SALT and/or stone terracing/lock and spills, as applied","Uniti_Cost":"250.00 m-1","Total_Cost":"500,000.00","Contribution (Local Community, LA, and the project)":"Labour and other basic services by the Local community","Time frame for the implementation":"0.25 Years","photopath":"https://raw.githubusercontent.com/MWS003-GIS/MWS003-GIS.github.io/main/IWWRMP/Data/EXD/200_photo/MWS_102/Soil conservation 20250107_100006.jpg"},"geometry":{"type":"Point","coordinates":[80.683729,7.296179]}},
{"type":"Feature","properties":{"No.":21,"GND No.":664,"GND Name":"Pallegunnapana North","Key Activities proposed for Soil and Water conservation":"1. Soil conservation practices - Mr. Kiribanda's land at Meegahakotuwa Waththa (40?-60?)","Priority based on Soil Erosion Hazard":1,"N":7.3122543,"E":80.655058,"Quantity":"0.5 ha","Proposed measure/s":"Live fencing/SALT and/or stone terracing/lock and spills, as applied","Uniti_Cost":"250.00 m-1","Total_Cost":"125,000.00","Contribution (Local Community, LA, and the project)":"Labour and other basic services by the Local community","Time frame for the implementation":"0.25 Years","photopath":"https://raw.githubusercontent.com/MWS003-GIS/MWS003-GIS.github.io/main/IWWRMP/Data/EXD/200_photo/MWS_102/Pallegunnepana North Soil conservation 20250107_122340.jpg"},"geometry":{"type":"Point","coordinates":[80.655058,7.3122543]}},
{"type":"Feature","properties":{"No.":22,"GND No.":665,"GND Name":"Pallegunnapana South","Key Activities proposed for Soil and Water conservation":"1. Soil conservation practices -Kandy Model College (40?-60?)","Priority based on Soil Erosion Hazard":1,"N":7.322325,"E":80.65,"Quantity":"0.1 ha","Proposed measure/s":"Live fencing/SALT and/or stone terracing/lock and spills, as applied","Uniti_Cost":"250.00 m-1","Total_Cost":"25,000.00","Contribution (Local Community, LA, and the project)":"Labour and other basic services by the Local community","Time frame for the implementation":"0.25 Years","photopath":"https://raw.githubusercontent.com/MWS003-GIS/MWS003-GIS.github.io/main/IWWRMP/Data/EXD/200_photo/MWS_102/Soilconservation Kandy model school_20241231_103332.jpg"},"geometry":{"type":"Point","coordinates":[80.65,7.322325]}},
{"type":"Feature","properties":{"No.":25,"GND No.":685,"GND Name":"Arangala North","Key Activities proposed for Soil and Water conservation":"1. Soil conservation practices - Galpotukatiya (40?-60?)","Priority based on Soil Erosion Hazard":1,"N":7.292813,"E":80.668214,"Quantity":"4 ha","Proposed measure/s":"Live fencing/SALT and/or stone terracing/lock and spills, as applied","Uniti_Cost":"250.00 m-1","Total_Cost":"1,000,000.00","Contribution (Local Community, LA, and the project)":"Labour and other basic services by the Local community","Time frame for the implementation":"0.25 Years","photopath":"https://raw.githubusercontent.com/MWS003-GIS/MWS003-GIS.github.io/main/IWWRMP/Data/EXD/200_photo/MWS_102/Soil conservation 20241227_101654.jpg"},"geometry":{"type":"Point","coordinates":[80.668214,7.292813]}},
{"type":"Feature","properties":{"No.":26,"GND No.":686,"GND Name":"Arangala south","Key Activities proposed for Soil and Water conservation":"1. Soil conservation practices - Pansalwaththa Village (40?-60?)","Priority based on Soil Erosion Hazard":1,"N":7.286433,"E":80.667039,"Quantity":"4 ha","Proposed measure/s":"Live fencing/SALT and/or stone terracing/lock and spills, as applied","Uniti_Cost":"250.00 m-1","Total_Cost":"1,000,000.00","Contribution (Local Community, LA, and the project)":"Labour and other basic services by the Local community","Time frame for the implementation":"0.25 Years","photopath":"https://raw.githubusercontent.com/MWS003-GIS/MWS003-GIS.github.io/main/IWWRMP/Data/EXD/200_photo/MWS_102/Soilconservation20241227_105849.jpg"},"geometry":{"type":"Point","coordinates":[80.667039,7.286433]}},
{"type":"Feature","properties":{"No.":27,"GND No.":687,"GND Name":"Mahawaththa South","Key Activities proposed for Soil and Water conservation":"1. Soil conservation practices (40?-45?)","Priority based on Soil Erosion Hazard":3,"N":7.291377,"E":80.674537,"Quantity":"2.5 ha","Proposed measure/s":"Live fencing/SALT and/or stone terracing/lock and spills, as applied","Uniti_Cost":"250.00 m-1","Total_Cost":"625,000.00","Contribution (Local Community, LA, and the project)":"Labour and other basic services by the Local community","Time frame for the implementation":"0.25 Years","photopath":"https://raw.githubusercontent.com/MWS003-GIS/MWS003-GIS.github.io/main/IWWRMP/Data/EXD/200_photo/MWS_102/Soil conservation -Mahawaththa20250109_115000.jpg"},"geometry":{"type":"Point","coordinates":[80.674537,7.291377]}},
{"type":"Feature","properties":{"No.":28,"GND No.":688,"GND Name":"Mahawaththa West","Key Activities proposed for Soil and Water conservation":"1. Soil conservation practices (40?-45?)","Priority based on Soil Erosion Hazard":2,"N":7.287739,"E":80.678376,"Quantity":"2 ha","Proposed measure/s":"Live fencing/SALT and/or stone terracing/lock and spills, as applied","Uniti_Cost":"250.00 m-1","Total_Cost":"500,000.00","Contribution (Local Community, LA, and the project)":"Labour and other basic services by the Local community","Time frame for the implementation":"0.25 Years","photopath":"https://raw.githubusercontent.com/MWS003-GIS/MWS003-GIS.github.io/main/IWWRMP/Data/EXD/200_photo/MWS_102/Mahawaththa west Soil conservation_20250109_093425.jpg"},"geometry":{"type":"Point","coordinates":[80.678376,7.287739]}},
{"type":"Feature","properties":{"No.":29,"GND No.":689,"GND Name":"Mahawaththa North","Key Activities proposed for Soil and Water conservation":"1. Soil conservation practices (40?-45?)","Priority based on Soil Erosion Hazard":3,"N":7.28954,"E":80.685405,"Quantity":"4 ha","Proposed measure/s":"Live fencing/SALT and/or stone terracing/lock and spills, as applied","Uniti_Cost":"250.00 m-1","Total_Cost":"1,000,000.00","Contribution (Local Community, LA, and the project)":"Labour and other basic services by the Local community","Time frame for the implementation":"0.25 Years","photopath":"https://raw.githubusercontent.com/MWS003-GIS/MWS003-GIS.github.io/main/IWWRMP/Data/EXD/200_photo/MWS_102/Soil conservetion20250110_103155.jpg"},"geometry":{"type":"Point","coordinates":[80.685405,7.28954]}},
{"type":"Feature","properties":{"No.":30,"GND No.":690,"GND Name":"Mahawaththa East","Key Activities proposed for Soil and Water conservation":"1. Soil conservation practices (40?-45?)","Priority based on Soil Erosion Hazard":1,"N":7.294034,"E":80.683512,"Quantity":"2.5 ha","Proposed measure/s":"Live fencing/SALT and/or stone terracing/lock and spills, as applied","Uniti_Cost":"250.00 m-1","Total_Cost":"1,000,000.00","Contribution (Local Community, LA, and the project)":"Labour and other basic services by the Local community","Time frame for the implementation":"0.25 Years","photopath":"https://raw.githubusercontent.com/MWS003-GIS/MWS003-GIS.github.io/main/IWWRMP/Data/EXD/200_photo/MWS_102/Soilconservation _20250108_100636.jpg"},"geometry":{"type":"Point","coordinates":[80.683512,7.294034]}},
{"type":"Feature","properties":{"No.":31,"GND No.":691,"GND Name":"Kundasale North","Key Activities proposed for Soil and Water conservation":"1. Soil conservation practices - Warapitiya (40?-45?)","Priority based on Soil Erosion Hazard":1,"N":7.277522,"E":80.682621,"Quantity":"2 ha","Proposed measure/s":"Live fencing/SALT and/or stone terracing/lock and spills, as applied","Uniti_Cost":"250.00 m-1","Total_Cost":"500,000.00","Contribution (Local Community, LA, and the project)":"Labour and other basic services by the Local community","Time frame for the implementation":"0.25 Years","photopath":"https://raw.githubusercontent.com/MWS003-GIS/MWS003-GIS.github.io/main/IWWRMP/Data/EXD/200_photo/MWS_102/Soil conservation_20250131_101809.jpg"},"geometry":{"type":"Point","coordinates":[80.682621,7.277522]}},
{"type":"Feature","properties":{"No.":32,"GND No.":691,"GND Name":"Kundasale North","Key Activities proposed for Soil and Water conservation":"2. Soil conservation practices - Henwala (40?-45?)","Priority based on Soil Erosion Hazard":1,"N":7.281829,"E":80.69236,"Quantity":"2.5 ha","Proposed measure/s":"Live fencing/SALT and/or stone terracing/lock and spills, as applied","Uniti_Cost":"250.00 m-1","Total_Cost":"625,000.00","Contribution (Local Community, LA, and the project)":"Labour and other basic services by the Local community","Time frame for the implementation":"0.25 Years","photopath":"https://raw.githubusercontent.com/MWS003-GIS/MWS003-GIS.github.io/main/IWWRMP/Data/EXD/200_photo/MWS_102/Soil conservation_20250131_120724.jpg"},"geometry":{"type":"Point","coordinates":[80.69236,7.281829]}}
]}