{"type":"FeatureCollection","name":"SWC_ON","crs":{"type":"name","properties":{"name":"urn:ogc:def:crs:OGC:1.3:CRS84"}},"features":[
{"type":"Feature","properties":{"No.":1,"GND No.":"65B","GND Name":"Bandarawela West","Key Activities proposed for Soil and Water conservation":"1. Soil conservation practices -  Police Mountain (45°-65°)","Priority based on Soil Erosion Hazard":"4","N":6.830272,"E":80.985608,"Quantity":"0.5 ha","Proposed measure/s":"1. Live fencing/SALT  - 2500 m, 2. Lock and spills - 1000 m, 3. Stone terracing - 500 m, 4. Agronomic practices should be adapted at optimum level (conservation tillage, crop rotation and diversification, cover crops, mulching, contour farming, windbreak","Uniti_Cost":"250.00 m-1, 400.00 m-1, 2500.00 m-1","Total_Cost":850000,"Contribution (Local Community, LA, and the project)":"Labour and other basic services by the Local community","Time frame for the implementation":"0.25 Years","photopath":"Not_Available"},"geometry":{"type":"Point","coordinates":[80.985608,6.830272]}},
{"type":"Feature","properties":{"No.":2,"GND No.":"66D","GND Name":"Mahaulpatha","Key Activities proposed for Soil and Water conservation":"1. Soil conservation practices -  Mahaulpatha Mahayaya (30°-60°)","Priority based on Soil Erosion Hazard":"-","N":6.823206,"E":81.007205,"Quantity":"14 ha","Proposed measure/s":"1. Live fencing/SALT  - 2500 m, 2. Lock and spills - 1000 m, 3. Stone terracing - 500 m, 4. Agronomic practices should be adapted at optimum level (conservation tillage, crop rotation and diversification, cover crops, mulching, contour farming, windbreak","Uniti_Cost":"250.00 m-1, 400.00 m-1, 2500.00 m-1","Total_Cost":8600000,"Contribution (Local Community, LA, and the project)":"Labour and other basic services by the Local community","Time frame for the implementation":"0.25 Years","photopath":"Not_Available"},"geometry":{"type":"Point","coordinates":[81.007205,6.823206]}},
{"type":"Feature","properties":{"No.":3,"GND No.":"66G","GND Name":"Thanthiriya","Key Activities proposed for Soil and Water conservation":"1. Soil conservation practices -  Pin Arawa Pathana (45°-60°)","Priority based on Soil Erosion Hazard":"1","N":6.833339,"E":80.999644,"Quantity":"1 ha","Proposed measure/s":"1. Live fencing/SALT  - 2500 m, 2. Lock and spills - 1000 m, 3. Stone terracing - 500 m, 4. Agronomic practices should be adapted at optimum level (conservation tillage, crop rotation and diversification, cover crops, mulching, contour farming, windbreak","Uniti_Cost":"250.00 m-1, 400.00 m-1, 2500.00 m-1","Total_Cost":850000,"Contribution (Local Community, LA, and the project)":"Labour and other basic services by the Local community","Time frame for the implementation":"0.25 Years","photopath":"https://raw.githubusercontent.com/MWS003-GIS/MWS003-GIS.github.io/main/IWWRMP/Data/EXD/200_photo/MWS_067_2/Pinarawa Sloping Lands.jpg"},"geometry":{"type":"Point","coordinates":[80.999644,6.833339]}},
{"type":"Feature","properties":{"No.":4,"GND No.":"66G","GND Name":"Thanthiriya","Key Activities proposed for Soil and Water conservation":"2. Soil conservation practices -  Medahinna (45°-60°)","Priority based on Soil Erosion Hazard":"-","N":6.834306,"E":81.006496,"Quantity":"2 ha","Proposed measure/s":"1. Live fencing/SALT  - 2500 m, 2. Lock and spills - 1000 m, 3. Stone terracing - 500 m, 4. Agronomic practices should be adapted at optimum level (conservation tillage, crop rotation and diversification, cover crops, mulching, contour farming, windbreak","Uniti_Cost":"250.00 m-1, 400.00 m-1, 2500.00 m-1","Total_Cost":1700000,"Contribution (Local Community, LA, and the project)":"Labour and other basic services by the Local community","Time frame for the implementation":"0.25 Years","photopath":"https://raw.githubusercontent.com/MWS003-GIS/MWS003-GIS.github.io/main/IWWRMP/Data/EXD/200_photo/MWS_067_2/Madahinna Sloping Lands.jpg"},"geometry":{"type":"Point","coordinates":[81.006496,6.834306]}},
{"type":"Feature","properties":{"No.":5,"GND No.":"66G","GND Name":"Thanthiriya","Key Activities proposed for Soil and Water conservation":"3. Soil conservation practices -  Thanthiriya (Near the Common Well) (45°-60°)","Priority based on Soil Erosion Hazard":"1","N":6.833439,"E":81.001051,"Quantity":"0.5 ha","Proposed measure/s":"1. Live fencing/SALT  - 2500 m, 2. Lock and spills - 1000 m, 3. Stone terracing - 500 m, 4. Agronomic practices should be adapted at optimum level (conservation tillage, crop rotation and diversification, cover crops, mulching, contour farming, windbreak","Uniti_Cost":"250.00 m-1, 400.00 m-1, 2500.00 m-1","Total_Cost":425000,"Contribution (Local Community, LA, and the project)":"Labour and other basic services by the Local community","Time frame for the implementation":"0.25 Years","photopath":"https://raw.githubusercontent.com/MWS003-GIS/MWS003-GIS.github.io/main/IWWRMP/Data/EXD/200_photo/MWS_067_2/Sloping land near the common well.jpg"},"geometry":{"type":"Point","coordinates":[81.001051,6.833439]}},
{"type":"Feature","properties":{"No.":6,"GND No.":"67A","GND Name":"Konthahela","Key Activities proposed for Soil and Water conservation":"1. Soil conservation practices -  Bokke Arawa (45°-60°)","Priority based on Soil Erosion Hazard":"3","N":6.867709,"E":80.968183,"Quantity":"4 ha","Proposed measure/s":"1. Live fencing/SALT  - 2500 m, 2. Lock and spills - 1000 m, 3. Stone terracing - 500 m, 4. Agronomic practices should be adapted at optimum level (conservation tillage, crop rotation and diversification, cover crops, mulching, contour farming, windbreak","Uniti_Cost":"250.00 m-1, 400.00 m-1, 2500.00 m-1","Total_Cost":3400000,"Contribution (Local Community, LA, and the project)":"Labour and other basic services by the Local community","Time frame for the implementation":"0.25 Years","photopath":"https://raw.githubusercontent.com/MWS003-GIS/MWS003-GIS.github.io/main/IWWRMP/Data/EXD/200_photo/MWS_067_2/IMG_20250902_104727  Bokkearawa spring.jpg"},"geometry":{"type":"Point","coordinates":[80.968183,6.867709]}},
{"type":"Feature","properties":{"No.":7,"GND No.":"67B","GND Name":"Bindunuwewa","Key Activities proposed for Soil and Water conservation":"1. Soil conservation practices -  Near the Naththaran Kandura (R.M. Nuwan, H.M. Kanthi, Thennakoon and Others) (45°-65°)","Priority based on Soil Erosion Hazard":"1","N":6.847139,"E":80.997629,"Quantity":"2 ha","Proposed measure/s":"1. Live fencing/SALT  - 2500 m, 2. Lock and spills - 1000 m, 3. Stone terracing - 500 m, 4. Agronomic practices should be adapted at optimum level (conservation tillage, crop rotation and diversification, cover crops, mulching, contour farming, windbreak","Uniti_Cost":"250.00 m-1, 400.00 m-1, 2500.00 m-1","Total_Cost":1700000,"Contribution (Local Community, LA, and the project)":"Labour and other basic services by the Local community","Time frame for the implementation":"0.25 Years","photopath":"https://raw.githubusercontent.com/MWS003-GIS/MWS003-GIS.github.io/main/IWWRMP/Data/EXD/200_photo/MWS_067_2/Sloping Land (H.M.Kanthi).jpg"},"geometry":{"type":"Point","coordinates":[80.997629,6.847139]}},
{"type":"Feature","properties":{"No.":8,"GND No.":"67B","GND Name":"Bindunuwewa","Key Activities proposed for Soil and Water conservation":"2. Soil conservation practices -  R.M. Janaki's land and surrounding lands (45°-60°)","Priority based on Soil Erosion Hazard":"1","N":6.846169,"E":80.996584,"Quantity":"1.5 ha","Proposed measure/s":"1. Live fencing/SALT  - 2500 m, 2. Lock and spills - 1000 m, 3. Stone terracing - 500 m, 4. Agronomic practices should be adapted at optimum level (conservation tillage, crop rotation and diversification, cover crops, mulching, contour farming, windbreak","Uniti_Cost":"250.00 m-1, 400.00 m-1, 2500.00 m-1","Total_Cost":975000,"Contribution (Local Community, LA, and the project)":"Labour and other basic services by the Local community","Time frame for the implementation":"0.25 Years","photopath":"https://raw.githubusercontent.com/MWS003-GIS/MWS003-GIS.github.io/main/IWWRMP/Data/EXD/200_photo/MWS_067_2/Sloping Land (R.M.Janaki).jpg"},"geometry":{"type":"Point","coordinates":[80.996584,6.846169]}},
{"type":"Feature","properties":{"No.":9,"GND No.":"67B","GND Name":"Bindunuwewa","Key Activities proposed for Soil and Water conservation":"3. Soil conservation practices -  Near the Dikulpatha Kandura Leela Rupasinghe, Anula Rathnayake and Others) (40°-65°)","Priority based on Soil Erosion Hazard":"-","N":6.845245,"E":81.007217,"Quantity":"2.5 ha","Proposed measure/s":"1. Live fencing/SALT  - 2500 m, 2. Lock and spills - 1000 m, 3. Stone terracing - 500 m, 4. Agronomic practices should be adapted at optimum level (conservation tillage, crop rotation and diversification, cover crops, mulching, contour farming, windbreak","Uniti_Cost":"250.00 m-1, 400.00 m-1, 2500.00 m-1","Total_Cost":1825000,"Contribution (Local Community, LA, and the project)":"Labour and other basic services by the Local community","Time frame for the implementation":"0.25 Years","photopath":"https://raw.githubusercontent.com/MWS003-GIS/MWS003-GIS.github.io/main/IWWRMP/Data/EXD/200_photo/MWS_067_2/Sloping land (Leela Rupasinghe).jpg"},"geometry":{"type":"Point","coordinates":[81.007217,6.845245]}},
{"type":"Feature","properties":{"No.":10,"GND No.":"67H","GND Name":"Diganathenna","Key Activities proposed for Soil and Water conservation":"1. Soil conservation practices -  Vegetables cultivated lands (45°-55°)","Priority based on Soil Erosion Hazard":"1","N":6.858641,"E":80.967715,"Quantity":"6 ha","Proposed measure/s":"1. Live fencing/SALT  - 2500 m, 2. Lock and spills - 1000 m, 3. Stone terracing - 500 m, 4. Agronomic practices should be adapted at optimum level (conservation tillage, crop rotation and diversification, cover crops, mulching, contour farming, windbreak","Uniti_Cost":"250.00 m-1, 400.00 m-1, 2500.00 m-1","Total_Cost":3900000,"Contribution (Local Community, LA, and the project)":"Labour and other basic services by the Local community","Time frame for the implementation":"0.25 Years","photopath":"https://raw.githubusercontent.com/MWS003-GIS/MWS003-GIS.github.io/main/IWWRMP/Data/EXD/200_photo/MWS_067_2/IMG_20250903_133749 Vegitable cultivated land.jpg"},"geometry":{"type":"Point","coordinates":[80.967715,6.858641]}}
]}