{
  "type": "FeatureCollection",
  "name": "MI",
  "crs": {
    "type": "name",
    "properties": {
      "name": "urn:ogc:def:crs:OGC:1.3:CRS84"
    }
  },
  "features": [
    {
      "type": "Feature",
      "properties": {
        "No": 1,
        "GND No.": 512,
        "Scheme": "Heenatiwela Canal",
        "N": 7.076001,
        "E": 80.790928,
        "Observation": " The canal is dilapidated, and seepages occur (L- 1km) towards the field side.",
        "Description": "Canal reservation protection by concrete lining For 100mm thick, 0.4m wide and 0.3m high canal -single banking\nStream / canal reservation protection by earth filling of  strip   of 1.5m to 2m wide  and average Depth of 0.5m, Turfing to new sloping  soil surface (DAD  D 01) or planting  single row of vetiver grass with ecofriendly edible plants like Gotukola, Mukunuwenna, Thampala etc including application of compost manure and 02 months maintenance\nVegetative cover improving (1.5m-2.0m wide) with Areca nut seedlings @ 1.5m spacing in two rows, Beetle creeper VP @ 3m spacing in a single row, Green gram as a cover crop including applying of compost manure, NPK fertilizer and maintenance",
        "Amount (Rs.)": "1,171,825",
        "photopath": "https://raw.githubusercontent.com/MWS003-GIS/MWS003-GIS.github.io/main/IWWRMP/Data/EXD/200_photo/MWS_021_2/V (04)5.jpg"
      },
      "geometry": {
        "type": "Point",
        "coordinates": [
          80.790928,
          7.076001
        ]
      }
    },
    {
      "type": "Feature",
      "properties": {
        "No": 2,
        "GND No.": 512,
        "Scheme": "Canal flows to Lunugala Digaredda (?????? ??? ?????? ?? ??)",
        "N": 7.075784,
        "E": 80.790494,
        "Observation": " The capacity of the canal is insufficient to distribute water.",
        "Description": "Canals reservation protection by concrete lining for 100mm thick, 0.3m wide  and 0.3m high canal -double banking\nStream / canal reservation protection by earth filling of strip   of 1.5m to 2m wide and average Depth of 0.5m, Turfing to new sloping soil surface (DAD D 01) or planting  single row of vetiver grass with ecofriendly edible plants like Gotukola, Mukunuwenna, Thampala etc including application of compost manure and 02 months maintenance\nVegetative cover improving (1.5m-2.0m wide) with Areca nut seedlings @ 1.5m spacing in two rows, Beetle creeper VP @ 3m spacing in a single row, Green gram as a cover crop including applying of compost manure, NPK fertilizer and maintenance",
        "Amount (Rs.)": "939,575",
        "photopath": "https://raw.githubusercontent.com/MWS003-GIS/MWS003-GIS.github.io/main/IWWRMP/Data/EXD/200_photo/MWS_021_2/V (04)1.jpg"
      },
      "geometry": {
        "type": "Point",
        "coordinates": [
          80.790494,
          7.075784
        ]
      }
    },
    {
      "type": "Feature",
      "properties": {
        "No": 3,
        "GND No.": 512,
        "Scheme": "Canal flows to Digaredda Kotumulla",
        "N": 7.075784,
        "E": 80.790494,
        "Observation": " The capacity of the canal is insufficient to distribute water.",
        "Description": "Canals reservation protection by concrete lining for 100mm thick, 0.3m  wide  and 0.3m high canal -double banking\nStream / canal reservation protection by earth filling of strip   of 1.5m to 2m wide and average Depth of 0.5m, Turfing to new sloping  soil surface (DAD  D 01) or planting  single row of vetiver grass with ecofriendly edible plants like Gotukola, Mukunuwenna, Thampala etc including application of compost manure and 02 months maintenance\nVegetative cover improving (1.5m-2.0m wide) with Areca nut seedlings @ 1.5m spacing in two rows, Beetle creeper VP @ 3m spacing in a single row, Green gram as a cover crop including applying of compost manure, NPK fertilizer and maintenance",
        "Amount (Rs.)": "939,575",
        "photopath": "https://raw.githubusercontent.com/MWS003-GIS/MWS003-GIS.github.io/main/IWWRMP/Data/EXD/200_photo/MWS_021_2/V (04)6.jpg"
      },
      "geometry": {
        "type": "Point",
        "coordinates": [
          80.790494,
          7.075784
        ]
      }
    },
    {
      "type": "Feature",
      "properties": {
        "No": 4,
        "GND No.": 512,
        "Scheme": "Maha Ela",
        "N": 7.07286,
        "E": 80.789998,
        "Observation": " Erosion of the canal. (60 )",
        "Description": "Canals reservation protection by concrete lining for 100mm thick, 0.3m wide and 0.3m high canal -double banking\nStream / canal reservation protection by earth filling of strip of 1.5m to 2m wide and average Depth of 0.5m, Turfing to new sloping soil surface (DAD  D 01) or planting  single row of vetiver grass with ecofriendly edible plants like Gotukola, Mukunuwenna, Thampala etc including application of compost manure and 02 months maintenance\nVegetative cover improving (1.5m-2.0m wide) with Areca nut seedlings @ 1.5m spacing in two rows, Beetle creeper VP @ 3m spacing in a single row, Green gram as a cover crop including applying of compost manure, NPK fertilizer and maintenance",
        "Amount (Rs.)": "423,900",
        "photopath": "https://raw.githubusercontent.com/MWS003-GIS/MWS003-GIS.github.io/main/IWWRMP/Data/EXD/200_photo/MWS_021_2/V (04)4.jpg"
      },
      "geometry": {
        "type": "Point",
        "coordinates": [
          80.789998,
          7.07286
        ]
      }
    },
    {
      "type": "Feature",
      "properties": {
        "No": 5,
        "GND No.": 512,
        "Scheme": "Meda Ela of Udaarawa",
        "N": 7.072667,
        "E": 80.790755,
        "Observation": " Seepages towards the field side. ",
        "Description": "Canals reservation protection by concrete lining for  100mm thick, 0.3m  wide  and 0.3m high canal -double banking\nStream / canal reservation protection by earth filling of  strip   of 1.5m to 2m wide  and average Depth of 0.5m, Turfing to new sloping  soil surface (DAD  D 01) or planting  single row of vetiver grass with ecofriendly edible plants like Gotukola, Mukunuwenna, Thampala etc including application of compost manure and 02 months maintenance\nVegetative cover improving (1.5m-2.0m wide) with Areca nut seedlings @ 1.5m spacing in two rows, Beetle creeper VP @ 3m spacing in a single row, Green gram as a cover crop including applying of compost manure, NPK fertilizer and maintenance",
        "Amount (Rs.)": "469,787",
        "photopath": "https://raw.githubusercontent.com/MWS003-GIS/MWS003-GIS.github.io/main/IWWRMP/Data/EXD/200_photo/MWS_021_2/V (01)2.jpg"
      },
      "geometry": {
        "type": "Point",
        "coordinates": [
          80.790755,
          7.072667
        ]
      }
    },
    {
      "type": "Feature",
      "properties": {
        "No": 6,
        "GND No.": 512,
        "Scheme": "Naaya Ela of Viharakumbura Ihala",
        "N": 7.072157,
        "E": 80.790728,
        "Observation": " The canal is blocked due to silting. (400m)",
        "Description": "Removing silt from canal bed depth up to 9\"-18\"\nCanal reservation protection by concrete lining For 100mm thick, 0.4m wide and 0.3m high canal -single banking\nVegetative cover improving (1.5m-2.0m wide) with Areca nut seedlings @ 1.5m spacing in two rows, Beetle creeper VP @ 3m spacing in a single row, Green gram as a cover crop including applying of compost manure, NPK fertilizer and maintenance",
        "Amount (Rs.)": "553,000",
        "photopath": "https://raw.githubusercontent.com/MWS003-GIS/MWS003-GIS.github.io/main/IWWRMP/Data/EXD/200_photo/MWS_021_2/V (05)3.jpg"
      },
      "geometry": {
        "type": "Point",
        "coordinates": [
          80.790728,
          7.072157
        ]
      }
    }
  ]
}