{
  "type": "FeatureCollection",
  "name": "SWC_ON",
  "crs": {
    "type": "name",
    "properties": {
      "name": "urn:ogc:def:crs:OGC:1.3:CRS84"
    }
  },
  "features": [
    {
      "type": "Feature",
      "properties": {
        "No.": 3,
        "GND No.": 512,
        "GND Name": "Wellagiriya",
        "Key Activities proposed for Soil and Water conservation": "3. Soil conservation practices - Etamagodawatta (65?)",
        "Priority based on Soil Erosion Hazard": 4,
        "N": 7.073599,
        "E": 80.78923,
        "Quantity": "4 ha",
        "Proposed measure/s": "Live fencing/SALT\nStone terracing/lock and spills, as applied",
        "Uniti_Cost": "250.00 m-1",
        "Total_Cost": "1,000,000.00",
        "Contribution (Local Community, LA, and the project)": "Labour and other basic services by the Local community/ Shramadana",
        "Time frame for the implementation": "0.5 Years",
        "photopath": "https://raw.githubusercontent.com/MWS003-GIS/MWS003-GIS.github.io/main/IWWRMP/Data/EXD/200_photo/MWS_021_2/V (05)1.jpg"
      },
      "geometry": {
        "type": "Point",
        "coordinates": [
          80.78923,
          7.073599
        ]
      }
    },
    {
      "type": "Feature",
      "properties": {
        "No.": 4,
        "GND No.": 512,
        "GND Name": "Wellagiriya",
        "Key Activities proposed for Soil and Water conservation": "4. Soil conservation practices - Udaarawa (70?)",
        "Priority based on Soil Erosion Hazard": 2,
        "N": 7.072729,
        "E": 80.790123,
        "Quantity": "8 ha",
        "Proposed measure/s": "Live fencing/SALT\nStone terracing/lock and spills, as applied",
        "Uniti_Cost": "250.00 m-1",
        "Total_Cost": "2,000,000.00",
        "Contribution (Local Community, LA, and the project)": "Labour and other basic services by the Local community/ Shramadana",
        "Time frame for the implementation": "0.5 Years",
        "photopath": "https://raw.githubusercontent.com/MWS003-GIS/MWS003-GIS.github.io/main/IWWRMP/Data/EXD/200_photo/MWS_021_2/M (05)2.jpg"
      },
      "geometry": {
        "type": "Point",
        "coordinates": [
          80.790123,
          7.072729
        ]
      }
    },
    {
      "type": "Feature",
      "properties": {
        "No.": 5,
        "GND No.": 512,
        "GND Name": "Wellagiriya",
        "Key Activities proposed for Soil and Water conservation": "5. Soil conservation practices - Udaarawa (70?)",
        "Priority based on Soil Erosion Hazard": 5,
        "N": 7.072157,
        "E": 80.790728,
        "Quantity": "3 ha",
        "Proposed measure/s": "Live fencing/SALT\nStone terracing/lock and spills, as applied",
        "Uniti_Cost": "250.00 m-1",
        "Total_Cost": "750,000.00",
        "Contribution (Local Community, LA, and the project)": "Labour and other basic services by the Local community/ Shramadana",
        "Time frame for the implementation": "0.5 Years",
        "photopath": "Not_Available"
      },
      "geometry": {
        "type": "Point",
        "coordinates": [
          80.790728,
          7.072157
        ]
      }
    }
  ]
}