{
  "type": "FeatureCollection",
  "name": "SWC_OFF",
  "crs": {
    "type": "name",
    "properties": {
      "name": "urn:ogc:def:crs:OGC:1.3:CRS84"
    }
  },
  "features": [
    {
      "type": "Feature",
      "properties": {
        "No.": 1,
        "GND No.": 512,
        "GND Name": "Wellagiriya",
        "Key Activities proposed for Soil and Water conservation": "1. Renovation of natural drains - Belihul Oya",
        "Priority based on Soil Erosion Hazard": 5,
        "N": 7.08509,
        "E": 80.78712,
        "Quantity": "1 km",
        "Proposed measure/s": "Clearing and planting some trees along the banks (Areca nut) and other conservation practices",
        "Total_Cost": "100,000.00",
        "Contribution (Local Community, LA, and the project)": "Labour and other basic services by the Local community/ Shramadana",
        "Time frame for the implementation": "0.5 Years",
        "photopath": "https://raw.githubusercontent.com/MWS003-GIS/MWS003-GIS.github.io/main/IWWRMP/Data/EXD/200_photo/MWS_021_2/V (04)5.jpg"
      },
      "geometry": {
        "type": "Point",
        "coordinates": [
          80.78712,
          7.08509
        ]
      }
    },
    {
      "type": "Feature",
      "properties": {
        "No.": 2,
        "GND No.": 512,
        "GND Name": "Wellagiriya",
        "Key Activities proposed for Soil and Water conservation": "2. Renovation of natural drains - Hawariella Oya",
        "Priority based on Soil Erosion Hazard": 5,
        "N": 7.067708,
        "E": 80.786231,
        "Quantity": "1 km",
        "Proposed measure/s": "Clearing and planting some trees along the banks (Areca nut) and other conservation practices",
        "Total_Cost": "100,000.00",
        "Contribution (Local Community, LA, and the project)": "Labour and other basic services by the Local community/ Shramadana",
        "Time frame for the implementation": "0.5 Years",
        "photopath": "https://raw.githubusercontent.com/MWS003-GIS/MWS003-GIS.github.io/main/IWWRMP/Data/EXD/200_photo/MWS_021_2/V (04)4.jpg"
      },
      "geometry": {
        "type": "Point",
        "coordinates": [
          80.786231,
          7.067708
        ]
      }
    }
  ]
}