{
"type": "FeatureCollection",
"name": "WSP",
"crs": { "type": "name", "properties": { "name": "urn:ogc:def:crs:OGC:1.3:CRS84" } },
"features": [
{ "type": "Feature", "properties": { "No": 16, "GND No.": 477, "Name of the Tank": "Sirisamangama spring", "N": 6.873039, "E": 80.817463, "Observation": "A  Intake, Stok tank (Ground Sump) and Pump house  constructed.Located on public land. Used for drinking and bathing", "Description": "Construction of a filter tank after obtaining the NWSDB report (1.0 m x 1.0 m x 1.0 m)\n\n2\" GI Pipe (Heavy) - 2.3mm thread size\n\nProvide 50 mm Equal Tee\n\n50 x 90? G.I Bend-05\n\nConstruction of 1.5m high 1:3:6 (40mm) cement concrete Retaining Wall\n\nMiscella", "Amount (Rs.)": 451000, "photopath": "https://raw.githubusercontent.com/MWS003-GIS/MWS003-GIS.github.io/main/IWWRMP/Data/EXD/200_photo/MWS_160/IMG_20260113_114225 Sirisamangama spring.jpg" }, "geometry": { "type": "Point", "coordinates": [ 80.817463, 6.873039 ] } },
{ "type": "Feature", "properties": { "No": 17, "GND No.": 477, "Name of the Tank": "Spring near the railway", "N": 6.853581, "E": 80.828933, "Observation": "A  Intake (Ground Sump) and Pump house  constructed. Located on public land. Used for drinking and bathing", "Description": "40mm dia PvC pipe in Solvent Socket Type in PNT11-To pump house\n\n32 mm dia PvC pipe in Solvent Socket Type in PNT11-To pump house\n\n20mm dia PvC pipe in Solvent Socket Type in PNT11-To pump house\n\nMiscellaneous\n\nContingencies (10%)", "Amount (Rs.)": 312400, "photopath": "https://raw.githubusercontent.com/MWS003-GIS/MWS003-GIS.github.io/main/IWWRMP/Data/EXD/200_photo/MWS_160/IMG_20260113_122017 Spring near the railway.jpg" }, "geometry": { "type": "Point", "coordinates": [ 80.828933, 6.853581 ] } },
{ "type": "Feature", "properties": { "No": 18, "GND No.": 477, "Name of the Tank": "Catchment area on both sides of the road after the medicinal plant garden", "N": 6.86277, "E": 80.827145, "Observation": "It is a form of a natural source", "Description": "Marking Reservations\n\nContingencies (10%)", "Amount (Rs.)": 55000, "photopath": "https://raw.githubusercontent.com/MWS003-GIS/MWS003-GIS.github.io/main/IWWRMP/Data/EXD/200_photo/MWS_160/IMG_20260113_132442 Catchment area on both sides of the road after the medicinal plant garden.jpg" }, "geometry": { "type": "Point", "coordinates": [ 80.827145, 6.86277 ] } }
]
}
