{"type":"FeatureCollection","name":"DWS","crs":{"type":"name","properties":{"name":"urn:ogc:def:crs:OGC:1.3:CRS84"}},"features":[
{"type":"Feature","properties":{"No":1,"GND No.":52,"Scheme":"Karagahawela","N":6.871409,"E":80.905355,"Observation":"Build a well near the Gombendigaga Agala Wewa water source  and distribute the water by pumping it upwards.Existing stock tank size.A 20000 Lts tank has been built","Description":"Construction of Filter tank and Connecting to the storage tank\n\nConstruction of 1.0 m x 1.0 m x 1.5 m (LxWxH) filter tank with necessary parts\n\nProviding the filter media\n\nConnecting storage tank and filtering tank with necessary pipes and fittings\n\nMisc","Estimated Cost":155100,"photopath":"https://raw.githubusercontent.com/MWS003-GIS/MWS003-GIS.github.io/main/IWWRMP/Data/EXD/200_photo/MWS_056/Karagahawela Gemidiriya water project.jpg"},"geometry":{"type":"Point","coordinates":[80.905355,6.871409]}},
{"type":"Feature","properties":{"No":2,"GND No.":52,"Scheme":"Gannankumbura","N":6.876565,"E":80.90606,"Observation":"Build a well near the Meyanarawa water source  and distribute the water by pumping it upwards. Existing stock tank size.( 3.5m x 3.0 m x 1.9m )","Description":"Construction of Filter tank and Connecting to the storage tank\n\nConstruction of 1.0 m x 1.0 m x 1.5 m (LxWxH) filter tank with necessary parts\n\nProviding the filter media\n\nConnecting storage tank and filtering tank with necessary pipes and fittings\n\nMisc","Estimated Cost":155100,"photopath":"https://raw.githubusercontent.com/MWS003-GIS/MWS003-GIS.github.io/main/IWWRMP/Data/EXD/200_photo/MWS_056/Ambagahawatta water project.jpg"},"geometry":{"type":"Point","coordinates":[80.90606,6.876565]}},
{"type":"Feature","properties":{"No":3,"GND No.":52,"Scheme":"Bokotugoda","N":6.882002,"E":80.900153,"Observation":"Build a well near the Uva chennadi water source  and distribute the water by pumping it upwards. A 10000Lts tank has been built","Description":"Construction of Filter tank and Connecting to the storage tank\n\nConstruction of 1.0 m x 1.0 m x 1.5 m (LxWxH) filter tank with necessary parts\n\nProviding the filter media\n\nConnecting storage tank and filtering tank with necessary pipes and fittings\n\nMisc","Estimated Cost":155100,"photopath":"https://raw.githubusercontent.com/MWS003-GIS/MWS003-GIS.github.io/main/IWWRMP/Data/EXD/200_photo/MWS_056/Bokotugoda gemidiriya water project.jpg"},"geometry":{"type":"Point","coordinates":[80.900153,6.882002]}}
]}