{"type":"FeatureCollection","name":"SR","crs":{"type":"name","properties":{"name":"urn:ogc:def:crs:OGC:1.3:CRS84"}},"features":[
{"type":"Feature","properties":{"No":1,"GND No.":"52","Scheme":"Kuda oya","N":6.877032,"E":80.912849,"Observation":"During the rainy season when too much water flows, Bank erosion occurs.","Description":"Arrange stone packing-rubble packing-to prevent bank erosion\n\nVegetative cover improving along the river banks Areca nut seedling in 1.5m x 1.5m grid, Kumbuk/ Mee/ Godapara/ Kaduru/ Aththikka/ Wal Del/ Kekuna/ randomly mixed seedlings and planting at 3.5","Amount (Rs.)":726000,"photopath":"Not_Available"},"geometry":{"type":"Point","coordinates":[80.912849,6.877032]}},
{"type":"Feature","properties":{"No":2,"GND No.":"52","Scheme":"Galpoththa Kadura","N":6.873333,"E":80.913373,"Observation":"During the rainy season when too much water flows, Bank erosion occurs.","Description":"Arrange stone packing-rubble packing-to prevent bank erosion\n\nVegetative cover improving along the river banks Areca nut seedling in 1.5m x 1.5m grid, Kumbuk/ Mee/ Godapara/ Kaduru/ Aththikka/ Wal Del/ Kekuna/ randomly mixed seedlings and planting at 3.5","Amount (Rs.)":619300,"photopath":"Not_Available"},"geometry":{"type":"Point","coordinates":[80.913373,6.873333]}},
{"type":"Feature","properties":{"No":3,"GND No.":"59A","Scheme":"Dambavinna main canal","N":6.888805,"E":80.916492,"Observation":"Existing Earthen canal,  some places Constructed of 600mm x 600mm (width x height) rectangular concrete lining, Water from this canal is used to grow paddy on an area of about 60 acres.it is built parallel to the main canal.","Description":"Marking Reservation and remove unauthorized constructions from the reserve\n\nContingencies 10%","Amount (Rs.)":55000,"photopath":"https://raw.githubusercontent.com/MWS003-GIS/MWS003-GIS.github.io/main/IWWRMP/Data/EXD/200_photo/MWS_056/Dambavinna main canal.jpg"},"geometry":{"type":"Point","coordinates":[80.916492,6.888805]}},
{"type":"Feature","properties":{"No":4,"GND No.":"59A","Scheme":"Bridge across the Galpoththa Kadura","N":6.893071,"E":80.921578,"Observation":"There is a damage wooden bridge.3 .5 m long and 0.8m wide. The pillars are 2.5m high.","Description":"Construction of a Concrete Foot Path Bridge\n\nSite preparation & setting out\n\nEarth excavation for foundation or quarry materials and haul the surplus materials up to 30m by Manually.\n\nGround preparation and construction of concrete footings\n\nBuild reinfo","Amount (Rs.)":212300,"photopath":"https://raw.githubusercontent.com/MWS003-GIS/MWS003-GIS.github.io/main/IWWRMP/Data/EXD/200_photo/MWS_056/Wooden Bridge across the Galpoththa Kadura.jpg"},"geometry":{"type":"Point","coordinates":[80.921578,6.893071]}}
]}