{"type":"FeatureCollection","name":"WSP","crs":{"type":"name","properties":{"name":"urn:ogc:def:crs:OGC:1.3:CRS84"}},"features":[
{"type":"Feature","properties":{"No":1,"GND No.":"52","Name of the Tank":"Meeyan Arawa","N":6.877833,"E":80.90636,"Observation":"Government reserved lands","Description":"Vegetative cover improving around the reservation Areca nut seedling in 1.5m x 1.5m grid,Kumbuk/ Mee/ Godapara/ Kaduru/Aththikka/ Wal Del/ Kekuna/ randomly mixed seedling planting at 3.5m x 3.5 m grid interval\n\nMarking reservations round t","Amount (Rs.)":293700,"photopath":"https://raw.githubusercontent.com/MWS003-GIS/MWS003-GIS.github.io/main/IWWRMP/Data/EXD/200_photo/MWS_056/Miyan Arawa reservation.jpg"},"geometry":{"type":"Point","coordinates":[80.90636,6.877833]}},
{"type":"Feature","properties":{"No":2,"GND No.":"52","Name of the Tank":"Madawala spring","N":6.87706,"E":80.909929,"Observation":"Government reserved lands","Description":"Vegetative cover improving around the reservation Areca nut seedling in 1.5m x 1.5m grid,Kumbuk/ Mee/ Godapara/ Kaduru/Aththikka/ Wal Del/ Kekuna/ randomly mixed seedling planting at 3.5m x 3.5 m grid interval\n\nMarking reservations round t","Amount (Rs.)":342100,"photopath":"https://raw.githubusercontent.com/MWS003-GIS/MWS003-GIS.github.io/main/IWWRMP/Data/EXD/200_photo/MWS_056/Madawala reservation.jpg"},"geometry":{"type":"Point","coordinates":[80.909929,6.87706]}},
{"type":"Feature","properties":{"No":3,"GND No.":"52","Name of the Tank":"Muththettuwa","N":6.88173,"E":80.902596,"Observation":"Government reserved lands","Description":"Marking reservations round the land\n\nContingencies 10%","Amount (Rs.)":44000,"photopath":"https://raw.githubusercontent.com/MWS003-GIS/MWS003-GIS.github.io/main/IWWRMP/Data/EXD/200_photo/MWS_056/Muththettuwa water project.jpg"},"geometry":{"type":"Point","coordinates":[80.902596,6.88173]}},
{"type":"Feature","properties":{"No":4,"GND No.":"61A","Name of the Tank":"Getalagahabedda","N":6.853167,"E":80.900078,"Observation":"People  are settling illegally","Description":"Marking reservations round the land and remove unauthorized construction\n\nContingencies 10%","Amount (Rs.)":55000,"photopath":"https://raw.githubusercontent.com/MWS003-GIS/MWS003-GIS.github.io/main/IWWRMP/Data/EXD/200_photo/MWS_056/Getalagahabedda Reservation.jpg"},"geometry":{"type":"Point","coordinates":[80.900078,6.853167]}},
{"type":"Feature","properties":{"No":5,"GND No.":"61A","Name of the Tank":"Gonagolladowa reservation","N":6.852113,"E":80.898023,"Observation":"Government reserved lands","Description":"Vegetative cover improving around the reservation Areca nut seedling in 1.5m x 1.5m grid,Kumbuk/ Mee/ Godapara/ Kaduru/Aththikka/ Wal Del/ Kekuna/ randomly mixed seedling planting at 3.5m x 3.5 m grid interval\n\nMarking reservations round t","Amount (Rs.)":576400,"photopath":"https://raw.githubusercontent.com/MWS003-GIS/MWS003-GIS.github.io/main/IWWRMP/Data/EXD/200_photo/MWS_056/Gonagolladowa Rservation.jpg"},"geometry":{"type":"Point","coordinates":[80.898023,6.852113]}},
{"type":"Feature","properties":{"No":6,"GND No.":"61A","Name of the Tank":"Digillabedda reservation","N":6.860046,"E":80.904391,"Observation":"Government reserved lands","Description":"Vegetative cover improving around the reservation Areca nut seedling in 1.5m x 1.5m grid,Kumbuk/ Mee/ Godapara/ Kaduru/Aththikka/ Wal Del/ Kekuna/ randomly mixed seedling planting at 3.5m x 3.5 m grid interval\n\nMarking reservations round t","Amount (Rs.)":565400,"photopath":"https://raw.githubusercontent.com/MWS003-GIS/MWS003-GIS.github.io/main/IWWRMP/Data/EXD/200_photo/MWS_056/Digillabedda reservation.jpg"},"geometry":{"type":"Point","coordinates":[80.904391,6.860046]}},
{"type":"Feature","properties":{"No":7,"GND No.":"61A","Name of the Tank":"Elamuladda reservation","N":6.851448,"E":80.900631,"Observation":"Government reserved lands","Description":"Vegetative cover improving around the reservation Areca nut seedling in 1.5m x 1.5m grid,Kumbuk/ Mee/ Godapara/ Kaduru/Aththikka/ Wal Del/ Kekuna/ randomly mixed seedling planting at 3.5m x 3.5 m grid interval\n\nMarking reservations round t","Amount (Rs.)":587400,"photopath":"https://raw.githubusercontent.com/MWS003-GIS/MWS003-GIS.github.io/main/IWWRMP/Data/EXD/200_photo/MWS_056/Elabuladda reservation.jpg"},"geometry":{"type":"Point","coordinates":[80.900631,6.851448]}}
]}