{"type":"FeatureCollection","name":"Landslides","crs":{"type":"name","properties":{"name":"urn:ogc:def:crs:OGC:1.3:CRS84"}},"features":[
{"type":"Feature","properties":{"No.":12,"GN Division No.":604,"GN Division":"Meegamawatta","Landslides":"1. Erosion of the road due to Bank collapsing - \"Akkara 20\" division - area near (No. 77) Mr. Shantha's house","N":7.333715,"E":80.661994,"NBRO Recommendation N/A":"Needs NBRO concern","Proposed Measures":"Follow recommendations of NBRO, having consulted. Soil conservation practices (according to the land/ field area).","photopath":"https://raw.githubusercontent.com/MWS003-GIS/MWS003-GIS.github.io/main/IWWRMP/Data/EXD/200_photo/MWS_107_3/Near shantha house lanslide 2.jpg"},"geometry":{"type":"Point","coordinates":[80.661994,7.333715]}},
{"type":"Feature","properties":{"No.":13,"GN Division No.":604,"GN Division":"Meegamawatta","Landslides":"2. Erosion of the road due to Bank collapsing - \"Akkara 20\" division - area near (No. 71/1) Mr. Palitha's house","N":7.333614,"E":80.66099,"NBRO Recommendation N/A":"Needs NBRO concern","Proposed Measures":"Follow recommendations of NBRO, having consulted. Soil conservation practices (according to the land/ field area).","photopath":"https://raw.githubusercontent.com/MWS003-GIS/MWS003-GIS.github.io/main/IWWRMP/Data/EXD/200_photo/MWS_107_3/Near palitha house landslide.jpg"},"geometry":{"type":"Point","coordinates":[80.66099,7.333614]}},
{"type":"Feature","properties":{"No.":14,"GN Division No.":636,"GN Division":"Leemagahadeniya","Landslides":"Bank erosion - Odikumbura Paddy Field","N":7.326933,"E":80.679482,"NBRO Recommendation N/A":"Needs NBRO concern","Proposed Measures":"Follow recommendations of NBRO having consulted. Provide 600 mm * 600 mm U-drains for 200 m long for necessary places and plant arecanut plants in reservation area.","photopath":"https://raw.githubusercontent.com/MWS003-GIS/MWS003-GIS.github.io/main/IWWRMP/Data/EXD/200_photo/MWS_107_3/Leemagahadeniya canal.jpg"},"geometry":{"type":"Point","coordinates":[80.679482,7.326933]}}
]}