{"type":"FeatureCollection","name":"MI","crs":{"type":"name","properties":{"name":"urn:ogc:def:crs:OGC:1.3:CRS84"}},"features":[
{"type":"Feature","properties":{"No":1,"GND No.":594,"Scheme":"Currently a Drain( Delgahalanda )","N":7.351268,"E":80.677584,"Observation":"Abandoned conditions, no water flow and clear water path but about 6 ac is cultivated when water is avilable better is could make when there is high rainfall large water flow is going trough .there are two side of the canal to be repair","Description":"Canal Protection works\n\nCanals reservation protection by concrete lining - 150mm thick , 0.6m  wide  and 0.5m high canal -double banking (U - section)\n\nStream / canal  reservation protection by earthfilling of  strip   of 1.5m to 2m wide  and average Dep","Amount (Rs.)":1976700,"photopath":"https://raw.githubusercontent.com/MWS003-GIS/MWS003-GIS.github.io/main/IWWRMP/Data/EXD/200_photo/MWS_107_3/Delagahalanda canal.jpg"},"geometry":{"type":"Point","coordinates":[80.677584,7.351268]}},
{"type":"Feature","properties":{"No":2,"GND No.":611,"Scheme":"Pepole Yaya canal of Sapugahayaya","N":7.343279,"E":80.651423,"Observation":"highly polluted when there is high water flow and water is going throgh paddy field .no paddy ciltivation is done in nearby paddy land","Description":"Canal Protection works\n\nCleaning and deepening tha canal where necessary.\n\nStream / canal  reservation protection by earthfilling of  strip   of 1.5m to 2m wide  and average Depth of 0.5m\n\nVegetative cover improving for narrow strips (1.5m-2.0m wide) wit","Amount (Rs.)":377300,"photopath":"https://raw.githubusercontent.com/MWS003-GIS/MWS003-GIS.github.io/main/IWWRMP/Data/EXD/200_photo/MWS_107_3/Pepole yaya.jpg"},"geometry":{"type":"Point","coordinates":[80.651423,7.343279]}},
{"type":"Feature","properties":{"No":3,"GND No.":611,"Scheme":"Pahatha Bendi Kara Yaya canal","N":7.332007,"E":80.653573,"Observation":"polluted the the canal heavly with the waste.and severely eroded the canal pathway due to high water flow","Description":"Canal Protection works\n\nCanal reservation protection by concrete lining  For  100 mm thick , 300 mm  wide  and 300 mm high canal -double banking\n\nStream / canal  reservation protection by earthfilling of  strip   of 1.5m to 2m wide  and average Depth of","Amount (Rs.)":1536700,"photopath":"https://raw.githubusercontent.com/MWS003-GIS/MWS003-GIS.github.io/main/IWWRMP/Data/EXD/200_photo/MWS_107_3/Pathabedikara canal.jpg"},"geometry":{"type":"Point","coordinates":[80.653573,7.332007]}},
{"type":"Feature","properties":{"No":4,"GND No.":635,"Scheme":"Galu Anga Yaya canal","N":7.320086,"E":80.669921,"Observation":"Canal is damaged and blocked in many places.","Description":"Canal Protection works\n\nCanals reservation protection by concrete lining - 150mm thick , 0.6m  wide  and 0.5m high canal -double banking (U - section)\n\nStream / canal  reservation protection by earthfilling of  strip   of 1.5m to 2.0 m wide  and average","Amount (Rs.)":1560900,"photopath":"https://raw.githubusercontent.com/MWS003-GIS/MWS003-GIS.github.io/main/IWWRMP/Data/EXD/200_photo/MWS_107_3/Galu Anga Yaya canal.jpg"},"geometry":{"type":"Point","coordinates":[80.669921,7.320086]}},
{"type":"Feature","properties":{"No":5,"GND No.":635,"Scheme":"Alugolla Yaya canal","N":7.321699,"E":80.672416,"Observation":"Canal is damaged and blocked. There is place where there is a damaged 2ft culvert.","Description":"1.Canal Protection works\n\nCanals reservation protection by concrete lining - 150mm thick , 0.6m  wide  and 0.5m high canal -double banking (U - section)\n\nStream / canal  reservation protection by earthfilling of  strip   of 1.5m to 2.0 m wide  and averag","Amount (Rs.)":2480500,"photopath":"https://raw.githubusercontent.com/MWS003-GIS/MWS003-GIS.github.io/main/IWWRMP/Data/EXD/200_photo/MWS_107_3/Alugolla Yaya canal.jpg"},"geometry":{"type":"Point","coordinates":[80.672416,7.321699]}},
{"type":"Feature","properties":{"No":6,"GND No.":636,"Scheme":"Gedara Welyaya canal","N":7.321415,"E":80.678712,"Observation":"Canal has been damaged and blocked in several places so water flows through paddy fields and ssand accmilation happpens.","Description":"Canal Protection works\n\nCanals reservation protection by concrete lining - 150mm thick , 0.6m  wide  and 0.5m high canal -double banking (U - section)\n\nStream / canal  reservation protection by earthfilling of  strip   of 1.5m to 2.0 m wide  and average","Amount (Rs.)":1838100,"photopath":"https://raw.githubusercontent.com/MWS003-GIS/MWS003-GIS.github.io/main/IWWRMP/Data/EXD/200_photo/MWS_107_3/Gedara Welyaya canal.jpg"},"geometry":{"type":"Point","coordinates":[80.678712,7.321415]}},
{"type":"Feature","properties":{"No":7,"GND No.":636,"Scheme":"Dalukgaha Peela","N":7.322083,"E":80.680045,"Observation":"Canal path has been changed due to blockages of the original path and canal banks are damaged.","Description":"Canal Protection works\n\nCanal reservation protection by concrete lining  For  100 mm thick , 300 mm  wide  and 300 mm high canal -double banking\n\nStream / canal  reservation protection by earthfilling of  strip   of 1.5m to 2m wide  and average Depth of","Amount (Rs.)":1675300,"photopath":"https://raw.githubusercontent.com/MWS003-GIS/MWS003-GIS.github.io/main/IWWRMP/Data/EXD/200_photo/MWS_107_3/Dalukgaha Peela.jpg"},"geometry":{"type":"Point","coordinates":[80.680045,7.322083]}},
{"type":"Feature","properties":{"No":8,"GND No.":636,"Scheme":"Leemagahadeniya canal","N":7.3278,"E":80.682419,"Observation":"Canal path has been changed due to blockages of the original path and canal banks are damaged.","Description":"Canal Protection works\n\nCanal reservation protection by concrete lining  For  100 mm thick , 300 mm  wide  and 300 mm high canal -double banking\n\nStream / canal  reservation protection by earthfilling of  strip   of 1.5m to 2m wide  and average Depth of","Amount (Rs.)":1675300,"photopath":"https://raw.githubusercontent.com/MWS003-GIS/MWS003-GIS.github.io/main/IWWRMP/Data/EXD/200_photo/MWS_107_3/Leemagahadeniya canal.jpg"},"geometry":{"type":"Point","coordinates":[80.682419,7.3278]}},
{"type":"Feature","properties":{"No":9,"GND No.":640,"Scheme":"Canals and the anicut of Denikotuwa Yaya","N":7.327627,"E":80.681365,"Observation":"Canal banks are eroded and has blockages. No protective plants in reservation area.","Description":"Canal Protection works\n\nCanal reservation protection by concrete lining  For  100 mm thick , 300 mm  wide  and 300 mm high canal -double banking\n\nStream / canal  reservation protection by earthfilling of  strip   of 1.5m to 2m wide  and average Depth of","Amount (Rs.)":1536700,"photopath":"https://raw.githubusercontent.com/MWS003-GIS/MWS003-GIS.github.io/main/IWWRMP/Data/EXD/200_photo/MWS_107_3/Canals and the anicut of Denikotuwa Yaya.jpg"},"geometry":{"type":"Point","coordinates":[80.681365,7.327627]}},
{"type":"Feature","properties":{"No":10,"GND No.":640,"Scheme":"Millanga anicut and canals","N":7.334149,"E":80.674457,"Observation":"no canal aligning for 400m distance. No protective plants in reservation.","Description":"Canal Protection works\n\nCanals reservation protection by concrete lining - 150mm thick , 0.6m  wide  and 0.5m high canal -double banking (U - section)\n\nStream / canal  reservation protection by earthfilling of  strip   of 1.5m to 2.0 m wide  and average","Amount (Rs.)":1838100,"photopath":"https://raw.githubusercontent.com/MWS003-GIS/MWS003-GIS.github.io/main/IWWRMP/Data/EXD/200_photo/MWS_107_3/Millanga anicut and canals.jpg"},"geometry":{"type":"Point","coordinates":[80.674457,7.334149]}},
{"type":"Feature","properties":{"No":11,"GND No.":640,"Scheme":"Uuradeniya Yaya","N":7.333302,"E":80.682631,"Observation":"Canal path has been changed due to blockages of the original path and canal banks are damaged.","Description":"Canal Protection works\n\nCanals reservation protection by concrete lining - 150mm thick , 0.6m  wide  and 0.5m high canal -double banking (U - section)\n\nStream / canal  reservation protection by earthfilling of  strip   of 1.5m to 2.0 m wide  and average","Amount (Rs.)":1976700,"photopath":"https://raw.githubusercontent.com/MWS003-GIS/MWS003-GIS.github.io/main/IWWRMP/Data/EXD/200_photo/MWS_107_3/Uuradeniya Yaya.jpg"},"geometry":{"type":"Point","coordinates":[80.682631,7.333302]}}
]}