{"type":"FeatureCollection","name":"SWC_OFF","crs":{"type":"name","properties":{"name":"urn:ogc:def:crs:OGC:1.3:CRS84"}},"features":[
{"type":"Feature","properties":{"No.":7,"GND No.":635,"GND Name":"Abasingama","Key Activities proposed for Soil and Water conservation":"Establishing a concrete dranage","Priority based on Soil Erosion Hazard":1,"N":7.322538,"E":80.673754,"Quantity":"4 m","Proposed measure/s":"Concrete Drain","Total_Cost":242000,"Contribution (Local Community, LA, and the project)":"By the project","Time frame for the implementation":"0.25 Years","photopath":"Not_Available"},"geometry":{"type":"Point","coordinates":[80.673754,7.322538]}}
]}