{"type":"FeatureCollection","name":"Landslides","crs":{"type":"name","properties":{"name":"urn:ogc:def:crs:OGC:1.3:CRS84"}},"features":[
{"type":"Feature","properties":{"No.":3,"GN Division No.":"55 A","GN Division":"Pallegama","Landslides":"Landsliding - Road to Ariyathenna Village","N":6.913189,"E":80.959832,"NBRO Recommendation N/A":"Needs the concern of NBRO","Proposed Measures":"4 m long and 3 m hight retaining wall should be built. Construction of 100 m long 300 mm x 300 mm (width x height) rectangular concrete with wall thickness 100 mm canal would be needed under the permission of Malwatwa Plantation","photopath":"https://raw.githubusercontent.com/MWS003-GIS/MWS003-GIS.github.io/main/IWWRMP/Data/EXD/200_photo/MWS_069/IMG_20250925_122250 Ariyathenna village road.jpg"},"geometry":{"type":"Point","coordinates":[80.959832,6.913189]}},
{"type":"Feature","properties":{"No.":2,"GN Division No.":"55 A","GN Division":"Pallegama","Landslides":null,"N":6.912695,"E":80.960111,"NBRO Recommendation N/A":null,"Proposed Measures":null,"photopath":"Not_Available"},"geometry":{"type":"Point","coordinates":[80.960111,6.912695]}},
{"type":"Feature","properties":{"No.":4,"GN Division No.":"55D","GN Division":"Pahamunuthota","Landslides":"Landsliding - Pahamunuthota","N":6.954141,"E":80.970358,"NBRO Recommendation N/A":"NBRO is aware","Proposed Measures":"Follow the recommendations of NBRO","photopath":"https://raw.githubusercontent.com/MWS003-GIS/MWS003-GIS.github.io/main/IWWRMP/Data/EXD/200_photo/MWS_069/IMG_20250924_121707 Earth slip land.jpg"},"geometry":{"type":"Point","coordinates":[80.970358,6.954141]}}
]}