{"type":"FeatureCollection","name":"SWC_OFF","crs":{"type":"name","properties":{"name":"urn:ogc:def:crs:OGC:1.3:CRS84"}},"features":[
{"type":"Feature","properties":{"No.":3,"GND No.":"55 A","GND Name":"Pallegama","Key Activities proposed for Soil and Water conservation":"1. Establishing a retaining wall - Road to Ariyathenna Village","Priority based on Soil Erosion Hazard":1,"N":6.913189,"E":80.959832,"Quantity":"4 m x 3 m","Proposed measure/s":"Retaining Wall (Concrete)","Total_Cost":473000,"Contribution (Local Community, LA, and the project)":"By the project","Time frame for the implementation":"0.25 Years","photopath":"https://raw.githubusercontent.com/MWS003-GIS/MWS003-GIS.github.io/main/IWWRMP/Data/EXD/200_photo/MWS_069/IMG_20250925_122250 Ariyathenna village road.jpg"},"geometry":{"type":"Point","coordinates":[80.959832,6.913189]}}
]}