{"type":"FeatureCollection","name":"WP","crs":{"type":"name","properties":{"name":"urn:ogc:def:crs:OGC:1.3:CRS84"}},"features":[
{"type":"Feature","properties":{"No.":1,"GND No.":"55","GN Division":"Ettampitiya","Non-point sources of pollution":"Informal disposal of houshold wastes/garbage","N":6.934837,"E":80.993716,"Point sources of pollution":"-","Add. N ":"-","Add. E ":"-","Recommended water quality improvement measures":"Preparing a separate place in homegardens for disposing houshold waste/ Awareness programme on how to disposal household waste properly and converting them to usable products such as compost/ Facilitating garbage collection","Unit Cost (Rs.)":null,"Total Cost (Rs.)":50000,"Contributions (Local Community, LA, Project)":"Local/Central governments","Time frame for the implementation":"0.5 Years","photopath":"https://raw.githubusercontent.com/MWS003-GIS/MWS003-GIS.github.io/main/IWWRMP/Data/EXD/200_photo/MWS_069/IMG_20250916_095456 Kotugodalla Reserve Garbage dump location.jpg"},"geometry":{"type":"Point","coordinates":[80.993716,6.934837]}},
{"type":"Feature","properties":{"No.":3,"GND No.":"55 A","GN Division":"Pallegama","Non-point sources of pollution":"Informal disposal of houshold wastes/garbage","N":6.913505,"E":80.958757,"Point sources of pollution":"-","Add. N ":"-","Add. E ":"-","Recommended water quality improvement measures":"Preparing a separate place in homegardens for disposing houshold waste/ Awareness programme on how to disposal household waste properly and converting them to usable products such as compost/ Facilitating garbage collection","Unit Cost (Rs.)":null,"Total Cost (Rs.)":50000,"Contributions (Local Community, LA, Project)":"Local/Central governments","Time frame for the implementation":"0.5 Years","photopath":"https://raw.githubusercontent.com/MWS003-GIS/MWS003-GIS.github.io/main/IWWRMP/Data/EXD/200_photo/MWS_069/IMG_20250925_123759 Garbage dump location.jpg"},"geometry":{"type":"Point","coordinates":[80.958757,6.913505]}}
]}