{"type":"FeatureCollection","name":"MI","crs":{"type":"name","properties":{"name":"urn:ogc:def:crs:OGC:1.3:CRS84"}},"features":[
{"type":"Feature","properties":{"No":1,"GND No.":623,"Scheme":"Bollegoda Paddy Land","N":7.347868,"E":80.616214,"Observation":"Canal bands are damaged. 20 acres of paddy land.","Description":"Canal Protection works\n\nCanals reservation protection by concrete lining - 150mm thick , 0.6m  wide  and 0.5m high canal -double banking (U - section)\n\nStream / canal  reservation protection by earthfilling of  strip   of 1.5m to 2.0 m wide  and average","Amount (Rs.)":1560900,"photopath":"https://raw.githubusercontent.com/MWS003-GIS/MWS003-GIS.github.io/main/IWWRMP/Data/EXD/200_photo/MWS_108_3/bollegoda yaya canal (3).jpg"},"geometry":{"type":"Point","coordinates":[80.616214,7.347868]}},
{"type":"Feature","properties":{"No":2,"GND No.":630,"Scheme":"Kendaliyadda Canal Line","N":7.354855,"E":80.631131,"Observation":"15 acres of paddy land. The canal bunds are heavily damaged.","Description":"Construction of a Retaining wall of Height 2.1 m.\n\nConstruction of 2.1m high 1:3:6 (40mm) cement concrete Retaining Wall \n\nStream / canal  reservation protection by earthfilling of  strip   of 1.5m to 2.0 m wide  and average Depth of 0.5m\n\nVegetative cov","Amount (Rs.)":4065600,"photopath":"https://raw.githubusercontent.com/MWS003-GIS/MWS003-GIS.github.io/main/IWWRMP/Data/EXD/200_photo/MWS_108_3/kandaliyadda canal (1).jpg"},"geometry":{"type":"Point","coordinates":[80.631131,7.354855]}},
{"type":"Feature","properties":{"No":3,"GND No.":630,"Scheme":"Naththaramhenayaye Canal","N":7.354935,"E":80.62158,"Observation":"The canal banks are damaged.","Description":"Construction of a Retaining wall of Height 1.8 m.\n\nConstruction of 1.8m high 1:3:6 (40mm) cement concrete Retaining Wall \n\nStream / canal  reservation protection by earthfilling of  strip   of 1.5m to 2.0 m wide  and average Depth of 0.5m\n\nVegetative cov","Amount (Rs.)":2770900,"photopath":"https://raw.githubusercontent.com/MWS003-GIS/MWS003-GIS.github.io/main/IWWRMP/Data/EXD/200_photo/MWS_108_3/naththrampathayaye canal (1).jpg"},"geometry":{"type":"Point","coordinates":[80.62158,7.354935]}},
{"type":"Feature","properties":{"No":4,"GND No.":631,"Scheme":"Canal near to Girakaduwa Saranatha Temple to Piga Oya","N":7.354891,"E":80.616908,"Observation":"During the rainy season, the temple floded in water.","Description":"Construction of a Retaining wall of Height 2.5 m.\n\nConstruction of 2.5m high 1:3:6 (40mm) cement concrete Retaining Wall \n\nStream / canal  reservation protection by earthfilling of  strip   of 1.5m to 2.0 m wide  and average Depth of 0.5m\n\nVegetative cov","Amount (Rs.)":4279000,"photopath":"https://raw.githubusercontent.com/MWS003-GIS/MWS003-GIS.github.io/main/IWWRMP/Data/EXD/200_photo/MWS_108_3/girakaduwa temple piga canal (3).jpg"},"geometry":{"type":"Point","coordinates":[80.616908,7.354891]}}
]}