{
"type": "FeatureCollection",
"name": "WSP",
"crs": { "type": "name", "properties": { "name": "urn:ogc:def:crs:OGC:1.3:CRS84" } },
"features": [
{ "type": "Feature", "properties": { "No": 1, "GND No.": 629, "Name of the Tank": "Common Well", "N": 7.354891, "E": 80.616908, "Observation": "There are some leakage conditions in the well, 150 families use this well", "Description": "Concrete the well and construct proper drainage system\nContingencies (10%)", "Amount (Rs.)": 88000, "photopath": "https://raw.githubusercontent.com/MWS003-GIS/MWS003-GIS.github.io/main/IWWRMP/Data/EXD/200_photo/MWS_108_3/ambathanna well (3).jpg" }, "geometry": { "type": "Point", "coordinates": [ 80.616908, 7.354891 ] } }
]
}
