{
  "type": "FeatureCollection",
  "name": "MT",
  "crs": {
    "type": "name",
    "properties": {
      "name": "urn:ogc:def:crs:OGC:1.3:CRS84"
    }
  },
  "features": [
    {
      "type": "Feature",
      "properties": {
        "Name_of_Tank": "Panabokka Kurahandeniya wewa",
        "Custodians": "DAD",
        "N": 7.227879,
        "E": 80.547426,
        "Remarks": "Replacing the sluice and desilting.",
        "photopath": "https://raw.githubusercontent.com/MWS003-GIS/MWS003-GIS.github.io/main/IWWRMP/Data/EXD/200_photo/MWS_119_1/Panabokka Kurandeni tank.jpg"
      },
      "geometry": {
        "type": "Point",
        "coordinates": [
          80.547426,
          7.227879
        ]
      }
    }
  ]
}