{"type":"FeatureCollection","name":"Landslides","crs":{"type":"name","properties":{"name":"urn:ogc:def:crs:OGC:1.3:CRS84"}},"features":[
{"type":"Feature","properties":{"No.":1,"GN Division No.":"48","GN Division":"Ambagahakumbura","Landslides":"Landsliding","N":6.907303,"E":80.905142,"NBRO Recommendation N/A":"NBEO is aware","Proposed Measures":"Follow the recommendations of NBRO","photopath":"Not_Available"},"geometry":{"type":"Point","coordinates":[80.905142,6.907303]}},
{"type":"Feature","properties":{"No.":2,"GN Division No.":"48A","GN Division":"Divurumgama","Landslides":"Landsliding","N":6.899451,"E":80.880382,"NBRO Recommendation N/A":"Needs NBRO concern","Proposed Measures":"Follow the recommendations of NBRO after consulting","photopath":"https://raw.githubusercontent.com/MWS003-GIS/MWS003-GIS.github.io/main/IWWRMP/Data/EXD/200_photo/MWS_062/IMG_20250821_111420 Earth slip area.jpg"},"geometry":{"type":"Point","coordinates":[80.880382,6.899451]}},
{"type":"Feature","properties":{"No.":4,"GN Division No.":"48C","GN Division":"Welimada Watta","Landslides":"Falling boulders - Area near the factory (Kumara Puram)","N":6.908446,"E":80.897898,"NBRO Recommendation N/A":"Needs NBRO concern","Proposed Measures":"Follow the recommendations of NBRO after consulting","photopath":"https://raw.githubusercontent.com/MWS003-GIS/MWS003-GIS.github.io/main/IWWRMP/Data/EXD/200_photo/MWS_062/IMG_20250816_114141 Earth slip houses.jpg"},"geometry":{"type":"Point","coordinates":[80.897898,6.908446]}},
{"type":"Feature","properties":{"No.":5,"GN Division No.":"48C","GN Division":"Welimada Watta","Landslides":"Landsliding - Kumara Puram low Division","N":6.911143,"E":80.901518,"NBRO Recommendation N/A":"Needs NBRO concern","Proposed Measures":"Follow the recommendations of NBRO after consulting","photopath":"Not_Available"},"geometry":{"type":"Point","coordinates":[80.901518,6.911143]}},
{"type":"Feature","properties":{"No.":6,"GN Division No.":"49","GN Division":"Vidurupola","Landslides":"Landsliding - Viduru Pola Main Road, Liedhi Pita rajakanduruvala Road","N":6.9132,"E":80.863485,"NBRO Recommendation N/A":"Needs NBRO concern","Proposed Measures":"A work belongs to the Regional Engineering Office","photopath":"https://raw.githubusercontent.com/MWS003-GIS/MWS003-GIS.github.io/main/IWWRMP/Data/EXD/200_photo/MWS_062/IMG_20250822_120139 Landslide on the road.jpg"},"geometry":{"type":"Point","coordinates":[80.863485,6.9132]}},
{"type":"Feature","properties":{"No.":7,"GN Division No.":"49","GN Division":"Vidurupola","Landslides":"Landsliding - Vidurupola Temple","N":6.913242,"E":80.866056,"NBRO Recommendation N/A":"Needs NBRO concern","Proposed Measures":"Follow the recommendations of NBRO after consulting","photopath":"https://raw.githubusercontent.com/MWS003-GIS/MWS003-GIS.github.io/main/IWWRMP/Data/EXD/200_photo/MWS_062/IMG_20250822_112144  vidurupola temple land.jpg"},"geometry":{"type":"Point","coordinates":[80.866056,6.913242]}},
{"type":"Feature","properties":{"No.":8,"GN Division No.":"49A","GN Division":"Boragas","Landslides":"Landsliding - Kapuruwatta","N":6.904245,"E":80.835725,"NBRO Recommendation N/A":"NBRO is aware","Proposed Measures":"Follow the recommendations of NBRO","photopath":"https://raw.githubusercontent.com/MWS003-GIS/MWS003-GIS.github.io/main/IWWRMP/Data/EXD/200_photo/MWS_062/IMG_20250814_111552 kapuruwaththa earth slip land.jpg"},"geometry":{"type":"Point","coordinates":[80.835725,6.904245]}},
{"type":"Feature","properties":{"No.":9,"GN Division No.":"49C","GN Division":"Hulankapolla","Landslides":"Falling boulders - New Colony (Aluth Kolaniya)","N":6.921598,"E":80.835823,"NBRO Recommendation N/A":"NBRO is aware","Proposed Measures":"Follow the recommendations of NBRO","photopath":"https://raw.githubusercontent.com/MWS003-GIS/MWS003-GIS.github.io/main/IWWRMP/Data/EXD/200_photo/MWS_062/IMG_20250826_124624 Stone rolling.jpg"},"geometry":{"type":"Point","coordinates":[80.835823,6.921598]}},
{"type":"Feature","properties":{"No.":10,"GN Division No.":"49E","GN Division":"Gavarammana","Landslides":"Sinking, Landsliding - Canal bank above the Kohilagolla Road","N":6.894255,"E":80.857311,"NBRO Recommendation N/A":"NBRO is aware","Proposed Measures":"Follow the recommendations of NBRO","photopath":"https://raw.githubusercontent.com/MWS003-GIS/MWS003-GIS.github.io/main/IWWRMP/Data/EXD/200_photo/MWS_062/IMG_20250819_140958 Earth slip area.jpg"},"geometry":{"type":"Point","coordinates":[80.857311,6.894255]}},
{"type":"Feature","properties":{"No.":11,"GN Division No.":"49E","GN Division":"Gavarammana","Landslides":"Sinking - Road in front of Mr. Dilan Chandana's house, Wakkadahinna","N":6.896264,"E":80.85855,"NBRO Recommendation N/A":"NBRO is aware","Proposed Measures":"Follow the recommendations of NBRO","photopath":"https://raw.githubusercontent.com/MWS003-GIS/MWS003-GIS.github.io/main/IWWRMP/Data/EXD/200_photo/MWS_062/IMG_20250819_150532 wakkadahinna road.jpg"},"geometry":{"type":"Point","coordinates":[80.85855,6.896264]}},
{"type":"Feature","properties":{"No.":12,"GN Division No.":"50","GN Division":"Palugama Town","Landslides":"Flooding - Werella Watta","N":6.89655,"E":80.870526,"NBRO Recommendation N/A":"Needs NBRO concern","Proposed Measures":"Follow the recommendations of NBRO after consulting","photopath":"Not_Available"},"geometry":{"type":"Point","coordinates":[80.870526,6.89655]}}
]}