{"type":"FeatureCollection","name":"MI","crs":{"type":"name","properties":{"name":"urn:ogc:def:crs:OGC:1.3:CRS84"}},"features":[
{"type":"Feature","properties":{"No":1,"GND No.":"48","Scheme":"Welimada village","N":6.910157,"E":80.90332,"Observation":"The total length of the canal 3500m, out of which 1000m concreted. Command area 38.5acres.","Description":"Concrete lining of the canal, Earth work and tree planting\n\nCanals reservation protection by concrete lining  For  125mm thick , 500 mm  wide  and 400 mm high canal -double banking\n\nStream / canal  reservation protection by earth filling of  strip   of 1","Amount (Rs.)":1370600,"photopath":"https://raw.githubusercontent.com/MWS003-GIS/MWS003-GIS.github.io/main/IWWRMP/Data/EXD/200_photo/MWS_062/IMG_20250830_104941 Welimada gama canal atawarawaththa.jpg"},"geometry":{"type":"Point","coordinates":[80.90332,6.910157]}},
{"type":"Feature","properties":{"No":2,"GND No.":"48","Scheme":"Welimada village/ Ambagahakumbura","N":6.907303,"E":80.905142,"Observation":"The total length of the canal 3500m, out of which 1000m concreted. Command area 38.5acres.","Description":"Concrete lining of the canal, Earth work and tree planting\n\nCanals reservation protection by concrete lining  For  125mm thick , 500 mm  wide  and 400 mm high canal -double banking\n\nStream / canal  reservation protection by earth filling of  strip   of 1","Amount (Rs.)":1370600,"photopath":"https://raw.githubusercontent.com/MWS003-GIS/MWS003-GIS.github.io/main/IWWRMP/Data/EXD/200_photo/MWS_062/IMG_20250830_104941 Welimada gama canal atawarawaththa.jpg"},"geometry":{"type":"Point","coordinates":[80.905142,6.907303]}},
{"type":"Feature","properties":{"No":3,"GND No.":"48","Scheme":"Welimada village canal, Etawarawatta","N":6.908148,"E":80.90376,"Observation":"The total length of the canal 3500m, out of which 1000m concreted. Command area 38.5acres.","Description":"Concrete lining of the canal, Earth work and tree planting\n\nCanals reservation protection by concrete lining  For  125mm thick , 500 mm  wide  and 400 mm high canal -double banking\n\nStream / canal  reservation protection by earth filling of  strip   of 1","Amount (Rs.)":1370600,"photopath":"Not_Available"},"geometry":{"type":"Point","coordinates":[80.90376,6.908148]}},
{"type":"Feature","properties":{"No":4,"GND No.":"48A","Scheme":"Kande Ela (Divurumpola canal)","N":6.903296,"E":80.883514,"Observation":"The total length of the canal 5000m, out of which 1000m concreted. Command area 58 acres.","Description":"Canal lining and protection including EW & tree planting\n\nCanal reservation protection by concrete lining  For  150 mm thick , 600 mm  wide  and 500 mm high canal -double banking\n\nStream / canal  reservation protection by earth filling of  strip   of 1.5","Amount (Rs.)":1900800,"photopath":"https://raw.githubusercontent.com/MWS003-GIS/MWS003-GIS.github.io/main/IWWRMP/Data/EXD/200_photo/MWS_062/IMG_20250821_104728 Kande ela.jpg"},"geometry":{"type":"Point","coordinates":[80.883514,6.903296]}},
{"type":"Feature","properties":{"No":5,"GND No.":"48B","Scheme":"Udaulpathe canal","N":6.911368,"E":80.881488,"Observation":"The total length of the canal 200m, out of which 25m concreted. Command area 7.0acres","Description":"Construction of 10 m long Trough (with 0.30m x 0.30m section), 4 nos of piers (1.50 m high)\n\nSite preparation & setting out\n\nEarth excavation for foundation or quarry materials and haul the surplus materials up to 30m by Manually.\n\nPlywood form work incl","Amount (Rs.)":259600,"photopath":"https://raw.githubusercontent.com/MWS003-GIS/MWS003-GIS.github.io/main/IWWRMP/Data/EXD/200_photo/MWS_062/IMG_20250820_102837 Udaulpathe canal.jpg"},"geometry":{"type":"Point","coordinates":[80.881488,6.911368]}},
{"type":"Feature","properties":{"No":6,"GND No.":"48B","Scheme":"Udaulpathe ihala canal","N":6.909947,"E":80.881369,"Observation":"The total length of the canal 500m, out of which 100m concreted. Command area 8.0acres","Description":"Construction of 15 m long Trough (with 0.30m x 0.30m section), 07 nos of piers (2.10 m high)\n\nSite preparation & setting out\n\nEarth excavation for foundation or quarry materials and haul the surplus materials up to 30m by Manually.\n\nPlywood form work inc","Amount (Rs.)":745800,"photopath":"https://raw.githubusercontent.com/MWS003-GIS/MWS003-GIS.github.io/main/IWWRMP/Data/EXD/200_photo/MWS_062/IMG_20250820_103848  Udaulpathe canal.jpg"},"geometry":{"type":"Point","coordinates":[80.881369,6.909947]}},
{"type":"Feature","properties":{"No":7,"GND No.":"48B","Scheme":"Dehipola canal","N":6.916273,"E":80.877349,"Observation":"The total length of the canal 1700m, out of which 500m concreted. Command area 26.0acres","Description":"Canal lining and protection including EW & tree planting\n\nCanal reservation protection by concrete lining  For  100 mm thick , 300 mm  wide  and 300 mm high canal -double banking\n\nStream / canal  reservation protection by earth filling of  strip   of 1.5","Amount (Rs.)":1104400,"photopath":"https://raw.githubusercontent.com/MWS003-GIS/MWS003-GIS.github.io/main/IWWRMP/Data/EXD/200_photo/MWS_062/IMG_20250820_113201 Dehipola canal.jpg"},"geometry":{"type":"Point","coordinates":[80.877349,6.916273]}},
{"type":"Feature","properties":{"No":9,"GND No.":"49","Scheme":"Wakkumbura canal","N":6.912688,"E":80.852084,"Observation":"The total length of the canal 1500m, out of which 500m concreted. Command area 15.0acres","Description":"Canal lining and protection including EW & tree planting\n\nCanal reservation protection by concrete lining  For  100 mm thick , 300 mm  wide  and 300 mm high canal -double banking\n\nStream / canal  reservation protection by earth filling of  strip   of 1.5","Amount (Rs.)":979000,"photopath":"https://raw.githubusercontent.com/MWS003-GIS/MWS003-GIS.github.io/main/IWWRMP/Data/EXD/200_photo/MWS_062/IMG_20250822_130643 Wakkumbura canal.jpg"},"geometry":{"type":"Point","coordinates":[80.852084,6.912688]}},
{"type":"Feature","properties":{"No":10,"GND No.":"49","Scheme":"Maha Ele Amuna (anicut of main canal)","N":6.916693,"E":80.861398,"Observation":"The total length of the canal 5000m, out of which 2000m concreted. Command area 98.0acres","Description":"Canal lining and protection including EW & tree planting\n\nCanal reservation protection by concrete lining  For  150 mm thick , 600 mm  wide  and 500 mm high canal -double banking\n\nStream / canal  reservation protection by earth filling of  strip   of 1.5","Amount (Rs.)":2765400,"photopath":"https://raw.githubusercontent.com/MWS003-GIS/MWS003-GIS.github.io/main/IWWRMP/Data/EXD/200_photo/MWS_062/IMG_20250822_141424 Rajakaduruwela  maha ela anicut.jpg"},"geometry":{"type":"Point","coordinates":[80.861398,6.916693]}},
{"type":"Feature","properties":{"No":11,"GND No.":"49B","Scheme":"Maha Ela","N":6.91625,"E":80.840806,"Observation":"The total length of the canal 3000m, out of which 500m concreted. Command area 42.0acres","Description":"Construction of Trough structure 20 m long and column height 6.0 m\n\nSite preparation & setting out\n\nExcavate for pad footings, ordinary soil up to 0.60 m depth, Keep excavated soil for back filling\n\nLean concrete blinding 50 mm under footings \n\nConcrete","Amount (Rs.)":4100800,"photopath":"https://raw.githubusercontent.com/MWS003-GIS/MWS003-GIS.github.io/main/IWWRMP/Data/EXD/200_photo/MWS_062/IMG_20250826_154731 Maha canal.jpg"},"geometry":{"type":"Point","coordinates":[80.840806,6.91625]}},
{"type":"Feature","properties":{"No":12,"GND No.":"49B","Scheme":"Baduriya canal","N":6.915757,"E":80.839672,"Observation":"The total length of the canal 500m, out of which 100m concreted. Command area 37.0acres","Description":"Concrete lining of the canal, Earth work and tree planting\n\nCanals reservation protection by concrete lining  For  125mm thick , 500 mm  wide  and 400 mm high canal -double banking\n\nStream / canal  reservation protection by earth filling of  strip   of 1","Amount (Rs.)":1232000,"photopath":"https://raw.githubusercontent.com/MWS003-GIS/MWS003-GIS.github.io/main/IWWRMP/Data/EXD/200_photo/MWS_062/IMG_20250826_155157 Baduriya canal.jpg"},"geometry":{"type":"Point","coordinates":[80.839672,6.915757]}},
{"type":"Feature","properties":{"No":13,"GND No.":"49C","Scheme":"Silmiyapura Maha Ela","N":6.922681,"E":80.839076,"Observation":"The total length of the canal 1500m, out of which 500m concreted. Command area 24.0acres","Description":"Construction of Concrete anicut of 2.5 m length and height 0.9 m.\n\nClearing the site \n\nEarth excavation for foundation or quarry materials and haul the surplus materials up to 30m by Manually.\n\nSawn timber form work including making, fixing & removing fo","Amount (Rs.)":1058200,"photopath":"https://raw.githubusercontent.com/MWS003-GIS/MWS003-GIS.github.io/main/IWWRMP/Data/EXD/200_photo/MWS_062/IMG_20250826_135227silmiyapura maha canal.jpg"},"geometry":{"type":"Point","coordinates":[80.839076,6.922681]}},
{"type":"Feature","properties":{"No":14,"GND No.":"49C","Scheme":"Watabedda","N":6.923207,"E":80.837011,"Observation":"About 600m long earthen canal, Command area 28.0 acres","Description":"Canal lining and protection including EW & tree planting\n\nCanal reservation protection by concrete lining  For  100 mm thick , 300 mm  wide  and 300 mm high canal -double banking\n\nStream / canal  reservation protection by earth filling of  strip   of 1.5","Amount (Rs.)":979000,"photopath":"https://raw.githubusercontent.com/MWS003-GIS/MWS003-GIS.github.io/main/IWWRMP/Data/EXD/200_photo/MWS_062/IMG_20250826_143303 Watabedda canal.jpg"},"geometry":{"type":"Point","coordinates":[80.837011,6.923207]}},
{"type":"Feature","properties":{"No":15,"GND No.":"49C","Scheme":"Hulankapolla canal","N":6.923705,"E":80.8367,"Observation":"The total length of the canal 1500m, out of which 500m concreted. Command area 37.0acres","Description":"Construction of Concrete anicut of 2.5 m length and height 0.9 m.\n\nClearing the site \n\nEarth excavation for foundation or quarry materials and haul the surplus materials up to 30m by Manually.\n\nSawn timber form work including making, fixing & removing fo","Amount (Rs.)":1067000,"photopath":"https://raw.githubusercontent.com/MWS003-GIS/MWS003-GIS.github.io/main/IWWRMP/Data/EXD/200_photo/MWS_062/IMG_20250826_142314Hulankapolla canal.jpg"},"geometry":{"type":"Point","coordinates":[80.8367,6.923705]}},
{"type":"Feature","properties":{"No":16,"GND No.":"49E","Scheme":"Pinarawa canal","N":6.910947,"E":80.864954,"Observation":"About 500m long earthen canal, Command area 8.0 acres","Description":"Construction of 5 m long Trough (with 0.30m x 0.30m section), 02 nos of piers (1.8 m high)\n\nSite preparation & setting out\n\nEarth excavation for foundation or quarry materials and haul the surplus materials up to 30m by Manually.\n\nPlywood form work inclu","Amount (Rs.)":1258400,"photopath":"https://raw.githubusercontent.com/MWS003-GIS/MWS003-GIS.github.io/main/IWWRMP/Data/EXD/200_photo/MWS_062/IMG_20250819_093834 Pinarawe anicut.jpg"},"geometry":{"type":"Point","coordinates":[80.864954,6.910947]}},
{"type":"Feature","properties":{"No":17,"GND No.":"49E","Scheme":"Puranwela canal","N":6.898572,"E":80.865498,"Observation":"About 500m long earthen canal, Command area 25.0 acres","Description":"Canal lining and protection including EW & tree planting\n\nCanal reservation protection by concrete lining  For  100 mm thick , 300 mm  wide  and 300 mm high canal -double banking\n\nStream / canal  reservation protection by earth filling of  strip   of 1.5","Amount (Rs.)":771100,"photopath":"https://raw.githubusercontent.com/MWS003-GIS/MWS003-GIS.github.io/main/IWWRMP/Data/EXD/200_photo/MWS_062/IMG_20250819_123537 puranwela canal.jpg"},"geometry":{"type":"Point","coordinates":[80.865498,6.898572]}},
{"type":"Feature","properties":{"No":18,"GND No.":"49E","Scheme":"Sub canal near Mr. Dilan Chandana","N":6.896987,"E":80.859253,"Observation":"The total length of the canal 2000m, out of which 100m concreted. Command area 30.0acres","Description":"Canal lining and protection including EW & tree planting\n\nCanal reservation protection by concrete lining  For  100 mm thick , 300 mm  wide  and 300 mm high canal -double banking\n\nStream / canal  reservation protection by earth filling of  strip   of 1.5","Amount (Rs.)":979000,"photopath":"https://raw.githubusercontent.com/MWS003-GIS/MWS003-GIS.github.io/main/IWWRMP/Data/EXD/200_photo/MWS_062/IMG_20250819_150053 Near the Mr dilan chandana house canal.jpg"},"geometry":{"type":"Point","coordinates":[80.859253,6.896987]}},
{"type":"Feature","properties":{"No":19,"GND No.":"49E","Scheme":"Kokatiyaroda canal","N":6.909697,"E":80.870273,"Observation":"The total length of the canal 1000m, out of which 500m concreted. Command area 20.0acres","Description":"Canal lining and protection including EW & tree planting\n\nCanal reservation protection by concrete lining  For  100 mm thick , 300 mm  wide  and 300 mm high canal -double banking\n\nStream / canal  reservation protection by earth filling of  strip   of 1.5","Amount (Rs.)":852500,"photopath":"https://raw.githubusercontent.com/MWS003-GIS/MWS003-GIS.github.io/main/IWWRMP/Data/EXD/200_photo/MWS_062/IMG_20250819_102136 kokatiyaroda canal.jpg"},"geometry":{"type":"Point","coordinates":[80.870273,6.909697]}},
{"type":"Feature","properties":{"No":20,"GND No.":"50","Scheme":"Aluth canal","N":6.893643,"E":80.869241,"Observation":"The total length of the canal 750m, out of which 100m concreted. Command area 10.0acres","Description":"Canal lining and protection including EW & tree planting\n\nCanal reservation protection by concrete lining  For  100 mm thick , 300 mm  wide  and 300 mm high canal -double banking\n\nStream / canal  reservation protection by earth filling of  strip   of 1.5","Amount (Rs.)":519200,"photopath":"https://raw.githubusercontent.com/MWS003-GIS/MWS003-GIS.github.io/main/IWWRMP/Data/EXD/200_photo/MWS_062/IMG_20250814_143603 Aluth ela.jpg"},"geometry":{"type":"Point","coordinates":[80.869241,6.893643]}}
]}