{"type":"FeatureCollection","name":"WSP","crs":{"type":"name","properties":{"name":"urn:ogc:def:crs:OGC:1.3:CRS84"}},"features":[
{"type":"Feature","properties":{"No":1,"GND No.":"48","Name of the Tank":"Madawala","N":6.910608,"E":80.901767,"Observation":"The spring is located on public land. Used for drinking and bathing","Description":"Anicut Wall Construction\n\nSite preparation & setting out\n\nEarth excavation for foundation or quarry materials and haul the surplus materials up to 30m by Manually- To excavate trenches\n\n1:3:6 (40mm) concrete manual mix (volume batching)-For trench to pre","Amount (Rs.)":99000,"photopath":"https://raw.githubusercontent.com/MWS003-GIS/MWS003-GIS.github.io/main/IWWRMP/Data/EXD/200_photo/MWS_062/IMG_20250830_120252 Madawala spring.jpg"},"geometry":{"type":"Point","coordinates":[80.901767,6.910608]}},
{"type":"Feature","properties":{"No":2,"GND No.":"48A","Name of the Tank":"Gurukadura","N":6.907229,"E":80.883069,"Observation":"During the rainy season when too much water flows, Bank erosion occurs. Only the Right bank belongs to the GND.","Description":"Marking reservations\n\nArrange stone packing-rubble packing-to prevent bank erosion\n\nVegetative cover improving along the river banks with Areca nut seedling in 1.5m x 1.5m grid, Kumbuk/ Epala/ Mee/ Godapara/ Kaduru/ Aththikka/ Wal Del/ Kekuna/ randomly m","Amount (Rs.)":698500,"photopath":"https://raw.githubusercontent.com/MWS003-GIS/MWS003-GIS.github.io/main/IWWRMP/Data/EXD/200_photo/MWS_062/IMG_20250821_122634 Gurukandura.jpg"},"geometry":{"type":"Point","coordinates":[80.883069,6.907229]}},
{"type":"Feature","properties":{"No":3,"GND No.":"48A","Name of the Tank":"Kande Ela","N":6.899451,"E":80.880382,"Observation":"A landslide area, A Peella agala area to be conserved","Description":"Marking reservations\n\nVegetative cover improving along the river banks with Kumbuk planting at 3.5m x 3.5 m grid interval\n\nContingencies 10%","Amount (Rs.)":374000,"photopath":"https://raw.githubusercontent.com/MWS003-GIS/MWS003-GIS.github.io/main/IWWRMP/Data/EXD/200_photo/MWS_062/IMG_20250821_110342 Kande ela.jpg"},"geometry":{"type":"Point","coordinates":[80.880382,6.899451]}},
{"type":"Feature","properties":{"No":4,"GND No.":"48B","Name of the Tank":"Dodamgolla Kadura reservation","N":6.907346,"E":80.878499,"Observation":"During the rainy season when too much water flows, Bank erosion occurs","Description":"Marking reservations\n\nArrange stone packing-rubble packing-to prevent bank erosion\n\nVegetative cover improving along the river banks with Areca nut seedling in 1.5m x 1.5m grid, Kumbuk/ Epala/ Mee/ Godapara/ Kaduru/ Aththikka/ Wal Del/ Kekuna/ randomly m","Amount (Rs.)":594000,"photopath":"https://raw.githubusercontent.com/MWS003-GIS/MWS003-GIS.github.io/main/IWWRMP/Data/EXD/200_photo/MWS_062/IMG_20250820_100617Dodamgolla kandura.jpg"},"geometry":{"type":"Point","coordinates":[80.878499,6.907346]}},
{"type":"Feature","properties":{"No":5,"GND No.":"48B","Name of the Tank":"Uma Oya reservation","N":6.918115,"E":80.874001,"Observation":"During the rainy season when too much water flows, Bank erosion occurs","Description":"Marking reservations\n\nArrange stone packing-rubble packing-to prevent bank erosion\n\nVegetative cover improving along the river banks with Areca nut seedling in 1.5m x 1.5m grid, Kumbuk/ Epala/ Mee/ Godapara/ Kaduru/ Aththikka/ Wal Del/ Kekuna/ randomly m","Amount (Rs.)":727100,"photopath":"https://raw.githubusercontent.com/MWS003-GIS/MWS003-GIS.github.io/main/IWWRMP/Data/EXD/200_photo/MWS_062/IMG_20250820_120621 uma oya.jpg"},"geometry":{"type":"Point","coordinates":[80.874001,6.918115]}},
{"type":"Feature","properties":{"No":6,"GND No.":"48B","Name of the Tank":"Gurukadura","N":6.907459,"E":80.883051,"Observation":"During the rainy season when too much water flows, Bank erosion occurs. Only the Left bank belongs to the GND.","Description":"Marking reservations\n\nArrange stone packing-rubble packing-to prevent bank erosion\n\nVegetative cover improving along the river banks with Areca nut seedling in 1.5m x 1.5m grid, Kumbuk/ Epala/ Mee/ Godapara/ Kaduru/ Aththikka/ Wal Del/ Kekuna/ randomly m","Amount (Rs.)":695200,"photopath":"https://raw.githubusercontent.com/MWS003-GIS/MWS003-GIS.github.io/main/IWWRMP/Data/EXD/200_photo/MWS_062/IMG_20250820_094601 Gurukandura.jpg"},"geometry":{"type":"Point","coordinates":[80.883051,6.907459]}},
{"type":"Feature","properties":{"No":7,"GND No.":"48B","Name of the Tank":"Udu Ulpathe Kadura","N":6.911368,"E":80.881488,"Observation":"During the rainy season when too much water flows, Bank erosion occurs","Description":"Marking reservations\n\nArrange stone packing-rubble packing-to prevent bank erosion\n\nVegetative cover improving along the river banks with Areca nut seedling in 1.5m x 1.5m grid, Kumbuk/ Epala/ Mee/ Godapara/ Kaduru/ Aththikka/ Wal Del/ Kekuna/ randomly m","Amount (Rs.)":695200,"photopath":"https://raw.githubusercontent.com/MWS003-GIS/MWS003-GIS.github.io/main/IWWRMP/Data/EXD/200_photo/MWS_062/IMG_20250820_102837 Udaulpathe canal.jpg"},"geometry":{"type":"Point","coordinates":[80.881488,6.911368]}},
{"type":"Feature","properties":{"No":8,"GND No.":"48C","Name of the Tank":"Kuppan Elle Kadura","N":6.908772,"E":80.890052,"Observation":"During the rainy season when too much water flows, Bank erosion occurs","Description":"Marking reservations\n\nArrange stone packing-rubble packing-to prevent bank erosion\n\nVegetative cover improving along the river banks with Areca nut seedling in 1.5m x 1.5m grid, Kumbuk/ Epala/ Mee/ Godapara/ Kaduru/ Aththikka/ Wal Del/ Kekuna/ randomly m","Amount (Rs.)":492800,"photopath":"https://raw.githubusercontent.com/MWS003-GIS/MWS003-GIS.github.io/main/IWWRMP/Data/EXD/200_photo/MWS_062/IMG_20250816_090750  Kupanella lake.jpg"},"geometry":{"type":"Point","coordinates":[80.890052,6.908772]}},
{"type":"Feature","properties":{"No":9,"GND No.":"49","Name of the Tank":"Kariyawaka spring (near the paddy fields)","N":6.912048,"E":80.851248,"Observation":"The  Water tank is constructed (3.4m x 1.8m x 1.6m, L*W*H). A tank  Located on public land. Used for drinking and bathing","Description":"Construct a filtration tank\n\nProvide filter materials\n\nContingencies 10%","Amount (Rs.)":302500,"photopath":"https://raw.githubusercontent.com/MWS003-GIS/MWS003-GIS.github.io/main/IWWRMP/Data/EXD/200_photo/MWS_062/IMG_20250822_132639 Kariyawake water project.jpg"},"geometry":{"type":"Point","coordinates":[80.851248,6.912048]}},
{"type":"Feature","properties":{"No":10,"GND No.":"49A","Name of the Tank":"Albiyan Watta spring-01","N":6.903811,"E":80.842751,"Observation":"A Retaining wall with 2.7 m long and 0.9 m hight  retaining wall has been built.  Located on public land. Used for drinking and bathing","Description":"Construct a filtration tank\n\nProvide filter materials\n\nContingencies 10%","Amount (Rs.)":220000,"photopath":"https://raw.githubusercontent.com/MWS003-GIS/MWS003-GIS.github.io/main/IWWRMP/Data/EXD/200_photo/MWS_062/IMG_20250814_094358 Albion waththa spring -01.jpg"},"geometry":{"type":"Point","coordinates":[80.842751,6.903811]}},
{"type":"Feature","properties":{"No":11,"GND No.":"49A","Name of the Tank":"Albiyan Watta spring-02","N":6.903652,"E":80.842457,"Observation":"The spring is located within the forest conservation area. Used for drinking and bathing","Description":"Marking reservations\n\nVegetative cover improving round the reservation with Kumbuk planting at 3.5m x 3.5 m grid interval\n\nReplanting bamboo species -Along the river banks\n\nMiscellaneous\n\nContingencies 10%","Amount (Rs.)":105600,"photopath":"https://raw.githubusercontent.com/MWS003-GIS/MWS003-GIS.github.io/main/IWWRMP/Data/EXD/200_photo/MWS_062/IMG_20250814_094403 Albion waththa spring -02.jpg"},"geometry":{"type":"Point","coordinates":[80.842457,6.903652]}},
{"type":"Feature","properties":{"No":12,"GND No.":"49A","Name of the Tank":"Spring at reservation area","N":6.898392,"E":80.843544,"Observation":"The spring is located within the forest conservation area. A Retaining wall  5.0 m  long and 1.0 m hight  retaining wall has been build . used for drinking and bathing","Description":"Marking reservations\n\nVegetative cover improving round the reservation with Kumbuk planting at 3.5m x 3.5 m grid interval\n\nReplanting bamboo species -Along the river banks\n\nMiscellaneous\n\nContingencies 10%","Amount (Rs.)":231000,"photopath":"https://raw.githubusercontent.com/MWS003-GIS/MWS003-GIS.github.io/main/IWWRMP/Data/EXD/200_photo/MWS_062/IMG_20250814_100956 Forest land spring.jpg"},"geometry":{"type":"Point","coordinates":[80.843544,6.898392]}},
{"type":"Feature","properties":{"No":13,"GND No.":"49B","Name of the Tank":"Gannila","N":6.91642,"E":80.841987,"Observation":"The spring is located on public land. Used for drinking and bathing","Description":"Water Stock Tank Construction  \n\nSite preparation & setting out\n\n150mm x 225mm Random Rubble masonry work in 1:5 cement and sand mortar in structure\n\nPlaster 12mm thick in 1:3 cement and sand finished smooth with gray cement floating\n\nFabricating & fixin","Amount (Rs.)":324500,"photopath":"https://raw.githubusercontent.com/MWS003-GIS/MWS003-GIS.github.io/main/IWWRMP/Data/EXD/200_photo/MWS_062/IMG_20250826_151445 Purankumbura spring.jpg"},"geometry":{"type":"Point","coordinates":[80.841987,6.91642]}},
{"type":"Feature","properties":{"No":14,"GND No.":"49C","Name of the Tank":"Hulankapolla ihala kotasa","N":6.919015,"E":80.828236,"Observation":"The spring is located on public land. Used for drinking and bathing","Description":"Water Stock Tank Construction  \n\nSite preparation & setting out\n\n150mm x 225mm Random Rubble masonry work in 1:5 cement and sand mortar in structure\n\nPlaster 12mm thick in 1:3 cement and sand finished smooth with gray cement floating\n\n 1:2:4 (20mm) concr","Amount (Rs.)":60500,"photopath":"https://raw.githubusercontent.com/MWS003-GIS/MWS003-GIS.github.io/main/IWWRMP/Data/EXD/200_photo/MWS_062/IMG_20250826_111148 Hulankapolla sohona asala ihala gammanaye spring.jpg"},"geometry":{"type":"Point","coordinates":[80.828236,6.919015]}},
{"type":"Feature","properties":{"No":15,"GND No.":"49C","Name of the Tank":"Ukpethidowa","N":6.919158,"E":80.834844,"Observation":"The spring is located on public land. Used for drinking and bathing","Description":"Water Stock Tank Construction  \n\nSite preparation & setting out\n\n150mm x 225mm Random Rubble masonry work in 1:5 cement and sand mortar in structure\n\nPlaster 12mm thick in 1:3 cement and sand finished smooth with gray cement floating\n\n 1:2:4 (20mm) concr","Amount (Rs.)":60500,"photopath":"https://raw.githubusercontent.com/MWS003-GIS/MWS003-GIS.github.io/main/IWWRMP/Data/EXD/200_photo/MWS_062/IMG_20250826_132655 Ukpethidowa spring.jpg"},"geometry":{"type":"Point","coordinates":[80.834844,6.919158]}},
{"type":"Feature","properties":{"No":16,"GND No.":"49C","Name of the Tank":"Hulankapolla pansala pathana ihala kotasa","N":6.923537,"E":80.824144,"Observation":"The  Water tank is constructed 3.6m x 2.5m x 1.0m, L*W*H)But the water is leaking. A tank  Located on public land. Used for drinking and bathing","Description":"Repair the Existing Water Stock Tank\n\nSite preparation & setting out\n\nClean the tank\n\nPlaster 12mm thick in 1:3 cement and sand finished smooth with gray cement floating\n\n1:2:4 (20mm) concrete manual mix  (volume batching)\n\nFabricating & fixing security","Amount (Rs.)":192500,"photopath":"https://raw.githubusercontent.com/MWS003-GIS/MWS003-GIS.github.io/main/IWWRMP/Data/EXD/200_photo/MWS_062/IMG_20250826_093851 Pansala pathana ihala kotasa spring.jpg"},"geometry":{"type":"Point","coordinates":[80.824144,6.923537]}},
{"type":"Feature","properties":{"No":17,"GND No.":"49C","Name of the Tank":"Hulankapolla sohona asala","N":6.91924,"E":80.826398,"Observation":"A spring Located on Forest land. Used for drinking and bathing","Description":"Water Stock Tank Construction  \n\nSite preparation & setting out\n\n150mm x 225mm Random Rubble masonry work in 1:5 cement and sand mortar in structure\n\nPlaster 12mm thick in 1:3 cement and sand finished smooth with gray cement floating\n\n 1:2:4 (20mm) concr","Amount (Rs.)":60500,"photopath":"https://raw.githubusercontent.com/MWS003-GIS/MWS003-GIS.github.io/main/IWWRMP/Data/EXD/200_photo/MWS_062/IMG_20250826_105611 Hulankapolla sohona asala ihala gammanaye spring.jpg"},"geometry":{"type":"Point","coordinates":[80.826398,6.91924]}},
{"type":"Feature","properties":{"No":18,"GND No.":"49E","Name of the Tank":"Deiyanwela Kumbura (Public tank for bathing)","N":6.901935,"E":80.868726,"Observation":"A water tank is located on public land. But the water is leaking. used for drinking and bathing","Description":"Remove the inside and the outside plaster layer of the tank\n\nPlaster 12mm thick in 1:3 cement and sand finished smooth with gray cement floating-Water stock tank\n\nConstruction of a Concrete Wall\n\n Site preparation & setting out\n\nEarth excavation for foun","Amount (Rs.)":91300,"photopath":"https://raw.githubusercontent.com/MWS003-GIS/MWS003-GIS.github.io/main/IWWRMP/Data/EXD/200_photo/MWS_062/IMG_20250819_112557 Deyiyanwela nana public tank.jpg"},"geometry":{"type":"Point","coordinates":[80.868726,6.901935]}},
{"type":"Feature","properties":{"No":19,"GND No.":"49E","Name of the Tank":"Mangala peelle spring","N":6.897502,"E":80.863732,"Observation":"A Peella  Located on public land. Used for drinking and bathing","Description":"2.9mm thick,11/4\" thread size (42.2mm avg.outside dia.)GI Pipe\n\nMiscellaneous\n\nContingencies 10%","Amount (Rs.)":6600,"photopath":"https://raw.githubusercontent.com/MWS003-GIS/MWS003-GIS.github.io/main/IWWRMP/Data/EXD/200_photo/MWS_062/IMG_20250819_124943 mangala peella.jpg"},"geometry":{"type":"Point","coordinates":[80.863732,6.897502]}}
]}