{"type":"FeatureCollection","name":"SWC_ON","crs":{"type":"name","properties":{"name":"urn:ogc:def:crs:OGC:1.3:CRS84"}},"features":[
{"type":"Feature","properties":{"No.":1,"GND No.":670,"GND Name":"Pallegama","Key Activities proposed for Soil and Water conservation":"1. Soil conservation practices - Pallegama land (40?-50?)","Priority based on Soil Erosion Hazard":4,"N":7.34081,"E":80.69252,"Quantity":"2 ha","Proposed measure/s":"Live fencing/SALT and/or stone terracing/lock and spills, as applied","Uniti_Cost":"250.00 m-1","Total_Cost":"500,000.00","Contribution (Local Community, LA, and the project)":"Labour and other basic services by the Local community","Time frame for the implementation":"0.25 Years","photopath":"https://raw.githubusercontent.com/MWS003-GIS/MWS003-GIS.github.io/main/IWWRMP/Data/EXD/200_photo/MWS_107_1/IMG_20250103_120043 pallegama land.jpg"},"geometry":{"type":"Point","coordinates":[80.69252,7.34081]}},
{"type":"Feature","properties":{"No.":2,"GND No.":670,"GND Name":"Pallegama","Key Activities proposed for Soil and Water conservation":"2. Soil conservation practices - Hadaliyadda (50?-60?)","Priority based on Soil Erosion Hazard":1,"N":7.33338,"E":80.69048,"Quantity":"4 ha","Proposed measure/s":"Live fencing/SALT and/or stone terracing/lock and spills, as applied","Uniti_Cost":"250.00 m-1","Total_Cost":"1,000,000.00","Contribution (Local Community, LA, and the project)":"Labour and other basic services by the Local community","Time frame for the implementation":"0.25 Years","photopath":"Not_Available"},"geometry":{"type":"Point","coordinates":[80.69048,7.33338]}},
{"type":"Feature","properties":{"No.":3,"GND No.":670,"GND Name":"Pallegama","Key Activities proposed for Soil and Water conservation":"3. Soil conservation practices - Medagammedda land (50?-60?)","Priority based on Soil Erosion Hazard":1,"N":7.33322,"E":80.69349,"Quantity":"4 ha","Proposed measure/s":"Live fencing/SALT and/or stone terracing/lock and spills, as applied","Uniti_Cost":"250.00 m-1","Total_Cost":"1,000,000.00","Contribution (Local Community, LA, and the project)":"Labour and other basic services by the Local community","Time frame for the implementation":"0.25 Years","photopath":"https://raw.githubusercontent.com/MWS003-GIS/MWS003-GIS.github.io/main/IWWRMP/Data/EXD/200_photo/MWS_107_1/IMG_20250103_110054 Medagammedda land.jpg"},"geometry":{"type":"Point","coordinates":[80.69349,7.33322]}},
{"type":"Feature","properties":{"No.":4,"GND No.":670,"GND Name":"Pallegama","Key Activities proposed for Soil and Water conservation":"5. Soil conservation practices - Girambe land  (40?-60?)","Priority based on Soil Erosion Hazard":1,"N":7.33638,"E":80.68744,"Quantity":"8 ha","Proposed measure/s":"Live fencing/SALT and/or stone terracing/lock and spills, as applied","Uniti_Cost":"250.00 m-1","Total_Cost":"2,000,000.00","Contribution (Local Community, LA, and the project)":"Labour and other basic services by the Local community","Time frame for the implementation":"0.5 Years","photopath":"https://raw.githubusercontent.com/MWS003-GIS/MWS003-GIS.github.io/main/IWWRMP/Data/EXD/200_photo/MWS_107_1/IMG_20250103_112847 Girambe land.jpg"},"geometry":{"type":"Point","coordinates":[80.68744,7.33638]}},
{"type":"Feature","properties":{"No.":5,"GND No.":670,"GND Name":"Pallegama","Key Activities proposed for Soil and Water conservation":"6. Soil conservation practices - Girambe land  (50?-60?)","Priority based on Soil Erosion Hazard":2,"N":7.33567,"E":80.68695,"Quantity":"4 ha","Proposed measure/s":"Live fencing/SALT and/or stone terracing/lock and spills, as applied","Uniti_Cost":"250.00 m-1","Total_Cost":"1,000,000.00","Contribution (Local Community, LA, and the project)":"Labour and other basic services by the Local community","Time frame for the implementation":"0.25 Years","photopath":"https://raw.githubusercontent.com/MWS003-GIS/MWS003-GIS.github.io/main/IWWRMP/Data/EXD/200_photo/MWS_107_1/IMG_20250103_112854Girambe land.jpg"},"geometry":{"type":"Point","coordinates":[80.68695,7.33567]}},
{"type":"Feature","properties":{"No.":6,"GND No.":671,"GND Name":"Wavinna","Key Activities proposed for Soil and Water conservation":"1. Soil conservation practices - Bobuwaththa  (50?-70?)","Priority based on Soil Erosion Hazard":4,"N":7.33333,"E":80.69604,"Quantity":"5 ha","Proposed measure/s":"Live fencing/SALT and/or stone terracing/lock and spills, as applied","Uniti_Cost":"250.00 m-1","Total_Cost":"1,250,000.00","Contribution (Local Community, LA, and the project)":"Labour and other basic services by the Local community","Time frame for the implementation":"0.25 Years","photopath":"https://raw.githubusercontent.com/MWS003-GIS/MWS003-GIS.github.io/main/IWWRMP/Data/EXD/200_photo/MWS_107_1/IMG_20250102_094943 Bogahamula kandura.jpg"},"geometry":{"type":"Point","coordinates":[80.69604,7.33333]}},
{"type":"Feature","properties":{"No.":7,"GND No.":671,"GND Name":"Wavinna","Key Activities proposed for Soil and Water conservation":"2. Soil conservation practices - Palpinawa Waththa (50?-70?)","Priority based on Soil Erosion Hazard":1,"N":7.3382,"E":80.70029,"Quantity":"12 ha","Proposed measure/s":"Live fencing/SALT and/or stone terracing/lock and spills, as applied","Uniti_Cost":"250.00 m-1","Total_Cost":"3,000,000.00","Contribution (Local Community, LA, and the project)":"Labour and other basic services by the Local community","Time frame for the implementation":"0.5 Years","photopath":"https://raw.githubusercontent.com/MWS003-GIS/MWS003-GIS.github.io/main/IWWRMP/Data/EXD/200_photo/MWS_107_1/IMG_20250102_105656 palpinawa land.jpg"},"geometry":{"type":"Point","coordinates":[80.70029,7.3382]}},
{"type":"Feature","properties":{"No.":8,"GND No.":671,"GND Name":"Wavinna","Key Activities proposed for Soil and Water conservation":"3. Soil conservation practices - Wavinna  (50?-70?)","Priority based on Soil Erosion Hazard":2,"N":7.33619,"E":80.7041,"Quantity":"4 ha","Proposed measure/s":"Live fencing/SALT and/or stone terracing/lock and spills, as applied","Uniti_Cost":"250.00 m-1","Total_Cost":"1,000,000.00","Contribution (Local Community, LA, and the project)":"Labour and other basic services by the Local community","Time frame for the implementation":"0.25 Years","photopath":"Not_Available"},"geometry":{"type":"Point","coordinates":[80.7041,7.33619]}}
]}