{"type":"FeatureCollection","name":"Landslides","crs":{"type":"name","properties":{"name":"urn:ogc:def:crs:OGC:1.3:CRS84"}},"features":[
{"type":"Feature","properties":{"No.":2,"GN Division No.":771,"GN Division":"Wegala","Landslides":"Bank erosion - Around the Water Treatment Plant","N":7.290175,"E":80.803798,"NBRO Recommendation N/A":"Needs NBRO concern","Proposed Measures":"Should construct a retaining wall for about 25 m long and 3 m high between the existing tanks","photopath":"Not_Available"},"geometry":{"type":"Point","coordinates":[80.803798,7.290175]}},
{"type":"Feature","properties":{"No.":4,"GN Division No.":811,"GN Division":"Udathanna","Landslides":"Land collapse to the road - Kandy Mahiyangana Main Road","N":7.286428,"E":80.814996,"NBRO Recommendation N/A":"Needs NBRO concern","Proposed Measures":"It is under the perview of RD. Safety netting and concreting can be considered, as appropriate","photopath":"https://raw.githubusercontent.com/MWS003-GIS/MWS003-GIS.github.io/main/IWWRMP/Data/EXD/200_photo/MWS_093/Landslide near the school (3).jpg"},"geometry":{"type":"Point","coordinates":[80.814996,7.286428]}}
]}