{"type":"FeatureCollection","name":"SWC_OFF","crs":{"type":"name","properties":{"name":"urn:ogc:def:crs:OGC:1.3:CRS84"}},"features":[
{"type":"Feature","properties":{"No.":2,"GND No.":771,"GND Name":"Wegala","Key Activities proposed for Soil and Water conservation":"1. Establishing a wall - Around the Water Treatment Plant","Priority based on Soil Erosion Hazard":3,"N":7.290175,"E":80.803798,"Quantity":"25 m x 3 m","Proposed measure/s":"Retaining Wall (Concrete)","Total_Cost":"2,909,500.00","Contribution (Local Community, LA, and the project)":"By the project","Time frame for the implementation":"0.25 Years","photopath":"Not_Available"},"geometry":{"type":"Point","coordinates":[80.803798,7.290175]}}
]}