{"type":"FeatureCollection","name":"Landslides","crs":{"type":"name","properties":{"name":"urn:ogc:def:crs:OGC:1.3:CRS84"}},"features":[
{"type":"Feature","properties":{"No.":3,"GN Division No.":"513C","GN Division":"Wewakele","Landslides":"Landslide - Dooniyagolla Upper section","N":7.124717,"E":80.845411,"NBRO Recommendation N/A":"NBRO is aware","Proposed Measures":"Actions recommended by NBRO should be conducted","photopath":"https://raw.githubusercontent.com/MWS003-GIS/MWS003-GIS.github.io/main/IWWRMP/Data/EXD/200_photo/MWS_029/Dooniyagolla Landslide.JPG"},"geometry":{"type":"Point","coordinates":[80.845411,7.124717]}},
{"type":"Feature","properties":{"No.":4,"GN Division No.":"513D","GN Division":"Ihala Pannala","Landslides":"Landslide - Near Kovil","N":7.129844,"E":80.849366,"NBRO Recommendation N/A":"NBRO is aware","Proposed Measures":"Actions recommended by NBRO should be conducted","photopath":"https://raw.githubusercontent.com/MWS003-GIS/MWS003-GIS.github.io/main/IWWRMP/Data/EXD/200_photo/MWS_029/Landslide place.jpg"},"geometry":{"type":"Point","coordinates":[80.849366,7.129844]}},
{"type":"Feature","properties":{"No.":6,"GN Division No.":"514","GN Division":"Kumbalgamuwa","Landslides":"Sinking - Mahawewa","N":7.11054,"E":80.85174,"NBRO Recommendation N/A":"NBRO is aware","Proposed Measures":"Actions recommended by NBRO should be conducted","photopath":"Not_Available"},"geometry":{"type":"Point","coordinates":[80.85174,7.11054]}},
{"type":"Feature","properties":{"No.":7,"GN Division No.":"514","GN Division":"Kumbalgamuwa","Landslides":"Landsliding - Riti Ella","N":7.11258,"E":80.85061,"NBRO Recommendation N/A":"Needs NBRO concern","Proposed Measures":"Providing alternative lands and soil conservation practices should be adapted","photopath":"Not_Available"},"geometry":{"type":"Point","coordinates":[80.85061,7.11258]}}
]}