{"type":"FeatureCollection","name":"SWC_ON","crs":{"type":"name","properties":{"name":"urn:ogc:def:crs:OGC:1.3:CRS84"}},"features":[
{"type":"Feature","properties":{"No.":8,"GND No.":"513 A","GND Name":"Serupitiya","Key Activities proposed for Soil and Water conservation":"4. Soil conservation practices - Serupitiyagama  (50d - 60d)","Priority based on Soil Erosion Hazard":"-","N":7.145571,"E":80.851182,"Quantity":"30 ha","Proposed measure/s":"Live fencing/SALT and/or stone terracing/lock and spills, as applied","Uniti_Cost":"250.00 m-1","Total_Cost":"7,500,000.00","Contribution (Local Community, LA, and the project)":"Labour and other basic services by the Local community","Time frame for the implementation":"1.5 Years","photopath":"https://raw.githubusercontent.com/MWS003-GIS/MWS003-GIS.github.io/main/IWWRMP/Data/EXD/200_photo/MWS_029/Serupitiya soilconservation.jpg"},"geometry":{"type":"Point","coordinates":[80.851182,7.145571]}},
{"type":"Feature","properties":{"No.":9,"GND No.":"513 A","GND Name":"Serupitiya","Key Activities proposed for Soil and Water conservation":"5. Soil conservation practices - Indigollagama  (60d - 70d)","Priority based on Soil Erosion Hazard":"-","N":7.138838,"E":80.848832,"Quantity":"28 ha","Proposed measure/s":"Live fencing/SALT and/or stone terracing/lock and spills, as applied","Uniti_Cost":"250.00 m-1","Total_Cost":"7,000,000.00","Contribution (Local Community, LA, and the project)":"Labour and other basic services by the Local community","Time frame for the implementation":"1.5 Years","photopath":"https://raw.githubusercontent.com/MWS003-GIS/MWS003-GIS.github.io/main/IWWRMP/Data/EXD/200_photo/MWS_029/Indigolla soil conservation.jpg"},"geometry":{"type":"Point","coordinates":[80.848832,7.138838]}},
{"type":"Feature","properties":{"No.":10,"GND No.":"513 A","GND Name":"Serupitiya","Key Activities proposed for Soil and Water conservation":"6. Soil conservation practices - Galgoda (50d - 60d)","Priority based on Soil Erosion Hazard":"-","N":7.148368,"E":80.841243,"Quantity":"20 ha","Proposed measure/s":"Live fencing/SALT and/or stone terracing/lock and spills, as applied","Uniti_Cost":"250.00 m-1","Total_Cost":"5,000,000.00","Contribution (Local Community, LA, and the project)":"Labour and other basic services by the Local community","Time frame for the implementation":"1 Year","photopath":"https://raw.githubusercontent.com/MWS003-GIS/MWS003-GIS.github.io/main/IWWRMP/Data/EXD/200_photo/MWS_029/Galgoda soil conservation.jpg"},"geometry":{"type":"Point","coordinates":[80.841243,7.148368]}},
{"type":"Feature","properties":{"No.":17,"GND No.":"513C","GND Name":"Wewakele","Key Activities proposed for Soil and Water conservation":"7. Soil conservation practices - Wewakele - Gardening  (50d - 60d)","Priority based on Soil Erosion Hazard":"-","N":7.123881,"E":80.846698,"Quantity":"1 ha","Proposed measure/s":"Live fencing/SALT and/or stone terracing/lock and spills, as applied","Uniti_Cost":"250.00 m-1","Total_Cost":"250,000.00","Contribution (Local Community, LA, and the project)":"Labour and other basic services by the Local community","Time frame for the implementation":"0.25 Years","photopath":"https://raw.githubusercontent.com/MWS003-GIS/MWS003-GIS.github.io/main/IWWRMP/Data/EXD/200_photo/MWS_029/Pepper Cultivated Land.JPG"},"geometry":{"type":"Point","coordinates":[80.846698,7.123881]}},
{"type":"Feature","properties":{"No.":18,"GND No.":"513C","GND Name":"Wewakele","Key Activities proposed for Soil and Water conservation":"8. Soil conservation practices - Wewakele - Gardening (50d - 60d)","Priority based on Soil Erosion Hazard":"-","N":7.124382,"E":80.847418,"Quantity":"1.25 ha","Proposed measure/s":"Live fencing/SALT and/or stone terracing/lock and spills, as applied","Uniti_Cost":"250.00 m-1","Total_Cost":"312,500.00","Contribution (Local Community, LA, and the project)":"Labour and other basic services by the Local community","Time frame for the implementation":"0.25 Years","photopath":"https://raw.githubusercontent.com/MWS003-GIS/MWS003-GIS.github.io/main/IWWRMP/Data/EXD/200_photo/MWS_029/Vegetable Cultivated Land.JPG"},"geometry":{"type":"Point","coordinates":[80.847418,7.124382]}},
{"type":"Feature","properties":{"No.":19,"GND No.":"513C","GND Name":"Wewakele","Key Activities proposed for Soil and Water conservation":"9. Soil conservation practices - Wewakele - Gardening (50d - 60d)","Priority based on Soil Erosion Hazard":"-","N":7.127599,"E":80.848512,"Quantity":"4 ha","Proposed measure/s":"Live fencing/SALT and/or stone terracing/lock and spills, as applied","Uniti_Cost":"250.00 m-1","Total_Cost":"1,000,000.00","Contribution (Local Community, LA, and the project)":"Labour and other basic services by the Local community","Time frame for the implementation":"0.25 Years","photopath":"Not_Available"},"geometry":{"type":"Point","coordinates":[80.848512,7.127599]}},
{"type":"Feature","properties":{"No.":25,"GND No.":"513D","GND Name":"Ihala Pannala","Key Activities proposed for Soil and Water conservation":"6. Soil conservation practices - Ihala Pannala (50d - 60d)","Priority based on Soil Erosion Hazard":"-","N":7.130316,"E":80.848782,"Quantity":"4 ha","Proposed measure/s":"Live fencing/SALT and/or stone terracing/lock and spills, as applied","Uniti_Cost":"250.00 m-1","Total_Cost":"1,000,000.00","Contribution (Local Community, LA, and the project)":"Labour and other basic services by the Local community","Time frame for the implementation":"0.25 Years","photopath":"https://raw.githubusercontent.com/MWS003-GIS/MWS003-GIS.github.io/main/IWWRMP/Data/EXD/200_photo/MWS_029/Soilconservation.jpg"},"geometry":{"type":"Point","coordinates":[80.848782,7.130316]}},
{"type":"Feature","properties":{"No.":29,"GND No.":"514E","GND Name":"Deliwala North","Key Activities proposed for Soil and Water conservation":"4. Soil conservation practices - Dehigaspitiya (50d - 60d)","Priority based on Soil Erosion Hazard":"-","N":7.12619,"E":80.85586,"Quantity":"8 ha","Proposed measure/s":"Live fencing/SALT and/or stone terracing/lock and spills, as applied","Uniti_Cost":"250.00 m-1","Total_Cost":"2,000,000.00","Contribution (Local Community, LA, and the project)":"Labour and other basic services by the Local community","Time frame for the implementation":"0.5 Years","photopath":"https://raw.githubusercontent.com/MWS003-GIS/MWS003-GIS.github.io/main/IWWRMP/Data/EXD/200_photo/MWS_029/Dehigaspitiya Lands.jpg"},"geometry":{"type":"Point","coordinates":[80.85586,7.12619]}},
{"type":"Feature","properties":{"No.":30,"GND No.":"514E","GND Name":"Deliwala North","Key Activities proposed for Soil and Water conservation":"5. Soil conservation practices - Boraluwela, Galketilannda (40d - 50d)","Priority based on Soil Erosion Hazard":"-","N":7.12926,"E":80.85844,"Quantity":"12 ha","Proposed measure/s":"Live fencing/SALT and/or stone terracing/lock and spills, as applied","Uniti_Cost":"250.00 m-1","Total_Cost":"3,000,000.00","Contribution (Local Community, LA, and the project)":"Labour and other basic services by the Local community","Time frame for the implementation":"0.5 Years","photopath":"https://raw.githubusercontent.com/MWS003-GIS/MWS003-GIS.github.io/main/IWWRMP/Data/EXD/200_photo/MWS_029/Galketilanda Lands.jpg"},"geometry":{"type":"Point","coordinates":[80.85844,7.12926]}},
{"type":"Feature","properties":{"No.":31,"GND No.":"514","GND Name":"Kumbalgamuwa","Key Activities proposed for Soil and Water conservation":"1. Soil conservation practices - Mahawewa Area (40d - 50d)","Priority based on Soil Erosion Hazard":"-","N":7.10952,"E":80.85166,"Quantity":"2 ha","Proposed measure/s":"Live fencing/SALT and/or stone terracing/lock and spills, as applied","Uniti_Cost":"250.00 m-1","Total_Cost":"500,000.00","Contribution (Local Community, LA, and the project)":"Labour and other basic services by the Local community/ Shramadana","Time frame for the implementation":"0.5 Years","photopath":"https://raw.githubusercontent.com/MWS003-GIS/MWS003-GIS.github.io/main/IWWRMP/Data/EXD/200_photo/MWS_029/Mahawewa Cultivated Land 1.jpg"},"geometry":{"type":"Point","coordinates":[80.85166,7.10952]}},
{"type":"Feature","properties":{"No.":32,"GND No.":"514","GND Name":"Kumbalgamuwa","Key Activities proposed for Soil and Water conservation":"2. Soil conservation practices - Kudawewa Area (50d - 60d)","Priority based on Soil Erosion Hazard":"-","N":7.11255,"E":80.8509,"Quantity":"1.25 ha","Proposed measure/s":"Live fencing/SALT and/or stone terracing/lock and spills, as applied","Uniti_Cost":"250.00 m-1","Total_Cost":"312,500.00","Contribution (Local Community, LA, and the project)":"Labour and other basic services by the Local community/ Shramadana","Time frame for the implementation":"0.5 Years","photopath":"https://raw.githubusercontent.com/MWS003-GIS/MWS003-GIS.github.io/main/IWWRMP/Data/EXD/200_photo/MWS_029/Kudawewa.jpg"},"geometry":{"type":"Point","coordinates":[80.8509,7.11255]}},
{"type":"Feature","properties":{"No.":37,"GND No.":"514","GND Name":"Kumbalgamuwa","Key Activities proposed for Soil and Water conservation":"7. Soil conservation practices - Mahawewa (65d - 70d)","Priority based on Soil Erosion Hazard":"-","N":7.11096,"E":80.84962,"Quantity":"6 ha","Proposed measure/s":"Live fencing/SALT and/or stone terracing/lock and spills, as applied","Uniti_Cost":"250.00 m-1","Total_Cost":"1,500,000.00","Contribution (Local Community, LA, and the project)":"Labour and other basic services by the Local community","Time frame for the implementation":"0.5 Years","photopath":"https://raw.githubusercontent.com/MWS003-GIS/MWS003-GIS.github.io/main/IWWRMP/Data/EXD/200_photo/MWS_029/Mahawatta Cultivated Land 2.jpg"},"geometry":{"type":"Point","coordinates":[80.84962,7.11096]}},
{"type":"Feature","properties":{"No.":39,"GND No.":"513 E","GND Name":"Mailagasthanna","Key Activities proposed for Soil and Water conservation":"2. Soil conservation practices - Mailagasthanna (60d - 70d)","Priority based on Soil Erosion Hazard":"-","N":7.132443,"E":80.844635,"Quantity":"8 ha","Proposed measure/s":"Live fencing/SALT and/or stone terracing/lock and spills, as applied","Uniti_Cost":"250.00 m-1","Total_Cost":"2,000,000.00","Contribution (Local Community, LA, and the project)":"Labour and other basic services by the Local community","Time frame for the implementation":"0.5 Years","photopath":"https://raw.githubusercontent.com/MWS003-GIS/MWS003-GIS.github.io/main/IWWRMP/Data/EXD/200_photo/MWS_029/Soil conservation..jpg"},"geometry":{"type":"Point","coordinates":[80.844635,7.132443]}}
]}