{
"type": "FeatureCollection",
"name": "WP",
"crs": { "type": "name", "properties": { "name": "urn:ogc:def:crs:OGC:1.3:CRS84" } },
"features": [
{ "type": "Feature", "properties": { "No.": 3, "GND No.": "513 A", "GN Division": "Serupitiya", "Non-point sources of pollution": "Improper disposal of domestic waste - Serupitiya", "N": 7.149054, "E": 80.845564, "Point sources of pollution": "-", "Add. N ": "-", "Add. E ": "-", "Recommended water quality improvement measures": "Preparing a separate place in home gardens  for disposing household waste\nAwareness programme on how to disposal household waste properly and converting them to usable products such as compost\nFacilitating garbage collection", "Unit Cost (Rs.)": "-", "Total Cost (Rs.)": "50,000.00", "Contributions (Local Community, LA, Project)": "-", "Time frame for the implementation": "-", "photopath": "Not_Available" }, "geometry": { "type": "Point", "coordinates": [ 80.845564, 7.149054 ] } },
{ "type": "Feature", "properties": { "No.": 4, "GND No.": "513C", "GN Division": "Wewakele", "Non-point sources of pollution": "No special issues reported", "N": 7.128852, "E": 80.847977, "Point sources of pollution": "-", "Add. N ": "-", "Add. E ": "-", "Recommended water quality improvement measures": "-", "Unit Cost (Rs.)": "-", "Total Cost (Rs.)": "-", "Contributions (Local Community, LA, Project)": "-", "Time frame for the implementation": "-", "photopath": "Not_Available" }, "geometry": { "type": "Point", "coordinates": [ 80.847977, 7.128852 ] } },
{ "type": "Feature", "properties": { "No.": 5, "GND No.": "513D", "GN Division": "Ihala Pannala", "Non-point sources of pollution": "Potential to adding human waste - Serupitita", "N": 7.137446, "E": 80.852499, "Point sources of pollution": "-", "Add. N ": "-", "Add. E ": "-", "Recommended water quality improvement measures": "-", "Unit Cost (Rs.)": "-", "Total Cost (Rs.)": "-", "Contributions (Local Community, LA, Project)": "-", "Time frame for the implementation": "-", "photopath": "Not_Available" }, "geometry": { "type": "Point", "coordinates": [ 80.852499, 7.137446 ] } },
{ "type": "Feature", "properties": { "No.": 7, "GND No.": "514E", "GN Division": "Deliwala North", "Non-point sources of pollution": "Improper disposal of domestic waste - Serupitiya", "N": 7.12644, "E": 80.857022, "Point sources of pollution": "-", "Add. N ": "-", "Add. E ": "", "Recommended water quality improvement measures": "Preparing a separate place in home gardens  for disposing household waste\nAwareness programme on how to disposal household waste properly and converting them to usable products such as compost\nFacilitating garbage collection", "Unit Cost (Rs.)": "50,000.00", "Total Cost (Rs.)": "-", "Contributions (Local Community, LA, Project)": "-", "Time frame for the implementation": null, "photopath": "Not_Available" }, "geometry": { "type": "Point", "coordinates": [ 80.857022, 7.12644 ] } },
{ "type": "Feature", "properties": { "No.": 8, "GND No.": "514", "GN Division": "Kumbalgamuwa", "Non-point sources of pollution": "Potential to adding human waste - Maha Wewa", "N": 7.112419, "E": 80.849183, "Point sources of pollution": "-", "Add. N ": "-", "Add. E ": "-", "Recommended water quality improvement measures": "-", "Unit Cost (Rs.)": "-", "Total Cost (Rs.)": "-", "Contributions (Local Community, LA, Project)": "-", "Time frame for the implementation": "-", "photopath": "Not_Available" }, "geometry": { "type": "Point", "coordinates": [ 80.849183, 7.112419 ] } },
{ "type": "Feature", "properties": { "No.": 12, "GND No.": "513 E", "GN Division": "Mailagasthanna", "Non-point sources of pollution": "Potential to adding human waste - Mailagasthenna", "N": 7.139255, "E": 80.841946, "Point sources of pollution": "-", "Add. N ": "-", "Add. E ": "-", "Recommended water quality improvement measures": "-", "Unit Cost (Rs.)": "-", "Total Cost (Rs.)": "-", "Contributions (Local Community, LA, Project)": "-", "Time frame for the implementation": "-", "photopath": "Not_Available" }, "geometry": { "type": "Point", "coordinates": [ 80.841946, 7.139255 ] } }
]
}
