{
"type": "FeatureCollection",
"name": "SWC_OFF",
"crs": { "type": "name", "properties": { "name": "urn:ogc:def:crs:OGC:1.3:CRS84" } },
"features": [
{ "type": "Feature", "properties": { "No.": 1, "GND No.": 251, "GND Name": "Senkadagala", "Key Activities proposed for Soil and Water conservation": "Establishing a retaining wall - Near Katugasthota color light", "Priority based on Soil Erosion Hazard": 1, "N": 7.3235906, "E": 80.623869, "Quantity": "100 m x 3 m", "Proposed measure/s": "Retaining Wall (Concrete)", "Total_Cost": 10609500, "Contribution (Local Community, LA, and the project)": "By the project", "Time frame for the implementation": "0.25 Years", "photopath": "Not_Available" }, "geometry": { "type": "Point", "coordinates": [ 80.623869, 7.3235906 ] } }
]
}
