{"type":"FeatureCollection","name":"MT","crs":{"type":"name","properties":{"name":"urn:ogc:def:crs:OGC:1.3:CRS84"}},"features":[
{"type":"Feature","properties":{"Name_of_Tank":"Kurunduwaththa Wewa","Custodians":"DAD","N":7.212206,"E":80.782552,"Remarks":"Require de-silting of the tank","photopath":"Not_Available"},"geometry":{"type":"Point","coordinates":[80.782552,7.212206]}},
{"type":"Feature","properties":{"Name_of_Tank":"Karadan Wewa","Custodians":"DAD","N":7.20534,"E":80.784728,"Remarks":"Require de-silting of the tank","photopath":"Not_Available"},"geometry":{"type":"Point","coordinates":[80.784728,7.20534]}},
{"type":"Feature","properties":{"Name_of_Tank":"Malulla Wewa","Custodians":"DAD","N":7.188907,"E":80.790049,"Remarks":"Require de-silting of the tank","photopath":"https://raw.githubusercontent.com/MWS003-GIS/MWS003-GIS.github.io/main/IWWRMP/Data/EXD/200_photo/MWS_013/MU (04)1.jpg"},"geometry":{"type":"Point","coordinates":[80.790049,7.188907]}},
{"type":"Feature","properties":{"Name_of_Tank":"Alakola Wewa","Custodians":"DAD","N":7.187834,"E":80.788752,"Remarks":"Require de-silting of the tank","photopath":"https://raw.githubusercontent.com/MWS003-GIS/MWS003-GIS.github.io/main/IWWRMP/Data/EXD/200_photo/MWS_013/MU (04)2.jpg"},"geometry":{"type":"Point","coordinates":[80.788752,7.187834]}},
{"type":"Feature","properties":{"Name_of_Tank":"Batuketiya Wewa","Custodians":"DAD","N":7.180648,"E":80.780165,"Remarks":"Reservation is required.","photopath":"https://raw.githubusercontent.com/MWS003-GIS/MWS003-GIS.github.io/main/IWWRMP/Data/EXD/200_photo/MWS_013/sg1.jpg"},"geometry":{"type":"Point","coordinates":[80.780165,7.180648]}},
{"type":"Feature","properties":{"Name_of_Tank":"Ethdaththawa Wewa","Custodians":"DAD","N":7.20922,"E":80.78004,"Remarks":"Bund strengthening","photopath":"Not_Available"},"geometry":{"type":"Point","coordinates":[80.78004,7.20922]}},
{"type":"Feature","properties":{"Name_of_Tank":"Aswedduma Anicut","Custodians":"DAD","N":7.219855,"E":80.773231,"Remarks":"Rehabilitation of anicut","photopath":"Not_Available"},"geometry":{"type":"Point","coordinates":[80.773231,7.219855]}},
{"type":"Feature","properties":{"Name_of_Tank":"Udage Ela Anicut","Custodians":"DAD","N":7.218377,"E":80.773514,"Remarks":"Rehabilitation of anicut and lining of canal","photopath":"Not_Available"},"geometry":{"type":"Point","coordinates":[80.773514,7.218377]}},
{"type":"Feature","properties":{"Name_of_Tank":"Darakota Gaha Yata Ela Anicut","Custodians":"DAD","N":7.214528,"E":80.775348,"Remarks":"Concrete wall along the outlet canal","photopath":"Not_Available"},"geometry":{"type":"Point","coordinates":[80.775348,7.214528]}},
{"type":"Feature","properties":{"Name_of_Tank":"Maraka Anicut","Custodians":"DAD","N":7.199372,"E":80.781233,"Remarks":"Timber planks needed for the anicut","photopath":"Not_Available"},"geometry":{"type":"Point","coordinates":[80.781233,7.199372]}}
]}