{"type":"FeatureCollection","name":"SR","crs":{"type":"name","properties":{"name":"urn:ogc:def:crs:OGC:1.3:CRS84"}},"features":[
{"type":"Feature","properties":{"No":1,"GND No.":"485C","Scheme":"Etambagaha Landa Kandura 2","N":7.210953,"E":80.781262,"Observation":"Soil erosion of lands on both sides.","Description":"1. Two SABO dams (boulder/rubble) dams across streams to trap sediment.\n2. Tree cover to minimize erosion","Amount (Rs.)":"474,000.00","photopath":"Not_Available"},"geometry":{"type":"Point","coordinates":[80.781262,7.210953]}},
{"type":"Feature","properties":{"No":2,"GND No.":"485C","Scheme":"Torrent near the Ambewela GN office (Main torrent)","N":7.209855,"E":80.779191,"Observation":"Soil erosion of lands on both sides.","Description":"1. Two SABO dams (boulder/rubble) dams across streams to trap sediment.\n2. Tree cover to minimize erosion","Amount (Rs.)":"593,000.00","photopath":"Not_Available"},"geometry":{"type":"Point","coordinates":[80.779191,7.209855]}},
{"type":"Feature","properties":{"No":3,"GND No.":"486 B","Scheme":"Stream near GN office ","N":7.232098,"E":80.77904,"Observation":"Land erosion and collapsing boulders due to high water flow during rainy days.","Description":"1. Two SABO dams (boulder/rubble) dams across streams to trap sediment.\n2. Mixed tree cover to minimize erosion","Amount (Rs.)":"818,000.00","photopath":"https://raw.githubusercontent.com/MWS003-GIS/MWS003-GIS.github.io/main/IWWRMP/Data/EXD/200_photo/MWS_013/aw4.jpg"},"geometry":{"type":"Point","coordinates":[80.77904,7.232098]}},
{"type":"Feature","properties":{"No":4,"GND No.":"486 B","Scheme":"Ambewela Kandura 2","N":7.233553,"E":80.779038,"Observation":"Extreme soil erosion.","Description":"1.Construction of leader drains\n2.Two SABO dams (boulder/rubble) dams across streams to trap sediment.\n3. Mixed tree cover to minimize erosion","Amount (Rs.)":"900,000.00","photopath":"https://raw.githubusercontent.com/MWS003-GIS/MWS003-GIS.github.io/main/IWWRMP/Data/EXD/200_photo/MWS_013/aw8.jpg"},"geometry":{"type":"Point","coordinates":[80.779038,7.233553]}},
{"type":"Feature","properties":{"No":5,"GND No.":"486 B","Scheme":"Ambewela Kandura 3 (Near the Sinkadappu's House)","N":7.234652,"E":80.778207,"Observation":"High soil erosion and accumulating wastes during rainy days.","Description":"Improving vegetative cover with trees planting ","Amount (Rs.)":"47,000.00","photopath":"https://raw.githubusercontent.com/MWS003-GIS/MWS003-GIS.github.io/main/IWWRMP/Data/EXD/200_photo/MWS_013/aw10.jpg"},"geometry":{"type":"Point","coordinates":[80.778207,7.234652]}},
{"type":"Feature","properties":{"No":6,"GND No.":"486 B","Scheme":"Ambewela Kandura 3 (Near the community hall)","N":7.237867,"E":80.775517,"Observation":"Extreme soil erosion.","Description":"1.Construction of leader drains\n2.Two SABO dams (boulder/rubble) dams across streams to trap sediment.\n3. Mixed tree cover to minimize erosion","Amount (Rs.)":"513,000.00","photopath":"https://raw.githubusercontent.com/MWS003-GIS/MWS003-GIS.github.io/main/IWWRMP/Data/EXD/200_photo/MWS_013/aw14.jpg"},"geometry":{"type":"Point","coordinates":[80.775517,7.237867]}},
{"type":"Feature","properties":{"No":7,"GND No.":"487","Scheme":"Wee Keliya Yaya Kandura","N":7.194616,"E":80.783075,"Observation":"Soil erosion of lands on both sides.","Description":"Mixed tree cover to minimize erosion","Amount (Rs.)":"76,000.00","photopath":"https://raw.githubusercontent.com/MWS003-GIS/MWS003-GIS.github.io/main/IWWRMP/Data/EXD/200_photo/MWS_013/GUG (02)1.jpg"},"geometry":{"type":"Point","coordinates":[80.783075,7.194616]}},
{"type":"Feature","properties":{"No":8,"GND No.":"487","Scheme":"Koppe Kandura","N":7.193836,"E":80.783241,"Observation":"Soil erosion of lands on both sides.","Description":"Mixed tree cover to minimize erosion","Amount (Rs.)":"153,000.00","photopath":"https://raw.githubusercontent.com/MWS003-GIS/MWS003-GIS.github.io/main/IWWRMP/Data/EXD/200_photo/MWS_013/GUG (02)2.jpg"},"geometry":{"type":"Point","coordinates":[80.783241,7.193836]}},
{"type":"Feature","properties":{"No":9,"GND No.":"487","Scheme":"Hingurawelketiya Kandura","N":7.190042,"E":80.782162,"Observation":"Soil erosion of lands on both sides and discarding domestic wastes.","Description":"Mixed tree cover to minimize erosion","Amount (Rs.)":"65,000.00","photopath":"https://raw.githubusercontent.com/MWS003-GIS/MWS003-GIS.github.io/main/IWWRMP/Data/EXD/200_photo/MWS_013/GUG (02)3.jpg"},"geometry":{"type":"Point","coordinates":[80.782162,7.190042]}},
{"type":"Feature","properties":{"No":10,"GND No.":"486 A","Scheme":"Waadi Kandura","N":7.250345,"E":80.767338,"Observation":"Dilapidated leader drain due to lack of maintenance.","Description":"1. Construct leader drain.\n2. Construct two SABO dams\n3. Mixed tree cover to minimize erosion ","Amount (Rs.)":"394,000.00","photopath":"https://raw.githubusercontent.com/MWS003-GIS/MWS003-GIS.github.io/main/IWWRMP/Data/EXD/200_photo/MWS_013/h5.jpg"},"geometry":{"type":"Point","coordinates":[80.767338,7.250345]}},
{"type":"Feature","properties":{"No":11,"GND No.":"486 A","Scheme":"Torrent on the road to reservation","N":7.250405,"E":80.767063,"Observation":"Collapsing boulders and high soil erosion of lands on both sides.","Description":"1. Construct leader drain.\n2. Mixed tree cover to minimize erosion ","Amount (Rs.)":"154,000.00","photopath":"https://raw.githubusercontent.com/MWS003-GIS/MWS003-GIS.github.io/main/IWWRMP/Data/EXD/200_photo/MWS_013/h6.jpg"},"geometry":{"type":"Point","coordinates":[80.767063,7.250405]}},
{"type":"Feature","properties":{"No":12,"GND No.":"486","Scheme":"Pathale Kandura 1","N":7.216094,"E":80.775369,"Observation":"High soil degradation.","Description":"1. Construct leader drain.\n2. Construct of a SABO dam\n3. Mixed tree cover to minimize erosion ","Amount (Rs.)":"297,000.00","photopath":"Not_Available"},"geometry":{"type":"Point","coordinates":[80.775369,7.216094]}},
{"type":"Feature","properties":{"No":13,"GND No.":"486","Scheme":"Pathale Kandura 2","N":7.216941,"E":80.778054,"Observation":"Soil degradation. ","Description":"1. Construct leader drain.\n2. Construct of a SABO dam\n3. Mixed tree cover to minimize erosion ","Amount (Rs.)":"310,000.00","photopath":"Not_Available"},"geometry":{"type":"Point","coordinates":[80.778054,7.216941]}},
{"type":"Feature","properties":{"No":14,"GND No.":"486","Scheme":"Torrent near the plant nursery","N":7.22091,"E":80.778027,"Observation":"Soil degradation. ","Description":"1. Construct leader drain.\n2. Mixed tree cover to minimize erosion ","Amount (Rs.)":"154,000.00","photopath":"Not_Available"},"geometry":{"type":"Point","coordinates":[80.778027,7.22091]}},
{"type":"Feature","properties":{"No":15,"GND No.":"486","Scheme":"Kalu Kumara Devala Kandura","N":7.224227,"E":80.770647,"Observation":"High soil degradation.","Description":"1. Construct leader drain.\n2. Construct of a SABO dam\n3. Mixed tree cover to minimize erosion ","Amount (Rs.)":"297,000.00","photopath":"Not_Available"},"geometry":{"type":"Point","coordinates":[80.770647,7.224227]}},
{"type":"Feature","properties":{"No":16,"GND No.":"486","Scheme":"Kandura 1","N":7.219807,"E":80.772654,"Observation":"Soil erosion.","Description":"1. Construct leader drain.\n2. Mixed tree cover to minimize erosion ","Amount (Rs.)":"60,000.00","photopath":"Not_Available"},"geometry":{"type":"Point","coordinates":[80.772654,7.219807]}},
{"type":"Feature","properties":{"No":17,"GND No.":"486","Scheme":"Kandura 2","N":7.218316,"E":80.773006,"Observation":"Soil erosion.","Description":"1. Construct leader drain.\n2. Mixed tree cover to minimize erosion ","Amount (Rs.)":"127,000.00","photopath":"Not_Available"},"geometry":{"type":"Point","coordinates":[80.773006,7.218316]}},
{"type":"Feature","properties":{"No":18,"GND No.":"485","Scheme":"Karadan Wewa Kandura","N":7.201594,"E":80.780707,"Observation":"Soil erosion of lands on both sides.","Description":"Improving vegetative cover with trees planting ","Amount (Rs.)":"107,000.00","photopath":"Not_Available"},"geometry":{"type":"Point","coordinates":[80.780707,7.201594]}},
{"type":"Feature","properties":{"No":19,"GND No.":"485","Scheme":"Torrent near the lake","N":7.205284,"E":80.784676,"Observation":"Soil erosion.","Description":"Improving vegetative cover with trees planting ","Amount (Rs.)":"14,000.00","photopath":"Not_Available"},"geometry":{"type":"Point","coordinates":[80.784676,7.205284]}},
{"type":"Feature","properties":{"No":20,"GND No.":"485","Scheme":"Meneripitiya Kandura","N":7.204241,"E":80.783763,"Observation":"Soil erosion.","Description":"1. Construct leader drain.\n2. Mixed tree cover to minimize erosion ","Amount (Rs.)":"53,000.00","photopath":"Not_Available"},"geometry":{"type":"Point","coordinates":[80.783763,7.204241]}},
{"type":"Feature","properties":{"No":21,"GND No.":"485 C","Scheme":"Stream flow across the Maliyadda Village ","N":7.196472,"E":80.782246,"Observation":"Soil erosion.","Description":"Improving vegetative cover with trees planting ","Amount (Rs.)":"9,000.00","photopath":"Not_Available"},"geometry":{"type":"Point","coordinates":[80.782246,7.196472]}},
{"type":"Feature","properties":{"No":22,"GND No.":"485 C","Scheme":"Maliyadda Gama Meda Kandura","N":7.197206,"E":80.781789,"Observation":"Soil degradation. ","Description":"1. Concrete lining of the canal\n2. Mixed tree cover to minimize erosion ","Amount (Rs.)":"119,000.00","photopath":"Not_Available"},"geometry":{"type":"Point","coordinates":[80.781789,7.197206]}},
{"type":"Feature","properties":{"No":23,"GND No.":"488","Scheme":"Malulla Wewa Pitawana Kandura","N":7.190606,"E":80.790131,"Observation":"Soil erosion of lands on both sides.","Description":"1. Canal reservation protection by earth filling.\n2. Mixed tree cover to minimize erosion ","Amount (Rs.)":"594,000.00","photopath":"https://raw.githubusercontent.com/MWS003-GIS/MWS003-GIS.github.io/main/IWWRMP/Data/EXD/200_photo/MWS_013/MU (02)1.jpg"},"geometry":{"type":"Point","coordinates":[80.790131,7.190606]}},
{"type":"Feature","properties":{"No":24,"GND No.":"487 B","Scheme":"Gama Meda Kandura","N":7.190186,"E":80.780997,"Observation":"Soil erosion of lands on both sides.","Description":"1. Construct leader drain.\n2. Mixed tree cover to minimize erosion ","Amount (Rs.)":"123,000.00","photopath":"https://raw.githubusercontent.com/MWS003-GIS/MWS003-GIS.github.io/main/IWWRMP/Data/EXD/200_photo/MWS_013/MIR (02)1.jpg"},"geometry":{"type":"Point","coordinates":[80.780997,7.190186]}},
{"type":"Feature","properties":{"No":25,"GND No.":"487 B","Scheme":"Torrent near the community hall","N":7.190261,"E":80.781519,"Observation":"Soil erosion of lands on both sides.","Description":"1. Construct leader drain.\n2. Mixed tree cover to minimize erosion ","Amount (Rs.)":"123,000.00","photopath":"https://raw.githubusercontent.com/MWS003-GIS/MWS003-GIS.github.io/main/IWWRMP/Data/EXD/200_photo/MWS_013/MIR (02)2.jpg"},"geometry":{"type":"Point","coordinates":[80.781519,7.190261]}},
{"type":"Feature","properties":{"No":26,"GND No.":"487 A","Scheme":"Miriswatta Kandura","N":7.183472,"E":80.78568,"Observation":"Soil erosion of lands on both sides.","Description":"1. Construct leader drain.\n2. Construct of a SABO dam\n3. Mixed tree cover to minimize erosion ","Amount (Rs.)":"594,000.00","photopath":"https://raw.githubusercontent.com/MWS003-GIS/MWS003-GIS.github.io/main/IWWRMP/Data/EXD/200_photo/MWS_013/MP (02)1.jpg"},"geometry":{"type":"Point","coordinates":[80.78568,7.183472]}},
{"type":"Feature","properties":{"No":27,"GND No.":"487 A","Scheme":"Galbokka Kandura","N":7.18154,"E":80.78819,"Observation":"Soil erosion of lands on both sides.","Description":"1. Construct leader drain.\n2. Mixed tree cover to minimize erosion ","Amount (Rs.)":"147,000.00","photopath":"https://raw.githubusercontent.com/MWS003-GIS/MWS003-GIS.github.io/main/IWWRMP/Data/EXD/200_photo/MWS_013/MP (02)2.jpg"},"geometry":{"type":"Point","coordinates":[80.78819,7.18154]}},
{"type":"Feature","properties":{"No":28,"GND No.":"487 A","Scheme":"Gole Kandura","N":7.184214,"E":80.78854,"Observation":"Soil erosion of lands on both sides.","Description":"1. Construct leader drain.\n2. Mixed tree cover to minimize erosion ","Amount (Rs.)":"147,000.00","photopath":"https://raw.githubusercontent.com/MWS003-GIS/MWS003-GIS.github.io/main/IWWRMP/Data/EXD/200_photo/MWS_013/MP (02)3.jpg"},"geometry":{"type":"Point","coordinates":[80.78854,7.184214]}},
{"type":"Feature","properties":{"No":29,"GND No.":"487 A","Scheme":"Miriswatta Kandura 1","N":7.180845,"E":80.78845,"Observation":"Soil erosion of lands on both sides.","Description":"1. Construct leader drain.\n2. Construct of a SABO dam\n3. Mixed tree cover to minimize erosion ","Amount (Rs.)":"270,000.00","photopath":"https://raw.githubusercontent.com/MWS003-GIS/MWS003-GIS.github.io/main/IWWRMP/Data/EXD/200_photo/MWS_013/MP (02)4.jpg"},"geometry":{"type":"Point","coordinates":[80.78845,7.180845]}},
{"type":"Feature","properties":{"No":30,"GND No.":"494 B","Scheme":"Torrent at the boundary of Sangaraja Gama and Upawaththa paddy fields","N":7.181651,"E":80.781987,"Observation":"Soil erosion of lands on both sides.","Description":"1. Construct a SABO dam.\n2. Mixed tree cover to minimize erosion ","Amount (Rs.)":"237,000.00","photopath":"https://raw.githubusercontent.com/MWS003-GIS/MWS003-GIS.github.io/main/IWWRMP/Data/EXD/200_photo/MWS_013/sg2.jpg"},"geometry":{"type":"Point","coordinates":[80.781987,7.181651]}},
{"type":"Feature","properties":{"No":31,"GND No.":"494 B","Scheme":"Polonwala Kandura (Kakkutu Kandura)","N":7.183424,"E":80.778531,"Observation":"Soil erosion of lands on both sides.","Description":"Improving vegetative cover with trees planting ","Amount (Rs.)":"235,000.00","photopath":"https://raw.githubusercontent.com/MWS003-GIS/MWS003-GIS.github.io/main/IWWRMP/Data/EXD/200_photo/MWS_013/sg7.jpg"},"geometry":{"type":"Point","coordinates":[80.778531,7.183424]}},
{"type":"Feature","properties":{"No":32,"GND No.":"494 F","Scheme":"Diya Thala Kanda Kandura","N":7.175591,"E":80.787447,"Observation":"Soil erosion of lands on both sides.","Description":"1. Construct a SABO dam.\n2. Mixed tree cover to minimize erosion ","Amount (Rs.)":"190,000.00","photopath":"https://raw.githubusercontent.com/MWS003-GIS/MWS003-GIS.github.io/main/IWWRMP/Data/EXD/200_photo/MWS_013/uk5.jpg"},"geometry":{"type":"Point","coordinates":[80.787447,7.175591]}},
{"type":"Feature","properties":{"No":33,"GND No.":"494 F","Scheme":"Udawatta Kumbura Kandura","N":7.1791,"E":80.784699,"Observation":"Bank erosion on both sides during rainy days.","Description":"1. Construct leader drain.\n2. Construct of a SABO dam\n3. Mixed tree cover to minimize erosion ","Amount (Rs.)":"351,000.00","photopath":"https://raw.githubusercontent.com/MWS003-GIS/MWS003-GIS.github.io/main/IWWRMP/Data/EXD/200_photo/MWS_013/uk13.jpg"},"geometry":{"type":"Point","coordinates":[80.784699,7.1791]}},
{"type":"Feature","properties":{"No":34,"GND No.":"486C","Scheme":"Establish the reservation in Dunge Muduna","N":7.212565,"E":80.771658,"Observation":"Illegal cultivations in the land in Mahaweli area.","Description":"Demarcate boundary and tree planting in the reservation area ","Amount (Rs.)":"669,000.00","photopath":"Not_Available"},"geometry":{"type":"Point","coordinates":[80.771658,7.212565]}},
{"type":"Feature","properties":{"No":35,"GND No.":"487A","Scheme":" Galbokka Reservation.","N":7.178117,"E":80.79046,"Observation":"Conservation of Galbokka Reservation.","Description":"Demarcate boundary and tree planting in the reservation area ","Amount (Rs.)":"134,100.00","photopath":"https://raw.githubusercontent.com/MWS003-GIS/MWS003-GIS.github.io/main/IWWRMP/Data/EXD/200_photo/MWS_013/MP (14)1.jpg"},"geometry":{"type":"Point","coordinates":[80.79046,7.178117]}},
{"type":"Feature","properties":{"No":36,"GND No.":"494F","Scheme":"Udawatta Kumbura","N":7.173594,"E":80.788653,"Observation":"It is mandatory to set aside and conserve the designated number of acres in the reserve by demarcating boundaries. ","Description":"Improve the vegetative cover in the reservation with tree species. ","Amount (Rs.)":"321,900.00","photopath":"Not_Available"},"geometry":{"type":"Point","coordinates":[80.788653,7.173594]}}
]}