{"type":"FeatureCollection","name":"Landslide","crs":{"type":"name","properties":{"name":"urn:ogc:def:crs:OGC:1.3:CRS84"}},"features":[
{"type":"Feature","properties":{"No.":4,"GN Division No.":"39A","GN Division":"Malwattegama","Landslides":"1. Landsliding - Thennahena","N":6.9888,"E":80.957727,"NBRO Recommendation N/A":"-","Proposed Measures":"Acting in accordance with NBRO instructions. Resettlement of people is needed.","photopath":"https://raw.githubusercontent.com/MWS003-GIS/MWS003-GIS.github.io/main/IWWRMP/Data/EXD/200_photo/MWS_048/Disaster - Landsliding - Thennahena.jpg"},"geometry":{"type":"Point","coordinates":[80.957727,6.9888]}}
]}