{"type":"FeatureCollection","name":"SR","crs":{"type":"name","properties":{"name":"urn:ogc:def:crs:OGC:1.3:CRS84"}},"features":[
{"type":"Feature","properties":{"No":1,"GND No.":"499","Scheme":"Hali Ela Narangasthenna stream","N":7.14278,"E":80.733868,"Observation":"-","Description":"Soil erosion of land on both sides(500m). Recommend 1. Construct (2mx2mx1m) Three SABO- boulder dams across the stream where canal is steep. 2. Make dense planting of mixed vegetation comprising Agave/Areca nut trees /Kithul/Kumbuk/Mee/ Godapara/Kaduru/Aththikka/Wal del/Kekuna randomly mixed seedlings at 500 mm grid interval.4. Apply mulching, organic manure and NPK fertilizer. Covered area 600 m2.","Amount (Rs.)":"511,200","photopath":"https://raw.githubusercontent.com/MWS003-GIS/MWS003-GIS.github.io/main/IWWRMP/Data/EXD/200_photo/MWS_009/B (02)2.jpg"},"geometry":{"type":"Point","coordinates":[80.733868,7.14278]}},
{"type":"Feature","properties":{"No":2,"GND No.":"499","Scheme":"Divulgate stream","N":7.144242,"E":80.732216,"Observation":"-","Description":"Soil erosion of land on both sides(500m). Recommend 1. Construct (2mx2mx1m) Three SABO- boulder dams across the stream where canal is steep. 2. Make dense planting of mixed vegetation comprising Agave/Areca nut trees /Kithul/Kumbuk/Mee/ Godapara/Kaduru/Aththikka/Wal del/Kekuna randomly mixed seedlings at 500 mm grid interval.4. Apply mulching, organic manure and NPK fertilizer. Covered area 700 m2.","Amount (Rs.)":"566,400","photopath":"https://raw.githubusercontent.com/MWS003-GIS/MWS003-GIS.github.io/main/IWWRMP/Data/EXD/200_photo/MWS_009/B (02)3.jpg"},"geometry":{"type":"Point","coordinates":[80.732216,7.144242]}},
{"type":"Feature","properties":{"No":3,"GND No.":"499","Scheme":"Greatweliya Waththa towards Wanahapuwa tank","N":7.141193,"E":80.730705,"Observation":"-","Description":"Soil erosion of land on both sides(500m). Recommend 1. Construct (2mx2mx1m) Three SABO- boulder dams across the stream where canal is steep. 2. Make dense planting of mixed vegetation comprising Agave/Areca nut trees /Kithul/Kumbuk/Mee/ Godapara/Kaduru/Aththikka/Wal del/Kekuna randomly mixed seedlings at 500 mm grid interval.4. Apply mulching, organic manure and NPK fertilizer. Covered area 500 m2.","Amount (Rs.)":"456,000","photopath":"https://raw.githubusercontent.com/MWS003-GIS/MWS003-GIS.github.io/main/IWWRMP/Data/EXD/200_photo/MWS_009/B (02)4.jpg"},"geometry":{"type":"Point","coordinates":[80.730705,7.141193]}},
{"type":"Feature","properties":{"No":4,"GND No.":"499C","Scheme":"Daara Oya sub stream","N":7.121564,"E":80.734288,"Observation":"-","Description":"Soil erosion of land on both sides(100m). Recommend 1. To repair existing 1mx1mx1m x100m long leader drain 2. Areca nut rows and vetiver grass with pepper or betel cultivation strip of 1m wide and 200m long.","Amount (Rs.)":"83,500","photopath":"https://raw.githubusercontent.com/MWS003-GIS/MWS003-GIS.github.io/main/IWWRMP/Data/EXD/200_photo/MWS_009/DO9.jpg"},"geometry":{"type":"Point","coordinates":[80.734288,7.121564]}},
{"type":"Feature","properties":{"No":5,"GND No.":"499C","Scheme":"Daara oya","N":7.120905,"E":80.734843,"Observation":"-","Description":"Soil erosion of land on both sides(200m) and endangering the bridge. Recommend 1. Areca nut rows and vetiver grass with pepper or betel cultivation strip of 1m wide and 200m long. 2. Construct (3mx2mx1m) two SABO- boulder dams across the stream where canal is steep 3. make dense planting of mixed vegetation of 200 sq.m comprising Riparian varieties / Areca nut trees /Kumbuk/Mee/ Godapara/Kaduru/Aththikka/Wal del/Kekuna / local fruits/ randomly mixed seedlings at 500 mm grid interval and maintain for six months","Amount (Rs.)":"339,000","photopath":"https://raw.githubusercontent.com/MWS003-GIS/MWS003-GIS.github.io/main/IWWRMP/Data/EXD/200_photo/MWS_009/DO10.jpg"},"geometry":{"type":"Point","coordinates":[80.734843,7.120905]}},
{"type":"Feature","properties":{"No":6,"GND No.":"499D","Scheme":"Watastenna Daara Oya","N":7.125428,"E":80.74003,"Observation":"-","Description":"Soil erosion of land on both sides(1.4km). Recommend 1.to make dense planting of mixed vegetation comprising Riparian varieties / Areca nut trees /Kithul/Coconut/Kumbuk/Mee/ Godapara/Kaduru/Aththikka/Wal del/Kekuna / local fruits/ randomly mixed seedlings at 500 mm grid interval.2. Apply mulching, organic manure and NPK fertilizer. Covered area 1200 m2 3. Construct (3mx2mx1m) three SABO- boulder dams across the stream where canal is steep","Amount (Rs.)":"910,800","photopath":"https://raw.githubusercontent.com/MWS003-GIS/MWS003-GIS.github.io/main/IWWRMP/Data/EXD/200_photo/MWS_009/WT6.jpg"},"geometry":{"type":"Point","coordinates":[80.74003,7.125428]}},
{"type":"Feature","properties":{"No":7,"GND No.":"499E","Scheme":"Arawe kandura","N":7.13885,"E":80.739536,"Observation":"-","Description":"Soil erosion of land on both sides(800m). Recommend to plant areca nut rows and vetiver grass with pepper or betel cultivation strip of 2m wide and 400m long.","Amount (Rs.)":"94,000","photopath":"https://raw.githubusercontent.com/MWS003-GIS/MWS003-GIS.github.io/main/IWWRMP/Data/EXD/200_photo/MWS_009/BN (02)1.jpg"},"geometry":{"type":"Point","coordinates":[80.739536,7.13885]}},
{"type":"Feature","properties":{"No":8,"GND No.":"499E","Scheme":"Uda Ela kadura","N":7.14197,"E":80.73955,"Observation":"-","Description":"Soil erosion of land on both sides(500m). Recommend 1. to plant areca nut rows and vetiver grass with pepper or betel cultivation strip of 2m wide and 300m long. 2. To construct (2mx2mx1m) two SABO- boulder dams","Amount (Rs.)":"190,500","photopath":"https://raw.githubusercontent.com/MWS003-GIS/MWS003-GIS.github.io/main/IWWRMP/Data/EXD/200_photo/MWS_009/BN (02)2.jpg"},"geometry":{"type":"Point","coordinates":[80.73955,7.14197]}},
{"type":"Feature","properties":{"No":9,"GND No.":"499F","Scheme":"Bambaragama stream 1","N":7.136079,"E":80.733765,"Observation":"-","Description":"Soil erosion of land on both sides(600m). Recommend 1. to plant areca nut rows and vetiver grass with pepper or betel cultivation strip of 2m wide and 500m long. 2. Construct two numbers of SABO dams of 3mx2mx1m.","Amount (Rs.)":"415,000","photopath":"https://raw.githubusercontent.com/MWS003-GIS/MWS003-GIS.github.io/main/IWWRMP/Data/EXD/200_photo/MWS_009/BB4.jpg"},"geometry":{"type":"Point","coordinates":[80.733765,7.136079]}},
{"type":"Feature","properties":{"No":10,"GND No.":"499F","Scheme":"Stream of Neluwa springs","N":7.135233,"E":80.735586,"Observation":"-","Description":"Soil erosion of land on both sides(300m). Recommend 1. to plant areca nut rows and vetiver grass with pepper or betel cultivation strip of 2m wide and 300m long.","Amount (Rs.)":"141,000","photopath":"https://raw.githubusercontent.com/MWS003-GIS/MWS003-GIS.github.io/main/IWWRMP/Data/EXD/200_photo/MWS_009/BB6.jpg"},"geometry":{"type":"Point","coordinates":[80.735586,7.135233]}},
{"type":"Feature","properties":{"No":11,"GND No.":"499F","Scheme":"Hapugasdowa stream","N":7.132363,"E":80.736575,"Observation":"-","Description":"Soil erosion of land on both sides(200m). Recommend 1. to plant areca nut rows and vetiver grass with pepper or betel cultivation strip of 2m wide and 200m long. 2. Construct two numbers of SABO dams of 2mx2mx1m.","Amount (Rs.)":"214,000","photopath":"https://raw.githubusercontent.com/MWS003-GIS/MWS003-GIS.github.io/main/IWWRMP/Data/EXD/200_photo/MWS_009/BB9.jpg"},"geometry":{"type":"Point","coordinates":[80.736575,7.132363]}},
{"type":"Feature","properties":{"No":12,"GND No.":"499F","Scheme":"Galpihilla Oya","N":7.135703,"E":80.734311,"Observation":"-","Description":"Soil erosion of land on both sides(200m). Recommend 1. to plant areca nut rows and vetiver grass with pepper or betel cultivation strip of 2m wide and 200m long. 2. Construct Three numbers of SABO dams of 3mx2mx1m.","Amount (Rs.)":"364000","photopath":"https://raw.githubusercontent.com/MWS003-GIS/MWS003-GIS.github.io/main/IWWRMP/Data/EXD/200_photo/MWS_009/BB13.jpg"},"geometry":{"type":"Point","coordinates":[80.734311,7.135703]}},
{"type":"Feature","properties":{"No":13,"GND No.":"499F","Scheme":"Heendetuwa stream","N":7.136884,"E":80.732887,"Observation":"-","Description":"Soil erosion of land on both sides(1km). Recommend 1. to plant areca nut rows and vetiver grass with pepper or betel cultivation strip of 2m wide and 700m long.","Amount (Rs.)":"329000","photopath":"https://raw.githubusercontent.com/MWS003-GIS/MWS003-GIS.github.io/main/IWWRMP/Data/EXD/200_photo/MWS_009/BB14.jpg"},"geometry":{"type":"Point","coordinates":[80.732887,7.136884]}},
{"type":"Feature","properties":{"No":14,"GND No.":"500A","Scheme":"Muloya","N":7.151235,"E":80.74676,"Observation":"-","Description":"Embankments are remaining in good condition. Good vegetative cover. Recommend constructing 0.5m (H) x 6m (L) x 2m(W) two nos of SABO dams to retain sediments and improve aeration of water.","Amount (Rs.)":"270000","photopath":"https://raw.githubusercontent.com/MWS003-GIS/MWS003-GIS.github.io/main/IWWRMP/Data/EXD/200_photo/MWS_009/K (02)1.jpg"},"geometry":{"type":"Point","coordinates":[80.74676,7.151235]}},
{"type":"Feature","properties":{"No":15,"GND No.":"500A","Scheme":"Uda ela stream","N":7.148827,"E":80.7468,"Observation":"-","Description":"Embankment erosion due to steep slope(500m). Recommend constructing 200 m long x 1mx1m leader drain with cascaded drops","Amount (Rs.)":"400000","photopath":"https://raw.githubusercontent.com/MWS003-GIS/MWS003-GIS.github.io/main/IWWRMP/Data/EXD/200_photo/MWS_009/K (02)2.jpg"},"geometry":{"type":"Point","coordinates":[80.7468,7.148827]}},
{"type":"Feature","properties":{"No":16,"GND No.":"500A","Scheme":"Ellabada stream","N":7.152524,"E":80.74345,"Observation":"-","Description":"Embankment erosion due to steep slope(500m). Recommend constructing 200 m long x 1mx1m leader drain with cascaded drops","Amount (Rs.)":"400000","photopath":"https://raw.githubusercontent.com/MWS003-GIS/MWS003-GIS.github.io/main/IWWRMP/Data/EXD/200_photo/MWS_009/K (02)3.jpg"},"geometry":{"type":"Point","coordinates":[80.74345,7.152524]}},
{"type":"Feature","properties":{"No":17,"GND No.":"500A","Scheme":"Galkotuwa stream","N":7.152789,"E":80.74238,"Observation":"-","Description":"Embankment erosion due to steep slope(200m). Recommend constructing 100 m long x 1mx1m leader drain with cascaded drops","Amount (Rs.)":"200000","photopath":"https://raw.githubusercontent.com/MWS003-GIS/MWS003-GIS.github.io/main/IWWRMP/Data/EXD/200_photo/MWS_009/K (02)4.jpg"},"geometry":{"type":"Point","coordinates":[80.74238,7.152789]}},
{"type":"Feature","properties":{"No":18,"GND No.":"500","Scheme":"Udapitiya Arawa stream","N":7.15014,"E":80.73601,"Observation":"-","Description":"Embankment erosion about 900m. Recommend to plant areca nut, Kithul and, Canas, vetiver etc in both sides for 600m length.","Amount (Rs.)":"141,000","photopath":"Not_Available"},"geometry":{"type":"Point","coordinates":[80.73601,7.15014]}},
{"type":"Feature","properties":{"No":19,"GND No.":"500","Scheme":"Hela arawa stream","N":7.147386,"E":80.734954,"Observation":"-","Description":"Embankment erosion about 1500m. Recommend to plant areca nut, Kithul and, Canas, vetiver etc in both sides for 900m length.","Amount (Rs.)":"211,500","photopath":"Not_Available"},"geometry":{"type":"Point","coordinates":[80.734954,7.147386]}},
{"type":"Feature","properties":{"No":20,"GND No.":"500","Scheme":"Kuda oya","N":7.145523,"E":80.736379,"Observation":"-","Description":"Embankment erosion about 3km. Recommend to plant areca nut, kittul and, Canas, vetiver etc in both sides for 1500m length.","Amount (Rs.)":"352,500","photopath":"Not_Available"},"geometry":{"type":"Point","coordinates":[80.736379,7.145523]}},
{"type":"Feature","properties":{"No":21,"GND No.":"500","Scheme":"Udagaha Madiththa stream","N":7.14124,"E":80.732136,"Observation":"-","Description":"Embankment erosion about 1km. Recommend to plant areca nut, kittul and Canas, vetiver etc in both sides for 600m length.","Amount (Rs.)":"141,000","photopath":"https://raw.githubusercontent.com/MWS003-GIS/MWS003-GIS.github.io/main/IWWRMP/Data/EXD/200_photo/MWS_009/BO (02)4.jpg"},"geometry":{"type":"Point","coordinates":[80.732136,7.14124]}},
{"type":"Feature","properties":{"No":22,"GND No.":"500","Scheme":"Udapatti Arawa stream","N":7.153034,"E":80.73701,"Observation":"-","Description":"Embankment erosion about 600m. Recommend to plant areca nut, kittul and, Canas, vetiver etc in both sides for 400m length.","Amount (Rs.)":"94,000","photopath":"https://raw.githubusercontent.com/MWS003-GIS/MWS003-GIS.github.io/main/IWWRMP/Data/EXD/200_photo/MWS_009/BO (02)5.jpg"},"geometry":{"type":"Point","coordinates":[80.73701,7.153034]}},
{"type":"Feature","properties":{"No":23,"GND No.":"500C","Scheme":"Daarawa Oya","N":7.15718,"E":80.738997,"Observation":"-","Description":"Stream ban erosion. Make dense planting of mixed vegetation comprising /Agave/Vetiver/Canas/Areca nut trees /Kumbuk/Mee/ Godapara/Kaduru/Aththikka/Wal del/Kekuna / local fruits/ randomly mixed seedlings at 500 mm grid interval.4. Apply mulching, organic manure and NPK fertilizer. Covered area 400 m2 ","Amount (Rs.)":"213,600","photopath":"https://raw.githubusercontent.com/MWS003-GIS/MWS003-GIS.github.io/main/IWWRMP/Data/EXD/200_photo/MWS_009/W (02)1.jpg"},"geometry":{"type":"Point","coordinates":[80.738997,7.15718]}},
{"type":"Feature","properties":{"No":24,"GND No.":"500C","Scheme":"Andeniyawatta stream 1","N":7.154209,"E":80.736946,"Observation":"-","Description":"Garbage and domestic refuse discharge into Bandara ela. Recommend 1 .to plant areca nut and vetiver grass along the stream embankment 2. To construct 600 dia drainage under crossing with a garbage trap","Amount (Rs.)":"100,000","photopath":"https://raw.githubusercontent.com/MWS003-GIS/MWS003-GIS.github.io/main/IWWRMP/Data/EXD/200_photo/MWS_009/W (02)2.jpg"},"geometry":{"type":"Point","coordinates":[80.736946,7.154209]}},
{"type":"Feature","properties":{"No":25,"GND No.":"500C","Scheme":"Andeniyawatta stream 2","N":7.154606,"E":80.73717,"Observation":"-","Description":"Garbage and domestic refuse discharge into Bandara ela. Recommend 1 .to plant areca nut and vetiver grass along the stream embankment 2. To construct 600 dia drainage under crossing with a garbage trap","Amount (Rs.)":"88,250","photopath":"https://raw.githubusercontent.com/MWS003-GIS/MWS003-GIS.github.io/main/IWWRMP/Data/EXD/200_photo/MWS_009/W (02)3.jpg"},"geometry":{"type":"Point","coordinates":[80.73717,7.154606]}},
{"type":"Feature","properties":{"No":26,"GND No.":"503A","Scheme":"Gurugal Oya Lool Kandura","N":7.13819,"E":80.719669,"Observation":"-","Description":"Embankment erosion about 5km. Recommend making dense planting of mixed vegetation comprising Agave/Areca nut trees /Kithul/Kumbuk/Mee/ Godapara/Kaduru/Aththikka/Wal del/Kekuna/riparian varieties /local fruits randomly mixed seedlings at 500 mm grid interval.4. Apply mulching, organic manure and NPK fertilizer. Total Covered area 3000 sq.m. ","Amount (Rs.)":"1,656,000","photopath":"Not_Available"},"geometry":{"type":"Point","coordinates":[80.719669,7.13819]}},
{"type":"Feature","properties":{"No":27,"GND No.":"503","Scheme":"Sub Stream 2 runs through Udugama colony","N":7.137349,"E":80.723169,"Observation":"-","Description":"Heavy rainfall runoff causing embankment erosion. Recommend 400m long leader drains with drops at steep locations. (40m x 10 nos)","Amount (Rs.)":"800,000","photopath":"https://raw.githubusercontent.com/MWS003-GIS/MWS003-GIS.github.io/main/IWWRMP/Data/EXD/200_photo/MWS_009/GU1.jpg"},"geometry":{"type":"Point","coordinates":[80.723169,7.137349]}},
{"type":"Feature","properties":{"No":28,"GND No.":"503","Scheme":"Sub Stream 1 runs through Udugama colony","N":7.137349,"E":80.723169,"Observation":"-","Description":"Heavy rainfall runoff causing embankment erosion. Recommend total 200m long leader drains with drops at steep locations. (40m x 5 nos)","Amount (Rs.)":"400,000","photopath":"https://raw.githubusercontent.com/MWS003-GIS/MWS003-GIS.github.io/main/IWWRMP/Data/EXD/200_photo/MWS_009/GU1.jpg"},"geometry":{"type":"Point","coordinates":[80.723169,7.137349]}},
{"type":"Feature","properties":{"No":29,"GND No.":"503","Scheme":"Large Stream runs through the colony","N":7.137349,"E":80.723169,"Observation":"-","Description":"Heavy rainfall runoff causing embankment erosion. Recommend making dense planting of mixed vegetation comprising Bamboo/Agave/Areca nut trees /Kithul/Kumbuk/Mee/ Godapara/Kaduru/Aththikka/Wal del/Kekuna /local fruits randomly mixed seedlings at 500 mm grid interval.4. Apply mulching, organic manure and NPK fertilizer. Total Covered area 1500 sq.m. ","Amount (Rs.)":"828,000","photopath":"https://raw.githubusercontent.com/MWS003-GIS/MWS003-GIS.github.io/main/IWWRMP/Data/EXD/200_photo/MWS_009/GU1.jpg"},"geometry":{"type":"Point","coordinates":[80.723169,7.137349]}},
{"type":"Feature","properties":{"No":30,"GND No.":"503","Scheme":"Stream near Palle Maussawa","N":7.138506,"E":80.720242,"Observation":"-","Description":"Heavy rainfall runoff causing embankment erosion. Recommend 150m long leader drains with drops at steep locations. (40m x 10 nos)","Amount (Rs.)":"300,000","photopath":"https://raw.githubusercontent.com/MWS003-GIS/MWS003-GIS.github.io/main/IWWRMP/Data/EXD/200_photo/MWS_009/GU7.jpg"},"geometry":{"type":"Point","coordinates":[80.720242,7.138506]}},
{"type":"Feature","properties":{"No":31,"GND No.":"503","Scheme":"Gurugal Oya upper reach","N":7.13776,"E":80.719354,"Observation":"-","Description":"Heavy rainfall runoff causing embankment erosion. Recommend 1. to make dense planting of mixed vegetation comprising Bamboo/Agave/Areca nut trees /Kithul/Kumbuk/Mee/ Godapara/Kaduru/Aththikka/Wal del/Kekuna /local fruits randomly mixed seedlings at 500 mm grid interval.2. Apply mulching, organic manure and NPK fertilizer. Total Covered area 2000 sq.m. \n3. To construct 3 numbers of SABO dams 3mx2mx1m ","Amount (Rs.)":"1,374,000","photopath":"https://raw.githubusercontent.com/MWS003-GIS/MWS003-GIS.github.io/main/IWWRMP/Data/EXD/200_photo/MWS_009/GU10.jpg"},"geometry":{"type":"Point","coordinates":[80.719354,7.13776]}}
]}