{
"type": "FeatureCollection",
"name": "SR",
"crs": { "type": "name", "properties": { "name": "urn:ogc:def:crs:OGC:1.3:CRS84" } },
"features": [
{ "type": "Feature", "properties": { "No": 9, "GND No.": "477A", "Scheme": "Canal flows near the Ambewela marketplace", "N": 6.876971, "E": 80.814128, "Observation": "During the rainy season when too much water flows, Bank erosion occurs", "Description": "Paving available stone in the river banks and Planting trees\n\nDry rubble packing (with locally found rubble, size over 225mm )-Along the river banks\n\nReplanting bamboo species around the river bank\n\nMiscellaneous\n\nContingencies (10%)", "Amount (Rs.)": 272800, "photopath": "https://raw.githubusercontent.com/MWS003-GIS/MWS003-GIS.github.io/main/IWWRMP/Data/EXD/200_photo/MWS_161/IMG_20260113_141138 Canal flows near the Ambewela marketplace.jpg" }, "geometry": { "type": "Point", "coordinates": [ 80.814128, 6.876971 ] } }
]
}
