{
"type": "FeatureCollection",
"name": "DWS",
"crs": { "type": "name", "properties": { "name": "urn:ogc:def:crs:OGC:1.3:CRS84" } },
"features": [
{ "type": "Feature", "properties": { "No": 11, "GND No.": "535D", "Scheme": "Galway village - Edirisinghe Mawatha & Middle part of the Wajira Mawatha", "N": 6.964661, "E": 80.786255, "Observation": "It is a form of a natural Spring", "Description": "Construction of Concrete water storage tank of 20 cum - size internal t 3mx3mx2.5\n\nContingencies 10%", "Estimated Cost": 753500, "photopath": "https://raw.githubusercontent.com/MWS003-GIS/MWS003-GIS.github.io/main/IWWRMP/Data/EXD/200_photo/MWS_167/IMG_20260121_095915 Galway village - Edirisinghe Mawatha & Middle part of the Wajira Mawatha  Well.jpg" }, "geometry": { "type": "Point", "coordinates": [ 80.786255, 6.964661 ] } }
]
}
