{
"type": "FeatureCollection",
"name": "MT",
"crs": { "type": "name", "properties": { "name": "urn:ogc:def:crs:OGC:1.3:CRS84" } },
"features": [
{ "type": "Feature", "properties": { "Name_of_Tank": "Magasthota Wijithapura Lake", "Custodians": "DAD", "N": 6.947611, "E": 80.79084, "Remarks": "Marking Reservation, desilting of lakebed and repairs to Sluice & spill", "photopath": "https://raw.githubusercontent.com/MWS003-GIS/MWS003-GIS.github.io/main/IWWRMP/Data/EXD/200_photo/MWS_167/IMG_20260123_093844 Magasthota Wijithapura Lake.jpg" }, "geometry": { "type": "Point", "coordinates": [ 80.79084, 6.947611 ] } }
]
}
