{
"type": "FeatureCollection",
"name": "SR",
"crs": { "type": "name", "properties": { "name": "urn:ogc:def:crs:OGC:1.3:CRS84" } },
"features": [
{ "type": "Feature", "properties": { "No": 20, "GND No.": "535", "Scheme": "Thalagala Oya", "N": 6.977307, "E": 80.767588, "Observation": "During the rainy season when too much water flows, Bank erosion occurs", "Description": "Construction of Gabion Wall (80 m x 3 m)\n\nSite preparation & setting out\n\nEarth excavation for foundation or quarry materials and haul the surplus materials up to 30m by Manually.\n\nSpreading , Levelling and Compacting Manually Using Standard Cast Iron St", "Amount (Rs.)": 6490000.0, "photopath": "https://raw.githubusercontent.com/MWS003-GIS/MWS003-GIS.github.io/main/IWWRMP/Data/EXD/200_photo/MWS_167/IMG_20260120_095757 Thalagala Oya.jpg" }, "geometry": { "type": "Point", "coordinates": [ 80.767588, 6.977307 ] } },
{ "type": "Feature", "properties": { "No": 21, "GND No.": "535", "Scheme": "Thalagala Oya", "N": 6.971947, "E": 80.767857, "Observation": null, "Description": null, "Amount (Rs.)": null, "photopath": "https://raw.githubusercontent.com/MWS003-GIS/MWS003-GIS.github.io/main/IWWRMP/Data/EXD/200_photo/MWS_167/IMG_20260120_092157 Thalagala Oya.jpg" }, "geometry": { "type": "Point", "coordinates": [ 80.767857, 6.971947 ] } },
{ "type": "Feature", "properties": { "No": 22, "GND No.": "535", "Scheme": "Thalagala Oya", "N": 6.971333, "E": 80.767999, "Observation": null, "Description": null, "Amount (Rs.)": null, "photopath": "https://raw.githubusercontent.com/MWS003-GIS/MWS003-GIS.github.io/main/IWWRMP/Data/EXD/200_photo/MWS_167/IMG_20260120_092603 Thalagala Oya.jpg" }, "geometry": { "type": "Point", "coordinates": [ 80.767999, 6.971333 ] } },
{ "type": "Feature", "properties": { "No": 23, "GND No.": "535", "Scheme": "Thalagala Oya", "N": 6.976364, "E": 80.764012, "Observation": null, "Description": null, "Amount (Rs.)": null, "photopath": "https://raw.githubusercontent.com/MWS003-GIS/MWS003-GIS.github.io/main/IWWRMP/Data/EXD/200_photo/MWS_167/IMG_20260120_095100 Thalagala Oya.jpg" }, "geometry": { "type": "Point", "coordinates": [ 80.764012, 6.976364 ] } },
{ "type": "Feature", "properties": { "No": 24, "GND No.": "535A", "Scheme": "Bekaspass kandura", "N": 6.944979, "E": 80.791842, "Observation": "During the rainy season when too much water flows, Bank erosion occurs", "Description": "Paving available stone in the river banks and Planting trees\n\nDry rubble packing (with locally found rubble, size over 225mm )-Along the river banks\n\nReplanting bamboo species around the river bank \n\nMiscellaneous\n\nContingencies (10%)", "Amount (Rs.)": 543400.0, "photopath": "https://raw.githubusercontent.com/MWS003-GIS/MWS003-GIS.github.io/main/IWWRMP/Data/EXD/200_photo/MWS_167/IMG_20260123_101603 Bekaspass kandura.jpg" }, "geometry": { "type": "Point", "coordinates": [ 80.791842, 6.944979 ] } },
{ "type": "Feature", "properties": { "No": 25, "GND No.": "535D", "Scheme": "Canal to Barrackplain across the Mahinda Mawatha", "N": 6.969655, "E": 80.785947, "Observation": "During the rainy season when too much water flows, Bank erosion occurs", "Description": "Paving available stone in the river banks and Planting trees\n\nDry rubble packing (with locally found rubble, size over 225mm )-Along the river banks\n\nReplanting bamboo species around the river bank \n\nMiscellaneous\n\nContingencies (10%)", "Amount (Rs.)": 616000.0, "photopath": "https://raw.githubusercontent.com/MWS003-GIS/MWS003-GIS.github.io/main/IWWRMP/Data/EXD/200_photo/MWS_167/IMG_20260121_093130 Canal to Barrackplain across the Mahinda Mawatha.jpg" }, "geometry": { "type": "Point", "coordinates": [ 80.785947, 6.969655 ] } },
{ "type": "Feature", "properties": { "No": 26, "GND No.": "535D", "Scheme": "Canal area across the Wajira Mawatha and near the temple", "N": 6.964687, "E": 80.786239, "Observation": "During the rainy season when too much water flows, Bank erosion occurs", "Description": "Paving available stone in the river banks and Planting trees\n\nDry rubble packing (with locally found rubble, size over 225mm )-Along the river banks\n\nReplanting bamboo species around the river bank \n\nMiscellaneous\n\nContingencies (10%)", "Amount (Rs.)": 363000.0, "photopath": "https://raw.githubusercontent.com/MWS003-GIS/MWS003-GIS.github.io/main/IWWRMP/Data/EXD/200_photo/MWS_167/IMG_20260121_100447 Canal area across the Wajira Mawatha and near the temple.jpg" }, "geometry": { "type": "Point", "coordinates": [ 80.786239, 6.964687 ] } },
{ "type": "Feature", "properties": { "No": 27, "GND No.": "535K", "Scheme": "Nanuoya canal (from Toppass to Golf ground)", "N": 6.984926, "E": 80.754674, "Observation": "During the rainy season when too much water flows, Bank erosion occurs", "Description": "Paving available stone in the river banks and Planting trees\n\nDry rubble packing (with locally found rubble, size over 225mm )-Along the river banks\n\nReplanting bamboo species around the river bank \n\nMiscellaneous\n\nContingencies (10%)", "Amount (Rs.)": 726000.0, "photopath": "https://raw.githubusercontent.com/MWS003-GIS/MWS003-GIS.github.io/main/IWWRMP/Data/EXD/200_photo/MWS_167/IMG_20260128_092508 Nanuoya canal (from Toppass to Golf ground).jpg" }, "geometry": { "type": "Point", "coordinates": [ 80.754674, 6.984926 ] } }
]
}
