{
"type": "FeatureCollection",
"name": "WSP",
"crs": { "type": "name", "properties": { "name": "urn:ogc:def:crs:OGC:1.3:CRS84" } },
"features": [
{ "type": "Feature", "properties": { "No": 44, "GND No.": "535", "Name of the Tank": "Piduruthalagala", "N": 6.980677, "E": 80.768753, "Observation": "It is as a form of a Kandura, During the rainy season when too much water flows, Bank erosion occurs", "Description": "Paving available stone in the  banks and Planting trees\n\nDry rubble packing (with locally found rubble, size over 225mm )-Along the banks\n\nMiscellaneous\n\nContingencies (10%)", "Amount (Rs.)": "1081300", "photopath": "https://raw.githubusercontent.com/MWS003-GIS/MWS003-GIS.github.io/main/IWWRMP/Data/EXD/200_photo/MWS_167/IMG_20260120_091646 Piduruthalagala spring.jpg" }, "geometry": { "type": "Point", "coordinates": [ 80.768753, 6.980677 ] } },
{ "type": "Feature", "properties": { "No": 45, "GND No.": "535A", "Name of the Tank": "Near the Sevapiyasa Common well", "N": 6.952, "E": 80.783438, "Observation": "It is a form of a natural source", "Description": "Construction of Well 0.9 m Dia and 5.0 m High \n\nSite preparation & setting out      \n\nEarth excavation for foundation or quarry  materials and haul the surplus materials up to 30m by Manually.\n\n150mm x 225mm Random Rubble masonry work in 1:5 cement a", "Amount (Rs.)": "143000", "photopath": "https://raw.githubusercontent.com/MWS003-GIS/MWS003-GIS.github.io/main/IWWRMP/Data/EXD/200_photo/MWS_167/IMG_20260123_114517 Near the Sevapiyasa Commen well.jpg" }, "geometry": { "type": "Point", "coordinates": [ 80.783438, 6.952 ] } },
{ "type": "Feature", "properties": { "No": 46, "GND No.": "535A", "Name of the Tank": "Magasthota wijithapura common peella", "N": 6.947737, "E": 80.787491, "Observation": "It is a form of a peella,Water is leaking from the tank wall, Located on public land. Used for drinking and bathing", "Description": "1:3:6 (40mm) concrete with concrete mixer  (volume batching) - To concrete the inner side of the wall\n\nTidying up\n\nContingencies (10%)", "Amount (Rs.)": "88000", "photopath": "https://raw.githubusercontent.com/MWS003-GIS/MWS003-GIS.github.io/main/IWWRMP/Data/EXD/200_photo/MWS_167/IMG_20260123_122200 Magasthota wijithapura commen peella.jpg" }, "geometry": { "type": "Point", "coordinates": [ 80.787491, 6.947737 ] } },
{ "type": "Feature", "properties": { "No": 47, "GND No.": "535C", "Name of the Tank": "Gregory Lake", "N": 6.95932, "E": 80.773752, "Observation": "The Garbage Flows across the Talagala Oya", "Description": "Display notice boards to prevent waste dispose into the Oya", "Amount (Rs.)": "Community contribution", "photopath": "https://raw.githubusercontent.com/MWS003-GIS/MWS003-GIS.github.io/main/IWWRMP/Data/EXD/200_photo/MWS_167/IMG_20260123_132803 Gregory Lake.jpg" }, "geometry": { "type": "Point", "coordinates": [ 80.773752, 6.95932 ] } },
{ "type": "Feature", "properties": { "No": 48, "GND No.": "535D", "Name of the Tank": "Residential area below the Mahinda road", "N": 6.969312, "E": 80.780037, "Observation": "There is a spring inside a house on Mahinda Mawatha, and excess water is released through a 63 mm P.V.C From the house", "Description": "Construction of a Water Stock Tank (3.0m x3.0m x 1.5m)\n\nSite preparation & setting out\n\nPlywood form work including making, fixing & removing for structure ?05 uses\n\nCutting, Bending & Placing tor steel reinforcement bars\n\n1:2:4 concrete with concret", "Amount (Rs.)": "715000", "photopath": "https://raw.githubusercontent.com/MWS003-GIS/MWS003-GIS.github.io/main/IWWRMP/Data/EXD/200_photo/MWS_167/IMG_20260121_103740Residential area below the Mahinda road spring.jpg" }, "geometry": { "type": "Point", "coordinates": [ 80.780037, 6.969312 ] } },
{ "type": "Feature", "properties": { "No": 49, "GND No.": "535F", "Name of the Tank": "Providing water through a water tank that was constructed in the Piduruthalagala reservation (By the Urban Council)", "N": 6.978109, "E": 80.779579, "Observation": "A  Intake, Stok tank  (8.8m x8.8m x 4.4m) L*W*H constructed. The land belongs to the Urban Council. Used for drinking and bathing, the land belongs to Hawaeliya North GND", "Description": "After checking the water quality construct a filter tank (1.0 m x 1.0 m x 1.0m) (Permission should get from the urban council)\n\nContingencies (10%)", "Amount (Rs.)": "220000", "photopath": "https://raw.githubusercontent.com/MWS003-GIS/MWS003-GIS.github.io/main/IWWRMP/Data/EXD/200_photo/MWS_167/IMG_20260130_122825 Providing water through a Intake that was constructed in the Piduruthalagala reservation (By the Urban Council).jpg" }, "geometry": { "type": "Point", "coordinates": [ 80.779579, 6.978109 ] } },
{ "type": "Feature", "properties": { "No": 50, "GND No.": "535F", "Name of the Tank": null, "N": 6.982273, "E": 80.769784, "Observation": "A  Intake & Over Head tank The land belongs to the Urban Council. Used for drinking and bathing,", "Description": "After checking the water quality construct a filter tank (1.0 m x 1.0 m x 1.0m) (Permission should get from the urban council)\n\nContingencies (10%)", "Amount (Rs.)": "220000", "photopath": "https://raw.githubusercontent.com/MWS003-GIS/MWS003-GIS.github.io/main/IWWRMP/Data/EXD/200_photo/MWS_167/IMG_20260130_121700 Providing water through a water tank that was constructed in the Piduruthalagala reservation (By the Urban Council).jpg" }, "geometry": { "type": "Point", "coordinates": [ 80.769784, 6.982273 ] } },
{ "type": "Feature", "properties": { "No": 51, "GND No.": "535F", "Name of the Tank": "The well near the Sri Sambodhi Viharaya", "N": 6.976199, "E": 80.774176, "Observation": "The well that was there has been totally covered  by soil due to the Ditwa storm on the 27th of November 2025  .", "Description": "Remove the covered soil and by checking the well lining repair the damage parts\n\nContingencies (10%)", "Amount (Rs.)": "330000", "photopath": "https://raw.githubusercontent.com/MWS003-GIS/MWS003-GIS.github.io/main/IWWRMP/Data/EXD/200_photo/MWS_167/IMG_20260130_131932 Temple well.jpg" }, "geometry": { "type": "Point", "coordinates": [ 80.774176, 6.976199 ] } },
{ "type": "Feature", "properties": { "No": 52, "GND No.": "535F", "Name of the Tank": "The spout/ pihilla near the Sri Sambodhi Viharaya", "N": 6.976093, "E": 80.774357, "Observation": "The peella is currently  used for drinking and bathing, Located on public land", "Description": "Planting 10 Kumbuk Plants\n\nSupplying of Kumbuk/ Mee/ Godapara/ Kaduru/ Aththikka/ Wal Del/ Kekuna seedlings [to be planted in 3.5m x 3.5m grid]\n\nSupplying of NPK fertilizer [0.10kg/plant]\n\nGround preparation & maintenance[7 L/days per 100.0m x 2.0m]\n\nPla", "Amount (Rs.)": "150700", "photopath": "https://raw.githubusercontent.com/MWS003-GIS/MWS003-GIS.github.io/main/IWWRMP/Data/EXD/200_photo/MWS_167/IMG_20260130_130555Peedru Stok tank.jpg" }, "geometry": { "type": "Point", "coordinates": [ 80.774357, 6.976093 ] } },
{ "type": "Feature", "properties": { "No": 53, "GND No.": "535K", "Name of the Tank": "Drinking water source located in the middle of tea plantation", "N": 6.984967, "E": 80.754683, "Observation": "The peella is currently  used for drinking and bathing, Located on public land", "Description": "1:3:6 (40mm) concrete with concrete mixer  (volume batching) - To concrete the bottom of the Pehella\n\nTidying up\n\nContingencies (10%)", "Amount (Rs.)": "22000", "photopath": "https://raw.githubusercontent.com/MWS003-GIS/MWS003-GIS.github.io/main/IWWRMP/Data/EXD/200_photo/MWS_167/IMG_20260128_091940 Drinking water source located in the middle of tea plantation.jpg" }, "geometry": { "type": "Point", "coordinates": [ 80.754683, 6.984967 ] } },
{ "type": "Feature", "properties": { "No": 54, "GND No.": "535K", "Name of the Tank": "12 C Bambarakele Estate, drinking water source", "N": 6.987669, "E": 80.755392, "Observation": "The anicut was built and was broken due to Ditwa storm on 27.11.2025.", "Description": "Construction of Concrete anicut of  6 m length and height 1.2 m.\n\nClearing the site \n\nCommon excavation for foundation or quarry materials and haul the surplus up to 30m by Manually.\n\nPlywood form work including making, fixing & removing for structure -0", "Amount (Rs.)": "205700", "photopath": "https://raw.githubusercontent.com/MWS003-GIS/MWS003-GIS.github.io/main/IWWRMP/Data/EXD/200_photo/MWS_167/IMG_20260128_094514 12 C Bambarakele Estate, drinking water source.jpg" }, "geometry": { "type": "Point", "coordinates": [ 80.755392, 6.987669 ] } },
{ "type": "Feature", "properties": { "No": 55, "GND No.": "535K", "Name of the Tank": "Urban Council's land near the Survey office", "N": 6.979842, "E": 80.755885, "Observation": "The land belongs to the Urban Council", "Description": "Demarcate boundaries and gazette as a reserve\n\nContingencies (10%)", "Amount (Rs.)": "55000", "photopath": "https://raw.githubusercontent.com/MWS003-GIS/MWS003-GIS.github.io/main/IWWRMP/Data/EXD/200_photo/MWS_167/IMG_20260128_120104 Urban Council's land near the Survay office.jpg" }, "geometry": { "type": "Point", "coordinates": [ 80.755885, 6.979842 ] } },
{ "type": "Feature", "properties": { "No": 56, "GND No.": "535K", "Name of the Tank": "Piyathissapura Spring", "N": 6.982909, "E": 80.758507, "Observation": "The R/R/M wall is  Damage. Used for drinking and bathing, Located on public land", "Description": "Construction of 1.0m high 1:3:6 (40mm) cement concrete Retaining Wall", "Amount (Rs.)": "118800", "photopath": "https://raw.githubusercontent.com/MWS003-GIS/MWS003-GIS.github.io/main/IWWRMP/Data/EXD/200_photo/MWS_167/IMG_20260128_110855 Piyathissapura Spring.jpg" }, "geometry": { "type": "Point", "coordinates": [ 80.758507, 6.982909 ] } },
{ "type": "Feature", "properties": { "No": 57, "GND No.": "535K", "Name of the Tank": "Spring near the peedru Reserve", "N": 6.984844, "E": 80.758368, "Observation": "It is a form of a natural Spring. Located on Forest land. Used for drinking and bathing,", "Description": "Construction of 1.0m high 1:3:6 (40mm) cement concrete Retaining Wall (After obtaining the permission from the Forest Department)", "Amount (Rs.)": "475200", "photopath": "https://raw.githubusercontent.com/MWS003-GIS/MWS003-GIS.github.io/main/IWWRMP/Data/EXD/200_photo/MWS_167/IMG_20260128_112004 Spring near the peedru Reserve.jpg" }, "geometry": { "type": "Point", "coordinates": [ 80.758368, 6.984844 ] } },
{ "type": "Feature", "properties": { "No": 58, "GND No.": "535K", "Name of the Tank": "Samurdhi Tank belonging to Shanthipura New Colony", "N": 6.982484, "E": 80.751386, "Observation": "The  Water tank is constructed (3.1m x 1.9m x 0.75m, L*W*H).Water leaks from the tank. A tank  Located on public land. Used for drinking and bathing", "Description": "Construction of a Water Stock Tank (3.0m x3.0m x 1.2m)\n\nSite preparation & setting out\n\nPlywood form work including making, fixing & removing for structure ?05 uses\n\nCutting, Bending & Placing tor steel reinforcement bars\n\n1:2:4 concrete with concret", "Amount (Rs.)": "654500", "photopath": "https://raw.githubusercontent.com/MWS003-GIS/MWS003-GIS.github.io/main/IWWRMP/Data/EXD/200_photo/MWS_167/IMG_20260128_121917 Samurdhi Tank belonging to Shanthipura New Colony.jpg" }, "geometry": { "type": "Point", "coordinates": [ 80.751386, 6.982484 ] } },
{ "type": "Feature", "properties": { "No": 59, "GND No.": "535K", "Name of the Tank": "Fisheries Outlet  of Bambarakele Estate", "N": 6.986017, "E": 80.751101, "Observation": "The anicut was built and is Filled with silt due to Ditwa storm on 27.11.2025.", "Description": "Wet Silt removing from Canal or Tank beds and haul the surplus materials up to 1.6 km distance by machinery.(This rate is excluding of transporting of machinery)\n\nTransport machinery\n\n63mm dia PvC pipe in Solvent Socket Type in PNT11\n\nMiscellaneous\n\nCont", "Amount (Rs.)": "177100", "photopath": "https://raw.githubusercontent.com/MWS003-GIS/MWS003-GIS.github.io/main/IWWRMP/Data/EXD/200_photo/MWS_167/IMG_20260128_094514 12 C Bambarakele Estate, drinking water source.jpg" }, "geometry": { "type": "Point", "coordinates": [ 80.751101, 6.986017 ] } },
{ "type": "Feature", "properties": { "No": 60, "GND No.": "535L", "Name of the Tank": "Single Tree Upper Division", "N": 6.958889, "E": 80.768295, "Observation": "It is a form of a natural Spring. Located on Peedru Estate land. Used for drinking and bathing,", "Description": "Construction of 1.5m high 1:3:6 (40mm) cement concrete Retaining Wall", "Amount (Rs.)": "71280", "photopath": "https://raw.githubusercontent.com/MWS003-GIS/MWS003-GIS.github.io/main/IWWRMP/Data/EXD/200_photo/MWS_167/IMG_20260129_091615 Single Tree Upper Division.jpg" }, "geometry": { "type": "Point", "coordinates": [ 80.768295, 6.958889 ] } }
]
}
