{
"type": "FeatureCollection",
"name": "Landslides",
"crs": { "type": "name", "properties": { "name": "urn:ogc:def:crs:OGC:1.3:CRS84" } },
"features": [
{ "type": "Feature", "properties": { "No.": 1, "GN Division No.": 632, "GN Division": "Mandandawela", "Landslides": "Lansliding - A part of the Udagahamuduna road near Mr. P.V. James's house", "N": 7.357946, "E": 80.635293, "NBRO Recommendation N/A": "Needs NBRO concern", "Proposed Measures": "Establish a retaining wall (12 m x 3 m). Follow recommendations of NBRO having consulted.", "photopath": "-" }, "geometry": { "type": "Point", "coordinates": [ 80.635293, 7.357946 ] } },
{ "type": "Feature", "properties": { "No.": 2, "GN Division No.": 605, "GN Division": "Kahalla", "Landslides": "1. Landsliding - Palliyawatta staircase and wall", "N": 7.333406, "E": 80.632795, "NBRO Recommendation N/A": "Needs NBRO concern", "Proposed Measures": "Follow recommendations of NBRO, having consulted.", "photopath": "https://raw.githubusercontent.com/MWS003-GIS/MWS003-GIS.github.io/main/IWWRMP/Data/EXD/200_photo/MWS_106/Palliyawatta stair case soil consrvation.jpg" }, "geometry": { "type": "Point", "coordinates": [ 80.632795, 7.333406 ] } },
{ "type": "Feature", "properties": { "No.": 3, "GN Division No.": 605, "GN Division": "Kahalla", "Landslides": "2. Landsliding - Wall near Mr. I.M.G. Ihagama's house", "N": 7.331404, "E": 80.629156, "NBRO Recommendation N/A": "Needs NBRO concern", "Proposed Measures": "Follow recommendations of NBRO, having consulted.", "photopath": "https://raw.githubusercontent.com/MWS003-GIS/MWS003-GIS.github.io/main/IWWRMP/Data/EXD/200_photo/MWS_106/MR.ihagama house landlside.jpg" }, "geometry": { "type": "Point", "coordinates": [ 80.629156, 7.331404 ] } },
{ "type": "Feature", "properties": { "No.": 4, "GN Division No.": 609, "GN Division": "Polgolla", "Landslides": "1. Erosion of the road - Sarasavi Mawatha (near Mrs. Nilani's house)", "N": 7.327938, "E": 80.651135, "NBRO Recommendation N/A": "Needs NBRO concern", "Proposed Measures": "Establish a retaining wall (10 m x 3 m). Follow recommendations of NBRO, having consulted.", "photopath": "https://raw.githubusercontent.com/MWS003-GIS/MWS003-GIS.github.io/main/IWWRMP/Data/EXD/200_photo/MWS_106/Sarasavi road near NIlas house.jpg" }, "geometry": { "type": "Point", "coordinates": [ 80.651135, 7.327938 ] } },
{ "type": "Feature", "properties": { "No.": 5, "GN Division No.": 608, "GN Division": "Nawayalathenna", "Landslides": "Sinking the road - Sinking the Seed shed/store road near the Distillery", "N": 7.333389, "E": 80.637004, "NBRO Recommendation N/A": "Needs NBRO concern", "Proposed Measures": "Need to repair the road for 10 m length. Follow recommendations of NBRO having consulted.", "photopath": "https://raw.githubusercontent.com/MWS003-GIS/MWS003-GIS.github.io/main/IWWRMP/Data/EXD/200_photo/MWS_106/Road DOC distrillerRoad.jpg" }, "geometry": { "type": "Point", "coordinates": [ 80.637004, 7.333389 ] } },
{ "type": "Feature", "properties": { "No.": 6, "GN Division No.": 617, "GN Division": "Millanga", "Landslides": "1. Landsliding - Ella and the road at near the Mrs. Kusumawathi's house near the DO office", "N": 7.343861, "E": 80.632887, "NBRO Recommendation N/A": "Needs NBRO concern", "Proposed Measures": "Establish a retaining wall (15 m x 3 m). Follow recommendations of NBRO having consulted.", "photopath": "https://raw.githubusercontent.com/MWS003-GIS/MWS003-GIS.github.io/main/IWWRMP/Data/EXD/200_photo/MWS_106/kusuma house.jpg" }, "geometry": { "type": "Point", "coordinates": [ 80.632887, 7.343861 ] } },
{ "type": "Feature", "properties": { "No.": 7, "GN Division No.": 603, "GN Division": "Meegammana West", "Landslides": "1. Landsliding - Erosion of the canal near 71/B/1, Mrs. Mangalika Gunathunga's house", "N": 7.342, "E": 80.655458, "NBRO Recommendation N/A": "Needs NBRO concern", "Proposed Measures": "Follow soil conservation practices, Land Use Planning. Follow recommendations of NBRO having consulted.", "photopath": "https://raw.githubusercontent.com/MWS003-GIS/MWS003-GIS.github.io/main/IWWRMP/Data/EXD/200_photo/MWS_106/MAllika house disaster.jpg" }, "geometry": { "type": "Point", "coordinates": [ 80.655458, 7.342 ] } },
{ "type": "Feature", "properties": { "No.": 8, "GN Division No.": 603, "GN Division": "Meegammana West", "Landslides": "2. Erosion of the slopy area - Slopy area near the hall of Funeral Aid Society", "N": 7.342931, "E": 80.655614, "NBRO Recommendation N/A": "Needs NBRO concern", "Proposed Measures": "Follow soil conservation practices, Land Use Planning. Follow recommendations of NBRO having consulted.", "photopath": "https://raw.githubusercontent.com/MWS003-GIS/MWS003-GIS.github.io/main/IWWRMP/Data/EXD/200_photo/MWS_106/LAndslide near prajasahalawa.jpg" }, "geometry": { "type": "Point", "coordinates": [ 80.655614, 7.342931 ] } },
{ "type": "Feature", "properties": { "No.": 9, "GN Division No.": 603, "GN Division": "Meegammana West", "Landslides": "3. Erosion of the slopy area - In front of Mr. Kamal's house at Magarankohoya Yaya", "N": 7.34295, "E": 80.654205, "NBRO Recommendation N/A": "Needs NBRO concern", "Proposed Measures": "Follow soil conservation practices, Land Use Planning. Follow recommendations of NBRO having consulted. Large trees should be removed and drainage facility should be improved.", "photopath": "https://raw.githubusercontent.com/MWS003-GIS/MWS003-GIS.github.io/main/IWWRMP/Data/EXD/200_photo/MWS_106/Near kamal house landslide.jpg" }, "geometry": { "type": "Point", "coordinates": [ 80.654205, 7.34295 ] } },
{ "type": "Feature", "properties": { "No.": 10, "GN Division No.": 603, "GN Division": "Meegammana West", "Landslides": "4. Erosion of the slopy area - Ella in front of Mr. W. Punchihami's house", "N": 7.341109, "E": 80.663149, "NBRO Recommendation N/A": "Needs NBRO concern", "Proposed Measures": "Follow soil conservation practices, Land Use Planning. Follow recommendations of NBRO having consulted. Establish a retaining wall:  3 m x 20 m.", "photopath": "https://raw.githubusercontent.com/MWS003-GIS/MWS003-GIS.github.io/main/IWWRMP/Data/EXD/200_photo/MWS_106/Punchihami landslide risk.jpg" }, "geometry": { "type": "Point", "coordinates": [ 80.663149, 7.341109 ] } },
{ "type": "Feature", "properties": { "No.": 11, "GN Division No.": 603, "GN Division": "Meegammana West", "Landslides": "5. Erosion of the slopy area - At the end of the Sanasa Road", "N": 7.341287, "E": 80.655078, "NBRO Recommendation N/A": "Needs NBRO concern", "Proposed Measures": "Follow soil conservation practices, Land Use Planning. Follow recommendations of NBRO having consulted. Establish a retaining wall:  3 m x 20 m.", "photopath": "https://raw.githubusercontent.com/MWS003-GIS/MWS003-GIS.github.io/main/IWWRMP/Data/EXD/200_photo/MWS_106/Sanasa rd another landslide.jpg" }, "geometry": { "type": "Point", "coordinates": [ 80.655078, 7.341287 ] } }
]
}
