{
  "type": "FeatureCollection",
  "name": "MI",
  "crs": {"type":"name","properties":{"name":"urn:ogc:def:crs:OGC:1.3:CRS84"}},
  "features": [
    {"type":"Feature","properties":{"No":1,"GND No.":607,"Scheme":"Canal of Wickkarandeniya paddy field","N":7.329985,"E":80.625482,"Observation":"water way is pollutued by mixing with waste .need to clean the water way and make the water flow smooth.12 ac of land is culitivated from this .peopele cant do paddy cultivation due to polluted water","Description":"Canal Protection works\n\nCanals reservation protection by concrete lining - 150mm thick , 0.6m wide and 0.5m high canal -double banking (U - section)\n\nStream / canal reservation protection by earthfilling of strip of 1.5m to 2m wide and average Dep","Amount (Rs.)":2026200,"photopath":"https://raw.githubusercontent.com/MWS003-GIS/MWS003-GIS.github.io/main/IWWRMP/Data/EXD/200_photo/MWS_106/Wiikaradeniya yaya canal.jpg"},"geometry":{"type":"Point","coordinates":[80.625482,7.329985]}},
    {"type":"Feature","properties":{"No":2,"GND No.":609,"Scheme":"Canal of Gale paddy field","N":7.327808,"E":80.650321,"Observation":"there is area that has not concreate wall and is damaged and erroded a lot ,used for 6 ac of paddy filed cultivation but there is no proper water flow","Description":"Canal Protection works\n\nCanal reservation protection by concrete lining For 100 mm thick , 300 mm wide and 300 mm high canal -double banking\n\nStream / canal reservation protection by earthfilling of strip of 1.5m to 2.0 m wide and average Depth","Amount (Rs.)":1740200,"photopath":"https://raw.githubusercontent.com/MWS003-GIS/MWS003-GIS.github.io/main/IWWRMP/Data/EXD/200_photo/MWS_106/canal come from pathaha.jpg"},"geometry":{"type":"Point","coordinates":[80.650321,7.327808]}},
    {"type":"Feature","properties":{"No":3,"GND No.":612,"Scheme":"Canal of Galadeniya paddy field","N":7.343779,"E":80.651314,"Observation":"damaged in several locations","Description":"Canal Protection works\n\nStream / canal reservation protection by earthfilling of strip of 1.5m to 2.0 m wide and average Depth of 0.5m\n\nVegetative cover improving for narrow strips (1.5m-2.0m wide) with Arecanut seedlings at 1.5m spacing in 2 rows,","Amount (Rs.)":555500,"photopath":"https://raw.githubusercontent.com/MWS003-GIS/MWS003-GIS.github.io/main/IWWRMP/Data/EXD/200_photo/MWS_106/Galadeniya canal.jpg"},"geometry":{"type":"Point","coordinates":[80.651314,7.343779]}},
    {"type":"Feature","properties":{"No":4,"GND No.":612,"Scheme":"Canal of Weledeniya Yaya road","N":7.342821,"E":80.650633,"Observation":"7.5 ac of land is cultivated from this canal,but not cultivated most of them only 0.5 ac of land","Description":"Canal Protection and cleaning works\n\nStream / canal reservation protection by earthfilling of strip of 1.5m to 2.0 m wide and average Depth of 0.5m\n\nVegetative cover improving for narrow strips (1.5m-2.0m wide) with Arecanut seedlings at 1.5m spacin","Amount (Rs.)":156200,"photopath":"https://raw.githubusercontent.com/MWS003-GIS/MWS003-GIS.github.io/main/IWWRMP/Data/EXD/200_photo/MWS_106/Meldeniya canal.jpg"},"geometry":{"type":"Point","coordinates":[80.650633,7.342821]}},
    {"type":"Feature","properties":{"No":5,"GND No.":613,"Scheme":"Yakadadeniya Yaya","N":7.338344,"E":80.641554,"Observation":"70 ac of land is cultivated there are two canals in teo sides of this canal","Description":"Canal Protection works\n\nCanals reservation protection by concrete lining - 150mm thick , 0.6m wide and 0.5m high canal -double banking (U - section)\n\nStream / canal reservation protection by earthfilling of strip of 1.5m to 2.0 m wide and average","Amount (Rs.)":3674000,"photopath":"https://raw.githubusercontent.com/MWS003-GIS/MWS003-GIS.github.io/main/IWWRMP/Data/EXD/200_photo/MWS_106/Yakabadeniya.jpg"},"geometry":{"type":"Point","coordinates":[80.641554,7.338344]}},
    {"type":"Feature","properties":{"No":6,"GND No.":613,"Scheme":"Srilanha Deniya Yaya","N":7.337411,"E":80.64314,"Observation":"canal path is not clear ,6 ac of paddy filed is cultivated from this","Description":"Canal Protection and cleaning works\n\nStream / canal reservation protection by earthfilling of strip of 1.5m to 2.0 m wide and average Depth of 0.5m\n\nVegetative cover improving for narrow strips (1.5m-2.0m wide) with Arecanut seedlings at 1.5m spacin","Amount (Rs.)":225500,"photopath":"https://raw.githubusercontent.com/MWS003-GIS/MWS003-GIS.github.io/main/IWWRMP/Data/EXD/200_photo/MWS_106/Srilangadeniya.jpg"},"geometry":{"type":"Point","coordinates":[80.64314,7.337411]}},
    {"type":"Feature","properties":{"No":7,"GND No.":613,"Scheme":"Galapamula Yaya","N":7.338275,"E":80.636601,"Observation":"Canal is blocked and need to clean abandoned,only 2.5 ac is working from this","Description":"Canal Protection works\n\nCanal reservation protection by concrete lining For 100 mm thick , 300 mm wide and 300 mm high canal -double banking\n\nStream / canal reservation protection by earthfilling of strip of 1.5m to 2.0 m wide and average Depth","Amount (Rs.)":976800,"photopath":"https://raw.githubusercontent.com/MWS003-GIS/MWS003-GIS.github.io/main/IWWRMP/Data/EXD/200_photo/MWS_106/Galadeniya yaya ela.jpg"},"geometry":{"type":"Point","coordinates":[80.636601,7.338275]}},
    {"type":"Feature","properties":{"No":8,"GND No.":613,"Scheme":"Nithulbissa Yaya","N":7.341488,"E":80.637262,"Observation":"highly damaged the canal due to recent disaster.a tree has fallen to canal and damaged water flow","Description":"Canal Protection works\n\nCanals reservation protection by concrete lining - 150mm thick , 0.6m wide and 0.5m high canal -double banking (U - section)\n\nStream / canal reservation protection by earthfilling of strip of 1.5m to 2.0 m wide and average","Amount (Rs.)":2124100,"photopath":"https://raw.githubusercontent.com/MWS003-GIS/MWS003-GIS.github.io/main/IWWRMP/Data/EXD/200_photo/MWS_106/Nithulbissa.jpg"},"geometry":{"type":"Point","coordinates":[80.637262,7.341488]}},
    {"type":"Feature","properties":{"No":9,"GND No.":613,"Scheme":"Alugolla Yaya","N":7.339059,"E":80.641269,"Observation":"3 ac of land is cultivated from this but only half of that is cultivated due to the damages of the canal","Description":"Canal Protection works\n\nCanal reservation protection by concrete lining For 100 mm thick , 300 mm wide and 300 mm high canal -double banking\n\nStream / canal reservation protection by earthfilling of strip of 1.5m to 2.0 m wide and average Depth","Amount (Rs.)":1323300,"photopath":"https://raw.githubusercontent.com/MWS003-GIS/MWS003-GIS.github.io/main/IWWRMP/Data/EXD/200_photo/MWS_106/Alugolla yaya ela.jpg"},"geometry":{"type":"Point","coordinates":[80.641269,7.339059]}},
    {"type":"Feature","properties":{"No":10,"GND No.":613,"Scheme":"Kosgolla Yaya","N":7.338186,"E":80.639745,"Observation":"middle part of the canal has damaged only 6 ac of paddy field is cultivating from this","Description":"Canal Protection works\n\nCanal reservation protection by concrete lining For 100 mm thick , 300 mm wide and 300 mm high canal -double banking\n\nStream / canal reservation protection by earthfilling of strip of 1.5m to 2.0 m wide and average Depth","Amount (Rs.)":1018600,"photopath":"https://raw.githubusercontent.com/MWS003-GIS/MWS003-GIS.github.io/main/IWWRMP/Data/EXD/200_photo/MWS_106/K0sgolla yaya ela.jpg"},"geometry":{"type":"Point","coordinates":[80.639745,7.338186]}},
    {"type":"Feature","properties":{"No":11,"GND No.":615,"Scheme":"Pehapuyaya canal","N":7.338469,"E":80.649714,"Observation":"10 ac of land is cultivated from this ,but damaged in sevarqal places","Description":"Canal Protection works\n\nCanal reservation protection by concrete lining For 100 mm thick , 300 mm wide and 300 mm high canal -double banking\n\nStream / canal reservation protection by earthfilling of strip of 1.5m to 2.0 m wide and average Depth","Amount (Rs.)":2645500,"photopath":"https://raw.githubusercontent.com/MWS003-GIS/MWS003-GIS.github.io/main/IWWRMP/Data/EXD/200_photo/MWS_106/Kerahapu yaya ela.jpg"},"geometry":{"type":"Point","coordinates":[80.649714,7.338469]}},
    {"type":"Feature","properties":{"No":12,"GND No.":615,"Scheme":"Ketakala canal","N":7.34105,"E":80.649374,"Observation":"due to the high water flow in rain season water is flowing trough paddy fields ,5 ac of land is cultivated fro this","Description":"Canal Protection works\n\nCanal reservation protection by concrete lining For 100 mm thick , 300 mm wide and 300 mm high canal -double banking\n\nStream / canal reservation protection by earthfilling of strip of 1.5m to 2.0 m wide and average Depth","Amount (Rs.)":768900,"photopath":"https://raw.githubusercontent.com/MWS003-GIS/MWS003-GIS.github.io/main/IWWRMP/Data/EXD/200_photo/MWS_106/Ketakala yaya ela.jpg"},"geometry":{"type":"Point","coordinates":[80.649374,7.34105]}},
    {"type":"Feature","properties":{"No":13,"GND No.":615,"Scheme":"Kithulgahakubura ela","N":7.339477,"E":80.649163,"Observation":"dagmed the canal path in several locations.5ac of land is cultivated from this","Description":"Canal protection works\n\nConstruction of 3.0m high (Total Height) 1:3:6 (40mm) cement concrete Retaining Wall \n\nStream / canal reservation protection by earthfilling of strip of 1.5m to 2m wide and average Depth of 0.5m\n\nVegetative cover improving fo","Amount (Rs.)":3543320,"photopath":"https://raw.githubusercontent.com/MWS003-GIS/MWS003-GIS.github.io/main/IWWRMP/Data/EXD/200_photo/MWS_106/Kithalgahakubura ela.jpg"},"geometry":{"type":"Point","coordinates":[80.649163,7.339477]}},
    {"type":"Feature","properties":{"No":14,"GND No.":615,"Scheme":"Oya Pahala Yaya canal","N":7.341854,"E":80.648227,"Observation":"highly damaged due to disaster time,canal path has been changed and highly erroed the canal bunds.sand acumilation in thepaddy fileds and cant do paddy caultivation","Description":"Canal protection works\n\nConstruction of 3.0m high (Total Height) 1:3:6 (40mm) cement concrete Retaining Wall \n\nStream / canal reservation protection by earthfilling of strip of 1.5m to 2m wide and average Depth of 0.5m\n\nVegetative cover improving fo","Amount (Rs.)":3543320,"photopath":"-"},"geometry":{"type":"Point","coordinates":[80.648227,7.341854]}},
    {"type":"Feature","properties":{"No":15,"GND No.":617,"Scheme":"Badunileyaya canal","N":7.343802,"E":80.635203,"Observation":"15 ac of paddy is cultivated from this has eroded and damaged inseveral locacions","Description":"Canal protection works\n\nConstruction of 3.0m high (Total Height) 1:3:6 (40mm) cement concrete Retaining Wall \n\nCanals reservation protection by concrete lining - 150mm thick , 0.6m wide and 0.5m high canal -double banking (U - section)\n\nStream / canal","Amount (Rs.)":3148200,"photopath":"https://raw.githubusercontent.com/MWS003-GIS/MWS003-GIS.github.io/main/IWWRMP/Data/EXD/200_photo/MWS_106/BAdagenella canal.jpg"},"geometry":{"type":"Point","coordinates":[80.635203,7.343802]}},
    {"type":"Feature","properties":{"No":16,"GND No.":625,"Scheme":"Alugolla Yaya canal","N":7.360152,"E":80.645005,"Observation":"10 acres of forest conservation land.","Description":"Canal Protection works\n\nCanal reservation protection by concrete lining For 100 mm thick , 300 mm wide and 300 mm high canal -double banking\n\nStream / canal reservation protection by earthfilling of strip of 1.5m to 2.0 m wide and average Depth","Amount (Rs.)":1815000,"photopath":"https://raw.githubusercontent.com/MWS003-GIS/MWS003-GIS.github.io/main/IWWRMP/Data/EXD/200_photo/MWS_106/alugolla yaya canal (3).jpg"},"geometry":{"type":"Point","coordinates":[80.645005,7.360152]}},
    {"type":"Feature","properties":{"No":17,"GND No.":626,"Scheme":"Ele Kumbura canal","N":7.353673,"E":80.638415,"Observation":"5 acres of paddy land. no proper draingae/.","Description":"Canal Protection works\n\nCanal reservation protection by concrete lining For 100 mm thick , 300 mm wide and 300 mm high canal -double banking\n\nStream / canal reservation protection by earthfilling of strip of 1.5m to 2.0 m wide and average Depth","Amount (Rs.)":1740200,"photopath":"https://raw.githubusercontent.com/MWS003-GIS/MWS003-GIS.github.io/main/IWWRMP/Data/EXD/200_photo/MWS_106/galbokkayaya canal (1).jpg"},"geometry":{"type":"Point","coordinates":[80.638415,7.353673]}},
    {"type":"Feature","properties":{"No":18,"GND No.":632,"Scheme":"Canal of Mandandawela Yaya","N":7.3632709,"E":80.6291401,"Observation":"16 acres of paddy land. canl bunds are damaged due to flooding. They have a 15m concrete wall, but it is not enough.","Description":"Canal protection works\n\nConstruction of 1.5m high 1:3:6 (40mm) cement concrete Retaining Wall \n\nCanals reservation protection by concrete lining - 150mm thick , 0.6m wide and 0.5m high canal -double banking (U - section)\n\nStream / canal reservation pr","Amount (Rs.)":3441900,"photopath":"-"},"geometry":{"type":"Point","coordinates":[80.6291401,7.3632709]}},
    {"type":"Feature","properties":{"No":19,"GND No.":632,"Scheme":"Two canals of Gadadessa Yaya","N":7.357946,"E":80.635293,"Observation":"15 acres of paddy land. The concrete wall was damaged.","Description":"Canal protection works\n\nConstruction of 1.5m high 1:3:6 (40mm) cement concrete Retaining Wall \n\nStream / canal reservation protection by earthfilling of strip of 1.5m to 2m wide and average Depth of 0.5m\n\nVegetative cover improving for narrow strips","Amount (Rs.)":2466200,"photopath":"-"},"geometry":{"type":"Point","coordinates":[80.635293,7.357946]}},
    {"type":"Feature","properties":{"No":20,"GND No.":632,"Scheme":"Canal of Wiyalewala Yaya","N":7.357946,"E":80.635293,"Observation":"The drainage line was damaged.","Description":"Canal protection works\n\nConstruction of 1.5m high 1:3:6 (40mm) cement concrete Retaining Wall \n\nStream / canal reservation protection by earthfilling of strip of 1.5m to 2m wide and average Depth of 0.5m\n\nVegetative cover improving for narrow strips","Amount (Rs.)":2604800,"photopath":"-"},"geometry":{"type":"Point","coordinates":[80.635293,7.357946]}},
    {"type":"Feature","properties":{"No":"18","GND No.":"632","Scheme":"Canal of Mandandawela Yaya","N":7.3632709,"E":80.6291401,"Observation":"16 acres of paddy land. canl bunds are damaged due to flooding. They have a 15m concrete wall, but it is not enough.","Description":"\"Canal protection works\n\nConstruction of 1.5m high 1:3:6 (40mm) cement concrete Retaining Wall \n\nCanals reservation protection by concrete lining - 150mm thick , 0.6m wide and 0.5m high canal -double banking (U - section)\n\nStream / canal reservation pr\"","Amount (Rs.)":"3441900","photopath":"https://raw.githubusercontent.com/MWS003-GIS/MWS003-GIS.github.io/main/IWWRMP/Data/EXD/200_photo/MWS_106/mandandawe canal (2).jpg"},"geometry":{"type":"Point","coordinates":[80.6291401,7.3632709]}}
  ]
}