{
"type": "FeatureCollection",
"name": "SR",
"crs": { "type": "name", "properties": { "name": "urn:ogc:def:crs:OGC:1.3:CRS84" } },
"features": [
{ "type": "Feature", "properties": { "No": 1, "GND No.": 605, "Scheme": "Canal near Bettangadeniya paddy field", "N": 7.327444, "E": 80.629186, "Observation": "no cultivation is done only 3 ac is cultivated .waste and drinage tubes of houses are orinted to the canal", "Description": "Construction of a 0.6 m High Wall for 10 m\n\nSite Preparation and Setting Out\n\nEarth Excavation for Foundations and Disposal of Surplus Excavated Material Within 30 m by Manually\n\n150 mm × 225 mm Random Rubble Masonry Work in 1:5 Cement–Sand Mortar for", "Amount (Rs.)": 1012000, "photopath": "https://raw.githubusercontent.com/MWS003-GIS/MWS003-GIS.github.io/main/IWWRMP/Data/EXD/200_photo/MWS_106/Bettangadeniya.jpg" }, "geometry": { "type": "Point", "coordinates": [ 80.629186, 7.327444 ] } },
{ "type": "Feature", "properties": { "No": 2, "GND No.": 605, "Scheme": "Hapukotadeniya canal", "N": 7.333098, "E": 80.626244, "Observation": "5 ac land is cultivated from this , water is going trough the paddy field and damages most of the filed.", "Description": "Construction of a 500 mm × 500 mm (Width × Height) Reinforced Concrete Rectangular Canal for 100 m\n\nSite Preparation and Setting Out\n\nEarth Excavation for Foundations and Disposal of Surplus Excavated Material Within 30 m by Manually\n\nPlywood Formwork,", "Amount (Rs.)": 1393700, "photopath": "https://raw.githubusercontent.com/MWS003-GIS/MWS003-GIS.github.io/main/IWWRMP/Data/EXD/200_photo/MWS_106/Hapukotadeniya.jpg" }, "geometry": { "type": "Point", "coordinates": [ 80.626244, 7.333098 ] } },
{ "type": "Feature", "properties": { "No": 3, "GND No.": 606, "Scheme": "Piga Oya", "N": 7.334744, "E": 80.621543, "Observation": "high bank erosion due to not having a good soil conservation method along the river bank .some natural coveragehas removed due to  unauthorized constructions and previous disaster", "Description": "Plantation of trees\n\nConstruct the gabion walls for required location\n\nContingencies (10%)", "Amount (Rs.)": 77000, "photopath": "https://raw.githubusercontent.com/MWS003-GIS/MWS003-GIS.github.io/main/IWWRMP/Data/EXD/200_photo/MWS_106/Piga oya kalugala gsd.jpg" }, "geometry": { "type": "Point", "coordinates": [ 80.621543, 7.334744 ] } },
{ "type": "Feature", "properties": { "No": 4, "GND No.": 609, "Scheme": "Rawan Oya", "N": 7.326302, "E": 80.652276, "Observation": "highly damaged river banks due to disaster and sand mining .there is an existing wall but damaged .all thre nearby areas are flooded due to this", "Description": "Repair the wall\n\nContingencies (10%)", "Amount (Rs.)": 44000, "photopath": "https://raw.githubusercontent.com/MWS003-GIS/MWS003-GIS.github.io/main/IWWRMP/Data/EXD/200_photo/MWS_106/Ravan oya.jpg" }, "geometry": { "type": "Point", "coordinates": [ 80.652276, 7.326302 ] } },
{ "type": "Feature", "properties": { "No": 5, "GND No.": 612, "Scheme": "Pussalu Oya", "N": 7.342893, "E": 80.649992, "Observation": "highly eroded river banks ,and high waste deposited .", "Description": "Plantation of trees\n\nContingencies (10%)", "Amount (Rs.)": 44000, "photopath": "https://raw.githubusercontent.com/MWS003-GIS/MWS003-GIS.github.io/main/IWWRMP/Data/EXD/200_photo/MWS_106/Pussalu oya.jpg" }, "geometry": { "type": "Point", "coordinates": [ 80.649992, 7.342893 ] } },
{ "type": "Feature", "properties": { "No": 6, "GND No.": 614, "Scheme": "Huriyakaduwa canal", "N": 7.347923, "E": 80.641219, "Observation": "damaged and eroded the waterway need to repair ,10 ac of land", "Description": "Construction of   500mm x 500mm (width x height) Rectangular Con. Canal  for 100m\n\nStream / canal  reservation protection by earth filling of  strip   of 1.5m to 2m wide  and average Depth of 0.5m for 400m.\n\nContingencies (10%)", "Amount (Rs.)": 1443200, "photopath": "https://raw.githubusercontent.com/MWS003-GIS/MWS003-GIS.github.io/main/IWWRMP/Data/EXD/200_photo/MWS_106/Hurukaduwa yaya ela.jpg" }, "geometry": { "type": "Point", "coordinates": [ 80.641219, 7.347923 ] } },
{ "type": "Feature", "properties": { "No": 7, "GND No.": 614, "Scheme": "Galpoththayaya canal", "N": 7.346921, "E": 80.641043, "Observation": "highly damaged the concrete wall of the canal and blocked the water flow", "Description": "Repair the Concrete wall\n\nContingencies (10%)", "Amount (Rs.)": 33000, "photopath": "https://raw.githubusercontent.com/MWS003-GIS/MWS003-GIS.github.io/main/IWWRMP/Data/EXD/200_photo/MWS_106/Galpotta yaya ela.jpg" }, "geometry": { "type": "Point", "coordinates": [ 80.641043, 7.346921 ] } },
{ "type": "Feature", "properties": { "No": 8, "GND No.": 614, "Scheme": "Canal of Koskada paddy field", "N": 7.346921, "E": 80.641043, "Observation": "canal bund has been danamged need to repair ,no proper pathway", "Description": "Construction of   500mm x 500mm (width x height) Rectangular Con. Canal  for 100m\n\nStream / canal  reservation protection by earth filling of  strip   of 1.5m to 2m wide  and average Depth of 0.5m for 100m.\n\nContingencies (10%)", "Amount (Rs.)": 1185800, "photopath": "https://raw.githubusercontent.com/MWS003-GIS/MWS003-GIS.github.io/main/IWWRMP/Data/EXD/200_photo/MWS_106/KOskanda yaya ela.jpg" }, "geometry": { "type": "Point", "coordinates": [ 80.641043, 7.346921 ] } },
{ "type": "Feature", "properties": { "No": 9, "GND No.": 614, "Scheme": "Ritigahawela canal", "N": 7.343872, "E": 80.643258, "Observation": "not much issue water flow only raining season canal pathway is not clear.6ac cutivation", "Description": "Construction of   500mm x 500mm (width x height) Rectangular Con. Canal  for 100m\n\nStream / canal  reservation protection by earth filling of  strip   of 1.5m to 2m wide  and average Depth of 0.5m for 600m.\n\nContingencies (10%)", "Amount (Rs.)": 1614800, "photopath": "https://raw.githubusercontent.com/MWS003-GIS/MWS003-GIS.github.io/main/IWWRMP/Data/EXD/200_photo/MWS_106/Ritigahawela.jpg" }, "geometry": { "type": "Point", "coordinates": [ 80.643258, 7.343872 ] } },
{ "type": "Feature", "properties": { "No": 10, "GND No.": 614, "Scheme": "Galadeniyaya canal", "N": 7.3497, "E": 80.64324, "Observation": "there are some damaged locations not much issue", "Description": "Clear the canal pathway\n\nContingencies (10%)", "Amount (Rs.)": 22000, "photopath": "https://raw.githubusercontent.com/MWS003-GIS/MWS003-GIS.github.io/main/IWWRMP/Data/EXD/200_photo/MWS_106/Galadeniya canal.jpg" }, "geometry": { "type": "Point", "coordinates": [ 80.64324, 7.3497 ] } },
{ "type": "Feature", "properties": { "No": 11, "GND No.": 614, "Scheme": "Palkadeyaya canal", "N": 7.345471, "E": 80.639739, "Observation": "highly eroded the bottom of the river to a high depth .5ac cultivation", "Description": "Construction of   500mm x 500mm (width x height) Rectangular Con. Canal  for 100m\n\nStream / canal  reservation protection by earth filling of  strip   of 1.5m to 2m wide  and average Depth of 0.5m for 400m.\n\nContingencies (10%)", "Amount (Rs.)": 1443200, "photopath": "https://raw.githubusercontent.com/MWS003-GIS/MWS003-GIS.github.io/main/IWWRMP/Data/EXD/200_photo/MWS_106/Palkadekuburayaya ela.jpg" }, "geometry": { "type": "Point", "coordinates": [ 80.639739, 7.345471 ] } },
{ "type": "Feature", "properties": { "No": 12, "GND No.": 614, "Scheme": "Pussalu Oya", "N": 7.340675, "E": 80.644236, "Observation": "river banks has been erroded and waste could be seen beside the river banks", "Description": "Clean the river bank\n\nContingencies (10%)", "Amount (Rs.)": 22000, "photopath": "https://raw.githubusercontent.com/MWS003-GIS/MWS003-GIS.github.io/main/IWWRMP/Data/EXD/200_photo/MWS_106/Pussalu oya.jpg" }, "geometry": { "type": "Point", "coordinates": [ 80.644236, 7.340675 ] } },
{ "type": "Feature", "properties": { "No": 13, "GND No.": 613, "Scheme": "Rawan Oya", "N": 7.339155, "E": 80.638614, "Observation": "highly erroded the river bank.accumilted waste flowing through water", "Description": "Plantation of trees\n\nContingencies (10%)", "Amount (Rs.)": 33000, "photopath": "-" }, "geometry": { "type": "Point", "coordinates": [ 80.638614, 7.339155 ] } },
{ "type": "Feature", "properties": { "No": 14, "GND No.": 616, "Scheme": "Hali Ela", "N": 7.339614, "E": 80.633798, "Observation": "severe damage to the canal pathway due to errosion,5ac is cultivation.very useful when dry season", "Description": "Construction of  450mm x 450mm (width x height) Rectangular Con. canal. For 100m\n\nStream / canal  reservation protection by earth filling of  strip   of 1.5m to 2m wide  and average Depth of 0.5m for 300m.\n\nContingencies (10%)", "Amount (Rs.)": 1247400, "photopath": "https://raw.githubusercontent.com/MWS003-GIS/MWS003-GIS.github.io/main/IWWRMP/Data/EXD/200_photo/MWS_106/Hali ela.jpg" }, "geometry": { "type": "Point", "coordinates": [ 80.633798, 7.339614 ] } },
{ "type": "Feature", "properties": { "No": 15, "GND No.": 619, "Scheme": "Piga Oya", "N": 7.3388849, "E": 80.6200649, "Observation": "there are many unauthorized constructions in the reservation of the canal,and waste acumiated along the canal", "Description": "Plantation of trees\n\nContingencies (10%)", "Amount (Rs.)": 33000, "photopath": "https://raw.githubusercontent.com/MWS003-GIS/MWS003-GIS.github.io/main/IWWRMP/Data/EXD/200_photo/MWS_106/piga oya.jpg" }, "geometry": { "type": "Point", "coordinates": [ 80.6200649, 7.3388849 ] } },
{ "type": "Feature", "properties": { "No": 16, "GND No.": 626, "Scheme": "Pussalu Oya", "N": 7.360152, "E": 80.651594, "Observation": "Canal banks are eroded. The bridge was damaged.", "Description": "Plantation of trees\n\nContingencies (10%)", "Amount (Rs.)": 33000, "photopath": "https://raw.githubusercontent.com/MWS003-GIS/MWS003-GIS.github.io/main/IWWRMP/Data/EXD/200_photo/MWS_106/galbokkayaya canal (1).jpg" }, "geometry": { "type": "Point", "coordinates": [ 80.651594, 7.360152 ] } },
{ "type": "Feature", "properties": { "No": 17, "GND No.": 627, "Scheme": "Canal of Metiganna paddy field", "N": 7.357755, "E": 80.638758, "Observation": "the canal was damage due to the land slide, as well  eroded canal banks can be seen.  the anicat was damaged.", "Description": "Clean the canal\n\nConstrcuct a rubble wall\n\nContingencies (10%)\n\n", "Amount (Rs.)": 77000, "photopath": "https://raw.githubusercontent.com/MWS003-GIS/MWS003-GIS.github.io/main/IWWRMP/Data/EXD/200_photo/MWS_106/matigana canal (4).jpg" }, "geometry": { "type": "Point", "coordinates": [ 80.638758, 7.357755 ] } },
{ "type": "Feature", "properties": { "No": 18, "GND No.": 627, "Scheme": "Canal near the bridge of Dodamgolla Yaya", "N": 7.34657, "E": 80.6339906, "Observation": "20 acres of paddy fields. no cultivations.", "Description": "Increase the volume of the canal\n\nContingencies (10%)", "Amount (Rs.)": 22000, "photopath": "https://raw.githubusercontent.com/MWS003-GIS/MWS003-GIS.github.io/main/IWWRMP/Data/EXD/200_photo/MWS_106/dodangollayaya canal (3).jpg" }, "geometry": { "type": "Point", "coordinates": [ 80.6339906, 7.34657 ] } },
{ "type": "Feature", "properties": { "No": 19, "GND No.": 628, "Scheme": "Irrigation canal of Depaldeniya Yaya", "N": 7.350024, "E": 80.639455, "Observation": "canal bunds were damaged.", "Description": "Construction of a 0.6 m High Wall for 10 m\n\nSite Preparation and Setting Out\n\nEarth Excavation for Foundations and Disposal of Surplus Excavated Material Within 30 m by Manually\n\n150 mm × 225 mm Random Rubble Masonry Work in 1:5 Cement–Sand Mortar for", "Amount (Rs.)": 1050500, "photopath": "https://raw.githubusercontent.com/MWS003-GIS/MWS003-GIS.github.io/main/IWWRMP/Data/EXD/200_photo/MWS_106/depaldeniya canal (5).jpg" }, "geometry": { "type": "Point", "coordinates": [ 80.639455, 7.350024 ] } },
{ "type": "Feature", "properties": { "No": 20, "GND No.": 628, "Scheme": "Canal at the upper division of Badagaldeniya Yaya", "N": 7.34657, "E": 80.633906, "Observation": "9 acres of paddy land. The canal bunds are damaged.", "Description": "Plantation of Trees\n\nConstruct a RR wall\n\nContingencies (10%)", "Amount (Rs.)": 165000, "photopath": "https://raw.githubusercontent.com/MWS003-GIS/MWS003-GIS.github.io/main/IWWRMP/Data/EXD/200_photo/MWS_106/badathldeniya canal (4).jpg" }, "geometry": { "type": "Point", "coordinates": [ 80.633906, 7.34657 ] } },
{ "type": "Feature", "properties": { "No": 21, "GND No.": 632, "Scheme": "Upper area from the canal of Mandandawela Yaya", "N": 7.357924, "E": 80.635294, "Observation": "The drain was blocked due to garbage.", "Description": "Construct the 1.5 feet*1.5 feet drain\n\nContingencies (10%)", "Amount (Rs.)": 330000, "photopath": "-" }, "geometry": { "type": "Point", "coordinates": [ 80.635294, 7.357924 ] } }
]
}
