{
  "type": "FeatureCollection",
  "name": "SWC_ON",
  "crs": {"type":"name","properties":{"name":"urn:ogc:def:crs:OGC:1.3:CRS84"}},
  "features": [
    {"type":"Feature","properties":{"No.":1,"GND No.":617,"GND Name":"Millanga","Key Activities proposed for Soil and Water conservation":"1. Soil conservation practices - Near Mrs. Sanduni's house and Mr. G.G. Jayasena's house at Moragaskotuwamain road of Millanga GND. And, in front of the Sri Shailabimbarama Viharaya (30Â°-40Â°)","Priority based on Soil Erosion Hazard":1,"N":7.299136,"E":80.616345,"Quantity":"10 ha","Proposed measure/s":"1. Establishing SALT - 3000 m\n2. Live fencing - 4000 m\n3. Lock and spills - 2000 m\n4. Stone terracing - 1000 m\n5. Agronomic practices should be adapted at optimum level (conservation tillage, crop rotation and diversification, cover crops, mulching, con","Uniti_Cost":"250.00 m-1\n120.00 m-1\n400.00 m-1\n2500.00 m-1","Total_Cost":4530000,"Contribution (Local Community, LA, and the project)":"Labour and other basic services by the Local community","Time frame for the implementation":"0.25 Years","photopath":"-"},"geometry":{"type":"Point","coordinates":[80.616345,7.299136]}},
    {"type":"Feature","properties":{"No.":"1","GND No.":"617","GND Name":"Millanga","Key Activities proposed for Soil and Water conservation":"1. Soil conservation practices - Near Mrs. Sanduni's house and Mr. G.G. Jayasena's house at Moragaskotuwamain road of Millanga GND. And, in front of the Sri Shailabimbarama Viharaya (30°-40°)","Priority based on Soil Erosion Hazard":"1","N":7.299136,"E":80.616345,"Quantity":"10 ha","Proposed":"\"1. Establishing SALT - 3000 m 2. Live fencing - 4000 m 3. Lock and spills - 2000 m 4. Stone terracing - 1000 m 5. Agronomic practices should be adapted at optimum level (conservation tillage, crop rotation and diversification, cover crops, mulching, con\"","Unit Cost (Rs.)":"\"250.00 m-1 120.00 m-1 400.00 m-1 2500.00 m-1\"","Total_Cost":"4530000","Contribution (Local Community, LA, and the project)":"Labour and other basic services by the Local community","Time frame for the implementation":"0.25 Years","photopath":"https://raw.githubusercontent.com/MWS003-GIS/MWS003-GIS.github.io/main/IWWRMP/Data/EXD/200_photo/MWS_106/Near shantha house lanslide 2.jpg"},"geometry":{"type":"Point","coordinates":[80.616345,7.299136]}}
  ]
}