{
"type": "FeatureCollection",
"name": "SWC_OFF",
"crs": { "type": "name", "properties": { "name": "urn:ogc:def:crs:OGC:1.3:CRS84" } },
"features": [
{ "type": "Feature", "properties": { "No.": 1, "GND No.": 603, "GND Name": "Meegammana West", "Key Activities proposed for Soil and Water conservation": "1. Establishing a retaining wall - Ella in front of Mr. W. Punchihami's House", "Priority based on Soil Erosion Hazard": 4, "N": 7.341109, "E": 80.663149, "Quantity": "20 m x 3 m", "Proposed measure/s": "Retaining Wall (Concrete)", "Total_Cost": 2128500, "Contribution (Local Community, LA, and the project)": "By the project", "Time frame for the implementation": "0.25 Years", "photopath": "https://raw.githubusercontent.com/MWS003-GIS/MWS003-GIS.github.io/main/IWWRMP/Data/EXD/200_photo/MWS_106/Punchihami landslide risk.jpg" }, "geometry": { "type": "Point", "coordinates": [ 80.663149, 7.341109 ] } },
{ "type": "Feature", "properties": { "No.": 2, "GND No.": 603, "GND Name": "Meegammana West", "Key Activities proposed for Soil and Water conservation": "2. Establishing a retaining wall - At the end of the Sanasa Road", "Priority based on Soil Erosion Hazard": 3, "N": 7.341287, "E": 80.655078, "Quantity": "20 m x 3 m", "Proposed measure/s": "Retaining Wall (Concrete)", "Total_Cost": 2128500, "Contribution (Local Community, LA, and the project)": "By the project", "Time frame for the implementation": "0.25 Years", "photopath": "https://raw.githubusercontent.com/MWS003-GIS/MWS003-GIS.github.io/main/IWWRMP/Data/EXD/200_photo/MWS_106/Sanasa rd disaster.jpg" }, "geometry": { "type": "Point", "coordinates": [ 80.655078, 7.341287 ] } },
{ "type": "Feature", "properties": { "No.": 3, "GND No.": 609, "GND Name": "Polgolla", "Key Activities proposed for Soil and Water conservation": "1. Establishing a retaining wall - Sarasavi Mawatha (near Mrs. Nilani's house)", "Priority based on Soil Erosion Hazard": 3, "N": 7.327938, "E": 80.651135, "Quantity": "10 m x 3 m", "Proposed measure/s": "Retaining Wall (Concrete)", "Total_Cost": 1067000, "Contribution (Local Community, LA, and the project)": "By the project", "Time frame for the implementation": "0.25 Years", "photopath": "https://raw.githubusercontent.com/MWS003-GIS/MWS003-GIS.github.io/main/IWWRMP/Data/EXD/200_photo/MWS_106/Sarasavi road near NIlas house.jpg" }, "geometry": { "type": "Point", "coordinates": [ 80.651135, 7.327938 ] } },
{ "type": "Feature", "properties": { "No.": 4, "GND No.": 610, "GND Name": "Balanagala", "Key Activities proposed for Soil and Water conservation": "Establishing a retaining wall - Mahaweli School", "Priority based on Soil Erosion Hazard": 1, "N": 7.329197, "E": 80.640955, "Quantity": "10 m x 3 m", "Proposed measure/s": "Retaining Wall (Concrete)", "Total_Cost": 1067000, "Contribution (Local Community, LA, and the project)": "By the project", "Time frame for the implementation": "0.25 Years", "photopath": "https://raw.githubusercontent.com/MWS003-GIS/MWS003-GIS.github.io/main/IWWRMP/Data/EXD/200_photo/MWS_106/Mahaweli school landslide.jpg" }, "geometry": { "type": "Point", "coordinates": [ 80.640955, 7.329197 ] } },
{ "type": "Feature", "properties": { "No.": 5, "GND No.": 617, "GND Name": "Millanga", "Key Activities proposed for Soil and Water conservation": "1. Establishing a retaining wall - Ella and the road at near the Mrs. Kusumawathi's house near the DO Office", "Priority based on Soil Erosion Hazard": 2, "N": 7.343861, "E": 80.632887, "Quantity": "15 m x 3 m", "Proposed measure/s": "Retaining Wall (Concrete)", "Total_Cost": 1600500, "Contribution (Local Community, LA, and the project)": "By the project", "Time frame for the implementation": "0.25 Years", "photopath": "https://raw.githubusercontent.com/MWS003-GIS/MWS003-GIS.github.io/main/IWWRMP/Data/EXD/200_photo/MWS_106/kusuma house.jpg" }, "geometry": { "type": "Point", "coordinates": [ 80.632887, 7.343861 ] } },
{ "type": "Feature", "properties": { "No.": 6, "GND No.": 632, "GND Name": "Mandandawela", "Key Activities proposed for Soil and Water conservation": "Establishing a retaining wall - A part of the Udagahamuduna road near Mr. P.V. James's house", "Priority based on Soil Erosion Hazard": 3, "N": 7.357946, "E": 80.635293, "Quantity": "12 m x 3 m", "Proposed measure/s": "Retaining Wall (Concrete)", "Total_Cost": 1281500, "Contribution (Local Community, LA, and the project)": "By the project", "Time frame for the implementation": "0.25 Years", "photopath": "-" }, "geometry": { "type": "Point", "coordinates": [ 80.635293, 7.357946 ] } }
]
}
