{
"type": "FeatureCollection",
"name": "MI",
"crs": { "type": "name", "properties": { "name": "urn:ogc:def:crs:OGC:1.3:CRS84" } },
"features": [
{ "type": "Feature", "properties": { "No": 2, "GND No.": "476B", "Scheme": "Aluth ela", "N": 6.916847, "E": 80.752194, "Observation": "Some sections of this canal, which is about 850 m long, have been developed (W=0.45m, H=0.3m). Other sections remain as an earthen canal.  some sections are in severely dilapidated due to farmers encroaching on the canal  reserve and the canal being brok", "Description": "Canals reservation protection by concrete lining  For  125mm thick , 0.5m  wide  and 0.4m high canal -double banking\n\nStream / canal  reservation protection by earth filling of  strip   of 1.5m to 2m wide  and average Depth of 0.5m\n\nVegetative cover impr", "Amount (Rs.)": 1963000, "photopath": "https://raw.githubusercontent.com/MWS003-GIS/MWS003-GIS.github.io/main/IWWRMP/Data/EXD/200_photo/MWS_162/Minor Irrigation - Aluth ela (3).jpg" }, "geometry": { "type": "Point", "coordinates": [ 80.752194, 6.916847 ] } },
{ "type": "Feature", "properties": { "No": 3, "GND No.": "476B", "Scheme": "Canal", "N": 6.919081, "E": 80.751507, "Observation": "Some sections of this canal, which is about 600 m long, have been developed (W=0.45m, H=0.3m). Other sections remain as an earthen canal.  some sections are in severely dilapidated due to farmers encroaching on the canal  reserve and the canal being brok", "Description": "Canal reservation protection by concrete lining  For  100mm thick , 0.3m  wide  and 0.3m high canal -double banking\n\nStream / canal  reservation protection by earth filling of  strip   of 1.5m to 2m wide  and average Depth of 0.5m\n\nVegetative cover impro", "Amount (Rs.)": 1303000, "photopath": "https://raw.githubusercontent.com/MWS003-GIS/MWS003-GIS.github.io/main/IWWRMP/Data/EXD/200_photo/MWS_162/Minor Irrigation - Parani ela.jpg" }, "geometry": { "type": "Point", "coordinates": [ 80.751507, 6.919081 ] } }
]
}
