{"type":"FeatureCollection","name":"DWS","crs":{"type":"name","properties":{"name":"urn:ogc:def:crs:OGC:1.3:CRS84"}},"features":[
{"type":"Feature","properties":{"No":1,"GND No.":"43","Scheme":"Walliyadda","N":6.95008,"E":80.891577,"Observation":"A well-functioning water project but no water filtration system.","Description":"Construction of the filter tank\n\nConstruction of 1.0 m x 1.0 m x 1.5 m (LxWxH) filter tank with necessary parts\n\nProviding the filter media\n\nConnection of the filter tank with the storage tank with necessary pipes and fittings'\n\nMiscellaneous\n\nContingenc","Estimated Cost":"90,200","photopath":"Not_Available"},"geometry":{"type":"Point","coordinates":[80.891577,6.95008]}},
{"type":"Feature","properties":{"No":2,"GND No.":"45B","Scheme":"Aggahakele, Pahachillawadawaralata Hinna","N":6.932648,"E":80.913028,"Observation":"A well-functioning water project but no water filtration system.","Description":"Construction of the filter tank\n\nConstruction of 1.0 m x 1.0 m x 1.5 m (LxWxH) filter tank with necessary parts\n\nProviding the filter media\n\nConnection of the filter tank with the storage tank with necessary pipes and fittings'\n\nMiscellaneous\n\nContingenc","Estimated Cost":"90,200","photopath":"https://raw.githubusercontent.com/MWS003-GIS/MWS003-GIS.github.io/main/IWWRMP/Data/EXD/200_photo/MWS_045/Drinking Water Sources  (Springs) - Aggahakele Watapadura spring (2).jpg"},"geometry":{"type":"Point","coordinates":[80.913028,6.932648]}},
{"type":"Feature","properties":{"No":3,"GND No.":"53D","Scheme":"Gampolagama Tube well","N":6.936166,"E":80.932152,"Observation":"A tube well has been constructed here, but it is not currently operational.","Description":"Repairs to the existing Tube Well\n\nContingencies 10%","Estimated Cost":"11,000","photopath":"https://raw.githubusercontent.com/MWS003-GIS/MWS003-GIS.github.io/main/IWWRMP/Data/EXD/200_photo/MWS_045/Tube Well - Gampolawattha (2).jpg"},"geometry":{"type":"Point","coordinates":[80.932152,6.936166]}},
{"type":"Feature","properties":{"No":4,"GND No.":"53D","Scheme":"Wathupitiya Tube well","N":6.933704,"E":80.931156,"Observation":"A tube well has been constructed here, but it is not currently operational.","Description":"Repairs to the existing Tube Well\n\nContingencies 10%","Estimated Cost":"11,000","photopath":"https://raw.githubusercontent.com/MWS003-GIS/MWS003-GIS.github.io/main/IWWRMP/Data/EXD/200_photo/MWS_045/Tube Well - Wathupitiya (2).jpg"},"geometry":{"type":"Point","coordinates":[80.931156,6.933704]}}
]}