{"type":"FeatureCollection","name":"WP","crs":{"type":"name","properties":{"name":"urn:ogc:def:crs:OGC:1.3:CRS84"}},"features":[
{"type":"Feature","properties":{"No.":6,"GND No.":1138,"GN Division":"Gurukele","Non-point sources of pollution":"Potential to add human waste - Line house area at Karuwana upper division of Gurukele GND","N":7.1771534,"E":80.636228,"Point sources of pollution":"-","Add. N ":"-","Add. E ":"-","Recommended water quality improvement measures":"-","Unit Cost (Rs.)":"-","Total Cost (Rs.)":"-","Contributions (Local Community, LA, Project)":"-","Time frame for the implementation":"-","photopath":"Not_Available"},"geometry":{"type":"Point","coordinates":[80.636228,7.1771534]}},
{"type":"Feature","properties":{"No.":7,"GND No.":1142,"GN Division":"Hunugala","Non-point sources of pollution":"Potential to add human waste - Hunugala village and GK Estate","N":7.1397251,"E":80.6733431,"Point sources of pollution":"-","Add. N ":"-","Add. E ":"-","Recommended water quality improvement measures":"-","Unit Cost (Rs.)":"-","Total Cost (Rs.)":"-","Contributions (Local Community, LA, Project)":"-","Time frame for the implementation":"-","photopath":"Not_Available"},"geometry":{"type":"Point","coordinates":[80.6733431,7.1397251]}},
{"type":"Feature","properties":{"No.":1,"GND No.":1147,"GN Division":"Panvilathanna","Non-point sources of pollution":"Potential to add human waste - Maligamale Colony","N":7.1603095,"E":80.6372884,"Point sources of pollution":"-","Add. N ":"-","Add. E ":"-","Recommended water quality improvement measures":"-","Unit Cost (Rs.)":"-","Total Cost (Rs.)":"-","Contributions (Local Community, LA, Project)":"-","Time frame for the implementation":"-","photopath":"Not_Available"},"geometry":{"type":"Point","coordinates":[80.6372884,7.1603095]}},
{"type":"Feature","properties":{"No.":2,"GND No.":1147,"GN Division":"Panvilathanna","Non-point sources of pollution":"Potential to add human waste - Lorawattha","N":7.1603095,"E":80.6372884,"Point sources of pollution":"-","Add. N ":"-","Add. E ":"-","Recommended water quality improvement measures":"-","Unit Cost (Rs.)":"-","Total Cost (Rs.)":"-","Contributions (Local Community, LA, Project)":"-","Time frame for the implementation":"-","photopath":"Not_Available"},"geometry":{"type":"Point","coordinates":[80.6372884,7.1603095]}},
{"type":"Feature","properties":{"No.":3,"GND No.":1147,"GN Division":"Panvilathanna","Non-point sources of pollution":"Potential to add human waste - New Thirawanawattha","N":7.1603095,"E":80.6372884,"Point sources of pollution":"-","Add. N ":"-","Add. E ":"-","Recommended water quality improvement measures":"-","Unit Cost (Rs.)":"-","Total Cost (Rs.)":"-","Contributions (Local Community, LA, Project)":"-","Time frame for the implementation":"-","photopath":"Not_Available"},"geometry":{"type":"Point","coordinates":[80.6372884,7.1603095]}},
{"type":"Feature","properties":{"No.":4,"GND No.":1147,"GN Division":"Panvilathanna","Non-point sources of pollution":"Improper disposal of domestic waste","N":7.1603095,"E":80.6372884,"Point sources of pollution":"-","Add. N ":"-","Add. E ":"-","Recommended water quality improvement measures":"Preparing a separate place in homegardens for disposing houshold waste/Awareness programme on how to disposal household waste properly and converting them to usable products such as compost/Facilitating garbage collection","Unit Cost (Rs.)":"-","Total Cost (Rs.)":"50,000","Contributions (Local Community, LA, Project)":"Local/Central governments","Time frame for the implementation":"0.5 Years","photopath":"Not_Available"},"geometry":{"type":"Point","coordinates":[80.6372884,7.1603095]}}
]}