{
  "type": "FeatureCollection",
  "name": "SR",
  "crs": {
    "type": "name",
    "properties": {
      "name": "urn:ogc:def:crs:OGC:1.3:CRS84"
    }
  },
  "features": [
    {
      "type": "Feature",
      "properties": {
        "No": 1,
        "GND No.": "511 A",
        "Scheme": "Water Torrent 1",
        "N": 7.061496,
        "E": 80.767824,
        "Observation": "Bank erosion on both sides in rainy season",
        "Description": "Construction of leader drain across streams - 1m(W) x 1 m(H)",
        "Amount (Rs.)": "100,000",
        "photopath": "https://raw.githubusercontent.com/MWS003-GIS/MWS003-GIS.github.io/main/IWWRMP/Data/EXD/200_photo/MWS_018_1/DH12 (2).jpg"
      },
      "geometry": {
        "type": "Point",
        "coordinates": [
          80.767824,
          7.061496
        ]
      }
    },
    {
      "type": "Feature",
      "properties": {
        "No": 2,
        "GND No.": "511 A",
        "Scheme": "Kalu Palama Ella ",
        "N": 7.064181,
        "E": 80.767129,
        "Observation": "High bank erosion on both sides ",
        "Description": "Vegetative cover improving with Areca nut seedling at 1.5m spacing in a single row, Kumbuk/ Mee/ Godapara/ Kaduru/ Aththikka/ Wal Del/ Kekuna/ randomly mixed seedlings and dense planting at 500mm grid interval, applying of compost manure, NPK fertilizer, mulching",
        "Amount (Rs.)": "801,000",
        "photopath": "https://raw.githubusercontent.com/MWS003-GIS/MWS003-GIS.github.io/main/IWWRMP/Data/EXD/200_photo/MWS_018_1/DH4 (3).jpg"
      },
      "geometry": {
        "type": "Point",
        "coordinates": [
          80.767129,
          7.064181
        ]
      }
    },
    {
      "type": "Feature",
      "properties": {
        "No": 3,
        "GND No.": "511 A",
        "Scheme": "Watte Kumbura Torrent ",
        "N": 7.063279,
        "E": 80.764963,
        "Observation": "Bank erosion on both sides ",
        "Description": "Vegetative cover improving (1.5m-2.0m wide) with Areca nut seedlings at 1.5m spacing in two rows, Beetle creeper VP at 3m spacing in a single row, Green gram as a cover crop including applying of compost manure, NPK fertilizer and maintenance",
        "Amount (Rs.)": "35,250",
        "photopath": "https://raw.githubusercontent.com/MWS003-GIS/MWS003-GIS.github.io/main/IWWRMP/Data/EXD/200_photo/MWS_018_1/DH5.jpg"
      },
      "geometry": {
        "type": "Point",
        "coordinates": [
          80.764963,
          7.063279
        ]
      }
    },
    {
      "type": "Feature",
      "properties": {
        "No": 4,
        "GND No.": "511 D ",
        "Scheme": "Torrent 1 which the excess water remover in Motamola Canal ",
        "N": 7.073062,
        "E": 80.769978,
        "Observation": "Bank erosion on both sides ",
        "Description": "Vegetative cover improving (1.5m-2.0m wide) with Areca nut seedlings at 1.5m spacing in two rows, Beetle creeper VP at 3m spacing in a single row, Green gram as a cover crop including applying of compost manure, NPK fertilizer and maintenance",
        "Amount (Rs.)": "470,000",
        "photopath": "https://raw.githubusercontent.com/MWS003-GIS/MWS003-GIS.github.io/main/IWWRMP/Data/EXD/200_photo/MWS_018_1/GG11.jpg"
      },
      "geometry": {
        "type": "Point",
        "coordinates": [
          80.769978,
          7.073062
        ]
      }
    },
    {
      "type": "Feature",
      "properties": {
        "No": 5,
        "GND No.": "511 D ",
        "Scheme": " Torrent 2 excess water remover in Motamola canal",
        "N": 7.072752,
        "E": 80.774322,
        "Observation": "Bank erosion on both sides ",
        "Description": "Construction of leader drain across streams - 1m(W) x 1 m(H)",
        "Amount (Rs.)": "1,500,000",
        "photopath": "Not_Available"
      },
      "geometry": {
        "type": "Point",
        "coordinates": [
          80.774322,
          7.072752
        ]
      }
    },
    {
      "type": "Feature",
      "properties": {
        "No": 6,
        "GND No.": "511 D ",
        "Scheme": "Torrent 3 ",
        "N": 7.073068,
        "E": 80.77422,
        "Observation": "Bank erosion on both sides ",
        "Description": "Vegetative cover improving (1.5m-2.0m wide) with Areca nut seedlings at 1.5m spacing in two rows, Beetle creeper VP at 3m spacing in a single row, Green gram as a cover crop including applying of compost manure, NPK fertilizer and maintenance",
        "Amount (Rs.)": "1,451,914",
        "photopath": "Not_Available"
      },
      "geometry": {
        "type": "Point",
        "coordinates": [
          80.77422,
          7.073068
        ]
      }
    },
    {
      "type": "Feature",
      "properties": {
        "No": 7,
        "GND No.": "511 D ",
        "Scheme": "Torrent near School ",
        "N": 7.076159,
        "E": 80.783047,
        "Observation": "Bank erosion on both sides ",
        "Description": "Vegetative cover improving (1.5m-2.0m wide) with Areca nut seedlings at 1.5m spacing in two rows, Beetle creeper VP at 3m spacing in a single row, Green gram as a cover crop including applying of compost manure, NPK fertilizer and maintenance\n(6\"- 9\") Rubble masonry wall in 1:5 cement mortar ",
        "Amount (Rs.)": "-",
        "photopath": "https://raw.githubusercontent.com/MWS003-GIS/MWS003-GIS.github.io/main/IWWRMP/Data/EXD/200_photo/MWS_018_1/GG4 (2).jpg"
      },
      "geometry": {
        "type": "Point",
        "coordinates": [
          80.783047,
          7.076159
        ]
      }
    },
    {
      "type": "Feature",
      "properties": {
        "No": 8,
        "GND No.": "510",
        "Scheme": "Hapugahatenna ",
        "N": 7.086119,
        "E": 80.791979,
        "Observation": "Bank erosion on both sides ",
        "Description": "Vegetative cover improving with Areca nut seedling at 1.5m spacing in a single row, Kumbuk/ Mee/ Godapara/ Kaduru/ Aththikka/ Wal Del/ Kekuna/ randomly mixed seedlings and dense planting at 500mm grid interval, applying of compost manure, NPK fertilizer, mulching",
        "Amount (Rs.)": "801,000",
        "photopath": "https://raw.githubusercontent.com/MWS003-GIS/MWS003-GIS.github.io/main/IWWRMP/Data/EXD/200_photo/MWS_018_1/I16.jpg"
      },
      "geometry": {
        "type": "Point",
        "coordinates": [
          80.791979,
          7.086119
        ]
      }
    },
    {
      "type": "Feature",
      "properties": {
        "No": 9,
        "GND No.": "510",
        "Scheme": "Kammal Watta Torrent",
        "N": 7.085366,
        "E": 80.792775,
        "Observation": "Conserved using rubble masonry walls and Areca nut stripes",
        "Description": "Construction of leader drain across streams - 1m(W) x 1 m(H)",
        "Amount (Rs.)": "800,000",
        "photopath": "https://raw.githubusercontent.com/MWS003-GIS/MWS003-GIS.github.io/main/IWWRMP/Data/EXD/200_photo/MWS_018_1/I13.jpg"
      },
      "geometry": {
        "type": "Point",
        "coordinates": [
          80.792775,
          7.085366
        ]
      }
    },
    {
      "type": "Feature",
      "properties": {
        "No": 10,
        "GND No.": "510",
        "Scheme": "Torrent 1",
        "N": 7.08432,
        "E": 80.792945,
        "Observation": "Bank erosion on both sides.",
        "Description": "Vegetative cover improving (1.5m-2.0m wide) with Areca nut seedlings at 1.5m spacing in two rows, Beetle creeper VP at 3m spacing in a single row, Green gram as a cover crop including applying of compost manure, NPK fertilizer and maintenance",
        "Amount (Rs.)": "164,500",
        "photopath": "https://raw.githubusercontent.com/MWS003-GIS/MWS003-GIS.github.io/main/IWWRMP/Data/EXD/200_photo/MWS_018_1/I12.1.jpg"
      },
      "geometry": {
        "type": "Point",
        "coordinates": [
          80.792945,
          7.08432
        ]
      }
    },
    {
      "type": "Feature",
      "properties": {
        "No": 11,
        "GND No.": "510",
        "Scheme": "Balumgoda Torrent",
        "N": 7.08064,
        "E": 80.790254,
        "Observation": "Bank erosion on both sides.",
        "Description": "Vegetative cover improving with Areca nut seedling at 1.5m spacing in a single row, Kumbuk/ Mee/ Godapara/ Kaduru/ Aththikka/ Wal Del/ Kekuna/ randomly mixed seedlings and dense planting at 500mm grid interval, applying of compost manure, NPK fertilizer, mulching",
        "Amount (Rs.)": "667,500",
        "photopath": "https://raw.githubusercontent.com/MWS003-GIS/MWS003-GIS.github.io/main/IWWRMP/Data/EXD/200_photo/MWS_018_1/I2.jpg"
      },
      "geometry": {
        "type": "Point",
        "coordinates": [
          80.790254,
          7.08064
        ]
      }
    },
    {
      "type": "Feature",
      "properties": {
        "No": 12,
        "GND No.": "510",
        "Scheme": "Ukgahabokka Torrent (Rathhinda)",
        "N": 7.078874,
        "E": 80.785502,
        "Observation": "Bank erosion on both sides.",
        "Description": "Vegetative cover improving with Areca nut seedling at 1.5m spacing in a single row, Kumbuk/ Mee/ Godapara/ Kaduru/ Aththikka/ Wal Del/ Kekuna/ randomly mixed seedlings and dense planting at 500mm grid interval, applying of compost manure, NPK fertilizer, mulching",
        "Amount (Rs.)": "667,500",
        "photopath": "https://raw.githubusercontent.com/MWS003-GIS/MWS003-GIS.github.io/main/IWWRMP/Data/EXD/200_photo/MWS_018_1/I12.jpg"
      },
      "geometry": {
        "type": "Point",
        "coordinates": [
          80.785502,
          7.078874
        ]
      }
    },
    {
      "type": "Feature",
      "properties": {
        "No": 13,
        "GND No.": "511 F",
        "Scheme": "Waterfall near Kalu Palama (Deegal Oya)",
        "N": 7.064643,
        "E": 80.76484,
        "Observation": "High bank erosion on both sides.",
        "Description": "Vegetative cover improving with Areca nut seedling at 1.5m spacing in a single row, Kumbuk/ Mee/ Godapara/ Kaduru/ Aththikka/ Wal Del/ Kekuna/ randomly mixed seedlings and dense planting at 500mm grid interval, applying of compost manure, NPK fertilizer, mulching",
        "Amount (Rs.)": "801,000",
        "photopath": "https://raw.githubusercontent.com/MWS003-GIS/MWS003-GIS.github.io/main/IWWRMP/Data/EXD/200_photo/MWS_018_1/K7 (2).jpg"
      },
      "geometry": {
        "type": "Point",
        "coordinates": [
          80.76484,
          7.064643
        ]
      }
    },
    {
      "type": "Feature",
      "properties": {
        "No": 14,
        "GND No.": "511 F",
        "Scheme": "Torrent separates Katahira Udagabbala gama",
        "N": 7.063622,
        "E": 80.768952,
        "Observation": "Bank erosion on both sides.",
        "Description": "Vegetative cover improving (1.5m-2.0m wide) with Areca nut seedlings at 1.5m spacing in two rows, Beetle creeper VP at 3m spacing in a single row, Green gram as a cover crop including applying of compost manure, NPK fertilizer and maintenance",
        "Amount (Rs.)": "164,500",
        "photopath": "https://raw.githubusercontent.com/MWS003-GIS/MWS003-GIS.github.io/main/IWWRMP/Data/EXD/200_photo/MWS_018_1/K13 (2).jpg"
      },
      "geometry": {
        "type": "Point",
        "coordinates": [
          80.768952,
          7.063622
        ]
      }
    },
    {
      "type": "Feature",
      "properties": {
        "No": 15,
        "GND No.": "511",
        "Scheme": "Hunuketa Torrent",
        "N": 7.078888,
        "E": 80.785354,
        "Observation": "Soil erosion of lands on both sides.",
        "Description": "Construction of leader drain across streams - 1m(W) x 1 m(H)\nVegetative cover improving with Areca nut seedling at 1.5m spacing in a single row, Kumbuk/ Mee/ Godapara/ Kaduru/ Aththikka/ Wal Del/ Kekuna/ randomly mixed seedlings and dense planting at 500mm grid interval, applying of compost manure, NPK fertilizer, mulching",
        "Amount (Rs.)": "700,000",
        "photopath": "Not_Available"
      },
      "geometry": {
        "type": "Point",
        "coordinates": [
          80.785354,
          7.078888
        ]
      }
    },
    {
      "type": "Feature",
      "properties": {
        "No": 16,
        "GND No.": "511",
        "Scheme": "Kakunawatta seasonal canal",
        "N": 7.075574,
        "E": 80.786284,
        "Observation": "Soil erosion of lands on both sides.",
        "Description": "Construction of leader drain across streams - 1m(W) x 1 m(H)",
        "Amount (Rs.)": "100,000",
        "photopath": "Not_Available"
      },
      "geometry": {
        "type": "Point",
        "coordinates": [
          80.786284,
          7.075574
        ]
      }
    },
    {
      "type": "Feature",
      "properties": {
        "No": 17,
        "GND No.": "511",
        "Scheme": "Belihul Oya",
        "N": 7.075587,
        "E": 80.786483,
        "Observation": "Soil erosion of lands on both sides.",
        "Description": "Construction of leader drain across streams - 1m(W) x 1 m(H)",
        "Amount (Rs.)": "500,000",
        "photopath": "Not_Available"
      },
      "geometry": {
        "type": "Point",
        "coordinates": [
          80.786483,
          7.075587
        ]
      }
    },
    {
      "type": "Feature",
      "properties": {
        "No": 18,
        "GND No.": "511",
        "Scheme": "Kakunawatta Torrent",
        "N": 7.07575,
        "E": 80.785067,
        "Observation": "Soil erosion of lands on both sides.",
        "Description": "Construction of leader drain across streams - 1m(W) x 1 m(H)\nVegetative cover improving (1.5m-2.0m wide) with Areca nut seedlings at 1.5m spacing in two rows, Beetle creeper VP at 3m spacing in a single row, Green gram as a cover crop including applying of compost manure, NPK fertilizer and maintenance",
        "Amount (Rs.)": "500,000",
        "photopath": "Not_Available"
      },
      "geometry": {
        "type": "Point",
        "coordinates": [
          80.785067,
          7.07575
        ]
      }
    },
    {
      "type": "Feature",
      "properties": {
        "No": 19,
        "GND No.": "511 B",
        "Scheme": "Pita Ela",
        "N": 7.083659,
        "E": 80.788691,
        "Observation": "Bank erosion on both sides.",
        "Description": "Construction of leader drain across streams - 1m(W) x 1 m(H)",
        "Amount (Rs.)": "250,000",
        "photopath": "https://raw.githubusercontent.com/MWS003-GIS/MWS003-GIS.github.io/main/IWWRMP/Data/EXD/200_photo/MWS_018_1/MW11.jpg"
      },
      "geometry": {
        "type": "Point",
        "coordinates": [
          80.788691,
          7.083659
        ]
      }
    },
    {
      "type": "Feature",
      "properties": {
        "No": 20,
        "GND No.": "511 C",
        "Scheme": "Pita Ela in Ela Amuna Ela",
        "N": 7.080778,
        "E": 80.780894,
        "Observation": "Bank erosion on both sides.",
        "Description": "Vegetative cover improving (1.5m-2.0m wide) with Areca nut seedlings at 1.5m spacing in two rows, Beetle creeper VP at 3m spacing in a single row, Green gram as a cover crop including applying of compost manure, NPK fertilizer and maintenance",
        "Amount (Rs.)": "117,500",
        "photopath": "https://raw.githubusercontent.com/MWS003-GIS/MWS003-GIS.github.io/main/IWWRMP/Data/EXD/200_photo/MWS_018_1/RY4.jpg"
      },
      "geometry": {
        "type": "Point",
        "coordinates": [
          80.780894,
          7.080778
        ]
      }
    },
    {
      "type": "Feature",
      "properties": {
        "No": 21,
        "GND No.": "511 C",
        "Scheme": "Rathhinda Torrent",
        "N": 7.080526,
        "E": 80.779695,
        "Observation": "Bank erosion on both sides.",
        "Description": "Vegetative cover improving with Areca nut seedling at 1.5m spacing in a single row, Kumbuk/ Mee/ Godapara/ Kaduru/ Aththikka/ Wal Del/ Kekuna/ randomly mixed seedlings and dense planting at 500mm grid interval, applying of compost manure, NPK fertilizer, mulching",
        "Amount (Rs.)": "801,000",
        "photopath": "https://raw.githubusercontent.com/MWS003-GIS/MWS003-GIS.github.io/main/IWWRMP/Data/EXD/200_photo/MWS_018_1/RY5 (3).jpg"
      },
      "geometry": {
        "type": "Point",
        "coordinates": [
          80.779695,
          7.080526
        ]
      }
    },
    {
      "type": "Feature",
      "properties": {
        "No": 22,
        "GND No.": "510 A",
        "Scheme": "Belihul Oya",
        "N": 7.092453,
        "E": 80.797973,
        "Observation": "Bank erosion on both sides.",
        "Description": "Vegetative cover improving with Areca nut seedling at 1.5m spacing in a single row, Kumbuk/ Mee/ Godapara/ Kaduru/ Aththikka/ Wal Del/ Kekuna/ randomly mixed seedlings and dense planting at 500mm grid interval, applying of compost manure, NPK fertilizer, mulching",
        "Amount (Rs.)": null,
        "photopath": "https://raw.githubusercontent.com/MWS003-GIS/MWS003-GIS.github.io/main/IWWRMP/Data/EXD/200_photo/MWS_018_1/UP2.jpg"
      },
      "geometry": {
        "type": "Point",
        "coordinates": [
          80.797973,
          7.092453
        ]
      }
    },
    {
      "type": "Feature",
      "properties": {
        "No": 23,
        "GND No.": "510 A",
        "Scheme": "Maha Torrent",
        "N": 7.095711,
        "E": 80.797866,
        "Observation": "Bank erosion on both sides.",
        "Description": "Vegetative cover improving with Areca nut seedling at 1.5m spacing in a single row, Kumbuk/ Mee/ Godapara/ Kaduru/ Aththikka/ Wal Del/ Kekuna/ randomly mixed seedlings and dense planting at 500mm grid interval, applying of compost manure, NPK fertilizer, mulching",
        "Amount (Rs.)": "801,000",
        "photopath": "https://raw.githubusercontent.com/MWS003-GIS/MWS003-GIS.github.io/main/IWWRMP/Data/EXD/200_photo/MWS_018_1/UP7.jpg"
      },
      "geometry": {
        "type": "Point",
        "coordinates": [
          80.797866,
          7.095711
        ]
      }
    },
    {
      "type": "Feature",
      "properties": {
        "No": 24,
        "GND No.": "510 A",
        "Scheme": "Maha Torrent",
        "N": 7.095724,
        "E": 80.796044,
        "Observation": "-",
        "Description": "-",
        "Amount (Rs.)": "-",
        "photopath": "https://raw.githubusercontent.com/MWS003-GIS/MWS003-GIS.github.io/main/IWWRMP/Data/EXD/200_photo/MWS_018_1/UP10.jpg"
      },
      "geometry": {
        "type": "Point",
        "coordinates": [
          80.796044,
          7.095724
        ]
      }
    },
    {
      "type": "Feature",
      "properties": {
        "No": 25,
        "GND No.": "510 A",
        "Scheme": "Alakola Bokkuwa Torrent",
        "N": 7.09195,
        "E": 80.796331,
        "Observation": "Bank erosion on both sides due to the heavy flow of water in rainy days",
        "Description": "Construction of leader drain across streams - 1m(W) x 1 m(H)",
        "Amount (Rs.)": "200,000",
        "photopath": "https://raw.githubusercontent.com/MWS003-GIS/MWS003-GIS.github.io/main/IWWRMP/Data/EXD/200_photo/MWS_018_1/UP7 (3).jpg"
      },
      "geometry": {
        "type": "Point",
        "coordinates": [
          80.796331,
          7.09195
        ]
      }
    }
  ]
}