{
  "type": "FeatureCollection",
  "name": "SWC_OFF",
  "crs": {
    "type": "name",
    "properties": {
      "name": "urn:ogc:def:crs:OGC:1.3:CRS84"
    }
  },
  "features": [
    {
      "type": "Feature",
      "properties": {
        "No.": 1,
        "GN Division No.": "511 A",
        "GN Division": "Deegalahinna",
        "Key Activities proposed for Soil and Water conservation": "1. Renovation of natural drains - Water Torrent 1",
        "Priority based on Soil Erosion Hazard": 5,
        "N": 7.061496,
        "E": 80.767824,
        "Quantity": "4 km",
        "Proposed measure/s": "Clearing and planting some trees along the banks (Areca nut) and other conservation practices",
        "Unit Cost (Rs.)": "400,000.00",
        "Contribution (Local Community, LA, and the project)": "Labour and other basic services by the Local community/ Shramadana",
        "Time frame for the implementation": "0.5 Years",
        "photopath": "https://raw.githubusercontent.com/MWS003-GIS/MWS003-GIS.github.io/main/IWWRMP/Data/EXD/200_photo/MWS_018_1/DH3.jpg"
      },
      "geometry": {
        "type": "Point",
        "coordinates": [
          80.767824,
          7.061496
        ]
      }
    },
    {
      "type": "Feature",
      "properties": {
        "No.": 2,
        "GN Division No.": "511 A",
        "GN Division": "Deegalahinna",
        "Key Activities proposed for Soil and Water conservation": "2. Renovation of natural drains - Kalu Palama Ella",
        "Priority based on Soil Erosion Hazard": 5,
        "N": 7.064181,
        "E": 80.767129,
        "Quantity": "6 km",
        "Proposed measure/s": "Clearing and planting some trees along the banks (Areca nut) and other conservation practices",
        "Unit Cost (Rs.)": "600,000.00",
        "Contribution (Local Community, LA, and the project)": "Labour and other basic services by the Local community/ Shramadana",
        "Time frame for the implementation": "0.5 Years",
        "photopath": "https://raw.githubusercontent.com/MWS003-GIS/MWS003-GIS.github.io/main/IWWRMP/Data/EXD/200_photo/MWS_018_1/DH6.jpg"
      },
      "geometry": {
        "type": "Point",
        "coordinates": [
          80.767129,
          7.064181
        ]
      }
    },
    {
      "type": "Feature",
      "properties": {
        "No.": 3,
        "GN Division No.": "511 A",
        "GN Division": "Deegalahinna",
        "Key Activities proposed for Soil and Water conservation": "3. Renovation of natural drains - Watte Kumbura Torrent",
        "Priority based on Soil Erosion Hazard": 3,
        "N": 7.063279,
        "E": 80.764963,
        "Quantity": "5 km",
        "Proposed measure/s": "Clearing and planting some trees along the banks (Areca nut) and other conservation practices",
        "Unit Cost (Rs.)": "500,000.00",
        "Contribution (Local Community, LA, and the project)": "Labour and other basic services by the Local community/ Shramadana",
        "Time frame for the implementation": "0.5 Years",
        "photopath": "https://raw.githubusercontent.com/MWS003-GIS/MWS003-GIS.github.io/main/IWWRMP/Data/EXD/200_photo/MWS_018_1/DH8 (2).jpg"
      },
      "geometry": {
        "type": "Point",
        "coordinates": [
          80.764963,
          7.063279
        ]
      }
    },
    {
      "type": "Feature",
      "properties": {
        "No.": 7,
        "GN Division No.": "511 D",
        "GN Division": "Godigamuwa",
        "Key Activities proposed for Soil and Water conservation": "1. Renovation of natural drains - Torrent 1 which the excess water remover in Motamola canal",
        "Priority based on Soil Erosion Hazard": 5,
        "N": 7.073062,
        "E": 80.769978,
        "Quantity": "250 m",
        "Proposed measure/s": "Clearing and planting some trees along the banks (Areca nut) and other conservation practices",
        "Unit Cost (Rs.)": "25,000.00",
        "Contribution (Local Community, LA, and the project)": "Labour and other basic services by the Local community/ Shramadana",
        "Time frame for the implementation": "0.25 Years",
        "photopath": "https://raw.githubusercontent.com/MWS003-GIS/MWS003-GIS.github.io/main/IWWRMP/Data/EXD/200_photo/MWS_018_1/GG3.jpg"
      },
      "geometry": {
        "type": "Point",
        "coordinates": [
          80.769978,
          7.073062
        ]
      }
    },
    {
      "type": "Feature",
      "properties": {
        "No.": 8,
        "GN Division No.": "511 D",
        "GN Division": "Godigamuwa",
        "Key Activities proposed for Soil and Water conservation": "2. Renovation of natural drains - Torrent 2 excess water remover in Motamola canal",
        "Priority based on Soil Erosion Hazard": 4,
        "N": 7.072752,
        "E": 80.774322,
        "Quantity": "1 km",
        "Proposed measure/s": "Clearing and planting some trees along the banks (Areca nut) and other conservation practices",
        "Unit Cost (Rs.)": "100,000.00",
        "Contribution (Local Community, LA, and the project)": "Labour and other basic services by the Local community/ Shramadana",
        "Time frame for the implementation": "0.5 Years",
        "photopath": "https://raw.githubusercontent.com/MWS003-GIS/MWS003-GIS.github.io/main/IWWRMP/Data/EXD/200_photo/MWS_018_1/GG4.jpg"
      },
      "geometry": {
        "type": "Point",
        "coordinates": [
          80.774322,
          7.072752
        ]
      }
    },
    {
      "type": "Feature",
      "properties": {
        "No.": 9,
        "GN Division No.": "511 D",
        "GN Division": "Godigamuwa",
        "Key Activities proposed for Soil and Water conservation": "3. Renovation of natural drains - Torrent 3",
        "Priority based on Soil Erosion Hazard": 3,
        "N": 7.073068,
        "E": 80.77422,
        "Quantity": "1 km",
        "Proposed measure/s": "Clearing and planting some trees along the banks (Areca nut) and other conservation practices",
        "Unit Cost (Rs.)": "100,000.00",
        "Contribution (Local Community, LA, and the project)": "Labour and other basic services by the Local community/ Shramadana",
        "Time frame for the implementation": "0.5 Years",
        "photopath": "https://raw.githubusercontent.com/MWS003-GIS/MWS003-GIS.github.io/main/IWWRMP/Data/EXD/200_photo/MWS_018_1/GG5.jpg"
      },
      "geometry": {
        "type": "Point",
        "coordinates": [
          80.77422,
          7.073068
        ]
      }
    },
    {
      "type": "Feature",
      "properties": {
        "No.": 10,
        "GN Division No.": "511 D",
        "GN Division": "Godigamuwa",
        "Key Activities proposed for Soil and Water conservation": "4. Renovation of natural drains - Torrent near School",
        "Priority based on Soil Erosion Hazard": 4,
        "N": 7.076159,
        "E": 80.783047,
        "Quantity": "2 km",
        "Proposed measure/s": "Clearing and planting some trees along the banks (Areca nut) and other conservation practices",
        "Unit Cost (Rs.)": "200,000.00",
        "Contribution (Local Community, LA, and the project)": "Labour and other basic services by the Local community/ Shramadana",
        "Time frame for the implementation": "0.5 Years",
        "photopath": "https://raw.githubusercontent.com/MWS003-GIS/MWS003-GIS.github.io/main/IWWRMP/Data/EXD/200_photo/MWS_018_1/GG9.jpg"
      },
      "geometry": {
        "type": "Point",
        "coordinates": [
          80.783047,
          7.076159
        ]
      }
    },
    {
      "type": "Feature",
      "properties": {
        "No.": 17,
        "GN Division No.": "510",
        "GN Division": "Idampitiya",
        "Key Activities proposed for Soil and Water conservation": "1. Renovation of natural drains - Hapugahatenna Torrent",
        "Priority based on Soil Erosion Hazard": 1,
        "N": 7.086119,
        "E": 80.791979,
        "Quantity": "1 km",
        "Proposed measure/s": "Clearing and planting some trees along the banks (Areca nut) and other conservation practices",
        "Unit Cost (Rs.)": "100,000.00",
        "Contribution (Local Community, LA, and the project)": "Labour and other basic services by the Local community/ Shramadana",
        "Time frame for the implementation": "0.5 Years",
        "photopath": "https://raw.githubusercontent.com/MWS003-GIS/MWS003-GIS.github.io/main/IWWRMP/Data/EXD/200_photo/MWS_018_1/I9.jpg"
      },
      "geometry": {
        "type": "Point",
        "coordinates": [
          80.791979,
          7.086119
        ]
      }
    },
    {
      "type": "Feature",
      "properties": {
        "No.": 18,
        "GN Division No.": "510",
        "GN Division": "Idampitiya",
        "Key Activities proposed for Soil and Water conservation": "2. Renovation of natural drains - Kammal Watta Torrent",
        "Priority based on Soil Erosion Hazard": 3,
        "N": 7.085366,
        "E": 80.792775,
        "Quantity": "1.5 km",
        "Proposed measure/s": "Clearing and planting some trees along the banks (Areca nut) and other conservation practices",
        "Unit Cost (Rs.)": "150,000.00",
        "Contribution (Local Community, LA, and the project)": "Labour and other basic services by the Local community/ Shramadana",
        "Time frame for the implementation": "0.5 Years",
        "photopath": "https://raw.githubusercontent.com/MWS003-GIS/MWS003-GIS.github.io/main/IWWRMP/Data/EXD/200_photo/MWS_018_1/I3.jpg"
      },
      "geometry": {
        "type": "Point",
        "coordinates": [
          80.792775,
          7.085366
        ]
      }
    },
    {
      "type": "Feature",
      "properties": {
        "No.": 19,
        "GN Division No.": "510",
        "GN Division": "Idampitiya",
        "Key Activities proposed for Soil and Water conservation": "3. Renovation of natural drains - Torrent 1",
        "Priority based on Soil Erosion Hazard": 4,
        "N": 7.08432,
        "E": 80.792945,
        "Quantity": "1.5 km",
        "Proposed measure/s": "Clearing and planting some trees along the banks (Areca nut) and other conservation practices",
        "Unit Cost (Rs.)": "150,000.00",
        "Contribution (Local Community, LA, and the project)": "Labour and other basic services by the Local community/ Shramadana",
        "Time frame for the implementation": "0.5 Years",
        "photopath": "Not_Available"
      },
      "geometry": {
        "type": "Point",
        "coordinates": [
          80.792945,
          7.08432
        ]
      }
    },
    {
      "type": "Feature",
      "properties": {
        "No.": 20,
        "GN Division No.": "510",
        "GN Division": "Idampitiya",
        "Key Activities proposed for Soil and Water conservation": "4. Renovation of natural drains - Balumgoda Torrent",
        "Priority based on Soil Erosion Hazard": 4,
        "N": 7.08064,
        "E": 80.790254,
        "Quantity": "1 km",
        "Proposed measure/s": "Clearing and planting some trees along the banks (Areca nut) and other conservation practices",
        "Unit Cost (Rs.)": "100,000.00",
        "Contribution (Local Community, LA, and the project)": "Labour and other basic services by the Local community/ Shramadana",
        "Time frame for the implementation": "0.5 Years",
        "photopath": "Not_Available"
      },
      "geometry": {
        "type": "Point",
        "coordinates": [
          80.790254,
          7.08064
        ]
      }
    },
    {
      "type": "Feature",
      "properties": {
        "No.": 21,
        "GN Division No.": "510",
        "GN Division": "Idampitiya",
        "Key Activities proposed for Soil and Water conservation": "5. Renovation of natural drains - Ukgahabokka Torrent (Rathhinda)",
        "Priority based on Soil Erosion Hazard": 5,
        "N": 7.078874,
        "E": 80.785502,
        "Quantity": "1 km",
        "Proposed measure/s": "Clearing and planting some trees along the banks (Areca nut) and other conservation practices",
        "Unit Cost (Rs.)": "100,000.00",
        "Contribution (Local Community, LA, and the project)": "Labour and other basic services by the Local community/ Shramadana",
        "Time frame for the implementation": "0.5 Years",
        "photopath": "Not_Available"
      },
      "geometry": {
        "type": "Point",
        "coordinates": [
          80.785502,
          7.078874
        ]
      }
    },
    {
      "type": "Feature",
      "properties": {
        "No.": 26,
        "GN Division No.": "511 F",
        "GN Division": "Ketahira",
        "Key Activities proposed for Soil and Water conservation": "1. Renovation of natural drains - Waterfall near Kalu Palama (Deegal Oya)",
        "Priority based on Soil Erosion Hazard": 5,
        "N": 7.064643,
        "E": 80.76484,
        "Quantity": "3 km",
        "Proposed measure/s": "Clearing and planting some trees along the banks (Areca nut) and other conservation practices",
        "Unit Cost (Rs.)": "300,000.00",
        "Contribution (Local Community, LA, and the project)": "Labour and other basic services by the Local community/ Shramadana",
        "Time frame for the implementation": "0.5 Years",
        "photopath": "https://raw.githubusercontent.com/MWS003-GIS/MWS003-GIS.github.io/main/IWWRMP/Data/EXD/200_photo/MWS_018_1/K4.jpg"
      },
      "geometry": {
        "type": "Point",
        "coordinates": [
          80.76484,
          7.064643
        ]
      }
    },
    {
      "type": "Feature",
      "properties": {
        "No.": 27,
        "GN Division No.": "511 F",
        "GN Division": "Ketahira",
        "Key Activities proposed for Soil and Water conservation": "2. Renovation of natural drains - Torrent seperates Katahira Udagabbala gama",
        "Priority based on Soil Erosion Hazard": 5,
        "N": 7.063622,
        "E": 80.768952,
        "Quantity": "1 km",
        "Proposed measure/s": "Clearing and planting some trees along the banks (Areca nut) and other conservation practices",
        "Unit Cost (Rs.)": "100,000.00",
        "Contribution (Local Community, LA, and the project)": "Labour and other basic services by the Local community/ Shramadana",
        "Time frame for the implementation": "0.5 Years",
        "photopath": "https://raw.githubusercontent.com/MWS003-GIS/MWS003-GIS.github.io/main/IWWRMP/Data/EXD/200_photo/MWS_018_1/K1 (2).jpg"
      },
      "geometry": {
        "type": "Point",
        "coordinates": [
          80.768952,
          7.063622
        ]
      }
    },
    {
      "type": "Feature",
      "properties": {
        "No.": 35,
        "GN Division No.": "511",
        "GN Division": "Manakola",
        "Key Activities proposed for Soil and Water conservation": "1. Renovation of natural drains - Hunuketa Torrent",
        "Priority based on Soil Erosion Hazard": 5,
        "N": 7.078888,
        "E": 80.785354,
        "Quantity": "2.5 km",
        "Proposed measure/s": "Clearing and planting some trees along the banks (Areca nut) and other conservation practices",
        "Unit Cost (Rs.)": "250,000.00",
        "Contribution (Local Community, LA, and the project)": "Labour and other basic services by the Local community/ Shramadana",
        "Time frame for the implementation": "0.5 Years",
        "photopath": "Not_Available"
      },
      "geometry": {
        "type": "Point",
        "coordinates": [
          80.785354,
          7.078888
        ]
      }
    },
    {
      "type": "Feature",
      "properties": {
        "No.": 36,
        "GN Division No.": "511",
        "GN Division": "Manakola",
        "Key Activities proposed for Soil and Water conservation": "2. Renovation of natural drains - Kakunawatta seasonal canal",
        "Priority based on Soil Erosion Hazard": 3,
        "N": 7.075574,
        "E": 80.786284,
        "Quantity": "1 km",
        "Proposed measure/s": "Clearing and planting some trees along the banks (Areca nut) and other conservation practices",
        "Unit Cost (Rs.)": "100,000.00",
        "Contribution (Local Community, LA, and the project)": "Labour and other basic services by the Local community/ Shramadana",
        "Time frame for the implementation": "0.5 Years",
        "photopath": "Not_Available"
      },
      "geometry": {
        "type": "Point",
        "coordinates": [
          80.786284,
          7.075574
        ]
      }
    },
    {
      "type": "Feature",
      "properties": {
        "No.": 37,
        "GN Division No.": "511",
        "GN Division": "Manakola",
        "Key Activities proposed for Soil and Water conservation": "3. Renovation of natural drains - Belihul Oya",
        "Priority based on Soil Erosion Hazard": 3,
        "N": 7.075587,
        "E": 80.786483,
        "Quantity": "500 m",
        "Proposed measure/s": "Clearing and planting some trees along the banks and other conservation practices",
        "Unit Cost (Rs.)": "50,000.00",
        "Contribution (Local Community, LA, and the project)": "Labour and other basic services by the Local community/ Shramadana",
        "Time frame for the implementation": "0.5 Years",
        "photopath": "Not_Available"
      },
      "geometry": {
        "type": "Point",
        "coordinates": [
          80.786483,
          7.075587
        ]
      }
    },
    {
      "type": "Feature",
      "properties": {
        "No.": 38,
        "GN Division No.": "511",
        "GN Division": "Manakola",
        "Key Activities proposed for Soil and Water conservation": "4. Renovation of natural drains - Kakunawatta Torrent",
        "Priority based on Soil Erosion Hazard": 5,
        "N": 7.07575,
        "E": 80.785067,
        "Quantity": "400 m",
        "Proposed measure/s": "Clearing and planting some trees along the banks (Areca nut) and other conservation practices",
        "Unit Cost (Rs.)": "40,000.00",
        "Contribution (Local Community, LA, and the project)": "Labour and other basic services by the Local community/ Shramadana",
        "Time frame for the implementation": "0.5 Years",
        "photopath": "Not_Available"
      },
      "geometry": {
        "type": "Point",
        "coordinates": [
          80.785067,
          7.07575
        ]
      }
    },
    {
      "type": "Feature",
      "properties": {
        "No.": 43,
        "GN Division No.": "511",
        "GN Division": "Manakola",
        "Key Activities proposed for Soil and Water conservation": "9. Establishing a side/Rubble masonry retaining wall - near Ketayapathana Udagama Road",
        "Priority based on Soil Erosion Hazard": 3,
        "N": 7.077717,
        "E": 80.786292,
        "Quantity": "20 m x 1.8 m x 0.5",
        "Proposed measure/s": "Side/Retaining wall",
        "Unit Cost (Rs.)": "2,000.00 m-3",
        "Contribution (Local Community, LA, and the project)": "Labour and other basic services by the Local community",
        "Time frame for the implementation": "0.25 Years",
        "photopath": "https://raw.githubusercontent.com/MWS003-GIS/MWS003-GIS.github.io/main/IWWRMP/Data/EXD/200_photo/MWS_018_1/MW12.jpg"
      },
      "geometry": {
        "type": "Point",
        "coordinates": [
          80.786292,
          7.077717
        ]
      }
    },
    {
      "type": "Feature",
      "properties": {
        "No.": 44,
        "GN Division No.": "511 B",
        "GN Division": "Marthuwela ",
        "Key Activities proposed for Soil and Water conservation": "1. Renovation of natural drains - Pita Ela",
        "Priority based on Soil Erosion Hazard": 4,
        "N": 7.083659,
        "E": 80.788691,
        "Quantity": "750 m",
        "Proposed measure/s": "Clearing and planting some trees along the banks (Areca nut) and other conservation practices",
        "Unit Cost (Rs.)": "75,000.00",
        "Contribution (Local Community, LA, and the project)": "Labour and other basic services by the Local community",
        "Time frame for the implementation": "0.25 Years",
        "photopath": "https://raw.githubusercontent.com/MWS003-GIS/MWS003-GIS.github.io/main/IWWRMP/Data/EXD/200_photo/MWS_018_1/RY1 (3).jpg"
      },
      "geometry": {
        "type": "Point",
        "coordinates": [
          80.788691,
          7.083659
        ]
      }
    },
    {
      "type": "Feature",
      "properties": {
        "No.": 47,
        "GN Division No.": "511 C",
        "GN Division": "Rathyaya",
        "Key Activities proposed for Soil and Water conservation": "1. Renovation of natural drains - Pita ela in Ela Amuna Ela",
        "Priority based on Soil Erosion Hazard": 4,
        "N": 7.080778,
        "E": 80.780894,
        "Quantity": "500 m",
        "Proposed measure/s": "Clearing and planting some trees along the banks (Areca nut) and other conservation practices",
        "Unit Cost (Rs.)": "50,000.00",
        "Contribution (Local Community, LA, and the project)": "Labour and other basic services by the Local community",
        "Time frame for the implementation": "0.25 Years",
        "photopath": "https://raw.githubusercontent.com/MWS003-GIS/MWS003-GIS.github.io/main/IWWRMP/Data/EXD/200_photo/MWS_018_1/RY1 (3).jpg"
      },
      "geometry": {
        "type": "Point",
        "coordinates": [
          80.780894,
          7.080778
        ]
      }
    },
    {
      "type": "Feature",
      "properties": {
        "No.": 48,
        "GN Division No.": "511 C",
        "GN Division": "Rathyaya",
        "Key Activities proposed for Soil and Water conservation": "2. Renovation of natural drains - Rathhinda Torrent",
        "Priority based on Soil Erosion Hazard": 4,
        "N": 7.080526,
        "E": 80.779695,
        "Quantity": "1 km",
        "Proposed measure/s": "Clearing and planting some trees along the banks and other conservation practices",
        "Unit Cost (Rs.)": "100,000.00",
        "Contribution (Local Community, LA, and the project)": "Labour and other basic services by the Local community",
        "Time frame for the implementation": "0.5 Years",
        "photopath": "https://raw.githubusercontent.com/MWS003-GIS/MWS003-GIS.github.io/main/IWWRMP/Data/EXD/200_photo/MWS_018_1/RY2.jpg"
      },
      "geometry": {
        "type": "Point",
        "coordinates": [
          80.779695,
          7.080526
        ]
      }
    },
    {
      "type": "Feature",
      "properties": {
        "No.": 54,
        "GN Division No.": "510 A",
        "GN Division": "Uda Padiyapelella ",
        "Key Activities proposed for Soil and Water conservation": "1. Renovation of natural drains - Belihul Oya",
        "Priority based on Soil Erosion Hazard": 1,
        "N": 7.092453,
        "E": 80.797973,
        "Quantity": "2 km",
        "Proposed measure/s": "Clearing and planting some trees along the banks and other conservation practices",
        "Unit Cost (Rs.)": "200,000.00",
        "Contribution (Local Community, LA, and the project)": "Labour and other basic services by the Local community/ Shramadana",
        "Time frame for the implementation": "0.5 Years",
        "photopath": "https://raw.githubusercontent.com/MWS003-GIS/MWS003-GIS.github.io/main/IWWRMP/Data/EXD/200_photo/MWS_018_1/UP10.jpg"
      },
      "geometry": {
        "type": "Point",
        "coordinates": [
          80.797973,
          7.092453
        ]
      }
    },
    {
      "type": "Feature",
      "properties": {
        "No.": 55,
        "GN Division No.": "510 A",
        "GN Division": "Uda Padiyapelella ",
        "Key Activities proposed for Soil and Water conservation": "2. Renovation of natural drains - Maha Torrent",
        "Priority based on Soil Erosion Hazard": 4,
        "N": 7.095711,
        "E": 80.797866,
        "Quantity": "3 km",
        "Proposed measure/s": "Clearing and planting some trees along the banks (Areca nut) and other conservation practices",
        "Unit Cost (Rs.)": "300,000.00",
        "Contribution (Local Community, LA, and the project)": "Labour and other basic services by the Local community/ Shramadana",
        "Time frame for the implementation": "0.5 Years",
        "photopath": "https://raw.githubusercontent.com/MWS003-GIS/MWS003-GIS.github.io/main/IWWRMP/Data/EXD/200_photo/MWS_018_1/UP1.jpg"
      },
      "geometry": {
        "type": "Point",
        "coordinates": [
          80.797866,
          7.095711
        ]
      }
    },
    {
      "type": "Feature",
      "properties": {
        "No.": 57,
        "GN Division No.": "510 A",
        "GN Division": "Uda Padiyapelella ",
        "Key Activities proposed for Soil and Water conservation": "3. Renovation of natural drains - Alakola Bokkuwa Torrent",
        "Priority based on Soil Erosion Hazard": 4,
        "N": 7.09195,
        "E": 80.796331,
        "Quantity": "1 km",
        "Proposed measure/s": "Clearing and planting some trees along the banks (Areca nut) and other conservation practices",
        "Unit Cost (Rs.)": "100,000.00",
        "Contribution (Local Community, LA, and the project)": "Labour and other basic services by the Local community/ Shramadana",
        "Time frame for the implementation": "0.5 Years",
        "photopath": "https://raw.githubusercontent.com/MWS003-GIS/MWS003-GIS.github.io/main/IWWRMP/Data/EXD/200_photo/MWS_018_1/UP4 (2).jpg"
      },
      "geometry": {
        "type": "Point",
        "coordinates": [
          80.796331,
          7.09195
        ]
      }
    }
  ]
}