{
  "type": "FeatureCollection",
  "name": "SWC_ON",
  "crs": {
    "type": "name",
    "properties": {
      "name": "urn:ogc:def:crs:OGC:1.3:CRS84"
    }
  },
  "features": [
    {
      "type": "Feature",
      "properties": {
        "No.": 4.0,
        "GN Division No.": "511 A",
        "GN Division": "Deegalahinna",
        "Key Activities proposed for Soil and Water conservation": "4. Soil conservation practices - Deegalahinna (60 ?)",
        "Priority based on Soil Erosion Hazard": 1.0,
        "N": 7.059858,
        "E": 80.773891,
        "Quantity": "1.25 ha",
        "Proposed measure/s": "Live fencing/SALT Stone terracing/lock and spills, as applied",
        "Unit Cost (Rs.)": "250.00 m-1",
        "Total Cost (Rs.)": "312,500.00",
        "Contribution (Local Community, LA, and the project)": "Labour and other basic services by the Local community",
        "Time frame for the implementation": "0.25 Years",
        "photopath": "https://raw.githubusercontent.com/MWS003-GIS/MWS003-GIS.github.io/main/IWWRMP/Data/EXD/200_photo/MWS_018_1/DH2 (2).jpg"
      },
      "geometry": {
        "type": "Point",
        "coordinates": [
          80.773891,
          7.059858
        ]
      }
    },
    {
      "type": "Feature",
      "properties": {
        "No.": 5.0,
        "GN Division No.": "511 A",
        "GN Division": "Deegalahinna",
        "Key Activities proposed for Soil and Water conservation": "5. Soil conservation practices - Kabaragala Watta (40 ?)",
        "Priority based on Soil Erosion Hazard": 4.0,
        "N": 7.059412,
        "E": 80.757659,
        "Quantity": "20 ha",
        "Proposed measure/s": "Live fencing/SALT Stone terracing/lock and spills, as applied",
        "Unit Cost (Rs.)": "250.00 m-1",
        "Total Cost (Rs.)": "5,000,000.00",
        "Contribution (Local Community, LA, and the project)": "Labour and other basic services by the Local community",
        "Time frame for the implementation": "0.25 Years",
        "photopath": "https://raw.githubusercontent.com/MWS003-GIS/MWS003-GIS.github.io/main/IWWRMP/Data/EXD/200_photo/MWS_018_1/DH2.jpg"
      },
      "geometry": {
        "type": "Point",
        "coordinates": [
          80.757659,
          7.059412
        ]
      }
    },
    {
      "type": "Feature",
      "properties": {
        "No.": 6.0,
        "GN Division No.": "511 A",
        "GN Division": "Deegalahinna",
        "Key Activities proposed for Soil and Water conservation": "6. Soil conservation practices - Kabaragala Watta (35 ?)",
        "Priority based on Soil Erosion Hazard": 1.0,
        "N": 7.060884,
        "E": 80.763944,
        "Quantity": "44 ha",
        "Proposed measure/s": " lock and spills Stone terracing/Live fencing/SALT, as applied",
        "Unit Cost (Rs.)": "400.00 m-1",
        "Total Cost (Rs.)": "17,600,000.00",
        "Contribution (Local Community, LA, and the project)": "Labour and other basic services by the Local community",
        "Time frame for the implementation": "0.5 Years",
        "photopath": "https://raw.githubusercontent.com/MWS003-GIS/MWS003-GIS.github.io/main/IWWRMP/Data/EXD/200_photo/MWS_018_1/DH9 (2).jpg"
      },
      "geometry": {
        "type": "Point",
        "coordinates": [
          80.763944,
          7.060884
        ]
      }
    },
    {
      "type": "Feature",
      "properties": {
        "No.": 11.0,
        "GN Division No.": "511 D",
        "GN Division": "Godigamuwa",
        "Key Activities proposed for Soil and Water conservation": "5. Soil conservation practices - Wilkada Arana (75 ?)",
        "Priority based on Soil Erosion Hazard": 5.0,
        "N": 7.073575,
        "E": 80.771477,
        "Quantity": "25 ha",
        "Proposed measure/s": "Live fencing/SALT Stone terracing/lock and spills, as applied",
        "Unit Cost (Rs.)": "250.00 m-1",
        "Total Cost (Rs.)": "6,250,000.00",
        "Contribution (Local Community, LA, and the project)": "Labour and other basic services by the Local community",
        "Time frame for the implementation": "1 Year",
        "photopath": "https://raw.githubusercontent.com/MWS003-GIS/MWS003-GIS.github.io/main/IWWRMP/Data/EXD/200_photo/MWS_018_1/GG4.jpg"
      },
      "geometry": {
        "type": "Point",
        "coordinates": [
          80.771477,
          7.073575
        ]
      }
    },
    {
      "type": "Feature",
      "properties": {
        "No.": 12.0,
        "GN Division No.": "511 D",
        "GN Division": "Godigamuwa",
        "Key Activities proposed for Soil and Water conservation": "6. Soil conservation practices - Gallela Watta (60 ?)",
        "Priority based on Soil Erosion Hazard": 5.0,
        "N": 7.073431,
        "E": 80.770807,
        "Quantity": "50 ha",
        "Proposed measure/s": "Live fencing/SALT Stone terracing/lock and spills, as applied",
        "Unit Cost (Rs.)": "250.00 m-1",
        "Total Cost (Rs.)": "12,500,000.00",
        "Contribution (Local Community, LA, and the project)": "Labour and other basic services by the Local community",
        "Time frame for the implementation": "1.5 Years",
        "photopath": "https://raw.githubusercontent.com/MWS003-GIS/MWS003-GIS.github.io/main/IWWRMP/Data/EXD/200_photo/MWS_018_1/GG5.jpg"
      },
      "geometry": {
        "type": "Point",
        "coordinates": [
          80.770807,
          7.073431
        ]
      }
    },
    {
      "type": "Feature",
      "properties": {
        "No.": 13.0,
        "GN Division No.": "511 D",
        "GN Division": "Godigamuwa",
        "Key Activities proposed for Soil and Water conservation": "7. Soil conservation practices - Gallela Watta (45 ?)",
        "Priority based on Soil Erosion Hazard": 5.0,
        "N": 7.071565,
        "E": 80.770534,
        "Quantity": "14 ha",
        "Proposed measure/s": "Live fencing/SALT Stone terracing/lock and spills, as applied",
        "Unit Cost (Rs.)": "250.00 m-1",
        "Total Cost (Rs.)": "3,500,000.00",
        "Contribution (Local Community, LA, and the project)": "Labour and other basic services by the Local community",
        "Time frame for the implementation": "0.5 Years",
        "photopath": "https://raw.githubusercontent.com/MWS003-GIS/MWS003-GIS.github.io/main/IWWRMP/Data/EXD/200_photo/MWS_018_1/GG9.jpg"
      },
      "geometry": {
        "type": "Point",
        "coordinates": [
          80.770534,
          7.071565
        ]
      }
    },
    {
      "type": "Feature",
      "properties": {
        "No.": 14.0,
        "GN Division No.": "511 D",
        "GN Division": "Godigamuwa",
        "Key Activities proposed for Soil and Water conservation": "8. Soil conservation practices - Gallela Watta (40 ?)",
        "Priority based on Soil Erosion Hazard": 4.0,
        "N": 7.072465,
        "E": 80.775076,
        "Quantity": "0.25 ha",
        "Proposed measure/s": "Live fencing/SALT Stone terracing/lock and spills, as applied",
        "Unit Cost (Rs.)": "250.00 m-1",
        "Total Cost (Rs.)": "62,500.00",
        "Contribution (Local Community, LA, and the project)": "Labour and other basic services by the Local community",
        "Time frame for the implementation": "0.25 Years",
        "photopath": "https://raw.githubusercontent.com/MWS003-GIS/MWS003-GIS.github.io/main/IWWRMP/Data/EXD/200_photo/MWS_018_1/GG3.jpg"
      },
      "geometry": {
        "type": "Point",
        "coordinates": [
          80.775076,
          7.072465
        ]
      }
    },
    {
      "type": "Feature",
      "properties": {
        "No.": 15.0,
        "GN Division No.": "511 D",
        "GN Division": "Godigamuwa",
        "Key Activities proposed for Soil and Water conservation": "9. Soil conservation practices - Gallela Watta (50 ?)",
        "Priority based on Soil Erosion Hazard": 3.0,
        "N": 7.0731,
        "E": 80.774222,
        "Quantity": "0.5 ha",
        "Proposed measure/s": "Live fencing/SALT Stone terracing/lock and spills, as applied",
        "Unit Cost (Rs.)": "250.00 m-1",
        "Total Cost (Rs.)": "125,000.00",
        "Contribution (Local Community, LA, and the project)": "Labour and other basic services by the Local community",
        "Time frame for the implementation": "0.25 Years",
        "photopath": "Not_Available"
      },
      "geometry": {
        "type": "Point",
        "coordinates": [
          80.774222,
          7.0731
        ]
      }
    },
    {
      "type": "Feature",
      "properties": {
        "No.": 22.0,
        "GN Division No.": "510",
        "GN Division": "Idampitiya",
        "Key Activities proposed for Soil and Water conservation": "6. Soil conservation practices - Okadagala Reservation (70 ?)",
        "Priority based on Soil Erosion Hazard": 5.0,
        "N": 7.086522,
        "E": 80.792119,
        "Quantity": "0.5 ha",
        "Proposed measure/s": "Live fencing/SALT Stone terracing/lock and spills, as applied",
        "Unit Cost (Rs.)": "250.00 m-1",
        "Total Cost (Rs.)": "125,000.00",
        "Contribution (Local Community, LA, and the project)": "Labour and other basic services by the Local community",
        "Time frame for the implementation": "0.25 Years",
        "photopath": "https://raw.githubusercontent.com/MWS003-GIS/MWS003-GIS.github.io/main/IWWRMP/Data/EXD/200_photo/MWS_018_1/I5.jpg"
      },
      "geometry": {
        "type": "Point",
        "coordinates": [
          80.792119,
          7.086522
        ]
      }
    },
    {
      "type": "Feature",
      "properties": {
        "No.": 23.0,
        "GN Division No.": "510",
        "GN Division": "Idampitiya",
        "Key Activities proposed for Soil and Water conservation": "7. Soil conservation practices - Idampitiya (60 ?)",
        "Priority based on Soil Erosion Hazard": 5.0,
        "N": 7.087501,
        "E": 80.792996,
        "Quantity": "0.25 ha",
        "Proposed measure/s": "Live fencing/SALT Stone terracing/lock and spills, as applied",
        "Unit Cost (Rs.)": "250.00 m-1",
        "Total Cost (Rs.)": "62,500.00",
        "Contribution (Local Community, LA, and the project)": "Labour and other basic services by the Local community",
        "Time frame for the implementation": "0.25 Years",
        "photopath": "https://raw.githubusercontent.com/MWS003-GIS/MWS003-GIS.github.io/main/IWWRMP/Data/EXD/200_photo/MWS_018_1/I9.jpg"
      },
      "geometry": {
        "type": "Point",
        "coordinates": [
          80.792996,
          7.087501
        ]
      }
    },
    {
      "type": "Feature",
      "properties": {
        "No.": 24.0,
        "GN Division No.": "510",
        "GN Division": "Idampitiya",
        "Key Activities proposed for Soil and Water conservation": "8. Soil conservation practices - Hapugahatanna (55 ?)",
        "Priority based on Soil Erosion Hazard": 1.0,
        "N": 7.088222,
        "E": 80.793473,
        "Quantity": "14 ha",
        "Proposed measure/s": "Live fencing/SALT Stone terracing/lock and spills, as applied",
        "Unit Cost (Rs.)": "250.00 m-1",
        "Total Cost (Rs.)": "3,500,000.00",
        "Contribution (Local Community, LA, and the project)": "Labour and other basic services by the Local community",
        "Time frame for the implementation": "1 Year",
        "photopath": "https://raw.githubusercontent.com/MWS003-GIS/MWS003-GIS.github.io/main/IWWRMP/Data/EXD/200_photo/MWS_018_1/I3.jpg"
      },
      "geometry": {
        "type": "Point",
        "coordinates": [
          80.793473,
          7.088222
        ]
      }
    },
    {
      "type": "Feature",
      "properties": {
        "No.": 25.0,
        "GN Division No.": "510",
        "GN Division": "Idampitiya",
        "Key Activities proposed for Soil and Water conservation": "9. Soil conservation practices - Idampitiya (65 ?)",
        "Priority based on Soil Erosion Hazard": 1.0,
        "N": 7.08535,
        "E": 80.79122,
        "Quantity": "0.5 ha",
        "Proposed measure/s": "Live fencing/SALT Stone terracing/lock and spills, as applied",
        "Unit Cost (Rs.)": "250.00 m-1",
        "Total Cost (Rs.)": "125,000.00",
        "Contribution (Local Community, LA, and the project)": "Labour and other basic services by the Local community",
        "Time frame for the implementation": "0.25 Years",
        "photopath": "Not_Available"
      },
      "geometry": {
        "type": "Point",
        "coordinates": [
          80.79122,
          7.08535
        ]
      }
    },
    {
      "type": "Feature",
      "properties": {
        "No.": 28.0,
        "GN Division No.": "511 F",
        "GN Division": "Ketahira",
        "Key Activities proposed for Soil and Water conservation": "3. Soil conservation practices - Udagabbala (60 ?)",
        "Priority based on Soil Erosion Hazard": 1.0,
        "N": 7.065857,
        "E": 80.764833,
        "Quantity": "30 ha",
        "Proposed measure/s": "Live fencing/SALT Stone terracing/lock and spills, as applied",
        "Unit Cost (Rs.)": "250.00 m-1",
        "Total Cost (Rs.)": "7,500,000.00",
        "Contribution (Local Community, LA, and the project)": "Labour and other basic services by the Local community",
        "Time frame for the implementation": "1.5 Years",
        "photopath": "https://raw.githubusercontent.com/MWS003-GIS/MWS003-GIS.github.io/main/IWWRMP/Data/EXD/200_photo/MWS_018_1/K4 (2).jpg"
      },
      "geometry": {
        "type": "Point",
        "coordinates": [
          80.764833,
          7.065857
        ]
      }
    },
    {
      "type": "Feature",
      "properties": {
        "No.": 29.0,
        "GN Division No.": "511 F",
        "GN Division": "Ketahira",
        "Key Activities proposed for Soil and Water conservation": "4. Soil conservation practices - Udagabbala (50 ?)",
        "Priority based on Soil Erosion Hazard": 5.0,
        "N": 7.067265,
        "E": 80.766594,
        "Quantity": "19.6 ha",
        "Proposed measure/s": "Live fencing/SALT Stone terracing/lock and spills, as applied",
        "Unit Cost (Rs.)": "250.00 m-1",
        "Total Cost (Rs.)": "4,900,000.00",
        "Contribution (Local Community, LA, and the project)": "Labour and other basic services by the Local community",
        "Time frame for the implementation": "1.5 Years",
        "photopath": "https://raw.githubusercontent.com/MWS003-GIS/MWS003-GIS.github.io/main/IWWRMP/Data/EXD/200_photo/MWS_018_1/K4 (3).jpg"
      },
      "geometry": {
        "type": "Point",
        "coordinates": [
          80.766594,
          7.067265
        ]
      }
    },
    {
      "type": "Feature",
      "properties": {
        "No.": 30.0,
        "GN Division No.": "511 F",
        "GN Division": "Ketahira",
        "Key Activities proposed for Soil and Water conservation": "5. Soil conservation practices - Makudugala reservation (70 ?)",
        "Priority based on Soil Erosion Hazard": 5.0,
        "N": 7.065861,
        "E": 80.767755,
        "Quantity": "10 ha",
        "Proposed measure/s": "Live fencing/SALT Stone terracing/lock and spills, as applied",
        "Unit Cost (Rs.)": "250.00 m-1",
        "Total Cost (Rs.)": "2,500,000.00",
        "Contribution (Local Community, LA, and the project)": "Labour and other basic services by the Local community",
        "Time frame for the implementation": "0.5 Years",
        "photopath": "https://raw.githubusercontent.com/MWS003-GIS/MWS003-GIS.github.io/main/IWWRMP/Data/EXD/200_photo/MWS_018_1/K9.jpg"
      },
      "geometry": {
        "type": "Point",
        "coordinates": [
          80.767755,
          7.065861
        ]
      }
    },
    {
      "type": "Feature",
      "properties": {
        "No.": 31.0,
        "GN Division No.": "511 F",
        "GN Division": "Ketahira",
        "Key Activities proposed for Soil and Water conservation": "6. Soil conservation practices - Ketahira (40 ?)",
        "Priority based on Soil Erosion Hazard": 5.0,
        "N": 7.066036,
        "E": 80.766947,
        "Quantity": "8 ha",
        "Proposed measure/s": "Live fencing/SALT Stone terracing/lock and spills, as applied",
        "Unit Cost (Rs.)": "250.00 m-1",
        "Total Cost (Rs.)": "2,000,000.00",
        "Contribution (Local Community, LA, and the project)": "Labour and other basic services by the Local community",
        "Time frame for the implementation": "0.5 Years",
        "photopath": "https://raw.githubusercontent.com/MWS003-GIS/MWS003-GIS.github.io/main/IWWRMP/Data/EXD/200_photo/MWS_018_1/K5.jpg"
      },
      "geometry": {
        "type": "Point",
        "coordinates": [
          80.766947,
          7.066036
        ]
      }
    },
    {
      "type": "Feature",
      "properties": {
        "No.": 32.0,
        "GN Division No.": "511 F",
        "GN Division": "Ketahira",
        "Key Activities proposed for Soil and Water conservation": "7. Soil conservation practices - Ketahira (70 ?)",
        "Priority based on Soil Erosion Hazard": 5.0,
        "N": 7.063564,
        "E": 80.768764,
        "Quantity": "0.25 ha",
        "Proposed measure/s": "Live fencing/SALT Stone terracing/lock and spills, as applied",
        "Unit Cost (Rs.)": "250.00 m-1",
        "Total Cost (Rs.)": "62,500.00",
        "Contribution (Local Community, LA, and the project)": "Labour and other basic services by the Local community",
        "Time frame for the implementation": "0.25 Years",
        "photopath": "https://raw.githubusercontent.com/MWS003-GIS/MWS003-GIS.github.io/main/IWWRMP/Data/EXD/200_photo/MWS_018_1/K1 (2).jpg"
      },
      "geometry": {
        "type": "Point",
        "coordinates": [
          80.768764,
          7.063564
        ]
      }
    },
    {
      "type": "Feature",
      "properties": {
        "No.": 33.0,
        "GN Division No.": "511 F",
        "GN Division": "Ketahira",
        "Key Activities proposed for Soil and Water conservation": "8. Soil conservation practices - Ketahira (40 ?)",
        "Priority based on Soil Erosion Hazard": 5.0,
        "N": 7.063256,
        "E": 80.769691,
        "Quantity": "0.25 ha",
        "Proposed measure/s": "Live fencing/SALT Stone terracing/lock and spills, as applied",
        "Unit Cost (Rs.)": "250.00 m-1",
        "Total Cost (Rs.)": "62,500.00",
        "Contribution (Local Community, LA, and the project)": "Labour and other basic services by the Local community",
        "Time frame for the implementation": "0.25 Years",
        "photopath": "https://raw.githubusercontent.com/MWS003-GIS/MWS003-GIS.github.io/main/IWWRMP/Data/EXD/200_photo/MWS_018_1/K1.jpg"
      },
      "geometry": {
        "type": "Point",
        "coordinates": [
          80.769691,
          7.063256
        ]
      }
    },
    {
      "type": "Feature",
      "properties": {
        "No.": 34.0,
        "GN Division No.": "511 F",
        "GN Division": "Ketahira",
        "Key Activities proposed for Soil and Water conservation": "9. Soil conservation practices - Ketahira (55 ?)",
        "Priority based on Soil Erosion Hazard": 2.0,
        "N": 7.062288,
        "E": 80.770664,
        "Quantity": "20 ha",
        "Proposed measure/s": "Live fencing/SALT Stone terracing/lock and spills, as applied",
        "Unit Cost (Rs.)": "250.00 m-1",
        "Total Cost (Rs.)": "5,000,000.00",
        "Contribution (Local Community, LA, and the project)": "Labour and other basic services by the Local community",
        "Time frame for the implementation": "1 Year",
        "photopath": "Not_Available"
      },
      "geometry": {
        "type": "Point",
        "coordinates": [
          80.770664,
          7.062288
        ]
      }
    },
    {
      "type": "Feature",
      "properties": {
        "No.": 39.0,
        "GN Division No.": "511",
        "GN Division": "Manakola",
        "Key Activities proposed for Soil and Water conservation": "5. Soil conservation practices - Egodagela (80 ?)",
        "Priority based on Soil Erosion Hazard": 1.0,
        "N": 7.078919,
        "E": 80.785348,
        "Quantity": "4 ha",
        "Proposed measure/s": "Live fencing/SALT Stone terracing/lock and spills, as applied",
        "Unit Cost (Rs.)": "250.00 m-1",
        "Total Cost (Rs.)": "1,000,000.00",
        "Contribution (Local Community, LA, and the project)": "Labour and other basic services by the Local community",
        "Time frame for the implementation": "0.5 Years",
        "photopath": "Not_Available"
      },
      "geometry": {
        "type": "Point",
        "coordinates": [
          80.785348,
          7.078919
        ]
      }
    },
    {
      "type": "Feature",
      "properties": {
        "No.": 40.0,
        "GN Division No.": "511",
        "GN Division": "Manakola",
        "Key Activities proposed for Soil and Water conservation": "6. Soil conservation practices - Manakola (65 ?)",
        "Priority based on Soil Erosion Hazard": 3.0,
        "N": 7.075877,
        "E": 80.78654,
        "Quantity": "2 ha",
        "Proposed measure/s": "Live fencing/SALT Stone terracing/lock and spills, as applied",
        "Unit Cost (Rs.)": "250.00 m-1",
        "Total Cost (Rs.)": "500,000.00",
        "Contribution (Local Community, LA, and the project)": "Labour and other basic services by the Local community",
        "Time frame for the implementation": "0.25 Years",
        "photopath": "Not_Available"
      },
      "geometry": {
        "type": "Point",
        "coordinates": [
          80.78654,
          7.075877
        ]
      }
    },
    {
      "type": "Feature",
      "properties": {
        "No.": 41.0,
        "GN Division No.": "511",
        "GN Division": "Manakola",
        "Key Activities proposed for Soil and Water conservation": "7. Soil conservation practices - Manakola (70 ?)",
        "Priority based on Soil Erosion Hazard": 1.0,
        "N": 7.075723,
        "E": 80.785273,
        "Quantity": "3.5 ha",
        "Proposed measure/s": "Live fencing/SALT Stone terracing/lock and spills, as applied",
        "Unit Cost (Rs.)": "250.00 m-1",
        "Total Cost (Rs.)": "875,000.00",
        "Contribution (Local Community, LA, and the project)": "Labour and other basic services by the Local community",
        "Time frame for the implementation": "0.25 Years",
        "photopath": "Not_Available"
      },
      "geometry": {
        "type": "Point",
        "coordinates": [
          80.785273,
          7.075723
        ]
      }
    },
    {
      "type": "Feature",
      "properties": {
        "No.": 42.0,
        "GN Division No.": "511",
        "GN Division": "Manakola",
        "Key Activities proposed for Soil and Water conservation": "8. Soil conservation practices - Kakuna Watta Area (70 ?)",
        "Priority based on Soil Erosion Hazard": 1.0,
        "N": 7.077072,
        "E": 80.785873,
        "Quantity": "4 ha",
        "Proposed measure/s": "Live fencing/SALT Stone terracing/lock and spills, as applied",
        "Unit Cost (Rs.)": "250.00 m-1",
        "Total Cost (Rs.)": "1,000,000.00",
        "Contribution (Local Community, LA, and the project)": "Labour and other basic services by the Local community",
        "Time frame for the implementation": "0.5 Years",
        "photopath": "Not_Available"
      },
      "geometry": {
        "type": "Point",
        "coordinates": [
          80.785873,
          7.077072
        ]
      }
    },
    {
      "type": "Feature",
      "properties": {
        "No.": 45.0,
        "GN Division No.": "511 B",
        "GN Division": "Marthuwela ",
        "Key Activities proposed for Soil and Water conservation": "2. Soil conservation practices - Marthuwela (55 ?)",
        "Priority based on Soil Erosion Hazard": 4.0,
        "N": 7.083257,
        "E": 80.786904,
        "Quantity": "2.5 ha",
        "Proposed measure/s": "Live fencing/SALT Stone terracing/lock and spills, as applied",
        "Unit Cost (Rs.)": "250.00 m-1",
        "Total Cost (Rs.)": "625,000.00",
        "Contribution (Local Community, LA, and the project)": "Labour and other basic services by the Local community",
        "Time frame for the implementation": "0.25 Years",
        "photopath": "https://raw.githubusercontent.com/MWS003-GIS/MWS003-GIS.github.io/main/IWWRMP/Data/EXD/200_photo/MWS_018_1/MW6.jpg"
      },
      "geometry": {
        "type": "Point",
        "coordinates": [
          80.786904,
          7.083257
        ]
      }
    },
    {
      "type": "Feature",
      "properties": {
        "No.": 46.0,
        "GN Division No.": "511 B",
        "GN Division": "Marthuwela ",
        "Key Activities proposed for Soil and Water conservation": "3. Soil conservation practices - Gattumgamana reservation (80 ?) (Infront of about 1km)",
        "Priority based on Soil Erosion Hazard": 1.0,
        "N": 7.081064,
        "E": 80.786923,
        "Quantity": "2 ha",
        "Proposed measure/s": "Live fencing/SALT Stone terracing/lock and spills, as applied",
        "Unit Cost (Rs.)": "250.00 m-1",
        "Total Cost (Rs.)": "500,000.00",
        "Contribution (Local Community, LA, and the project)": "Labour and other basic services by the Local community",
        "Time frame for the implementation": "0.25 Years",
        "photopath": "https://raw.githubusercontent.com/MWS003-GIS/MWS003-GIS.github.io/main/IWWRMP/Data/EXD/200_photo/MWS_018_1/MW8.jpg"
      },
      "geometry": {
        "type": "Point",
        "coordinates": [
          80.786923,
          7.081064
        ]
      }
    },
    {
      "type": "Feature",
      "properties": {
        "No.": 49.0,
        "GN Division No.": "511 C",
        "GN Division": "Rathyaya",
        "Key Activities proposed for Soil and Water conservation": "3. Soil conservation practices - Ela Amuna reservation (75 ?)",
        "Priority based on Soil Erosion Hazard": 3.0,
        "N": 7.080417,
        "E": 80.779394,
        "Quantity": "2 ha",
        "Proposed measure/s": "Live fencing/SALT Stone terracing/lock and spills, as applied",
        "Unit Cost (Rs.)": "250.00 m-1",
        "Total Cost (Rs.)": "500,000.00",
        "Contribution (Local Community, LA, and the project)": "Labour and other basic services by the Local community",
        "Time frame for the implementation": "0.5 Years",
        "photopath": "https://raw.githubusercontent.com/MWS003-GIS/MWS003-GIS.github.io/main/IWWRMP/Data/EXD/200_photo/MWS_018_1/RY8 (2).jpg"
      },
      "geometry": {
        "type": "Point",
        "coordinates": [
          80.779394,
          7.080417
        ]
      }
    },
    {
      "type": "Feature",
      "properties": {
        "No.": 50.0,
        "GN Division No.": "511 C",
        "GN Division": "Rathyaya",
        "Key Activities proposed for Soil and Water conservation": "4. Soil conservation practices - Rathyaya (60 ?)",
        "Priority based on Soil Erosion Hazard": 1.0,
        "N": 7.080744,
        "E": 80.780211,
        "Quantity": "0.5 ha",
        "Proposed measure/s": "Live fencing/SALT Stone terracing/lock and spills, as applied",
        "Unit Cost (Rs.)": "250.00 m-1",
        "Total Cost (Rs.)": "125,000.00",
        "Contribution (Local Community, LA, and the project)": "Labour and other basic services by the Local community",
        "Time frame for the implementation": "0.25 Years",
        "photopath": "https://raw.githubusercontent.com/MWS003-GIS/MWS003-GIS.github.io/main/IWWRMP/Data/EXD/200_photo/MWS_018_1/RY8.jpg"
      },
      "geometry": {
        "type": "Point",
        "coordinates": [
          80.780211,
          7.080744
        ]
      }
    },
    {
      "type": "Feature",
      "properties": {
        "No.": 51.0,
        "GN Division No.": "511 C",
        "GN Division": "Rathyaya",
        "Key Activities proposed for Soil and Water conservation": "5. Soil conservation practices - Rathyaya (75 ?)",
        "Priority based on Soil Erosion Hazard": 4.0,
        "N": 7.080845,
        "E": 80.779877,
        "Quantity": "0.25 ha",
        "Proposed measure/s": "Live fencing/SALT Stone terracing/lock and spills, as applied",
        "Unit Cost (Rs.)": "250.00 m-1",
        "Total Cost (Rs.)": "62,500.00",
        "Contribution (Local Community, LA, and the project)": "Labour and other basic services by the Local community",
        "Time frame for the implementation": "0.25 Years",
        "photopath": "https://raw.githubusercontent.com/MWS003-GIS/MWS003-GIS.github.io/main/IWWRMP/Data/EXD/200_photo/MWS_018_1/RY5 (2).jpg"
      },
      "geometry": {
        "type": "Point",
        "coordinates": [
          80.779877,
          7.080845
        ]
      }
    },
    {
      "type": "Feature",
      "properties": {
        "No.": 52.0,
        "GN Division No.": "511 C",
        "GN Division": "Rathyaya",
        "Key Activities proposed for Soil and Water conservation": "6. Soil conservation practices - Rathyaya Kondagala reservation (85 ?) (500m above)",
        "Priority based on Soil Erosion Hazard": 4.0,
        "N": 7.081787,
        "E": 80.779138,
        "Quantity": "2.5 ha",
        "Proposed measure/s": "Live fencing/SALT Stone terracing/lock and spills, as applied",
        "Unit Cost (Rs.)": "250.00 m-1",
        "Total Cost (Rs.)": "625,000.00",
        "Contribution (Local Community, LA, and the project)": "Labour and other basic services by the Local community",
        "Time frame for the implementation": "0.5 Years",
        "photopath": "Not_Available"
      },
      "geometry": {
        "type": "Point",
        "coordinates": [
          80.779138,
          7.081787
        ]
      }
    },
    {
      "type": "Feature",
      "properties": {
        "No.": 53.0,
        "GN Division No.": "511 C",
        "GN Division": "Rathyaya",
        "Key Activities proposed for Soil and Water conservation": "7. Soil conservation practices - Rathyaya (45 ?)",
        "Priority based on Soil Erosion Hazard": 5.0,
        "N": 7.08363,
        "E": 80.783252,
        "Quantity": "0.25 ha",
        "Proposed measure/s": "Live fencing/SALT Stone terracing/lock and spills, as applied",
        "Unit Cost (Rs.)": "250.00 m-1",
        "Total Cost (Rs.)": "62,500.00",
        "Contribution (Local Community, LA, and the project)": "Labour and other basic services by the Local community",
        "Time frame for the implementation": "0.25 Years",
        "photopath": "Not_Available"
      },
      "geometry": {
        "type": "Point",
        "coordinates": [
          80.783252,
          7.08363
        ]
      }
    },
    {
      "type": "Feature",
      "properties": {
        "No.": 59.0,
        "GN Division No.": "510 A",
        "GN Division": "Uda Padiyapelella ",
        "Key Activities proposed for Soil and Water conservation": "5. Soil conservation practices - Bodhi Ela reservation (70 ?)",
        "Priority based on Soil Erosion Hazard": 5.0,
        "N": 7.091983,
        "E": 80.796333,
        "Quantity": "6 ha",
        "Proposed measure/s": "Live fencing/SALT Stone terracing/lock and spills, as applied",
        "Unit Cost (Rs.)": "250.00 m-1",
        "Total Cost (Rs.)": "1,500,000.00",
        "Contribution (Local Community, LA, and the project)": "Labour and other basic services by the Local community",
        "Time frame for the implementation": "0.5 Years",
        "photopath": "https://raw.githubusercontent.com/MWS003-GIS/MWS003-GIS.github.io/main/IWWRMP/Data/EXD/200_photo/MWS_018_1/UP1.jpg"
      },
      "geometry": {
        "type": "Point",
        "coordinates": [
          80.796333,
          7.091983
        ]
      }
    },
    {
      "type": "Feature",
      "properties": {
        "No.": null,
        "GN Division No.": null,
        "GN Division": null,
        "Key Activities proposed for Soil and Water conservation": null,
        "Priority based on Soil Erosion Hazard": null,
        "N": null,
        "E": null,
        "Quantity": null,
        "Proposed measure/s": null,
        "Unit Cost (Rs.)": null,
        "Total Cost (Rs.)": null,
        "Contribution (Local Community, LA, and the project)": null,
        "Time frame for the implementation": null,
        "photopath": "Not_Available"
      },
      "geometry": null
    },
    {
      "type": "Feature",
      "properties": {
        "No.": null,
        "GN Division No.": null,
        "GN Division": null,
        "Key Activities proposed for Soil and Water conservation": null,
        "Priority based on Soil Erosion Hazard": null,
        "N": null,
        "E": null,
        "Quantity": null,
        "Proposed measure/s": null,
        "Unit Cost (Rs.)": null,
        "Total Cost (Rs.)": null,
        "Contribution (Local Community, LA, and the project)": null,
        "Time frame for the implementation": null,
        "photopath": "Not_Available"
      },
      "geometry": null
    },
    {
      "type": "Feature",
      "properties": {
        "No.": null,
        "GN Division No.": null,
        "GN Division": null,
        "Key Activities proposed for Soil and Water conservation": null,
        "Priority based on Soil Erosion Hazard": null,
        "N": null,
        "E": null,
        "Quantity": null,
        "Proposed measure/s": null,
        "Unit Cost (Rs.)": null,
        "Total Cost (Rs.)": null,
        "Contribution (Local Community, LA, and the project)": null,
        "Time frame for the implementation": null,
        "photopath": "Not_Available"
      },
      "geometry": null
    },
    {
      "type": "Feature",
      "properties": {
        "No.": null,
        "GN Division No.": null,
        "GN Division": null,
        "Key Activities proposed for Soil and Water conservation": null,
        "Priority based on Soil Erosion Hazard": null,
        "N": null,
        "E": null,
        "Quantity": null,
        "Proposed measure/s": null,
        "Unit Cost (Rs.)": null,
        "Total Cost (Rs.)": null,
        "Contribution (Local Community, LA, and the project)": null,
        "Time frame for the implementation": null,
        "photopath": "Not_Available"
      },
      "geometry": null
    },
    {
      "type": "Feature",
      "properties": {
        "No.": null,
        "GN Division No.": null,
        "GN Division": null,
        "Key Activities proposed for Soil and Water conservation": null,
        "Priority based on Soil Erosion Hazard": null,
        "N": null,
        "E": null,
        "Quantity": null,
        "Proposed measure/s": null,
        "Unit Cost (Rs.)": null,
        "Total Cost (Rs.)": null,
        "Contribution (Local Community, LA, and the project)": null,
        "Time frame for the implementation": null,
        "photopath": "Not_Available"
      },
      "geometry": null
    },
    {
      "type": "Feature",
      "properties": {
        "No.": null,
        "GN Division No.": null,
        "GN Division": null,
        "Key Activities proposed for Soil and Water conservation": null,
        "Priority based on Soil Erosion Hazard": null,
        "N": null,
        "E": null,
        "Quantity": null,
        "Proposed measure/s": null,
        "Unit Cost (Rs.)": null,
        "Total Cost (Rs.)": null,
        "Contribution (Local Community, LA, and the project)": null,
        "Time frame for the implementation": null,
        "photopath": "Not_Available"
      },
      "geometry": null
    },
    {
      "type": "Feature",
      "properties": {
        "No.": null,
        "GN Division No.": null,
        "GN Division": null,
        "Key Activities proposed for Soil and Water conservation": null,
        "Priority based on Soil Erosion Hazard": null,
        "N": null,
        "E": null,
        "Quantity": null,
        "Proposed measure/s": null,
        "Unit Cost (Rs.)": null,
        "Total Cost (Rs.)": null,
        "Contribution (Local Community, LA, and the project)": null,
        "Time frame for the implementation": null,
        "photopath": "Not_Available"
      },
      "geometry": null
    },
    {
      "type": "Feature",
      "properties": {
        "No.": null,
        "GN Division No.": null,
        "GN Division": null,
        "Key Activities proposed for Soil and Water conservation": null,
        "Priority based on Soil Erosion Hazard": null,
        "N": null,
        "E": null,
        "Quantity": null,
        "Proposed measure/s": null,
        "Unit Cost (Rs.)": null,
        "Total Cost (Rs.)": null,
        "Contribution (Local Community, LA, and the project)": null,
        "Time frame for the implementation": null,
        "photopath": "Not_Available"
      },
      "geometry": null
    },
    {
      "type": "Feature",
      "properties": {
        "No.": null,
        "GN Division No.": null,
        "GN Division": null,
        "Key Activities proposed for Soil and Water conservation": null,
        "Priority based on Soil Erosion Hazard": null,
        "N": null,
        "E": null,
        "Quantity": null,
        "Proposed measure/s": null,
        "Unit Cost (Rs.)": null,
        "Total Cost (Rs.)": null,
        "Contribution (Local Community, LA, and the project)": null,
        "Time frame for the implementation": null,
        "photopath": "Not_Available"
      },
      "geometry": null
    },
    {
      "type": "Feature",
      "properties": {
        "No.": null,
        "GN Division No.": null,
        "GN Division": null,
        "Key Activities proposed for Soil and Water conservation": null,
        "Priority based on Soil Erosion Hazard": null,
        "N": null,
        "E": null,
        "Quantity": null,
        "Proposed measure/s": null,
        "Unit Cost (Rs.)": null,
        "Total Cost (Rs.)": null,
        "Contribution (Local Community, LA, and the project)": null,
        "Time frame for the implementation": null,
        "photopath": "Not_Available"
      },
      "geometry": null
    },
    {
      "type": "Feature",
      "properties": {
        "No.": null,
        "GN Division No.": null,
        "GN Division": null,
        "Key Activities proposed for Soil and Water conservation": null,
        "Priority based on Soil Erosion Hazard": null,
        "N": null,
        "E": null,
        "Quantity": null,
        "Proposed measure/s": null,
        "Unit Cost (Rs.)": null,
        "Total Cost (Rs.)": null,
        "Contribution (Local Community, LA, and the project)": null,
        "Time frame for the implementation": null,
        "photopath": "Not_Available"
      },
      "geometry": null
    },
    {
      "type": "Feature",
      "properties": {
        "No.": null,
        "GN Division No.": null,
        "GN Division": null,
        "Key Activities proposed for Soil and Water conservation": null,
        "Priority based on Soil Erosion Hazard": null,
        "N": null,
        "E": null,
        "Quantity": null,
        "Proposed measure/s": null,
        "Unit Cost (Rs.)": null,
        "Total Cost (Rs.)": null,
        "Contribution (Local Community, LA, and the project)": null,
        "Time frame for the implementation": null,
        "photopath": "Not_Available"
      },
      "geometry": null
    },
    {
      "type": "Feature",
      "properties": {
        "No.": null,
        "GN Division No.": null,
        "GN Division": null,
        "Key Activities proposed for Soil and Water conservation": null,
        "Priority based on Soil Erosion Hazard": null,
        "N": null,
        "E": null,
        "Quantity": null,
        "Proposed measure/s": null,
        "Unit Cost (Rs.)": null,
        "Total Cost (Rs.)": null,
        "Contribution (Local Community, LA, and the project)": null,
        "Time frame for the implementation": null,
        "photopath": "Not_Available"
      },
      "geometry": null
    }
  ]
}