{
  "type": "FeatureCollection",
  "name": "WSP",
  "crs": {
    "type": "name",
    "properties": {
      "name": "urn:ogc:def:crs:OGC:1.3:CRS84"
    }
  },
  "features": [
    {
      "type": "Feature",
      "properties": {
        "No": 1,
        "GND No.": "511 D",
        "Name of the Tank": "Senamale Spring (2.5 acres)",
        "N": 7.073963,
        "E": 80.774569,
        "Observation": "There is no fence to protect the spring",
        "Description": "Vegetative cover improving (1.5m-2.0m wide) with Areca nut seedlings at 1.5m spacing in two rows, Beetle creeper VP at 3m spacing in a single row, green gram as a cover crop including applying of compost manure, NPK fertilizer and maintenance\nProviding barb wire fence with 07 nos of 14G barb wire rows fixed firmly between 7ft high concrete posts erected at 2.0m intervals along the fence\nVegetative cover improving with Areca nut seedling at 1.5m spacing in a single row, Kumbuk/ Mee/ Godapara/ Kaduru/ Aththikka/ Wal Del/ Kekuna/ randomly mixed seedlings and dense planting at 500mm grid interval, applying of compost manure, NPK fertilizer, mulching\nConstruction of 1:3:6 (1 1/2\") ct concrete retaining wall (height 1.8m, top width 0.15m, 0.60m high steps x 03, each of 0.15m step width & bottom width 0.60m)",
        "Amount (Rs.)": "332,600",
        "photopath": "https://raw.githubusercontent.com/MWS003-GIS/MWS003-GIS.github.io/main/IWWRMP/Data/EXD/200_photo/MWS_018_1/GG11.jpg"
      },
      "geometry": {
        "type": "Point",
        "coordinates": [
          80.774569,
          7.073963
        ]
      }
    },
    {
      "type": "Feature",
      "properties": {
        "No": 2,
        "GND No.": "510",
        "Name of the Tank": "Hapugahatenna Spring",
        "N": 7.086514,
        "E": 80.792216,
        "Observation": "The spring is located in a private land",
        "Description": "Vegetative cover improving (1.5m-2.0m wide) with Areca nut seedlings at 1.5m spacing in two rows, Beetle creeper VP at 3m spacing in a single row, green gram as a cover crop including applying of compost manure, NPK fertilizer and maintenance\nVegetative cover improving with Areca nut seedling at 1.5m spacing in a single row, Kumbuk/ Mee/ Godapara/ Kaduru/ Aththikka/ Wal Del/ Kekuna/ randomly mixed seedlings and dense planting at 500mm grid interval, applying of compost manure, NPK fertilizer, mulching",
        "Amount (Rs.)": "38,400",
        "photopath": "https://raw.githubusercontent.com/MWS003-GIS/MWS003-GIS.github.io/main/IWWRMP/Data/EXD/200_photo/MWS_018_1/I6.jpg"
      },
      "geometry": {
        "type": "Point",
        "coordinates": [
          80.792216,
          7.086514
        ]
      }
    },
    {
      "type": "Feature",
      "properties": {
        "No": 3,
        "GND No.": "511 B",
        "Name of the Tank": "Pathanakade Spring ",
        "N": 7.083226,
        "E": 80.786813,
        "Observation": "The spring is located in a private land",
        "Description": "Vegetative cover improving (1.5m-2.0m wide) with Areca nut seedlings at 1.5m spacing in two rows, Beetle creeper VP at 3m spacing in a single row, green gram as a cover crop including applying of compost manure, NPK fertilizer and maintenance",
        "Amount (Rs.)": "11,750",
        "photopath": "https://raw.githubusercontent.com/MWS003-GIS/MWS003-GIS.github.io/main/IWWRMP/Data/EXD/200_photo/MWS_018_1/MW11.jpg"
      },
      "geometry": {
        "type": "Point",
        "coordinates": [
          80.786813,
          7.083226
        ]
      }
    },
    {
      "type": "Feature",
      "properties": {
        "No": 4,
        "GND No.": "511 B",
        "Name of the Tank": "Galawatte Linda",
        "N": 7.081004,
        "E": 80.785231,
        "Observation": "Seepage losses occurred at side walls of the well\nThe Boundaries are not demarcated",
        "Description": "Construction of 1:3:6 (1 1/2\") ct concrete retaining wall (height 1.8m, top width 0.15m, 0.60m high steps x 03, each of 0.15m step width & bottom width 0.60m)\nVegetative cover improving (1.5m-2.0m wide) with Areca nut seedlings at 1.5m spacing in two rows, Beetle creeper VP at 3m spacing in a single row, green gram as a cover crop including applying of compost manure, NPK fertilizer and maintenance\nProviding barb wire fence with 07 nos of 14G barb wire rows fixed firmly between 7ft high concrete posts erected at 2.0m intervals along the fence\nVegetative cover improving with Areca nut seedling at 1.5m spacing in a single row, Kumbuk/ Mee/ Godapara/ Kaduru/ Aththikka/ Wal Del/ Kekuna/ randomly mixed seedlings and dense planting at 500mm grid interval, applying of compost manure, NPK fertilizer, mulching",
        "Amount (Rs.)": "345,200",
        "photopath": "https://raw.githubusercontent.com/MWS003-GIS/MWS003-GIS.github.io/main/IWWRMP/Data/EXD/200_photo/MWS_018_1/MW10.jpg"
      },
      "geometry": {
        "type": "Point",
        "coordinates": [
          80.785231,
          7.081004
        ]
      }
    },
    {
      "type": "Feature",
      "properties": {
        "No": 5,
        "GND No.": "511 B",
        "Name of the Tank": "Enasal Watta Well",
        "N": 7.081686,
        "E": 80.784547,
        "Observation": "-",
        "Description": "Vegetative cover improving (1.5m-2.0m wide) with Areca nut seedlings at 1.5m spacing in two rows, Beetle creeper VP at 3m spacing in a single row, green gram as a cover crop including applying of compost manure, NPK fertilizer and maintenance\nVegetative cover improving with Areca nut seedling at 1.5m spacing in a single row, Kumbuk/ Mee/ Godapara/ Kaduru/ Aththikka/ Wal Del/ Kekuna/ randomly mixed seedlings and dense planting at 500mm grid interval, applying of compost manure, NPK fertilizer, mulching\nConstruction of Concrete water storage tank of 20 cum - size internal 3mx3mx2.5m",
        "Amount (Rs.)": "588,400",
        "photopath": "https://raw.githubusercontent.com/MWS003-GIS/MWS003-GIS.github.io/main/IWWRMP/Data/EXD/200_photo/MWS_018_1/RY14.jpg"
      },
      "geometry": {
        "type": "Point",
        "coordinates": [
          80.784547,
          7.081686
        ]
      }
    },
    {
      "type": "Feature",
      "properties": {
        "No": 6,
        "GND No.": "511 C",
        "Name of the Tank": "Diyamulla Spring",
        "N": 7.082521,
        "E": 80.779034,
        "Observation": "No reservation area\nSeepage losses in the side walls of the well",
        "Description": "Vegetative cover improving (1.5m-2.0m wide) with Areca nut seedlings at 1.5m spacing in two rows, Beetle creeper VP at 3m spacing in a single row, green gram as a cover crop including applying of compost manure, NPK fertilizer and maintenance\nVegetative cover improving with Areca nut seedling at 1.5m spacing in a single row, Kumbuk/ Mee/ Godapara/ Kaduru/ Aththikka/ Wal Del/ Kekuna/ randomly mixed seedlings and dense planting at 500mm grid interval, applying of compost manure, NPK fertilizer, mulching\n1:3:6(1 1/2\") Cement concrete, hand mixing and placing\nConstruction of curtain wall (0.075mm thk) with 1:2:4 (3/4\") concrete, 1/2\" dowels at 600mm x 600mm intervals and embedded with chicken mesh",
        "Amount (Rs.)": "61,000",
        "photopath": "https://raw.githubusercontent.com/MWS003-GIS/MWS003-GIS.github.io/main/IWWRMP/Data/EXD/200_photo/MWS_018_1/RY9.jpg"
      },
      "geometry": {
        "type": "Point",
        "coordinates": [
          80.779034,
          7.082521
        ]
      }
    },
    {
      "type": "Feature",
      "properties": {
        "No": 7,
        "GND No.": "511 C",
        "Name of the Tank": "Galkotuwa Spring",
        "N": 7.082521,
        "E": 80.779034,
        "Observation": "Reservation area is not allocated\nWater can now be stored",
        "Description": "Vegetative cover improving (1.5m-2.0m wide) with Areca nut seedlings at 1.5m spacing in two rows, Beetle creeper VP at 3m spacing in a single row, green gram as a cover crop including applying of compost manure, NPK fertilizer and maintenance\nConstruction of Concrete water storage tank of 20 cum - size internal 3mx3mx2.5",
        "Amount (Rs.)": "561,700",
        "photopath": "https://raw.githubusercontent.com/MWS003-GIS/MWS003-GIS.github.io/main/IWWRMP/Data/EXD/200_photo/MWS_018_1/RY13.jpg"
      },
      "geometry": {
        "type": "Point",
        "coordinates": [
          80.779034,
          7.082521
        ]
      }
    },
    {
      "type": "Feature",
      "properties": {
        "No": 8,
        "GND No.": "510 A",
        "Name of the Tank": "Ambalam Kumbare Spring",
        "N": 7.093912,
        "E": 80.797935,
        "Observation": "Reservation area is not allocated\nUnavailability of water tank\nPeople personally fit the pipes and take water from the spring to their houses",
        "Description": "Vegetative cover improving (1.5m-2.0m wide) with Areca nut seedlings at 1.5m spacing in two rows, Beetle creeper VP at 3m spacing in a single row, green gram as a cover crop including applying of compost manure, NPK fertilizer and maintenance\nVegetative cover improving with Areca nut seedling at 1.5m spacing in a single row, Kumbuk/ Mee/ Godapara/ Kaduru/ Aththikka/ Wal Del/ Kekuna/ randomly mixed seedlings and dense planting at 500mm grid interval, applying of compost manure, NPK fertilizer, mulching\nConstruction of Concrete water storage tank of 20 cum - size internal 3mx3mx2.5\nProviding PVC pipes, pipe joints, etc. to convey water from tank exists at higher elevation",
        "Amount (Rs.)": "625,400",
        "photopath": "https://raw.githubusercontent.com/MWS003-GIS/MWS003-GIS.github.io/main/IWWRMP/Data/EXD/200_photo/MWS_018_1/UP6.jpg"
      },
      "geometry": {
        "type": "Point",
        "coordinates": [
          80.797935,
          7.093912
        ]
      }
    },
    {
      "type": "Feature",
      "properties": {
        "No": 9,
        "GND No.": "510 A",
        "Name of the Tank": "Kolawatte Kumbure Spring",
        "N": 7.096052,
        "E": 80.798941,
        "Observation": "The quality of water is reduced\nWater is wasted\nThe road that allocate for the well is dilapidated",
        "Description": "Water Quality Tests \n1:3:6(1 1/2\") Cement concrete, hand mixing and placing\nConstruction of curtain wall (0.075mm thk) with 1:2:4 (3/4\") concrete, 1/2\" dowels at 600mm x 600mm intervals and embedded with chicken mesh\nConstruction of Concrete water storage tank of 20 cum - size internal 3mx3mx2.5\nProviding PVC pipes, pipe joints, etc. to convey water from tank exists at higher elevation",
        "Amount (Rs.)": "642,800",
        "photopath": "Not_Available"
      },
      "geometry": {
        "type": "Point",
        "coordinates": [
          80.798941,
          7.096052
        ]
      }
    },
    {
      "type": "Feature",
      "properties": {
        "No": 10,
        "GND No.": "510 A",
        "Name of the Tank": "Ulpath Linda in Padiyapelella Maha Vidyalaya",
        "N": 7.097632,
        "E": 80.798422,
        "Observation": "Dilapidated due to the out of use ",
        "Description": "Construction of Concrete water storage tank of 20 cum - size internal 3mx3mx2.5\nProviding PVC pipes, pipe joints, etc. to convey water from tank exists at higher elevation",
        "Amount (Rs.)": "565,000",
        "photopath": "Not_Available"
      },
      "geometry": {
        "type": "Point",
        "coordinates": [
          80.798422,
          7.097632
        ]
      }
    },
    {
      "type": "Feature",
      "properties": {
        "No": 11,
        "GND No.": "511 C",
        "Name of the Tank": "Rathyaya Community Water Project",
        "N": 7.081241,
        "E": 80.781227,
        "Observation": "Pipe system is not methodical\nWater cannot be stored due to the dilapidated tank",
        "Description": "Providing PVC pipes, pipe joints, etc. to convey water from tank exists at higher elevation\n1/2\" thk 1:3 cement motor plastering to prevent leakages in lining",
        "Amount (Rs.)": "18,800",
        "photopath": "https://raw.githubusercontent.com/MWS003-GIS/MWS003-GIS.github.io/main/IWWRMP/Data/EXD/200_photo/MWS_018_1/RY1.jpg"
      },
      "geometry": {
        "type": "Point",
        "coordinates": [
          80.781227,
          7.081241
        ]
      }
    },
    {
      "type": "Feature",
      "properties": {
        "No": 13,
        "GND No.": "511 C",
        "Name of the Tank": "Conservation of Kondagala reservation",
        "N": 7.081787,
        "E": 80.779138,
        "Observation": "Excessive soil erosion in the reservation is caused due to the unauthorized vegetable cultivation in Maha season",
        "Description": "Providing barb wire fence with 07 nos of 14G barb wire rows fixed firmly between 7ft high concrete posts erected at 2.0m intervals along the fence\nVegetative cover improving with Areca nut seedling at 1.5m spacing in a single row, Kumbuk/ Mee/ Godapara/ Kaduru/ Aththikka/ Wal Del/ Kekuna/ randomly mixed seedlings and dense planting at 500mm grid interval, applying of compost manure, NPK fertilizer, mulching with straw/ banana tree skin and maintenance",
        "Amount (Rs.)": "670900",
        "photopath": "https://raw.githubusercontent.com/MWS003-GIS/MWS003-GIS.github.io/main/IWWRMP/Data/EXD/200_photo/MWS_018_1/RY13.jpg"
      },
      "geometry": {
        "type": "Point",
        "coordinates": [
          80.779138,
          7.081787
        ]
      }
    }
  ]
}