{"type":"FeatureCollection","name":"WSP","crs":{"type":"name","properties":{"name":"urn:ogc:def:crs:OGC:1.3:CRS84"}},"features":[
{"type":"Feature","properties":{"No":34,"GND No.":248,"Name of the Tank":"Water storage tank of the springs in the Riverside area","N":7.242835,"E":80.600004,"Observation":"the tanks only for 22 peoples ,damaged old tanks","Description":"Preliminaries \nRepars to the water tank.\nContingencies (10%)","Amount (Rs.)":23650,"photopath":"https://raw.githubusercontent.com/MWS003-GIS/MWS003-GIS.github.io/main/IWWRMP/Data/EXD/200_photo/MWS_127_2/Riverde spring 22 tanks project.jpg"},"geometry":{"type":"Point","coordinates":[80.600004,7.242835]}},
{"type":"Feature","properties":{"No":35,"GND No.":248,"Name of the Tank":"Well at the Hindagala area of the Riverside Division","N":7.245064,"E":80.598918,"Observation":"high usage ,but damaged well area","Description":"Preliminaries \nRepars to the water well and tank.\nContingencies (10%)\n","Amount (Rs.)":29150,"photopath":"https://raw.githubusercontent.com/MWS003-GIS/MWS003-GIS.github.io/main/IWWRMP/Data/EXD/200_photo/MWS_127_2/RIverside spring.jpg"},"geometry":{"type":"Point","coordinates":[80.598918,7.245064]}}
]}