{"type":"FeatureCollection","name":"Landslides","crs":{"type":"name","properties":{"name":"urn:ogc:def:crs:OGC:1.3:CRS84"}},"features":[
{"type":"Feature","properties":{"No.":1,"GN Division No.":1034,"GN Division":"Wetakepotha","Land Slides":"Landsliding - Peelikara (Upper) (70d)","N":7.175464,"E":80.712225,"NBRO Recommendation":"NBRO has visited","Proposed Measures":"Transferring occupants to other lands, avoiding construction of heavy structures, trees etc., Monitoring continuously","photopath":"https://raw.githubusercontent.com/MWS003-GIS/MWS003-GIS.github.io/main/IWWRMP/Data/EXD/200_photo/MWS_002_1/Wetakepotha/W(11)1.jpg"},"geometry":{"type":"Point","coordinates":[80.712225,7.175464]}},
{"type":"Feature","properties":{"No.":2,"GN Division No.":1037,"GN Division":"Medakekila","Land Slides":"1. Soil sloughing/sliding - Araththawala Janapadaya (85d)","N":7.172908,"E":80.708957,"NBRO Recommendation":"Needs NBRO concern","Proposed Measures":"Establishing a retaining wall (5 m x 3 m)","photopath":"https://raw.githubusercontent.com/MWS003-GIS/MWS003-GIS.github.io/main/IWWRMP/Data/EXD/200_photo/MWS_002_1/Medakekila/mk13.jpg"},"geometry":{"type":"Point","coordinates":[80.708957,7.172908]}},
{"type":"Feature","properties":{"No.":3,"GN Division No.":1037,"GN Division":"Medakekila","Land Slides":"2. Soil sloughing/sliding - Araththawala Janapadaya (90d)","N":7.172452,"E":80.711725,"NBRO Recommendation":"Needs NBRO concern","Proposed Measures":"Establishing a retaining wall (7 m x 1.5 m)","photopath":"https://raw.githubusercontent.com/MWS003-GIS/MWS003-GIS.github.io/main/IWWRMP/Data/EXD/200_photo/MWS_002_1/Medakekila/mk15.jpg"},"geometry":{"type":"Point","coordinates":[80.711725,7.172452]}},
{"type":"Feature","properties":{"No.":5,"GN Division No.":1040,"GN Division":"Gonangoda","Land Slides":"1. Water stagnation - Dodamgahamulla Mawatha","N":7.155333,"E":80.708605,"NBRO Recommendation":null,"Proposed Measures":"Facilitating drainage\nBuilding up of a drain (300 m)","photopath":"https://raw.githubusercontent.com/MWS003-GIS/MWS003-GIS.github.io/main/IWWRMP/Data/EXD/200_photo/MWS_002_1/Gonangoda/gg3.jpg"},"geometry":{"type":"Point","coordinates":[80.708605,7.155333]}},
{"type":"Feature","properties":{"No.":6,"GN Division No.":1040,"GN Division":"Gonangoda","Land Slides":"2. Falling stones/boulders - Pattiyagama Waththa","N":7.165973,"E":80.694543,"NBRO Recommendation":"Needs NBRO concern","Proposed Measures":"Removal of risky boulders/stones\nAwareness on soil conservation ","photopath":"https://raw.githubusercontent.com/MWS003-GIS/MWS003-GIS.github.io/main/IWWRMP/Data/EXD/200_photo/MWS_002_1/Gonangoda/gg9.jpg"},"geometry":{"type":"Point","coordinates":[80.694543,7.165973]}},
{"type":"Feature","properties":{"No.":8,"GN Division No.":1042,"GN Division":"Karagaskada South","Land Slides":"1. Landsliding - Muslim Colony Road","N":7.170969,"E":80.700824,"NBRO Recommendation":"-","Proposed Measures":"Facilitating drainage","photopath":"https://raw.githubusercontent.com/MWS003-GIS/MWS003-GIS.github.io/main/IWWRMP/Data/EXD/200_photo/MWS_002_1/Karagaskada_South/ks4.jpg"},"geometry":{"type":"Point","coordinates":[80.700824,7.170969]}},
{"type":"Feature","properties":{"No.":9,"GN Division No.":1042,"GN Division":"Karagaskada South","Land Slides":"2. Flooding to houses - Hajara Road","N":7.172395,"E":80.7034,"NBRO Recommendation":"-","Proposed Measures":"Establishing a drain (300 m)","photopath":"https://raw.githubusercontent.com/MWS003-GIS/MWS003-GIS.github.io/main/IWWRMP/Data/EXD/200_photo/MWS_002_1/Karagaskada_South/ks13.jpg"},"geometry":{"type":"Point","coordinates":[80.7034,7.172395]}},
{"type":"Feature","properties":{"No.":10,"GN Division No.":1042,"GN Division":"Karagaskada South","Land Slides":"3. Sliding the side wall - Riverside Mawatha","N":7.170953,"E":80.704587,"NBRO Recommendation":"-","Proposed Measures":"Establishing a retaining wall (5 m x 5 m)","photopath":"https://raw.githubusercontent.com/MWS003-GIS/MWS003-GIS.github.io/main/IWWRMP/Data/EXD/200_photo/MWS_002_1/Karagaskada_South/ks18.jpg"},"geometry":{"type":"Point","coordinates":[80.704587,7.170953]}},
{"type":"Feature","properties":{"No.":13,"GN Division No.":1045,"GN Division":"Gabadagama North","Land Slides":"1. Soil sloughing - Naranhinna line houses","N":7.14737,"E":80.713383,"NBRO Recommendation":"Needs NBRO concern","Proposed Measures":"Facilitating drainage\nSoil conservation practices in the adjacent lands","photopath":"https://raw.githubusercontent.com/MWS003-GIS/MWS003-GIS.github.io/main/IWWRMP/Data/EXD/200_photo/MWS_002_1/Gabadagama_North/gn19.jpg"},"geometry":{"type":"Point","coordinates":[80.713383,7.14737]}}
]}