{"type":"FeatureCollection","name":"SWC_ON","crs":{"type":"name","properties":{"name":"urn:ogc:def:crs:OGC:1.3:CRS84"}},"features":[
{"type":"Feature","properties":{"No.":1,"GND No.":1034,"GND Name":"Wetakepotha","Key Activities proposed for Soil and Water conservation":"1. Development of natural drains - Kandura near the house of Mr. Raseem","Priority based on Soil Erosion Hazard":"1","N":7.172474,"E":80.717046,"Quantity":"170 m","Proposed measure/s":"Clearing and planting some trees along the banks (Areca nut) and other conservation practices","Unit Cost (Rs.)":"-","Total Cost ":"17,000","Contribution (Local Community, LA, and the project)":"Labour and other basic services by the Local community/ Shramadana","Time frame for the implementation":"0.25 Years","photopath":"https://raw.githubusercontent.com/MWS003-GIS/MWS003-GIS.github.io/main/IWWRMP/Data/EXD/200_photo/MWS_002_1/Wetakepotha/W(02)1.jpg"},"geometry":{"type":"Point","coordinates":[80.717046,7.172474]}},
{"type":"Feature","properties":{"No.":2,"GND No.":1034,"GND Name":"Wetakepotha","Key Activities proposed for Soil and Water conservation":"2. Soil conservation practices - near Wetakepotha Mosque (45d)","Priority based on Soil Erosion Hazard":"2","N":7.174512,"E":80.717534,"Quantity":"0.5 ha","Proposed measure/s":"Live fencing/SALT, Planting perennial crops","Unit Cost (Rs.)":"250 m-1","Total Cost ":"125,000","Contribution (Local Community, LA, and the project)":"Labour and other basic services by the Local community","Time frame for the implementation":"0.25 Years","photopath":"https://raw.githubusercontent.com/MWS003-GIS/MWS003-GIS.github.io/main/IWWRMP/Data/EXD/200_photo/MWS_002_1/Wetakepotha/W(04)1.jpg"},"geometry":{"type":"Point","coordinates":[80.717534,7.174512]}},
{"type":"Feature","properties":{"No.":3,"GND No.":1034,"GND Name":"Wetakepotha","Key Activities proposed for Soil and Water conservation":"3. Soil conservation practices - near Wetakepotha Mosque (45d)","Priority based on Soil Erosion Hazard":"1","N":7.17517,"E":80.718408,"Quantity":"1 ha","Proposed measure/s":"Live fencing/SALT, Planting perennial crops","Unit Cost (Rs.)":"250 m-1","Total Cost ":"250,000","Contribution (Local Community, LA, and the project)":"Labour and other basic services by the Local community","Time frame for the implementation":"0.25 Years","photopath":"https://raw.githubusercontent.com/MWS003-GIS/MWS003-GIS.github.io/main/IWWRMP/Data/EXD/200_photo/MWS_002_1/Wetakepotha/W(04)2.jpg"},"geometry":{"type":"Point","coordinates":[80.718408,7.17517]}},
{"type":"Feature","properties":{"No.":4,"GND No.":1034,"GND Name":"Wetakepotha","Key Activities proposed for Soil and Water conservation":"4. Soil conservation practices - near Deltota Mafawla Ulama Arab School (80d)","Priority based on Soil Erosion Hazard":"4","N":7.173139,"E":80.718945,"Quantity":"2 ha","Proposed measure/s":"Live fencing/SALT, Planting perennial crops","Unit Cost (Rs.)":"250 m-1","Total Cost ":"500,000","Contribution (Local Community, LA, and the project)":"Labour and other basic services by the Local community","Time frame for the implementation":"0.25 Years","photopath":"https://raw.githubusercontent.com/MWS003-GIS/MWS003-GIS.github.io/main/IWWRMP/Data/EXD/200_photo/MWS_002_1/Wetakepotha/W(05)3.jpg"},"geometry":{"type":"Point","coordinates":[80.718945,7.173139]}},
{"type":"Feature","properties":{"No.":5,"GND No.":1034,"GND Name":"Wetakepotha","Key Activities proposed for Soil and Water conservation":"5. Soil conservation practices - near Deltota Arab School (60d)","Priority based on Soil Erosion Hazard":"4","N":7.172956,"E":80.71791,"Quantity":"0.5 ha","Proposed measure/s":"Live fencing/SALT, Planting perennial crops","Unit Cost (Rs.)":"250 m-1","Total Cost ":"125,000","Contribution (Local Community, LA, and the project)":"Labour and other basic services by the Local community","Time frame for the implementation":"0.25 Years","photopath":"https://raw.githubusercontent.com/MWS003-GIS/MWS003-GIS.github.io/main/IWWRMP/Data/EXD/200_photo/MWS_002_1/Wetakepotha/W(05)4.jpg"},"geometry":{"type":"Point","coordinates":[80.71791,7.172956]}},
{"type":"Feature","properties":{"No.":6,"GND No.":1034,"GND Name":"Wetakepotha","Key Activities proposed for Soil and Water conservation":"6. Soil conservation practices - near Deltota Arab School Madadeniya (45d)","Priority based on Soil Erosion Hazard":"1","N":7.172227,"E":80.717838,"Quantity":"3 ha","Proposed measure/s":"Live fencing/SALT, Planting perennial crops","Unit Cost (Rs.)":"250 m-1","Total Cost ":"750,000","Contribution (Local Community, LA, and the project)":"Labour and other basic services by the Local community","Time frame for the implementation":"0.25 Years","photopath":"https://raw.githubusercontent.com/MWS003-GIS/MWS003-GIS.github.io/main/IWWRMP/Data/EXD/200_photo/MWS_002_1/Wetakepotha/W(05)5.jpg"},"geometry":{"type":"Point","coordinates":[80.717838,7.172227]}},
{"type":"Feature","properties":{"No.":7,"GND No.":1037,"GND Name":"Medakekila","Key Activities proposed for Soil and Water conservation":"1. Development of natural drains - Miniranwala Oya","Priority based on Soil Erosion Hazard":"5","N":7.17545,"E":80.705897,"Quantity":"1 km","Proposed measure/s":"Clearing and planting some trees along the banks (Areca nut, Kumbuk, Bamboo etc.) and other conservation practices","Unit Cost (Rs.)":"-","Total Cost ":"100,000","Contribution (Local Community, LA, and the project)":"Labour and other basic services by the Local community/ Shramadana","Time frame for the implementation":"0.25 Years","photopath":"https://raw.githubusercontent.com/MWS003-GIS/MWS003-GIS.github.io/main/IWWRMP/Data/EXD/200_photo/MWS_002_1/Medakekila/mk5.jpg"},"geometry":{"type":"Point","coordinates":[80.705897,7.17545]}},
{"type":"Feature","properties":{"No.":8,"GND No.":1037,"GND Name":"Medakekila","Key Activities proposed for Soil and Water conservation":"2. Development of natural drains - Arakewela Janapada Kandura","Priority based on Soil Erosion Hazard":"1","N":7.179818,"E":80.708588,"Quantity":"200 m","Proposed measure/s":"Clearing and planting some trees along the banks (Areca nut) and other conservation practices","Unit Cost (Rs.)":"-","Total Cost ":"20,000","Contribution (Local Community, LA, and the project)":"Labour and other basic services by the Local community/ Shramadana","Time frame for the implementation":"0.25 Years","photopath":"https://raw.githubusercontent.com/MWS003-GIS/MWS003-GIS.github.io/main/IWWRMP/Data/EXD/200_photo/MWS_002_1/Medakekila/mk14.jpg"},"geometry":{"type":"Point","coordinates":[80.708588,7.179818]}},
{"type":"Feature","properties":{"No.":9,"GND No.":1037,"GND Name":"Medakekila","Key Activities proposed for Soil and Water conservation":"3. Soil conservation practices - Medakekila (70d)","Priority based on Soil Erosion Hazard":"3","N":7.174624,"E":80.706709,"Quantity":"0.1 ha","Proposed measure/s":"Live fencing/SALT, Planting perennial crops","Unit Cost (Rs.)":"250 m-1","Total Cost ":"25,000","Contribution (Local Community, LA, and the project)":"Labour and other basic services by the Local community","Time frame for the implementation":"0.25 Years","photopath":"https://raw.githubusercontent.com/MWS003-GIS/MWS003-GIS.github.io/main/IWWRMP/Data/EXD/200_photo/MWS_002_1/Medakekila/mk6.jpg"},"geometry":{"type":"Point","coordinates":[80.706709,7.174624]}},
{"type":"Feature","properties":{"No.":10,"GND No.":1037,"GND Name":"Medakekila","Key Activities proposed for Soil and Water conservation":"4. Soil conservation practices - Medakekila (75d)","Priority based on Soil Erosion Hazard":"1","N":7.173663,"E":80.70769,"Quantity":"0.25 ha","Proposed measure/s":"Live fencing/SALT, Planting perennial crops","Unit Cost (Rs.)":"250 m-1","Total Cost ":"62,500","Contribution (Local Community, LA, and the project)":"Labour and other basic services by the Local community","Time frame for the implementation":"0.25 Years","photopath":"https://raw.githubusercontent.com/MWS003-GIS/MWS003-GIS.github.io/main/IWWRMP/Data/EXD/200_photo/MWS_002_1/Medakekila/mk9.jpg"},"geometry":{"type":"Point","coordinates":[80.70769,7.173663]}},
{"type":"Feature","properties":{"No.":11,"GND No.":1037,"GND Name":"Medakekila","Key Activities proposed for Soil and Water conservation":"5. Soil conservation practices - Medakekila (60d)","Priority based on Soil Erosion Hazard":"2","N":7.173707,"E":80.709117,"Quantity":"3 ha","Proposed measure/s":"Live fencing/SALT, Planting perennial crops\nStone terracing, Lock and spills, as applied","Unit Cost (Rs.)":"250 m-1","Total Cost ":"750,000","Contribution (Local Community, LA, and the project)":"Labour and other basic services by the Local community","Time frame for the implementation":"0.25 Years","photopath":"https://raw.githubusercontent.com/MWS003-GIS/MWS003-GIS.github.io/main/IWWRMP/Data/EXD/200_photo/MWS_002_1/Medakekila/mk10.jpg"},"geometry":{"type":"Point","coordinates":[80.709117,7.173707]}},
{"type":"Feature","properties":{"No.":12,"GND No.":1037,"GND Name":"Medakekila","Key Activities proposed for Soil and Water conservation":"6. Establishing a retaining wall","Priority based on Soil Erosion Hazard":"1","N":7.172908,"E":80.708957,"Quantity":"5 m x 3 m","Proposed measure/s":"Retaining wall","Unit Cost (Rs.)":"2,000 m-2","Total Cost ":"30,000","Contribution (Local Community, LA, and the project)":"Labour and other basic services by the Local community","Time frame for the implementation":"0.25 Years","photopath":"https://raw.githubusercontent.com/MWS003-GIS/MWS003-GIS.github.io/main/IWWRMP/Data/EXD/200_photo/MWS_002_1/Medakekila/mk13.jpg"},"geometry":{"type":"Point","coordinates":[80.708957,7.172908]}},
{"type":"Feature","properties":{"No.":13,"GND No.":1037,"GND Name":"Medakekila","Key Activities proposed for Soil and Water conservation":"7. Establishing a retaining wall","Priority based on Soil Erosion Hazard":"4","N":7.172452,"E":80.711725,"Quantity":"7 m x 1.5 m","Proposed measure/s":"Retaining wall","Unit Cost (Rs.)":"2,000 m-2","Total Cost ":"21,000","Contribution (Local Community, LA, and the project)":"Labour and other basic services by the Local community","Time frame for the implementation":"0.25 Years","photopath":"https://raw.githubusercontent.com/MWS003-GIS/MWS003-GIS.github.io/main/IWWRMP/Data/EXD/200_photo/MWS_002_1/Medakekila/mk15.jpg"},"geometry":{"type":"Point","coordinates":[80.711725,7.172452]}},
{"type":"Feature","properties":{"No.":14,"GND No.":1039,"GND Name":"Pattiyagama Udagama","Key Activities proposed for Soil and Water conservation":"1. Development of natural drains - Kandura near the house of Mr. Kumaratunga","Priority based on Soil Erosion Hazard":"4","N":7.158803,"E":80.720361,"Quantity":"100 m","Proposed measure/s":"Clearing and planting some trees along the banks (Areca nut) and other conservation practices","Unit Cost (Rs.)":"-","Total Cost ":"10,000","Contribution (Local Community, LA, and the project)":"Labour and other basic services by the Local community/ Shramadana","Time frame for the implementation":"0.5 Years","photopath":"https://raw.githubusercontent.com/MWS003-GIS/MWS003-GIS.github.io/main/IWWRMP/Data/EXD/200_photo/MWS_002_1/Pattiyagama_Udagama/PTUG0201.jpg"},"geometry":{"type":"Point","coordinates":[80.720361,7.158803]}},
{"type":"Feature","properties":{"No.":15,"GND No.":1039,"GND Name":"Pattiyagama Udagama","Key Activities proposed for Soil and Water conservation":"2. Development of natural drains - Loolkandura","Priority based on Soil Erosion Hazard":"1","N":7.160966,"E":80.716848,"Quantity":"2 km","Proposed measure/s":"Clearing and planting some trees along the banks (Areca nut) and other conservation practices","Unit Cost (Rs.)":"-","Total Cost ":"200,000","Contribution (Local Community, LA, and the project)":"Labour and other basic services by the Local community/ Shramadana","Time frame for the implementation":"0.25 Years","photopath":"https://raw.githubusercontent.com/MWS003-GIS/MWS003-GIS.github.io/main/IWWRMP/Data/EXD/200_photo/MWS_002_1/Pattiyagama_Udagama/PTUG0202.jpg"},"geometry":{"type":"Point","coordinates":[80.716848,7.160966]}},
{"type":"Feature","properties":{"No.":16,"GND No.":1039,"GND Name":"Pattiyagama Udagama","Key Activities proposed for Soil and Water conservation":"3. Soil conservation practices - Niththawela (60d)","Priority based on Soil Erosion Hazard":"5","N":7.15871,"E":80.720126,"Quantity":"20 ha","Proposed measure/s":"Live fencing/SALT, Planting perennial crops","Unit Cost (Rs.)":"250 m-1","Total Cost ":"5,000,000","Contribution (Local Community, LA, and the project)":"Labour and other basic services by the Local community","Time frame for the implementation":"0.25 Years","photopath":"https://raw.githubusercontent.com/MWS003-GIS/MWS003-GIS.github.io/main/IWWRMP/Data/EXD/200_photo/MWS_002_1/Pattiyagama_Udagama/PTUG0501.jpg"},"geometry":{"type":"Point","coordinates":[80.720126,7.15871]}},
{"type":"Feature","properties":{"No.":17,"GND No.":1039,"GND Name":"Pattiyagama Udagama","Key Activities proposed for Soil and Water conservation":"4. Soil conservation practices - Pattiyagama (65d)","Priority based on Soil Erosion Hazard":"5","N":7.159058,"E":80.715036,"Quantity":"-","Proposed measure/s":"Stone terracing, Lock and spills, as applied","Unit Cost (Rs.)":"-","Total Cost ":"-","Contribution (Local Community, LA, and the project)":"-","Time frame for the implementation":"-","photopath":"https://raw.githubusercontent.com/MWS003-GIS/MWS003-GIS.github.io/main/IWWRMP/Data/EXD/200_photo/MWS_002_1/Pattiyagama_Udagama/PTUG0502.jpg"},"geometry":{"type":"Point","coordinates":[80.715036,7.159058]}},
{"type":"Feature","properties":{"No.":18,"GND No.":1039,"GND Name":"Pattiyagama Udagama","Key Activities proposed for Soil and Water conservation":"5. Soil conservation practices - Pattiyagama Udagama (70d)","Priority based on Soil Erosion Hazard":"5","N":7.157552,"E":80.71677,"Quantity":"-","Proposed measure/s":"-","Unit Cost (Rs.)":"-","Total Cost ":"-","Contribution (Local Community, LA, and the project)":"-","Time frame for the implementation":"-","photopath":"Not_Available"},"geometry":{"type":"Point","coordinates":[80.71677,7.157552]}},
{"type":"Feature","properties":{"No.":19,"GND No.":1040,"GND Name":"Gonangoda","Key Activities proposed for Soil and Water conservation":"1. Development of natural drains - Kalugala Oya","Priority based on Soil Erosion Hazard":"1","N":7.157017,"E":80.706613,"Quantity":"750 m","Proposed measure/s":"Clearing and planting some trees along the banks (Areca nut, Kumbuk, Bamboo etc.) and other conservation practices","Unit Cost (Rs.)":"-","Total Cost ":"75,000","Contribution (Local Community, LA, and the project)":"Labour and other basic services by the Local community/ Shramadana","Time frame for the implementation":"0.5 Years","photopath":"https://raw.githubusercontent.com/MWS003-GIS/MWS003-GIS.github.io/main/IWWRMP/Data/EXD/200_photo/MWS_002_1/Gonangoda/gg10.jpg"},"geometry":{"type":"Point","coordinates":[80.706613,7.157017]}},
{"type":"Feature","properties":{"No.":20,"GND No.":1040,"GND Name":"Gonangoda","Key Activities proposed for Soil and Water conservation":"2. Development of natural drains - Kandura near temple","Priority based on Soil Erosion Hazard":"1","N":7.156739,"E":80.703891,"Quantity":"50 m","Proposed measure/s":"Clearing and planting some trees along the banks (Areca nut) and other conservation practices","Unit Cost (Rs.)":"-","Total Cost ":"5,000","Contribution (Local Community, LA, and the project)":"Labour and other basic services by the Local community/ Shramadana","Time frame for the implementation":"0.25 Years","photopath":"https://raw.githubusercontent.com/MWS003-GIS/MWS003-GIS.github.io/main/IWWRMP/Data/EXD/200_photo/MWS_002_1/Gonangoda/gg17.jpg"},"geometry":{"type":"Point","coordinates":[80.703891,7.156739]}},
{"type":"Feature","properties":{"No.":21,"GND No.":1040,"GND Name":"Gonangoda","Key Activities proposed for Soil and Water conservation":"3. Development of natural drains - Kandura near the house of Mr. Premasiri","Priority based on Soil Erosion Hazard":"1","N":7.156637,"E":80.70406,"Quantity":"50 m","Proposed measure/s":"Clearing and planting some trees along the banks (Areca nut) and other conservation practices","Unit Cost (Rs.)":"-","Total Cost ":"5,000","Contribution (Local Community, LA, and the project)":"Labour and other basic services by the Local community/ Shramadana","Time frame for the implementation":"0.25 Years","photopath":"https://raw.githubusercontent.com/MWS003-GIS/MWS003-GIS.github.io/main/IWWRMP/Data/EXD/200_photo/MWS_002_1/Gonangoda/gg21.jpg"},"geometry":{"type":"Point","coordinates":[80.70406,7.156637]}},
{"type":"Feature","properties":{"No.":22,"GND No.":1040,"GND Name":"Gonangoda","Key Activities proposed for Soil and Water conservation":"4. Development of natural drains - Thenna Elehi Kandura","Priority based on Soil Erosion Hazard":"3","N":7.15596,"E":80.707358,"Quantity":"300 m","Proposed measure/s":"Clearing and planting some trees along the banks (Areca nut) and other conservation practices","Unit Cost (Rs.)":"-","Total Cost ":"30,000","Contribution (Local Community, LA, and the project)":"Labour and other basic services by the Local community/ Shramadana","Time frame for the implementation":"0.25 Years","photopath":"https://raw.githubusercontent.com/MWS003-GIS/MWS003-GIS.github.io/main/IWWRMP/Data/EXD/200_photo/MWS_002_1/Gonangoda/gg6.jpg"},"geometry":{"type":"Point","coordinates":[80.707358,7.15596]}},
{"type":"Feature","properties":{"No.":23,"GND No.":1040,"GND Name":"Gonangoda","Key Activities proposed for Soil and Water conservation":"5. Soil conservation practices - Old Hospital Junction (50d)","Priority based on Soil Erosion Hazard":"5","N":7.15423,"E":80.706158,"Quantity":"18 ha","Proposed measure/s":"Live fencing/SALT, Planting perennial crops\nStone terracing, Lock and spills, as applied","Unit Cost (Rs.)":"250 m-1","Total Cost ":"4,500,000","Contribution (Local Community, LA, and the project)":"Labour and other basic services by the Local community","Time frame for the implementation":"0.5 Years","photopath":"https://raw.githubusercontent.com/MWS003-GIS/MWS003-GIS.github.io/main/IWWRMP/Data/EXD/200_photo/MWS_002_1/Gonangoda/gg25.jpg"},"geometry":{"type":"Point","coordinates":[80.706158,7.15423]}},
{"type":"Feature","properties":{"No.":24,"GND No.":1040,"GND Name":"Gonangoda","Key Activities proposed for Soil and Water conservation":"6. Soil conservation practices - Old Hospital (60d)","Priority based on Soil Erosion Hazard":"3","N":7.15573,"E":80.707702,"Quantity":"1 ha","Proposed measure/s":"Live fencing/SALT, Planting perennial crops","Unit Cost (Rs.)":"250 m-1","Total Cost ":"250,000","Contribution (Local Community, LA, and the project)":"Labour and other basic services by the Local community","Time frame for the implementation":"0.25 Years","photopath":"https://raw.githubusercontent.com/MWS003-GIS/MWS003-GIS.github.io/main/IWWRMP/Data/EXD/200_photo/MWS_002_1/Gonangoda/gg5.jpg"},"geometry":{"type":"Point","coordinates":[80.707702,7.15573]}},
{"type":"Feature","properties":{"No.":25,"GND No.":1040,"GND Name":"Gonangoda","Key Activities proposed for Soil and Water conservation":"7. Soil conservation practices - Sisila Hospital (75d)","Priority based on Soil Erosion Hazard":"3","N":7.156615,"E":80.70685,"Quantity":"4 ha","Proposed measure/s":"Live fencing/SALT, Planting perennial crops","Unit Cost (Rs.)":"250 m-1","Total Cost ":"1,000,000","Contribution (Local Community, LA, and the project)":"Labour and other basic services by the Local community","Time frame for the implementation":"0.25 Years","photopath":"https://raw.githubusercontent.com/MWS003-GIS/MWS003-GIS.github.io/main/IWWRMP/Data/EXD/200_photo/MWS_002_1/Gonangoda/gg8.jpg"},"geometry":{"type":"Point","coordinates":[80.70685,7.156615]}},
{"type":"Feature","properties":{"No.":26,"GND No.":1040,"GND Name":"Gonangoda","Key Activities proposed for Soil and Water conservation":"8. Soil conservation practices - Vishwakarma Buddhist Center (80d)","Priority based on Soil Erosion Hazard":"5","N":7.156902,"E":80.703267,"Quantity":"1.5 ha","Proposed measure/s":"Live fencing/SALT, Planting perennial crops","Unit Cost (Rs.)":"250 m-1","Total Cost ":"375,000","Contribution (Local Community, LA, and the project)":"Labour and other basic services by the Local community","Time frame for the implementation":"0.25 Years","photopath":"https://raw.githubusercontent.com/MWS003-GIS/MWS003-GIS.github.io/main/IWWRMP/Data/EXD/200_photo/MWS_002_1/Gonangoda/gg18.jpg"},"geometry":{"type":"Point","coordinates":[80.703267,7.156902]}},
{"type":"Feature","properties":{"No.":27,"GND No.":1040,"GND Name":"Gonangoda","Key Activities proposed for Soil and Water conservation":"9. Building a drain","Priority based on Soil Erosion Hazard":"1","N":7.155333,"E":80.708605,"Quantity":"300 m x 1 m x 1 m","Proposed measure/s":"Drain","Unit Cost (Rs.)":"3,000 m-3","Total Cost ":"900,000","Contribution (Local Community, LA, and the project)":"-","Time frame for the implementation":"-","photopath":"https://raw.githubusercontent.com/MWS003-GIS/MWS003-GIS.github.io/main/IWWRMP/Data/EXD/200_photo/MWS_002_1/Gonangoda/gg3.jpg"},"geometry":{"type":"Point","coordinates":[80.708605,7.155333]}},
{"type":"Feature","properties":{"No.":28,"GND No.":1041,"GND Name":"Karagaskada North","Key Activities proposed for Soil and Water conservation":"1. Development of natural drains - Karagaskada Janapadaya Kandura","Priority based on Soil Erosion Hazard":"5, 2","N":7.176706,"E":80.699059,"Quantity":"200 m","Proposed measure/s":"Clearing and planting some trees along the banks (Areca nut) and other conservation practices","Unit Cost (Rs.)":"-","Total Cost ":"20,000","Contribution (Local Community, LA, and the project)":"Labour and other basic services by the Local community/ Shramadana","Time frame for the implementation":"0.25 Years","photopath":"https://raw.githubusercontent.com/MWS003-GIS/MWS003-GIS.github.io/main/IWWRMP/Data/EXD/200_photo/MWS_002_1/Karagaskada_North/KU(02)1.jpg"},"geometry":{"type":"Point","coordinates":[80.699059,7.176706]}},
{"type":"Feature","properties":{"No.":29,"GND No.":1041,"GND Name":"Karagaskada North","Key Activities proposed for Soil and Water conservation":"1. Development of natural drains - Karagaskada Janapadaya Kandura","Priority based on Soil Erosion Hazard":"-","N":7.177355,"E":80.698206,"Quantity":"-","Proposed measure/s":"-","Unit Cost (Rs.)":"-","Total Cost ":"-","Contribution (Local Community, LA, and the project)":"-","Time frame for the implementation":"-","photopath":"https://raw.githubusercontent.com/MWS003-GIS/MWS003-GIS.github.io/main/IWWRMP/Data/EXD/200_photo/MWS_002_1/Karagaskada_North/KU(02)1.1.jpg"},"geometry":{"type":"Point","coordinates":[80.698206,7.177355]}},
{"type":"Feature","properties":{"No.":30,"GND No.":1041,"GND Name":"Karagaskada North","Key Activities proposed for Soil and Water conservation":"2. Development of natural drains - Kandura near Karagaskada School","Priority based on Soil Erosion Hazard":"1","N":7.175284,"E":80.698999,"Quantity":"500 m","Proposed measure/s":"Clearing and planting some trees along the banks (Areca nut) and other conservation practices","Unit Cost (Rs.)":"-","Total Cost ":"50,000","Contribution (Local Community, LA, and the project)":"Labour and other basic services by the Local community/ Shramadana","Time frame for the implementation":"0.25 Years","photopath":"https://raw.githubusercontent.com/MWS003-GIS/MWS003-GIS.github.io/main/IWWRMP/Data/EXD/200_photo/MWS_002_1/Karagaskada_North/KU(02)2.jpg"},"geometry":{"type":"Point","coordinates":[80.698999,7.175284]}},
{"type":"Feature","properties":{"No.":31,"GND No.":1041,"GND Name":"Karagaskada North","Key Activities proposed for Soil and Water conservation":"3. Soil conservation practices - Great Valley (Upper) (60d)","Priority based on Soil Erosion Hazard":"3","N":7.180257,"E":80.697949,"Quantity":"60 ha","Proposed measure/s":"Live fencing/SALT, Planting perennial crops\nStone terracing, Lock and spills, as applied","Unit Cost (Rs.)":"250 m-1","Total Cost ":"15,000,000","Contribution (Local Community, LA, and the project)":"Labour and other basic services by the Local community","Time frame for the implementation":"1 Year","photopath":"Not_Available"},"geometry":{"type":"Point","coordinates":[80.697949,7.180257]}},
{"type":"Feature","properties":{"No.":32,"GND No.":1041,"GND Name":"Karagaskada North","Key Activities proposed for Soil and Water conservation":"4. Soil conservation practices - Karagaskada North (60d)","Priority based on Soil Erosion Hazard":"4","N":7.179705,"E":80.699034,"Quantity":"8 ha","Proposed measure/s":"Live fencing/SALT, Planting perennial crops","Unit Cost (Rs.)":"250 m-1","Total Cost ":"2,000,000","Contribution (Local Community, LA, and the project)":"Labour and other basic services by the Local community","Time frame for the implementation":"0.5 Years","photopath":"https://raw.githubusercontent.com/MWS003-GIS/MWS003-GIS.github.io/main/IWWRMP/Data/EXD/200_photo/MWS_002_1/Karagaskada_North/KU(05)2.jpg"},"geometry":{"type":"Point","coordinates":[80.699034,7.179705]}},
{"type":"Feature","properties":{"No.":33,"GND No.":1041,"GND Name":"Karagaskada North","Key Activities proposed for Soil and Water conservation":"5. Soil conservation practices - Karagaskada North (50d)","Priority based on Soil Erosion Hazard":"3","N":7.177311,"E":80.698373,"Quantity":"0.25 ha","Proposed measure/s":"Live fencing/SALT, Planting perennial crops","Unit Cost (Rs.)":"250 m-1","Total Cost ":"62,500","Contribution (Local Community, LA, and the project)":"Labour and other basic services by the Local community","Time frame for the implementation":"0.25 Years","photopath":"https://raw.githubusercontent.com/MWS003-GIS/MWS003-GIS.github.io/main/IWWRMP/Data/EXD/200_photo/MWS_002_1/Karagaskada_North/KU(05)3.jpg"},"geometry":{"type":"Point","coordinates":[80.698373,7.177311]}},
{"type":"Feature","properties":{"No.":34,"GND No.":1042,"GND Name":"Karagaskada South","Key Activities proposed for Soil and Water conservation":"1. Development of natural drains - Riverside Kandura","Priority based on Soil Erosion Hazard":"4","N":7.170504,"E":80.703951,"Quantity":"3 km","Proposed measure/s":"Clearing and planting some trees along the banks (Areca nut) and other conservation practices","Unit Cost (Rs.)":"-","Total Cost ":"300,000","Contribution (Local Community, LA, and the project)":"Labour and other basic services by the Local community/ Shramadana","Time frame for the implementation":"0.25 Years","photopath":"https://raw.githubusercontent.com/MWS003-GIS/MWS003-GIS.github.io/main/IWWRMP/Data/EXD/200_photo/MWS_002_1/Karagaskada_South/ks21.jpg"},"geometry":{"type":"Point","coordinates":[80.703951,7.170504]}},
{"type":"Feature","properties":{"No.":35,"GND No.":1042,"GND Name":"Karagaskada South","Key Activities proposed for Soil and Water conservation":"2. Development of natural drains - Leele Weli Kandura","Priority based on Soil Erosion Hazard":"1","N":7.174968,"E":80.70178,"Quantity":"320 m","Proposed measure/s":"Clearing and planting some trees along the banks (Areca nut) and other conservation practices","Unit Cost (Rs.)":"-","Total Cost ":"32,000","Contribution (Local Community, LA, and the project)":"Labour and other basic services by the Local community/ Shramadana","Time frame for the implementation":"0.25 Years","photopath":"https://raw.githubusercontent.com/MWS003-GIS/MWS003-GIS.github.io/main/IWWRMP/Data/EXD/200_photo/MWS_002_1/Karagaskada_South/ks26.jpg"},"geometry":{"type":"Point","coordinates":[80.70178,7.174968]}},
{"type":"Feature","properties":{"No.":36,"GND No.":1042,"GND Name":"Karagaskada South","Key Activities proposed for Soil and Water conservation":"3. Development of natural drains - Kandura that separates Karagaskada Northa and K. South","Priority based on Soil Erosion Hazard":"3","N":7.174663,"E":80.699966,"Quantity":"700 m","Proposed measure/s":"Clearing and planting some trees along the banks (Areca nut) and other conservation practices","Unit Cost (Rs.)":"-","Total Cost ":"70,000","Contribution (Local Community, LA, and the project)":"Labour and other basic services by the Local community/ Shramadana","Time frame for the implementation":"0.25 Years","photopath":"https://raw.githubusercontent.com/MWS003-GIS/MWS003-GIS.github.io/main/IWWRMP/Data/EXD/200_photo/MWS_002_1/Karagaskada_South/ks30.jpg"},"geometry":{"type":"Point","coordinates":[80.699966,7.174663]}},
{"type":"Feature","properties":{"No.":37,"GND No.":1042,"GND Name":"Karagaskada South","Key Activities proposed for Soil and Water conservation":"4. Soil conservation practices - either sides of the river (85d)","Priority based on Soil Erosion Hazard":"1","N":7.170872,"E":80.701206,"Quantity":"3 ha","Proposed measure/s":"Live fencing/SALT, Planting perennial crops","Unit Cost (Rs.)":"250 m-1","Total Cost ":"750,000","Contribution (Local Community, LA, and the project)":"Labour and other basic services by the Local community","Time frame for the implementation":"0.25 Year","photopath":"https://raw.githubusercontent.com/MWS003-GIS/MWS003-GIS.github.io/main/IWWRMP/Data/EXD/200_photo/MWS_002_1/Karagaskada_South/ks6.jpg"},"geometry":{"type":"Point","coordinates":[80.701206,7.170872]}},
{"type":"Feature","properties":{"No.":38,"GND No.":1042,"GND Name":"Karagaskada South","Key Activities proposed for Soil and Water conservation":"5. Soil conservation practices - Muslim Janapadaya (80d)","Priority based on Soil Erosion Hazard":"5","N":7.170862,"E":80.701137,"Quantity":"2 ha","Proposed measure/s":"Live fencing/SALT, Planting perennial crops","Unit Cost (Rs.)":"250 m-1","Total Cost ":"500,000","Contribution (Local Community, LA, and the project)":"Labour and other basic services by the Local community","Time frame for the implementation":"0.25 Year","photopath":"https://raw.githubusercontent.com/MWS003-GIS/MWS003-GIS.github.io/main/IWWRMP/Data/EXD/200_photo/MWS_002_1/Karagaskada_South/ks8.jpg"},"geometry":{"type":"Point","coordinates":[80.701137,7.170862]}},
{"type":"Feature","properties":{"No.":39,"GND No.":1042,"GND Name":"Karagaskada South","Key Activities proposed for Soil and Water conservation":"6. Soil conservation practices - Muslim Janapadaya (35 - 40d)","Priority based on Soil Erosion Hazard":"3","N":7.172783,"E":80.702137,"Quantity":"17 ha","Proposed measure/s":"Live fencing/SALT, Planting perennial crops - 10 ha\nLock and spills - 4 ha\nStone terracing - 3 ha","Unit Cost (Rs.)":"250 m-1\n400 m-1\n2,500 m-1","Total Cost ":"2500000\n1600000\n7500000","Contribution (Local Community, LA, and the project)":"Labour and other basic services by the Local community","Time frame for the implementation":"1 Year\n0.25 Years\n0.5 Years","photopath":"https://raw.githubusercontent.com/MWS003-GIS/MWS003-GIS.github.io/main/IWWRMP/Data/EXD/200_photo/MWS_002_1/Karagaskada_South/ks11.jpg"},"geometry":{"type":"Point","coordinates":[80.702137,7.172783]}},
{"type":"Feature","properties":{"No.":40,"GND No.":1042,"GND Name":"Karagaskada South","Key Activities proposed for Soil and Water conservation":"7. Soil conservation practices - Muslim Janapadaya (60d)","Priority based on Soil Erosion Hazard":"4","N":7.171157,"E":80.704822,"Quantity":"1 ha","Proposed measure/s":"Live fencing/SALT, Planting perennial crops","Unit Cost (Rs.)":"250 m-1","Total Cost ":"250,000","Contribution (Local Community, LA, and the project)":"Labour and other basic services by the Local community","Time frame for the implementation":"0.25 Year","photopath":"https://raw.githubusercontent.com/MWS003-GIS/MWS003-GIS.github.io/main/IWWRMP/Data/EXD/200_photo/MWS_002_1/Karagaskada_South/ks17.jpg"},"geometry":{"type":"Point","coordinates":[80.704822,7.171157]}},
{"type":"Feature","properties":{"No.":41,"GND No.":1042,"GND Name":"Karagaskada South","Key Activities proposed for Soil and Water conservation":"8. Soil conservation practices - Riverside (70d)","Priority based on Soil Erosion Hazard":"5","N":7.170772,"E":80.704708,"Quantity":"6 ha","Proposed measure/s":"Live fencing/SALT, Planting perennial crops","Unit Cost (Rs.)":"250 m-1","Total Cost ":"1,500,000","Contribution (Local Community, LA, and the project)":"Labour and other basic services by the Local community","Time frame for the implementation":"0.5 Year","photopath":"https://raw.githubusercontent.com/MWS003-GIS/MWS003-GIS.github.io/main/IWWRMP/Data/EXD/200_photo/MWS_002_1/Karagaskada_South/ks19.jpg"},"geometry":{"type":"Point","coordinates":[80.704708,7.170772]}},
{"type":"Feature","properties":{"No.":42,"GND No.":1042,"GND Name":"Karagaskada South","Key Activities proposed for Soil and Water conservation":"9. Soil conservation practices - Riverside (65d)","Priority based on Soil Erosion Hazard":"3","N":7.171367,"E":80.702324,"Quantity":"0.5 ha","Proposed measure/s":"Live fencing/SALT, Planting perennial crops","Unit Cost (Rs.)":"250 m-1","Total Cost ":"125,000","Contribution (Local Community, LA, and the project)":"Labour and other basic services by the Local community","Time frame for the implementation":"0.25 Year","photopath":"https://raw.githubusercontent.com/MWS003-GIS/MWS003-GIS.github.io/main/IWWRMP/Data/EXD/200_photo/MWS_002_1/Karagaskada_South/ks24.jpg"},"geometry":{"type":"Point","coordinates":[80.702324,7.171367]}},
{"type":"Feature","properties":{"No.":43,"GND No.":1042,"GND Name":"Karagaskada South","Key Activities proposed for Soil and Water conservation":"10. Establishing a drain - Hajara Mawatha","Priority based on Soil Erosion Hazard":"5","N":7.172395,"E":80.7034,"Quantity":"300 m x 1 m x 1 m","Proposed measure/s":"Drain","Unit Cost (Rs.)":"3,000 m-3","Total Cost ":"900,000","Contribution (Local Community, LA, and the project)":"Labour and other basic services by the Local community","Time frame for the implementation":"0.25 Year","photopath":"https://raw.githubusercontent.com/MWS003-GIS/MWS003-GIS.github.io/main/IWWRMP/Data/EXD/200_photo/MWS_002_1/Karagaskada_South/ks13.jpg"},"geometry":{"type":"Point","coordinates":[80.7034,7.172395]}},
{"type":"Feature","properties":{"No.":44,"GND No.":1042,"GND Name":"Karagaskada South","Key Activities proposed for Soil and Water conservation":"11. Establishinga retaining wall - Riverside Mawatha","Priority based on Soil Erosion Hazard":"5","N":7.170953,"E":80.704587,"Quantity":"5 m x 5 m","Proposed measure/s":"Retaining wall","Unit Cost (Rs.)":"2,000 m-2","Total Cost ":"50,000","Contribution (Local Community, LA, and the project)":"Labour and other basic services by the Local community","Time frame for the implementation":"0.25 Year","photopath":"https://raw.githubusercontent.com/MWS003-GIS/MWS003-GIS.github.io/main/IWWRMP/Data/EXD/200_photo/MWS_002_1/Karagaskada_South/ks18.jpg"},"geometry":{"type":"Point","coordinates":[80.704587,7.170953]}},
{"type":"Feature","properties":{"No.":45,"GND No.":1043,"GND Name":"Great Valley Estate","Key Activities proposed for Soil and Water conservation":"1. Development of natural drains - Great Valley Estate Ela","Priority based on Soil Erosion Hazard":"3","N":7.180335,"E":80.703264,"Quantity":"1 km","Proposed measure/s":"Clearing and planting some trees along the banks (Areca nut) and other conservation practices","Unit Cost (Rs.)":"-","Total Cost ":"100,000","Contribution (Local Community, LA, and the project)":"Labour and other basic services by the Local community/ Shramadana","Time frame for the implementation":"0.25 Years","photopath":"Not_Available"},"geometry":{"type":"Point","coordinates":[80.703264,7.180335]}},
{"type":"Feature","properties":{"No.":46,"GND No.":1043,"GND Name":"Great Valley Estate","Key Activities proposed for Soil and Water conservation":"2. Development of natural drains - Great Valley Estate Kandura 2","Priority based on Soil Erosion Hazard":"1","N":7.194288,"E":80.705246,"Quantity":"300 m","Proposed measure/s":"Clearing and planting some trees along the banks (Areca nut) and other conservation practices","Unit Cost (Rs.)":"-","Total Cost ":"30,000","Contribution (Local Community, LA, and the project)":"Labour and other basic services by the Local community/ Shramadana","Time frame for the implementation":"0.25 Years","photopath":"Not_Available"},"geometry":{"type":"Point","coordinates":[80.705246,7.194288]}},
{"type":"Feature","properties":{"No.":47,"GND No.":1043,"GND Name":"Great Valley Estate","Key Activities proposed for Soil and Water conservation":"3. Development of natural drains - Punchiwaththa Dola","Priority based on Soil Erosion Hazard":"1","N":7.194051,"E":80.703911,"Quantity":"800 m","Proposed measure/s":"Clearing and planting some trees along the banks (Areca nut) and other conservation practices","Unit Cost (Rs.)":"-","Total Cost ":"80,000","Contribution (Local Community, LA, and the project)":"Labour and other basic services by the Local community/ Shramadana","Time frame for the implementation":"0.25 Years","photopath":"Not_Available"},"geometry":{"type":"Point","coordinates":[80.703911,7.194051]}},
{"type":"Feature","properties":{"No.":48,"GND No.":1043,"GND Name":"Great Valley Estate","Key Activities proposed for Soil and Water conservation":"4. Development of natural drains - Great Valley Estate Kandura 1","Priority based on Soil Erosion Hazard":"5","N":7.194818,"E":80.703922,"Quantity":"300 m","Proposed measure/s":"Clearing and planting some trees along the banks (Areca nut) and other conservation practices","Unit Cost (Rs.)":"-","Total Cost ":"30,000","Contribution (Local Community, LA, and the project)":"Labour and other basic services by the Local community/ Shramadana","Time frame for the implementation":"0.25 Years","photopath":"Not_Available"},"geometry":{"type":"Point","coordinates":[80.703922,7.194818]}},
{"type":"Feature","properties":{"No.":49,"GND No.":1043,"GND Name":"Great Valley Estate","Key Activities proposed for Soil and Water conservation":"5. Development of natural drains - Great Valley Estate Kandura 3","Priority based on Soil Erosion Hazard":"3","N":7.180065,"E":80.702067,"Quantity":"1200 m","Proposed measure/s":"Clearing and planting some trees along the banks (Areca nut) and other conservation practices","Unit Cost (Rs.)":"-","Total Cost ":"120,000","Contribution (Local Community, LA, and the project)":"Labour and other basic services by the Local community/ Shramadana","Time frame for the implementation":"0.25 Years","photopath":"Not_Available"},"geometry":{"type":"Point","coordinates":[80.702067,7.180065]}},
{"type":"Feature","properties":{"No.":50,"GND No.":1044,"GND Name":"Gabadagama South","Key Activities proposed for Soil and Water conservation":"1. Development of natural drains - Kandura near Weaving","Priority based on Soil Erosion Hazard":"4","N":7.15557,"E":80.723566,"Quantity":"20 m","Proposed measure/s":"Clearing and planting some trees along the banks (Areca nut) and other conservation practices","Unit Cost (Rs.)":"-","Total Cost ":"2,000","Contribution (Local Community, LA, and the project)":"Labour and other basic services by the Local community/ Shramadana","Time frame for the implementation":"0.25 Years","photopath":"https://raw.githubusercontent.com/MWS003-GIS/MWS003-GIS.github.io/main/IWWRMP/Data/EXD/200_photo/MWS_002_1/Gabadagama_South/GD(02)1.jpg"},"geometry":{"type":"Point","coordinates":[80.723566,7.15557]}},
{"type":"Feature","properties":{"No.":51,"GND No.":1044,"GND Name":"Gabadagama South","Key Activities proposed for Soil and Water conservation":"2. Development of natural drains - Kandura at Weralu Danda Ela","Priority based on Soil Erosion Hazard":"4","N":7.155891,"E":80.723833,"Quantity":"250 m","Proposed measure/s":"Clearing and planting some trees along the banks (Areca nut) and other conservation practices","Unit Cost (Rs.)":"-","Total Cost ":"25,000","Contribution (Local Community, LA, and the project)":"Labour and other basic services by the Local community/ Shramadana","Time frame for the implementation":"0.25 Years","photopath":"https://raw.githubusercontent.com/MWS003-GIS/MWS003-GIS.github.io/main/IWWRMP/Data/EXD/200_photo/MWS_002_1/Gabadagama_South/GD(02)2.jpg"},"geometry":{"type":"Point","coordinates":[80.723833,7.155891]}},
{"type":"Feature","properties":{"No.":52,"GND No.":1044,"GND Name":"Gabadagama South","Key Activities proposed for Soil and Water conservation":"3. Development of natural drains - Gabadagama Road Kandura","Priority based on Soil Erosion Hazard":"4","N":7.15642,"E":80.724919,"Quantity":"100 m","Proposed measure/s":"Clearing and planting some trees along the banks (Areca nut) and other conservation practices","Unit Cost (Rs.)":"-","Total Cost ":"10,000","Contribution (Local Community, LA, and the project)":"Labour and other basic services by the Local community/ Shramadana","Time frame for the implementation":"0.25 Years","photopath":"https://raw.githubusercontent.com/MWS003-GIS/MWS003-GIS.github.io/main/IWWRMP/Data/EXD/200_photo/MWS_002_1/Gabadagama_South/GD(02)3.jpg"},"geometry":{"type":"Point","coordinates":[80.724919,7.15642]}},
{"type":"Feature","properties":{"No.":53,"GND No.":1044,"GND Name":"Gabadagama South","Key Activities proposed for Soil and Water conservation":"4. Development of natural drains - Ata Lehe Ela","Priority based on Soil Erosion Hazard":"3","N":7.157876,"E":80.724698,"Quantity":"5 km","Proposed measure/s":"Clearing and planting some trees along the banks (Areca nut) and other conservation practices","Unit Cost (Rs.)":"-","Total Cost ":"500,000","Contribution (Local Community, LA, and the project)":"Labour and other basic services by the Local community/ Shramadana","Time frame for the implementation":"0.25 Years","photopath":"https://raw.githubusercontent.com/MWS003-GIS/MWS003-GIS.github.io/main/IWWRMP/Data/EXD/200_photo/MWS_002_1/Gabadagama_South/GD(02)4.jpg"},"geometry":{"type":"Point","coordinates":[80.724698,7.157876]}},
{"type":"Feature","properties":{"No.":54,"GND No.":1044,"GND Name":"Gabadagama South","Key Activities proposed for Soil and Water conservation":"5. Development of natural drains - Embulampe Kandura","Priority based on Soil Erosion Hazard":"5","N":7.149464,"E":80.720256,"Quantity":"200 m","Proposed measure/s":"Clearing and planting some trees along the banks (Areca nut) and other conservation practices","Unit Cost (Rs.)":"-","Total Cost ":"20,000","Contribution (Local Community, LA, and the project)":"Labour and other basic services by the Local community/ Shramadana","Time frame for the implementation":"0.25 Years","photopath":"https://raw.githubusercontent.com/MWS003-GIS/MWS003-GIS.github.io/main/IWWRMP/Data/EXD/200_photo/MWS_002_1/Gabadagama_South/GD(02)5.jpg"},"geometry":{"type":"Point","coordinates":[80.720256,7.149464]}},
{"type":"Feature","properties":{"No.":55,"GND No.":1044,"GND Name":"Gabadagama South","Key Activities proposed for Soil and Water conservation":"6. Soil conservation practices - Gabadagama/ Wijaya Kumaratunga House (25d)","Priority based on Soil Erosion Hazard":"4","N":7.156442,"E":80.725008,"Quantity":"8 ha","Proposed measure/s":"Lock and spills - 5 ha\nStone terracing - 3 ha","Unit Cost (Rs.)":"400 m-1\n2,500 m-1","Total Cost ":"2000000\n7500000","Contribution (Local Community, LA, and the project)":"Labour and other basic services by the Local community","Time frame for the implementation":"0.25 Years","photopath":"https://raw.githubusercontent.com/MWS003-GIS/MWS003-GIS.github.io/main/IWWRMP/Data/EXD/200_photo/MWS_002_1/Gabadagama_South/GD(05)1.jpg"},"geometry":{"type":"Point","coordinates":[80.725008,7.156442]}},
{"type":"Feature","properties":{"No.":56,"GND No.":1044,"GND Name":"Gabadagama South","Key Activities proposed for Soil and Water conservation":"7. Soil conservation practices - Muththoliya (60d)","Priority based on Soil Erosion Hazard":"2","N":7.14842,"E":80.721421,"Quantity":"3 ha","Proposed measure/s":"Live fencing/SALT, Planting perennial crops","Unit Cost (Rs.)":"250 m-1","Total Cost ":"750,000","Contribution (Local Community, LA, and the project)":"Labour and other basic services by the Local community","Time frame for the implementation":"0.25 Years","photopath":"https://raw.githubusercontent.com/MWS003-GIS/MWS003-GIS.github.io/main/IWWRMP/Data/EXD/200_photo/MWS_002_1/Gabadagama_South/GD(05)2.jpg"},"geometry":{"type":"Point","coordinates":[80.721421,7.14842]}},
{"type":"Feature","properties":{"No.":57,"GND No.":1044,"GND Name":"Gabadagama South","Key Activities proposed for Soil and Water conservation":"8. Soil conservation practices - Muththoliya (60d)","Priority based on Soil Erosion Hazard":"1","N":7.148221,"E":80.721606,"Quantity":"4 ha","Proposed measure/s":"Live fencing/SALT, Planting perennial crops","Unit Cost (Rs.)":"250 m-1","Total Cost ":"1,000,000","Contribution (Local Community, LA, and the project)":"Labour and other basic services by the Local community","Time frame for the implementation":"0.25 Years","photopath":"https://raw.githubusercontent.com/MWS003-GIS/MWS003-GIS.github.io/main/IWWRMP/Data/EXD/200_photo/MWS_002_1/Gabadagama_South/GD(05)3.jpg"},"geometry":{"type":"Point","coordinates":[80.721606,7.148221]}},
{"type":"Feature","properties":{"No.":58,"GND No.":1044,"GND Name":"Gabadagama South","Key Activities proposed for Soil and Water conservation":"9. Soil conservation practices - Muththoliya (60d)","Priority based on Soil Erosion Hazard":"2","N":7.15002,"E":80.720492,"Quantity":"1.5 ha","Proposed measure/s":"Live fencing/SALT, Planting perennial crops","Unit Cost (Rs.)":"250 m-1","Total Cost ":"375,000","Contribution (Local Community, LA, and the project)":"Labour and other basic services by the Local community","Time frame for the implementation":"0.25 Years","photopath":"https://raw.githubusercontent.com/MWS003-GIS/MWS003-GIS.github.io/main/IWWRMP/Data/EXD/200_photo/MWS_002_1/Gabadagama_South/GD(05)4.jpg"},"geometry":{"type":"Point","coordinates":[80.720492,7.15002]}},
{"type":"Feature","properties":{"No.":59,"GND No.":1045,"GND Name":"Gabadagama North","Key Activities proposed for Soil and Water conservation":"1. Development of natural drains - Deekirilla Madiththa Kandura","Priority based on Soil Erosion Hazard":"3","N":7.153818,"E":80.720265,"Quantity":"3 km","Proposed measure/s":"Clearing and planting some trees along the banks (Areca nut) and other conservation practices","Unit Cost (Rs.)":"-","Total Cost ":"300,000","Contribution (Local Community, LA, and the project)":"Labour and other basic services by the Local community/ Shramadana","Time frame for the implementation":"0.25 Years","photopath":"Not_Available"},"geometry":{"type":"Point","coordinates":[80.720265,7.153818]}},
{"type":"Feature","properties":{"No.":60,"GND No.":1045,"GND Name":"Gabadagama North","Key Activities proposed for Soil and Water conservation":"2. Development of natural drains - Rathpahe Kandura","Priority based on Soil Erosion Hazard":"5","N":7.155975,"E":80.717178,"Quantity":"2 km","Proposed measure/s":"Clearing and planting some trees along the banks (Areca nut) and other conservation practices","Unit Cost (Rs.)":"-","Total Cost ":"200,000","Contribution (Local Community, LA, and the project)":"Labour and other basic services by the Local community/ Shramadana","Time frame for the implementation":"0.25 Years","photopath":"https://raw.githubusercontent.com/MWS003-GIS/MWS003-GIS.github.io/main/IWWRMP/Data/EXD/200_photo/MWS_002_1/Gabadagama_North/gn2.jpg"},"geometry":{"type":"Point","coordinates":[80.717178,7.155975]}},
{"type":"Feature","properties":{"No.":61,"GND No.":1045,"GND Name":"Gabadagama North","Key Activities proposed for Soil and Water conservation":"3. Development of natural drains - Kandura near Kovila","Priority based on Soil Erosion Hazard":"2","N":7.15107,"E":80.717673,"Quantity":"1 km","Proposed measure/s":"Clearing and planting some trees along the banks (Areca nut) and other conservation practices","Unit Cost (Rs.)":"-","Total Cost ":"100,000","Contribution (Local Community, LA, and the project)":"Labour and other basic services by the Local community/ Shramadana","Time frame for the implementation":"0.25 Years","photopath":"https://raw.githubusercontent.com/MWS003-GIS/MWS003-GIS.github.io/main/IWWRMP/Data/EXD/200_photo/MWS_002_1/Gabadagama_North/gn7.jpg"},"geometry":{"type":"Point","coordinates":[80.717673,7.15107]}},
{"type":"Feature","properties":{"No.":62,"GND No.":1045,"GND Name":"Gabadagama North","Key Activities proposed for Soil and Water conservation":"4. Development of natural drains - Holman Kandura","Priority based on Soil Erosion Hazard":"5","N":7.150506,"E":80.717659,"Quantity":"1 km","Proposed measure/s":"Clearing and planting some trees along the banks (Areca nut) and other conservation practices","Unit Cost (Rs.)":"-","Total Cost ":"100,000","Contribution (Local Community, LA, and the project)":"Labour and other basic services by the Local community/ Shramadana","Time frame for the implementation":"0.25 Years","photopath":"https://raw.githubusercontent.com/MWS003-GIS/MWS003-GIS.github.io/main/IWWRMP/Data/EXD/200_photo/MWS_002_1/Gabadagama_North/gn10.jpg"},"geometry":{"type":"Point","coordinates":[80.717659,7.150506]}},
{"type":"Feature","properties":{"No.":64,"GND No.":1045,"GND Name":"Gabadagama North","Key Activities proposed for Soil and Water conservation":"6. Soil conservation practices - Gabadagama North (30d)","Priority based on Soil Erosion Hazard":"1","N":7.152363,"E":80.718067,"Quantity":"20 ha","Proposed measure/s":"Lock and spills - 5 ha\nStone terracing - 3 ha\nLive fencing/SALT, Planting perennial crops 12 ha","Unit Cost (Rs.)":"400 m-1\n2,500 m-1\n250 m-1","Total Cost ":"2000000\n7500000\n3000000","Contribution (Local Community, LA, and the project)":"Labour and other basic services by the Local community\nLabour and other basic services by the Local community\nLabour and other basic services by the Local community","Time frame for the implementation":"0.25 Years\n0.25 Years\n0.5 Years","photopath":"https://raw.githubusercontent.com/MWS003-GIS/MWS003-GIS.github.io/main/IWWRMP/Data/EXD/200_photo/MWS_002_1/Gabadagama_North/gn5.jpg"},"geometry":{"type":"Point","coordinates":[80.718067,7.152363]}},
{"type":"Feature","properties":{"No.":65,"GND No.":1045,"GND Name":"Gabadagama North","Key Activities proposed for Soil and Water conservation":"7. Soil conservation practices - near Kovila (50d)","Priority based on Soil Erosion Hazard":"5","N":7.150842,"E":80.717848,"Quantity":"0.1 ha","Proposed measure/s":"Live fencing/SALT, Planting perennial crops 12 ha","Unit Cost (Rs.)":"250 m-1","Total Cost ":"25,000","Contribution (Local Community, LA, and the project)":"Labour and other basic services by the Local community","Time frame for the implementation":"0.25 Years","photopath":"https://raw.githubusercontent.com/MWS003-GIS/MWS003-GIS.github.io/main/IWWRMP/Data/EXD/200_photo/MWS_002_1/Gabadagama_North/gn8.jpg"},"geometry":{"type":"Point","coordinates":[80.717848,7.150842]}},
{"type":"Feature","properties":{"No.":66,"GND No.":1045,"GND Name":"Gabadagama North","Key Activities proposed for Soil and Water conservation":"8. Soil conservation practices - Nelligolla Galwala (80d)","Priority based on Soil Erosion Hazard":"4","N":7.148813,"E":80.719282,"Quantity":"1 ha","Proposed measure/s":"Live fencing/SALT, Planting perennial crops 12 ha","Unit Cost (Rs.)":"250 m-1","Total Cost ":"250,000","Contribution (Local Community, LA, and the project)":"Labour and other basic services by the Local community","Time frame for the implementation":"0.25 Year","photopath":"https://raw.githubusercontent.com/MWS003-GIS/MWS003-GIS.github.io/main/IWWRMP/Data/EXD/200_photo/MWS_002_1/Gabadagama_North/gn13.jpg"},"geometry":{"type":"Point","coordinates":[80.719282,7.148813]}},
{"type":"Feature","properties":{"No.":67,"GND No.":1045,"GND Name":"Gabadagama North","Key Activities proposed for Soil and Water conservation":"9. Soil conservation practices - Naranhinna (70d)","Priority based on Soil Erosion Hazard":"4","N":7.14737,"E":80.713383,"Quantity":"1 ha","Proposed measure/s":"Live fencing/SALT, Planting perennial crops 12 ha","Unit Cost (Rs.)":"250 m-1","Total Cost ":"250,000","Contribution (Local Community, LA, and the project)":"Labour and other basic services by the Local community","Time frame for the implementation":"0.25 Years","photopath":"https://raw.githubusercontent.com/MWS003-GIS/MWS003-GIS.github.io/main/IWWRMP/Data/EXD/200_photo/MWS_002_1/Gabadagama_North/gn19.jpg"},"geometry":{"type":"Point","coordinates":[80.713383,7.14737]}},
{"type":"Feature","properties":{"No.":68,"GND No.":1046,"GND Name":"Kandegama","Key Activities proposed for Soil and Water conservation":"1. Development of natural drains - Kandegama Kandura I","Priority based on Soil Erosion Hazard":"5","N":7.166503,"E":80.714932,"Quantity":"500 m","Proposed measure/s":"Clearing and planting some trees along the banks (Areca nut) and other conservation practices","Unit Cost (Rs.)":"-","Total Cost ":"50,000","Contribution (Local Community, LA, and the project)":"Labour and other basic services by the Local community/ Shramadana","Time frame for the implementation":"0.25 Years","photopath":"https://raw.githubusercontent.com/MWS003-GIS/MWS003-GIS.github.io/main/IWWRMP/Data/EXD/200_photo/MWS_002_1/Kandegama/kw3.jpg"},"geometry":{"type":"Point","coordinates":[80.714932,7.166503]}},
{"type":"Feature","properties":{"No.":69,"GND No.":1046,"GND Name":"Kandegama","Key Activities proposed for Soil and Water conservation":"2. Development of natural drains - Kandegama Kandura II","Priority based on Soil Erosion Hazard":"1","N":7.167883,"E":80.714605,"Quantity":"200 m","Proposed measure/s":"Clearing and planting some trees along the banks (Areca nut) and other conservation practices","Unit Cost (Rs.)":"-","Total Cost ":"50,000","Contribution (Local Community, LA, and the project)":"Labour and other basic services by the Local community/ Shramadana","Time frame for the implementation":"0.25 Years","photopath":"https://raw.githubusercontent.com/MWS003-GIS/MWS003-GIS.github.io/main/IWWRMP/Data/EXD/200_photo/MWS_002_1/Kandegama/kw6.jpg"},"geometry":{"type":"Point","coordinates":[80.714605,7.167883]}},
{"type":"Feature","properties":{"No.":70,"GND No.":1046,"GND Name":"Kandegama","Key Activities proposed for Soil and Water conservation":"3. Soil conservation practices (50d)","Priority based on Soil Erosion Hazard":"1","N":7.166862,"E":80.715102,"Quantity":"4 ha","Proposed measure/s":"Live fencing/SALT, Planting perennial crops\nStone terracing, Lock and spills, as applied","Unit Cost (Rs.)":"250 m-1","Total Cost ":"1,000,000","Contribution (Local Community, LA, and the project)":"Labour and other basic services by the Local community","Time frame for the implementation":"0.25 Years","photopath":"https://raw.githubusercontent.com/MWS003-GIS/MWS003-GIS.github.io/main/IWWRMP/Data/EXD/200_photo/MWS_002_1/Kandegama/kw2.jpg"},"geometry":{"type":"Point","coordinates":[80.715102,7.166862]}},
{"type":"Feature","properties":{"No.":71,"GND No.":1046,"GND Name":"Kandegama","Key Activities proposed for Soil and Water conservation":"4. Soil conservation practices (45d)","Priority based on Soil Erosion Hazard":"5","N":7.16724,"E":80.715045,"Quantity":"0.25 ha","Proposed measure/s":"Live fencing/SALT, Planting perennial crops","Unit Cost (Rs.)":"250 m-1","Total Cost ":"62,500","Contribution (Local Community, LA, and the project)":"Labour and other basic services by the Local community","Time frame for the implementation":"0.25 Years","photopath":"https://raw.githubusercontent.com/MWS003-GIS/MWS003-GIS.github.io/main/IWWRMP/Data/EXD/200_photo/MWS_002_1/Kandegama/kw5.jpg"},"geometry":{"type":"Point","coordinates":[80.715045,7.16724]}},
{"type":"Feature","properties":{"No.":72,"GND No.":1046,"GND Name":"Kandegama","Key Activities proposed for Soil and Water conservation":"5. Soil conservation practices (40d)","Priority based on Soil Erosion Hazard":"5","N":7.168113,"E":80.713338,"Quantity":"0.5 ha","Proposed measure/s":"Live fencing/SALT, Planting perennial crops","Unit Cost (Rs.)":"250 m-1","Total Cost ":"125,000","Contribution (Local Community, LA, and the project)":"Labour and other basic services by the Local community","Time frame for the implementation":"0.25 Years","photopath":"https://raw.githubusercontent.com/MWS003-GIS/MWS003-GIS.github.io/main/IWWRMP/Data/EXD/200_photo/MWS_002_1/Kandegama/kw7.jpg"},"geometry":{"type":"Point","coordinates":[80.713338,7.168113]}},
{"type":"Feature","properties":{"No.":73,"GND No.":1047,"GND Name":"Wadiyagoda","Key Activities proposed for Soil and Water conservation":"1. Development of natural drains - Appallawala Kandura","Priority based on Soil Erosion Hazard":"4","N":7.16671,"E":80.719766,"Quantity":"2 km","Proposed measure/s":"Clearing and planting some trees along the banks (Areca nut) and other conservation practices","Unit Cost (Rs.)":"-","Total Cost ":"200,000","Contribution (Local Community, LA, and the project)":"Labour and other basic services by the Local community/ Shramadana","Time frame for the implementation":"0.5 Years","photopath":"https://raw.githubusercontent.com/MWS003-GIS/MWS003-GIS.github.io/main/IWWRMP/Data/EXD/200_photo/MWS_002_1/Wadiyagoda/WG(02)1.jpg"},"geometry":{"type":"Point","coordinates":[80.719766,7.16671]}},
{"type":"Feature","properties":{"No.":74,"GND No.":1047,"GND Name":"Wadiyagoda","Key Activities proposed for Soil and Water conservation":"2. Development of natural drains - Kuda Oya Ela","Priority based on Soil Erosion Hazard":"5","N":7.164308,"E":80.721883,"Quantity":"4 km","Proposed measure/s":"Clearing and planting some trees along the banks (Areca nut) and other conservation practices","Unit Cost (Rs.)":"-","Total Cost ":"400,000","Contribution (Local Community, LA, and the project)":"Labour and other basic services by the Local community/ Shramadana","Time frame for the implementation":"0.5 Years","photopath":"https://raw.githubusercontent.com/MWS003-GIS/MWS003-GIS.github.io/main/IWWRMP/Data/EXD/200_photo/MWS_002_1/Wadiyagoda/WG(02)2.jpg"},"geometry":{"type":"Point","coordinates":[80.721883,7.164308]}},
{"type":"Feature","properties":{"No.":75,"GND No.":1047,"GND Name":"Wadiyagoda","Key Activities proposed for Soil and Water conservation":"3. Development of natural drains - Angutubedda Kandura","Priority based on Soil Erosion Hazard":"3, 2","N":7.164096,"E":80.722871,"Quantity":"2 km","Proposed measure/s":"Clearing and planting some trees along the banks (Areca nut) and other conservation practices","Unit Cost (Rs.)":"-","Total Cost ":"200,000","Contribution (Local Community, LA, and the project)":"Labour and other basic services by the Local community/ Shramadana","Time frame for the implementation":"0.5 Years","photopath":"https://raw.githubusercontent.com/MWS003-GIS/MWS003-GIS.github.io/main/IWWRMP/Data/EXD/200_photo/MWS_002_1/Wadiyagoda/WG(02)3.jpg"},"geometry":{"type":"Point","coordinates":[80.722871,7.164096]}},
{"type":"Feature","properties":{"No.":76,"GND No.":1047,"GND Name":"Wadiyagoda","Key Activities proposed for Soil and Water conservation":"4. Soil conservation practices - Galkandehena (70d)","Priority based on Soil Erosion Hazard":"4","N":7.167097,"E":80.718332,"Quantity":"8 ha","Proposed measure/s":"Live fencing/SALT, Planting perennial crops\nStone terracing, Lock and spills, as applied","Unit Cost (Rs.)":"250 m-1","Total Cost ":"2,000,000","Contribution (Local Community, LA, and the project)":"Labour and other basic services by the Local community","Time frame for the implementation":"0.25 Years","photopath":"https://raw.githubusercontent.com/MWS003-GIS/MWS003-GIS.github.io/main/IWWRMP/Data/EXD/200_photo/MWS_002_1/Wadiyagoda/WG(05)1.jpg"},"geometry":{"type":"Point","coordinates":[80.718332,7.167097]}},
{"type":"Feature","properties":{"No.":77,"GND No.":1047,"GND Name":"Wadiyagoda","Key Activities proposed for Soil and Water conservation":"5. Soil conservation practices - Appallawala Ela (60d)","Priority based on Soil Erosion Hazard":"4","N":7.16531,"E":80.721459,"Quantity":"3.5 ha","Proposed measure/s":"Live fencing/SALT, Planting perennial crops\nStone terracing, Lock and spills, as applied","Unit Cost (Rs.)":"250 m-1","Total Cost ":"875,000","Contribution (Local Community, LA, and the project)":"Labour and other basic services by the Local community","Time frame for the implementation":"0.25 Years","photopath":"https://raw.githubusercontent.com/MWS003-GIS/MWS003-GIS.github.io/main/IWWRMP/Data/EXD/200_photo/MWS_002_1/Wadiyagoda/WG(05)2.jpg"},"geometry":{"type":"Point","coordinates":[80.721459,7.16531]}},
{"type":"Feature","properties":{"No.":78,"GND No.":1047,"GND Name":"Wadiyagoda","Key Activities proposed for Soil and Water conservation":"6. Soil conservation practices - Angurubedda Waththa (45d)","Priority based on Soil Erosion Hazard":"2","N":7.16621,"E":80.722015,"Quantity":"5 ha","Proposed measure/s":"Live fencing/SALT, Planting perennial crops\nStone terracing, Lock and spills, as applied","Unit Cost (Rs.)":"250 m-1","Total Cost ":"1,250,000","Contribution (Local Community, LA, and the project)":"Labour and other basic services by the Local community","Time frame for the implementation":"0.25 Years","photopath":"https://raw.githubusercontent.com/MWS003-GIS/MWS003-GIS.github.io/main/IWWRMP/Data/EXD/200_photo/MWS_002_1/Wadiyagoda/WG(05)3.jpg"},"geometry":{"type":"Point","coordinates":[80.722015,7.16621]}},
{"type":"Feature","properties":{"No.":79,"GND No.":1047,"GND Name":"Wadiyagoda","Key Activities proposed for Soil and Water conservation":"7. Soil conservation practices - Kottawaththa (70d)","Priority based on Soil Erosion Hazard":"1","N":7.166565,"E":80.720979,"Quantity":"3 ha","Proposed measure/s":"Live fencing/SALT, Planting perennial crops\nStone terracing, Lock and spills, as applied","Unit Cost (Rs.)":"250 m-1","Total Cost ":"750,000","Contribution (Local Community, LA, and the project)":"Labour and other basic services by the Local community","Time frame for the implementation":"0.25 Years","photopath":"https://raw.githubusercontent.com/MWS003-GIS/MWS003-GIS.github.io/main/IWWRMP/Data/EXD/200_photo/MWS_002_1/Wadiyagoda/WG(05)4.jpg"},"geometry":{"type":"Point","coordinates":[80.720979,7.166565]}},
{"type":"Feature","properties":{"No.":80,"GND No.":1047,"GND Name":"Wadiyagoda","Key Activities proposed for Soil and Water conservation":"8. Soil conservation practices - Wottava Pathana (60d)","Priority based on Soil Erosion Hazard":"1","N":7.171686,"E":80.716231,"Quantity":"5 ha","Proposed measure/s":"Live fencing/SALT, Planting perennial crops\nStone terracing, Lock and spills, as applied","Unit Cost (Rs.)":"250 m-1","Total Cost ":"1,250,000","Contribution (Local Community, LA, and the project)":"Labour and other basic services by the Local community","Time frame for the implementation":"0.25 Years","photopath":"Not_Available"},"geometry":{"type":"Point","coordinates":[80.716231,7.171686]}}
]}