{"type":"FeatureCollection","name":"DWS","crs":{"type":"name","properties":{"name":"urn:ogc:def:crs:OGC:1.3:CRS84"}},"features":[
{"type":"Feature","properties":{"No":1,"GND No.":803,"Scheme":"Develop as a community water project","N":7.299233,"E":80.817275,"Observation":"There is an abondoned tank","Description":"Construction of the weir and the pipe line system\n\nConstruction of 0.6 m high Weir across stream excluding abutments and stop planks\n\nSupplying & fixing 50mm Dia PVC pipe line in solvent socket type in PN-11 rate including socket, solvent cement, etc.\n\nS","Estimated Cost":"1,595,000.00","photopath":"https://raw.githubusercontent.com/MWS003-GIS/MWS003-GIS.github.io/main/IWWRMP/Data/EXD/200_photo/MWS_088/Hatheyalwela water project stok tank_20250407_104633.jpg"},"geometry":{"type":"Point","coordinates":[80.817275,7.299233]}},
{"type":"Feature","properties":{"No":2,"GND No.":803,"Scheme":"Develop the existing water project community water project","N":7.302697,"E":80.817539,"Observation":"The   Existing water tank is .constructed (2.2m x 1.8m x 2.0m, L*W*H) and drinking water is distributed. But that tank is damage","Description":"Construction of the weir and the pipe line system\n\nConstruction of 0.6 m high Weir across stream excluding abutments and stop planks\n\nSupplying & fixing 50mm Dia PVC pipe line in solvent socket type in PN-11 rate including socket, solvent cement, etc.\n\nS","Estimated Cost":"1,743,500.00","photopath":"https://raw.githubusercontent.com/MWS003-GIS/MWS003-GIS.github.io/main/IWWRMP/Data/EXD/200_photo/MWS_088/Metideniya water project Stock tank_20250407_114310.jpg"},"geometry":{"type":"Point","coordinates":[80.817539,7.302697]}},
{"type":"Feature","properties":{"No":3,"GND No.":804,"Scheme":"Watamalgama","N":7.313646,"E":80.824345,"Observation":"The   Existing water tank is .constructed (3.0m x2.0m x 1.5m, L*W*H) and drinking water is distributed.","Description":"Repairts to the existing Anicut wall\n\nScarifying existing or concrete surface\n\nPlaster 50 mm thick in 1:3 cement and sand finished smooth with gray cement floating\n\nWater proofing with cementitious water proofing agent approved by the Engineer, (Thorosea","Estimated Cost":"187,550.00","photopath":"https://raw.githubusercontent.com/MWS003-GIS/MWS003-GIS.github.io/main/IWWRMP/Data/EXD/200_photo/MWS_088/Watamule co water.jpg"},"geometry":{"type":"Point","coordinates":[80.824345,7.313646]}},
{"type":"Feature","properties":{"No":4,"GND No.":804,"Scheme":"Kadakamara lima","N":7.304069,"E":80.827871,"Observation":"Water is taken for  informally , for drinking and bathing","Description":"Construction of the water tank & Filtering arrangement \n\nConstruction of 1.0 m x 1.0 m x 1.5 m (LxWxH) filter tank with necessary parts\n\nProviding the filter media\n\nConstruction of Concrete water storage tank of 20 cum - size internal t 3mx3mx2.5\n\nConstr","Estimated Cost":"3,481,500.00","photopath":"https://raw.githubusercontent.com/MWS003-GIS/MWS003-GIS.github.io/main/IWWRMP/Data/EXD/200_photo/MWS_088/Kadakamara lima Main canal.jpg"},"geometry":{"type":"Point","coordinates":[80.827871,7.304069]}},
{"type":"Feature","properties":{"No":5,"GND No.":806,"Scheme":"Bombrawa Community water project","N":7.297229,"E":80.830724,"Observation":"The   Existing storage water tank is .constructed 1.8m dia and 2.0m hight tank. That tank is leaking.The existing intake tank is constructed.(0.7m x 0.6m x0.45m, L*W*H) . But that tank is damage .Water is taken for Drinking and bathing","Description":"Repairts to the existing storage tanks\n\nScarifying existing or concrete surface\n\nPlaster 12mm thick in 1:3 cement and sand finished smooth with gray cement floating\n\n Water proofing with cementitious water proofing agent approved by the Engineer, (Thoros","Estimated Cost":"137,500.00","photopath":"https://raw.githubusercontent.com/MWS003-GIS/MWS003-GIS.github.io/main/IWWRMP/Data/EXD/200_photo/MWS_088/Bombrawa Mangoda co.water prject water tank (2).jpg"},"geometry":{"type":"Point","coordinates":[80.830724,7.297229]}},
{"type":"Feature","properties":{"No":6,"GND No.":807,"Scheme":"Dothulukanda","N":7.300879,"E":80.845141,"Observation":"There is a 7m dia and 2.0m Hight Tank. Water is taken for Drinking","Description":"Covering the storage tank by a net & providing a Chlorine tank\n\nFabricating & fixing security weld mesh in open-type buildings in GI weld mesh 50mm x 50mm SWG 10, welded on 40mm x 40mm x 5mm angle frame complete with application of two coats enamel paint","Estimated Cost":"489,500.00","photopath":"https://raw.githubusercontent.com/MWS003-GIS/MWS003-GIS.github.io/main/IWWRMP/Data/EXD/200_photo/MWS_088/Devana com.watersupply project ditribution k tank.jpg"},"geometry":{"type":"Point","coordinates":[80.845141,7.300879]}},
{"type":"Feature","properties":{"No":7,"GND No.":805,"Scheme":"Namandagala  (Located by Hatheyalwela division)","N":7.304069,"E":80.827871,"Observation":"Water is taken for  informally , for drinking and bathing. There are get water from the same place for Hatheyalwela division and Namadagala division","Description":"Construction of the water tank & Filtering arrangement \n\nConstruction of 1.0 m x 1.0 m x 1.5 m (LxWxH) filter tank with necessary parts\n\nProviding the filter media\n\nConstruction of Concrete water storage tank of 20 cum - size internal t 3mx3mx2.5\n\nConstr","Estimated Cost":"3,481,500.00","photopath":"Not_Available"},"geometry":{"type":"Point","coordinates":[80.827871,7.304069]}}
]}