{"type":"FeatureCollection","name":"SWC_OFF","crs":{"type":"name","properties":{"name":"urn:ogc:def:crs:OGC:1.3:CRS84"}},"features":[
{"type":"Feature","properties":{"No.":5,"GND No.":807,"GND Name":"Rambukpotha","Key Activities proposed for Soil and Water conservation":"1. Establishing a wall - Galekele","Priority based on Soil Erosion Hazard":4,"N":7.29501,"E":80.848643,"Quantity":"20 m x 3 m","Proposed measure/s":"Retaining Wall (Concrete)","Total_Cost":"2,332,000.00","Contribution (Local Community, LA, and the project)":"By the project","Time frame for the implementation":"0.25 Years","photopath":"https://raw.githubusercontent.com/MWS003-GIS/MWS003-GIS.github.io/main/IWWRMP/Data/EXD/200_photo/MWS_088/Galekele Landslide.jpg"},"geometry":{"type":"Point","coordinates":[80.848643,7.29501]}}
]}