{"type":"FeatureCollection","name":"WSP","crs":{"type":"name","properties":{"name":"urn:ogc:def:crs:OGC:1.3:CRS84"}},"features":[
{"type":"Feature","properties":{"No":1,"GND No.":803,"Name of the Tank":"Bulathwaththa well","N":7.295772,"E":80.817178,"Observation":"There is a 2.3mx2.3mx3.5m(LxWxH)well. Water is taken for   bathing.Well wall has collapsed .","Description":"Well Renovation\n\n150mm x 225mm Random Rubble masonry work in 1:5 cement and sand mortar in structures\n\n Plaster 12mm thick in 1:3 cement and sand \nfinished smooth with gray cement floating\n\n1:3:6 (40mm) concrete manual mix (volume batching)-For pavement\n","Amount (Rs.)":"153,450.00","photopath":"https://raw.githubusercontent.com/MWS003-GIS/MWS003-GIS.github.io/main/IWWRMP/Data/EXD/200_photo/MWS_088/Bulath waththa linda_20250407_100142.jpg"},"geometry":{"type":"Point","coordinates":[80.817178,7.295772]}},
{"type":"Feature","properties":{"No":2,"GND No.":803,"Name of the Tank":"Reservation","N":7.3022697,"E":80.817539,"Observation":"Remains a forest","Description":"Marking reservations\n\nVegetative cover improving around structures (5m x 10m) with Areca nut seedling in 1.5m x \n1.5m grid, Kumbuk/ Mee/ Godapara/ Kaduru/ Aththikka/ Wal Del/ Kekuna/ randomly mixed \nseedlings and planting at 3.5m x 3.5 m grid interval\n\nC","Amount (Rs.)":"75,240.00","photopath":"Not_Available"},"geometry":{"type":"Point","coordinates":[80.817539,7.3022697]}},
{"type":"Feature","properties":{"No":3,"GND No.":806,"Name of the Tank":"Bobrawa Spring","N":7.287715,"E":80.831982,"Observation":"The   Existing water tank is .constructed (1.0m x 1.0m x 0.5m, L*W*H) and drinking water is distributed. But that tank is damage","Description":"Water Tank Renovation\n\nWater filteration unit- 1.5 m x 1.5 m\n\nSupply and laying 25 mm dia pvc pipe line in plain ended type in PN-11 rate including sockets, solvent cement and etc. \n\nSupply and laying 50 mm dia pvc pipe line in plain ended type in PN-11","Amount (Rs.)":"318,450.00","photopath":"https://raw.githubusercontent.com/MWS003-GIS/MWS003-GIS.github.io/main/IWWRMP/Data/EXD/200_photo/MWS_088/Bombrawa Mangoda co.water prject water tank (2).jpg"},"geometry":{"type":"Point","coordinates":[80.831982,7.287715]}},
{"type":"Feature","properties":{"No":4,"GND No.":804,"Name of the Tank":"Delpatan oya","N":7.318377,"E":80.83292,"Observation":"Remains a forest","Description":"Marking reservations\n\nVegetative cover improving around structures (5m x 10m) with Areca nut seedling in 1.5m x \n1.5m grid, Kumbuk/ Mee/ Godapara/ Kaduru/ Aththikka/ Wal Del/ Kekuna/ randomly mixed \nseedlings and planting at 3.5m x 3.5 m grid interval\n\nC","Amount (Rs.)":"101,860.00","photopath":"https://raw.githubusercontent.com/MWS003-GIS/MWS003-GIS.github.io/main/IWWRMP/Data/EXD/200_photo/MWS_088/Delpatan oya.jpg"},"geometry":{"type":"Point","coordinates":[80.83292,7.318377]}},
{"type":"Feature","properties":{"No":5,"GND No.":807,"Name of the Tank":"Dokulukanda,at Nakals reservation,","N":7.291762,"E":80.845653,"Observation":"Remains a forest","Description":"Marking reservations\n\nVegetative cover improving around structures (5m x 10m) with Areca nut seedling in 1.5m x \n1.5m grid, Kumbuk/ Mee/ Godapara/ Kaduru/ Aththikka/ Wal Del/ Kekuna/ randomly mixed \nseedlings and planting at 3.5m x 3.5 m grid interval\n\nC","Amount (Rs.)":"128,480.00","photopath":"https://raw.githubusercontent.com/MWS003-GIS/MWS003-GIS.github.io/main/IWWRMP/Data/EXD/200_photo/MWS_088/Nukels Finess forest.jpg"},"geometry":{"type":"Point","coordinates":[80.845653,7.291762]}}
]}