{"type":"FeatureCollection","name":"SWC_ON","crs":{"type":"name","properties":{"name":"urn:ogc:def:crs:OGC:1.3:CRS84"}},"features":[
{"type":"Feature","properties":{"No.":4,"GND No.":1065,"GND Name":"Pellapitiya North","Key Activities proposed for Soil and Water conservation":"1. Soil conservation practices -  Mr. Sarath's (Yaka wanguwa) land and surrounding Lands (45°-65°)","Priority based on Soil Erosion Hazard":1,"N":7.117184,"E":80.54197,"Quantity":"2 ha","Proposed measure/s":"1. Live fencing/SALT  - 2000 m/ 2. Lock and spills - 1000 m/ 3. Stone terracing - 1000 m / 4. Agronomic practices should be adapted at optimum level (conservation tillage, crop rotation and diversification, cover crops, mulching, contour farming, windbre","Uniti_Cost":"250.00 m-1/ 400.00 m-1/ 2500.00 m-1","Total_Cost":1700000,"Contribution (Local Community, LA, and the project)":"Labour and other basic services by the Local community","Time frame for the implementation":"0.25 Years","photopath":"https://raw.githubusercontent.com/MWS003-GIS/MWS003-GIS.github.io/main/IWWRMP/Data/EXD/200_photo/MWS_134_2/Soil Conservation - Mr. Sarath' (Yakawanguwa) land and surrounding Lands (3).jpg"},"geometry":{"type":"Point","coordinates":[80.54197,7.117184]}},
{"type":"Feature","properties":{"No.":5,"GND No.":1065,"GND Name":"Pellapitiya North","Key Activities proposed for Soil and Water conservation":"2. Soil conservation practices -  Mr. Shantha's (Janapadaya) land and surrounding Lands (45°-55°)","Priority based on Soil Erosion Hazard":1,"N":7.121822,"E":80.548234,"Quantity":"2 ha","Proposed measure/s":"1. Live fencing/SALT  - 2000 m/ 2. Lock and spills - 1000 m/ 3. Stone terracing - 1000 m / 4. Agronomic practices should be adapted at optimum level (conservation tillage, crop rotation and diversification, cover crops, mulching, contour farming, windbre","Uniti_Cost":"250.00 m-1/ 400.00 m-1/ 2500.00 m-1","Total_Cost":3150000,"Contribution (Local Community, LA, and the project)":"Labour and other basic services by the Local community","Time frame for the implementation":"0.25 Years","photopath":"https://raw.githubusercontent.com/MWS003-GIS/MWS003-GIS.github.io/main/IWWRMP/Data/EXD/200_photo/MWS_134_2/Soil Conservation - Mr. Shantha' (Janapadaya) land and surrounding Lands (3).jpg"},"geometry":{"type":"Point","coordinates":[80.548234,7.121822]}},
{"type":"Feature","properties":{"No.":6,"GND No.":1072,"GND Name":"Ulapane South","Key Activities proposed for Soil and Water conservation":"1. Soil conservation practices -  Mr. Dananjaya's (CTB) land and surrounding Lands (40°-50°)","Priority based on Soil Erosion Hazard":5,"N":7.096718,"E":80.55022,"Quantity":"4 ha","Proposed measure/s":"1. Live fencing/SALT  - 2000 m/ 2. Lock and spills - 1000 m/ 3. Stone terracing - 1000 m / 4. Agronomic practices should be adapted at optimum level (conservation tillage, crop rotation and diversification, cover crops, mulching, contour farming, windbre","Uniti_Cost":"250.00 m-1/ 400.00 m-1/ 2500.00 m-1","Total_Cost":3400000,"Contribution (Local Community, LA, and the project)":"Labour and other basic services by the Local community","Time frame for the implementation":"0.25 Years","photopath":"https://raw.githubusercontent.com/MWS003-GIS/MWS003-GIS.github.io/main/IWWRMP/Data/EXD/200_photo/MWS_134_2/Lands.jpg"},"geometry":{"type":"Point","coordinates":[80.55022,7.096718]}},
{"type":"Feature","properties":{"No.":7,"GND No.":1072,"GND Name":"Ulapane South","Key Activities proposed for Soil and Water conservation":"2. Soil conservation practices -  Mr. Vijerathne's land and surrounding Lands (45°-55°)","Priority based on Soil Erosion Hazard":4,"N":7.095771,"E":80.547356,"Quantity":"4 ha","Proposed measure/s":"1. Live fencing/SALT  - 2000 m/ 2. Lock and spills - 1000 m/ 3. Stone terracing - 1000 m / 4. Agronomic practices should be adapted at optimum level (conservation tillage, crop rotation and diversification, cover crops, mulching, contour farming, windbre","Uniti_Cost":"250.00 m-1/ 400.00 m-1/ 2500.00 m-1","Total_Cost":3400000,"Contribution (Local Community, LA, and the project)":"Labour and other basic services by the Local community","Time frame for the implementation":"0.25 Years","photopath":"https://raw.githubusercontent.com/MWS003-GIS/MWS003-GIS.github.io/main/IWWRMP/Data/EXD/200_photo/MWS_134_2/Soil Conservation - Mr. R K Wijerathne's land and surrounding Lands (4).jpg"},"geometry":{"type":"Point","coordinates":[80.547356,7.095771]}}
]}