{"type":"FeatureCollection","name":"DWS","crs":{"type":"name","properties":{"name":"urn:ogc:def:crs:OGC:1.3:CRS84"}},"features":[
{"type":"Feature","properties":{"No":1,"GND No.":646,"Scheme":"Sarvodaya water project","N":7.349274,"E":80.710123,"Observation":"A tank has been constructed here under sarvodaya project.Now the project is inactive","Description":"Excavation in trenches lessthan 300mm width in normal earth average depth of not exceeding 1.0m from ground level inclusive of back filling, compacting and disposal of surplus earth (Excavation  by Machine)\n\nSupplying & laying 50mm Dia PVC pipe line in p","Estimated Cost":"2,189,000","photopath":"Not_Available"},"geometry":{"type":"Point","coordinates":[80.710123,7.349274]}},
{"type":"Feature","properties":{"No":2,"GND No.":648,"Scheme":"Meraya Tubewll","N":7.343021,"E":80.699264,"Observation":"The tube well is good condition","Description":"Repairs to the existing tube well\n\nContingancies 10%","Estimated Cost":"22,000","photopath":"https://raw.githubusercontent.com/MWS003-GIS/MWS003-GIS.github.io/main/IWWRMP/Data/EXD/200_photo/MWS_100_1/Meraya tiube well20250122_123644.jpg"},"geometry":{"type":"Point","coordinates":[80.699264,7.343021]}},
{"type":"Feature","properties":{"No":3,"GND No.":648,"Scheme":"Tube well near the Sewapiyasa","N":7.345062,"E":80.70139,"Observation":"The tube well is good condition but problem is rust in water","Description":"Repairs to the existing tube well\n\nContingancies 10%","Estimated Cost":"22,000","photopath":"https://raw.githubusercontent.com/MWS003-GIS/MWS003-GIS.github.io/main/IWWRMP/Data/EXD/200_photo/MWS_100_1/Sewapiyasa tube well20250122_100554.jpg"},"geometry":{"type":"Point","coordinates":[80.70139,7.345062]}},
{"type":"Feature","properties":{"No":4,"GND No.":648,"Scheme":"Yakadakumburuwe Tube Well","N":7.347529,"E":80.700129,"Observation":"The tube well is good condition but problem is rust in water","Description":"Repairs to the existing tube well\n\nContingancies 10%","Estimated Cost":"22,000","photopath":"Not_Available"},"geometry":{"type":"Point","coordinates":[80.700129,7.347529]}}
]}