{"type":"FeatureCollection","name":"MI","crs":{"type":"name","properties":{"name":"urn:ogc:def:crs:OGC:1.3:CRS84"}},"features":[
{"type":"Feature","properties":{"Name_of_Tank":"Kolagahamula anicut and canal","Custodians":"-","N":7.352408,"E":80.712198,"Remarks":"The existing 300mm x 300mm rectangle concrete canal  ,  some places wall are very dilapidated condition. Water from this canal is used to grow paddy on an area of about 18 acres.Existing anicut is good condition","photopath":"https://raw.githubusercontent.com/MWS003-GIS/MWS003-GIS.github.io/main/IWWRMP/Data/EXD/200_photo/MWS_100_1/Kolagala canal and anicut_20250123_104111.jpg"},"geometry":{"type":"Point","coordinates":[80.712198,7.352408]}},
{"type":"Feature","properties":{"Name_of_Tank":"Yakadakumburuvela","Custodians":"-","N":7.34722,"E":80.703339,"Remarks":"The existing 450mm x 450mm rectangle concrete canal  ,  some places wall are very dilapidated condition. Water from this canal is used to grow paddy on an area of about 18 acres.","photopath":"Not_Available"},"geometry":{"type":"Point","coordinates":[80.703339,7.34722]}}
]}