{"type":"FeatureCollection","name":"WSP","crs":{"type":"name","properties":{"name":"urn:ogc:def:crs:OGC:1.3:CRS84"}},"features":[
{"type":"Feature","properties":{"No":1,"GND No.":646,"Name of the Tank":"Spring at the sri sumanarama Temple","N":7.349118,"E":80.70733,"Observation":"The well is good condition.","Description":"Construction?of?Concrete?water?storage?tank?of?20?cum???size?internal?t?3mx3mx2.5","Amount (Rs.)":"742,500.00","photopath":"Not_Available"},"geometry":{"type":"Point","coordinates":[80.70733,7.349118]}},
{"type":"Feature","properties":{"No":2,"GND No.":646,"Name of the Tank":"Galpihilla waththa Water spring","N":7.350777,"E":80.70987,"Observation":"There is a 2.0mx2.0mx3.0m(LxWxH)well. Water is taken for   bathing","Description":"150mm x 225mm Random Rubble masonry work in 1:5 cement and sand mortar in structures\n\nPlaster 12mm thick in 1:3 cement and sand \nfinished smooth with gray cement floating\n\nWater treatment unit 1.5 m x 1.5 m\n\nMiscellaneous\n\nContigencies (10%)","Amount (Rs.)":"245,960.00","photopath":"Not_Available"},"geometry":{"type":"Point","coordinates":[80.70987,7.350777]}},
{"type":"Feature","properties":{"No":3,"GND No.":646,"Name of the Tank":"Co-operative well","N":7.351484,"E":80.710759,"Observation":"There is a 1.8mx1.8mx4.0m(LxWxH)well. Water is taken for   bathing","Description":"150mm x 225mm Random Rubble masonry work in 1:5 cement and sand mortar in structures\n\nPlaster 12mm thick in 1:3 cement and sand \nfinished smooth with gray cement floating\n\nMiscellaneous\n\nContigencies (10%)\n","Amount (Rs.)":"31,900.00","photopath":"Not_Available"},"geometry":{"type":"Point","coordinates":[80.710759,7.351484]}},
{"type":"Feature","properties":{"No":4,"GND No.":646,"Name of the Tank":"Peppam Pihilla","N":7.351625,"E":80.706333,"Observation":"There is a 2.2m dia and 2.5m hight well. Water is taken for bathing","Description":"150mm x 225mm Random Rubble masonry work in 1:5 cement and sand mortar in structures\n\nPlaster 12mm thick in 1:3 cement and sand \nfinished smooth with gray cement floating\n\n1:3:6 (40mm) concrete manual mix (volume batching)\n\nMiscellaneous\n\nContigencies (1","Amount (Rs.)":"74,250.00","photopath":"Not_Available"},"geometry":{"type":"Point","coordinates":[80.706333,7.351625]}},
{"type":"Feature","properties":{"No":5,"GND No.":646,"Name of the Tank":"Galpihilla waththa Lima linda","N":7.349032,"E":80.708493,"Observation":"There is a 2.2m dia and 3.0m hight well. Water is taken for bathing.The walls of well have collapsed .","Description":"150mm x 225mm Random Rubble masonry work in 1:5 cement and sand mortar in structures\n\nPlaster 12mm thick in 1:3 cement and sand \nfinished smooth with gray cement floating\n\n1:3:6 (40mm) concrete manual mix (volume batching)\n\nMiscellaneous\n\nContigencies (1","Amount (Rs.)":"105,600.00","photopath":"Not_Available"},"geometry":{"type":"Point","coordinates":[80.708493,7.349032]}},
{"type":"Feature","properties":{"No":6,"GND No.":648,"Name of the Tank":"Totillagahamada linda","N":7.351231,"E":80.701164,"Observation":"There is a 2.2m dia and 3.5m hight well. Water is taken for driking and bathing","Description":"Plaster 12mm thick in 1:3 cement and sand \nfinished smooth with gray cement floating\n\n1:3:6 (40mm) concrete manual mix (volume batching)\n\nMiscellaneous\n\nContigencies (10%)","Amount (Rs.)":"19,800.00","photopath":"https://raw.githubusercontent.com/MWS003-GIS/MWS003-GIS.github.io/main/IWWRMP/Data/EXD/200_photo/MWS_100_1/Totilla gahamula lida20250122_115529.jpg"},"geometry":{"type":"Point","coordinates":[80.701164,7.351231]}},
{"type":"Feature","properties":{"No":7,"GND No.":648,"Name of the Tank":"Ihalagama public well","N":7.345006,"E":80.701525,"Observation":"There is a 1.2mx1.2mx1.3.0m(LxWxH)well. Water is taken for   drinking","Description":"Fabricating?&?fixing?security?weld?mesh?in?open type?buildings?in?GI?weld?mesh?50mm?x?50mm? SWG?10,?welded?on?40mm?x?40mm?x?5mm? angle?frame?complete?with?application?of?two? coats?enamel?","Amount (Rs.)":"24,750.00","photopath":"Not_Available"},"geometry":{"type":"Point","coordinates":[80.701525,7.345006]}},
{"type":"Feature","properties":{"No":8,"GND No.":648,"Name of the Tank":"Yakadakumburuwela Podulinda","N":7.34896,"E":80.701175,"Observation":"There is a 2.5mx2.5mx3.5m(LxWxH)well. Water is taken for   bathing","Description":"150mm x 225mm Random Rubble masonry work in 1:5 cement and sand mortar in structures\n\nPlaster 12mm thick in 1:3 cement and sand \nfinished smooth with gray cement floating\n\n1:3:6 (40mm) concrete manual mix (volume batching)\n\nMiscellaneous\n\nContigencies (1","Amount (Rs.)":"176,110.00","photopath":"https://raw.githubusercontent.com/MWS003-GIS/MWS003-GIS.github.io/main/IWWRMP/Data/EXD/200_photo/MWS_100_1/Makkanjgama Gnd Ihalagama podu linda20250122_095736.jpg"},"geometry":{"type":"Point","coordinates":[80.701175,7.34896]}}
]}