{"type":"FeatureCollection","name":"SWC_ON","crs":{"type":"name","properties":{"name":"urn:ogc:def:crs:OGC:1.3:CRS84"}},"features":[
{"type":"Feature","properties":{"No.":4,"GND No.":"35","GND Name":"Galauda","Key Activities proposed for Soil and Water conservation":"1. Soil conservation practices -  Mr. R.M Culabandara's land and surrounding lands (50°-70°)","Priority based on Soil Erosion Hazard":4,"N":7.038803,"E":80.982087,"Quantity":"1.5 ha","Proposed measure/s":"1. Live fencing/SALT  - 1000 m/ 2. Lock and spills - 250 m/ 3. Stone terracing - 250 m/ 4. Agronomic practices should be adapted at optimum level (conservation tillage, crop rotation and diversification, cover crops, mulching, contour farming, windbreaks","Uniti_Cost":"250.00 m-1/ 400.00 m-1/ 2500.00 m-1","Total_Cost":975000,"Contribution (Local Community, LA, and the project)":"Labour and other basic services by the Local community","Time frame for the implementation":"0.25 Years","photopath":"https://raw.githubusercontent.com/MWS003-GIS/MWS003-GIS.github.io/main/IWWRMP/Data/EXD/200_photo/MWS_072/IMG_20250912_110813 Pepper cultivated land.jpg"},"geometry":{"type":"Point","coordinates":[80.982087,7.038803]}},
{"type":"Feature","properties":{"No.":6,"GND No.":"35B","GND Name":"Bokanoruwa","Key Activities proposed for Soil and Water conservation":"2. Soil conservation practices -  Bokanoruwa Village (45°-60°)","Priority based on Soil Erosion Hazard":4,"N":7.042424,"E":80.997627,"Quantity":"20 ha","Proposed measure/s":"1. Live fencing/SALT  - 1000 m/ 2. Lock and spills - 250 m/ 3. Stone terracing - 250 m/ 4. Agronomic practices should be adapted at optimum level (conservation tillage, crop rotation and diversification, cover crops, mulching, contour farming, windbreaks","Uniti_Cost":"250.00 m-1/ 400.00 m-1/ 2500.00 m-1","Total_Cost":9800000,"Contribution (Local Community, LA, and the project)":"Labour and other basic services by the Local community","Time frame for the implementation":"0.25 Years","photopath":"https://raw.githubusercontent.com/MWS003-GIS/MWS003-GIS.github.io/main/IWWRMP/Data/EXD/200_photo/MWS_072/Soil conservation.jpg"},"geometry":{"type":"Point","coordinates":[80.997627,7.042424]}},
{"type":"Feature","properties":{"No.":7,"GND No.":"35C","GND Name":"Thetilla","Key Activities proposed for Soil and Water conservation":"1. Soil conservation practices -  Thetilla, Galauda (45°-60°)","Priority based on Soil Erosion Hazard":3,"N":7.055101,"E":80.977315,"Quantity":"2 ha","Proposed measure/s":"1. Live fencing/SALT  - 1000 m/ 2. Lock and spills - 250 m/ 3. Stone terracing - 250 m/ 4. Agronomic practices should be adapted at optimum level (conservation tillage, crop rotation and diversification, cover crops, mulching, contour farming, windbreaks","Uniti_Cost":"250.00 m-1/ 400.00 m-1/ 2500.00 m-1","Total_Cost":1700000,"Contribution (Local Community, LA, and the project)":"Labour and other basic services by the Local community","Time frame for the implementation":"0.25 Years","photopath":"https://raw.githubusercontent.com/MWS003-GIS/MWS003-GIS.github.io/main/IWWRMP/Data/EXD/200_photo/MWS_072/Soil conservation.jpg"},"geometry":{"type":"Point","coordinates":[80.977315,7.055101]}},
{"type":"Feature","properties":{"No.":9,"GND No.":"35E","GND Name":"Thalakumbura","Key Activities proposed for Soil and Water conservation":"1. Soil conservation practices (45°-70°)","Priority based on Soil Erosion Hazard":1,"N":7.03257,"E":80.981415,"Quantity":"2 ha","Proposed measure/s":"1. Live fencing/SALT  - 1000 m/ 2. Lock and spills - 250 m/ 3. Stone terracing - 250 m/ 4. Agronomic practices should be adapted at optimum level (conservation tillage, crop rotation and diversification, cover crops, mulching, contour farming, windbreaks","Uniti_Cost":"250.00 m-1/ 400.00 m-1/ 2500.00 m-1","Total_Cost":1100000,"Contribution (Local Community, LA, and the project)":"Labour and other basic services by the Local community","Time frame for the implementation":"0.25 Years","photopath":"https://raw.githubusercontent.com/MWS003-GIS/MWS003-GIS.github.io/main/IWWRMP/Data/EXD/200_photo/MWS_072/IMG_20250911_154044 Pepper cultivation land.jpg"},"geometry":{"type":"Point","coordinates":[80.981415,7.03257]}}
]}