{"type":"FeatureCollection","name":"WSP","crs":{"type":"name","properties":{"name":"urn:ogc:def:crs:OGC:1.3:CRS84"}},"features":[
{"type":"Feature","properties":{"No":1,"GND No.":"32","Name of the Tank":"Area near the Wela Oya","N":7.071787,"E":80.978118,"Observation":"During the rainy season when too much water flows, Bank erosion occurs","Description":"Paving available stone in the river banks and Planting trees\n\nDry rubble packing (with locally found rubble, size over 225mm )-Along the river banks\n\nVegetative cover improving around the water source with Areca nut seedling in 1.5m x 1.5m grid, Kumbuk/","Amount (Rs.)":762300,"photopath":"Not_Available"},"geometry":{"type":"Point","coordinates":[80.978118,7.071787]}},
{"type":"Feature","properties":{"No":2,"GND No.":"35","Name of the Tank":"Uda Arawa spring","N":7.032171,"E":80.987499,"Observation":"The spring is in the form of a peella.","Description":"20 Kumbuk Tree Plantation around the Spring\n\nSupplying of Kumbuk seedlings [to be planted in 3.5m x 3.5m grid]\n\nSupplying of NPK fertilizer [0.10kg/plant]\n\nGround preparation & maintenance [7 L/days per 100.0m x 2.0m]\n\nPlanting & fertilizer application [","Amount (Rs.)":33000,"photopath":"https://raw.githubusercontent.com/MWS003-GIS/MWS003-GIS.github.io/main/IWWRMP/Data/EXD/200_photo/MWS_072/IMG_20250912_133536 Uda arawa spring.jpg"},"geometry":{"type":"Point","coordinates":[80.987499,7.032171]}},
{"type":"Feature","properties":{"No":3,"GND No.":"35","Name of the Tank":"Mountain near the Paradeniyamada(Epalkanda)","N":7.038646,"E":80.97904,"Observation":"The land belongs to the Divisional Secretary., currently various types of trees have been planted","Description":"50 Kumbuk Tree Plantation around the Spring\n\nSupplying of Kumbuk seedlings [to be planted in 3.5m x 3.5m grid]\n\nSupplying of NPK fertilizer [0.10kg/plant]\n\nGround preparation & maintenance [7 L/days per 100.0m x 2.0m]\n\nPlanting & fertilizer application [","Amount (Rs.)":44000,"photopath":"https://raw.githubusercontent.com/MWS003-GIS/MWS003-GIS.github.io/main/IWWRMP/Data/EXD/200_photo/MWS_072/IMG_20250912_144857 Paradeyiyamada reserve.jpg"},"geometry":{"type":"Point","coordinates":[80.97904,7.038646]}},
{"type":"Feature","properties":{"No":4,"GND No.":"35","Name of the Tank":"Reservation near the Wewa","N":7.040828,"E":80.988335,"Observation":"It is a land related to Forest Department, currently various types of trees have been planted","Description":"75 Kumbuk Tree Plantation around the Spring\n\nSupplying of Kumbuk seedlings [to be planted in 3.5m x 3.5m grid]\n\nSupplying of NPK fertilizer [0.10kg/plant]\n\nGround preparation & maintenance [7 L/days per 100.0m x 2.0m]\n\nPlanting & fertilizer application [","Amount (Rs.)":55000,"photopath":"https://raw.githubusercontent.com/MWS003-GIS/MWS003-GIS.github.io/main/IWWRMP/Data/EXD/200_photo/MWS_072/IMG_20250912_151156 Reserve near the lake.jpg"},"geometry":{"type":"Point","coordinates":[80.988335,7.040828]}},
{"type":"Feature","properties":{"No":5,"GND No.":"35A","Name of the Tank":"Dodangaslanda Kadura","N":7.045528,"E":80.993836,"Observation":"During the rainy season when too much water flows, Bank erosion occurs","Description":"Paving available stone in the river banks and Planting trees\n\nDry rubble packing (with locally found rubble, size over 225mm )-Along the river banks\n\nVegetative cover improving around the water source with Areca nut seedling in 1.5m x 1.5m grid, Kumbuk/","Amount (Rs.)":718300,"photopath":"https://raw.githubusercontent.com/MWS003-GIS/MWS003-GIS.github.io/main/IWWRMP/Data/EXD/200_photo/MWS_072/Dodangaslanda Kadura.jpg"},"geometry":{"type":"Point","coordinates":[80.993836,7.045528]}},
{"type":"Feature","properties":{"No":6,"GND No.":"35A","Name of the Tank":"Kosgolla Kadura from Godamuduna","N":7.045769,"E":80.988593,"Observation":"During the rainy season when too much water flows, Bank erosion occurs","Description":"Paving available stone in the river banks and Planting trees\n\nDry rubble packing (with locally found rubble, size over 225mm )-Along the river banks\n\nVegetative cover improving around the water source with Areca nut seedling in 1.5m x 1.5m grid, Kumbuk/","Amount (Rs.)":638000,"photopath":"https://raw.githubusercontent.com/MWS003-GIS/MWS003-GIS.github.io/main/IWWRMP/Data/EXD/200_photo/MWS_072/Kosgolla Kadura.jpg"},"geometry":{"type":"Point","coordinates":[80.988593,7.045769]}},
{"type":"Feature","properties":{"No":7,"GND No.":"35B","Name of the Tank":"Amunugala Kadura (Kosgolla Kadura)","N":7.045402,"E":80.99592,"Observation":"During the rainy season when too much water flows, Bank erosion occurs","Description":"Paving available stone in the river banks and Planting trees\n\nDry rubble packing (with locally found rubble, size over 225mm )-Along the river banks\n\nVegetative cover improving around the water source with Areca nut seedling in 1.5m x 1.5m grid, Kumbuk/","Amount (Rs.)":762300,"photopath":"https://raw.githubusercontent.com/MWS003-GIS/MWS003-GIS.github.io/main/IWWRMP/Data/EXD/200_photo/MWS_072/Amunugala Kadura.jpg"},"geometry":{"type":"Point","coordinates":[80.99592,7.045402]}},
{"type":"Feature","properties":{"No":8,"GND No.":"35B","Name of the Tank":"Peella Kadura (Keselwatta spring)","N":7.044274,"E":80.992314,"Observation":"During the rainy season when too much water flows, Bank erosion occurs","Description":"Paving available stone in the river banks and Planting trees\n\nDry rubble packing (with locally found rubble, size over 225mm )-Along the river banks\n\nVegetative cover improving around the water source with Areca nut seedling in 1.5m x 1.5m grid, Kumbuk/","Amount (Rs.)":762300,"photopath":"https://raw.githubusercontent.com/MWS003-GIS/MWS003-GIS.github.io/main/IWWRMP/Data/EXD/200_photo/MWS_072/Peella Kadura.jpg"},"geometry":{"type":"Point","coordinates":[80.992314,7.044274]}},
{"type":"Feature","properties":{"No":9,"GND No.":"35D","Name of the Tank":"Narangala spring","N":7.032255,"E":81.004889,"Observation":"The source is located in Kandura(Malwaththa Plantation). used for drinking and bathing","Description":"Construction of 0.9m high and 1.7 m long high 1:3:6 (40mm) cement concrete Retaining Wall\n\nSite preparation & setting out\n Earth excavation for foundation or quarry  materials and haul the surplus materials up to  30m by Manually.\n\nPl","Amount (Rs.)":966900,"photopath":"https://raw.githubusercontent.com/MWS003-GIS/MWS003-GIS.github.io/main/IWWRMP/Data/EXD/200_photo/MWS_072/IMG_20250911_100846 Narangala spring.jpg"},"geometry":{"type":"Point","coordinates":[81.004889,7.032255]}},
{"type":"Feature","properties":{"No":10,"GND No.":"35D","Name of the Tank":"No-16 Spring","N":7.033277,"E":81.003683,"Observation":"Water is currently being drawn from a location where a 4.1m long and 0.9m high retaining wall has been built. Water leaks from the R/W .used for drinking and bathing","Description":"Construction of 0.9m high and 2.5 m long high 1:3:6 (40mm) cement concrete Retaining Wall\n\nSite preparation & setting out\n Earth excavation for foundation or quarry  materials and haul the surplus materials up to  30m by Manually.\n\nPl","Amount (Rs.)":104500,"photopath":"https://raw.githubusercontent.com/MWS003-GIS/MWS003-GIS.github.io/main/IWWRMP/Data/EXD/200_photo/MWS_072/IMG_20250911_102346 No-16 Spring.jpg"},"geometry":{"type":"Point","coordinates":[81.003683,7.033277]}},
{"type":"Feature","properties":{"No":11,"GND No.":"35D","Name of the Tank":"No-17 -1 Spring","N":7.0301169,"E":81.005373,"Observation":"The source is located in Kandura(Malwaththa Plantation). used for drinking and bathing","Description":"Construction of 0.9m high and 3.0 m long high 1:3:6 (40mm) cement concrete Retaining Wall\n\nSite preparation & setting out\n Earth excavation for foundation or quarry  materials and haul the surplus materials up to  30m by Manually.\n\nPl","Amount (Rs.)":1010900,"photopath":"https://raw.githubusercontent.com/MWS003-GIS/MWS003-GIS.github.io/main/IWWRMP/Data/EXD/200_photo/MWS_072/IMG_20250911_104330 No-17 spring.jpg"},"geometry":{"type":"Point","coordinates":[81.005373,7.0301169]}},
{"type":"Feature","properties":{"No":12,"GND No.":"35D","Name of the Tank":"No-17-2  Spring","N":7.031509,"E":81.004671,"Observation":"The source is located in Kandura(Malwaththa Plantation). used for drinking and bathing","Description":"Construction of 0.9m high and 2.0 m long high 1:3:6 (40mm) cement concrete Retaining Wall\n\nSite preparation & setting out\n Earth excavation for foundation or quarry  materials and haul the surplus materials up to  30m by Manually.\n\nPl","Amount (Rs.)":1003200,"photopath":"https://raw.githubusercontent.com/MWS003-GIS/MWS003-GIS.github.io/main/IWWRMP/Data/EXD/200_photo/MWS_072/IMG_20250911_104637_1 No-17 2 nd Spring.jpg"},"geometry":{"type":"Point","coordinates":[81.004671,7.031509]}},
{"type":"Feature","properties":{"No":13,"GND No.":"35D","Name of the Tank":"No-17-3  Spring","N":7.03059,"E":81.004155,"Observation":"The  Water tank is constructed (1.9m x 1.9m x 1.0m, L*W*H) Water leaks from the tank. A tank  Located on Malwaththa Plantation land. Used for drinking and bathing","Description":"Renovation of the Water Tank\n\nWire brush the tank walls\n\nPlaster 12mm thick in 1:3 cement and sand finished smooth with gray cement floating\n\nMiscellaneous\n\nContingencies (10%)","Amount (Rs.)":49500,"photopath":"https://raw.githubusercontent.com/MWS003-GIS/MWS003-GIS.github.io/main/IWWRMP/Data/EXD/200_photo/MWS_072/IMG_20250911_110517 No-17 3rd spring.jpg"},"geometry":{"type":"Point","coordinates":[81.004155,7.03059]}},
{"type":"Feature","properties":{"No":14,"GND No.":"35D","Name of the Tank":"Spring at 10th mile post","N":7.0283659,"E":80.994674,"Observation":"The  Water tank is constructed (1.9m x 1.9m x 1.0m, L*W*H).A tank  Located on Malwaththa Plantation land. Used for drinking and bathing","Description":"10 Kumbuk Tree Plantation around the Spring\n\nSupplying of Kumbuk seedlings [to be planted in 3.5m x 3.5m grid]\n\nSupplying of NPK fertilizer [0.10kg/plant]\n\nGround preparation & maintenance [7 L/days per 100.0m x 2.0m]\n\nPlanting & fertilizer application [","Amount (Rs.)":33000,"photopath":"https://raw.githubusercontent.com/MWS003-GIS/MWS003-GIS.github.io/main/IWWRMP/Data/EXD/200_photo/MWS_072/IMG_20250911_120016 10 km post spring.jpg"},"geometry":{"type":"Point","coordinates":[80.994674,7.0283659]}},
{"type":"Feature","properties":{"No":15,"GND No.":"35E","Name of the Tank":"Yakkawaththa Reserve","N":7.025265,"E":80.978044,"Observation":"The land belongs to the Divisional Secretary., currently various types of trees have been planted","Description":"50 Kumbuk Tree Plantation around the Spring\n\nSupplying of Kumbuk seedlings [to be planted in 3.5m x 3.5m grid]\n\nSupplying of NPK fertilizer [0.10kg/plant]\n\nGround preparation & maintenance [7 L/days per 100.0m x 2.0m]\n\nPlanting & fertilizer application [","Amount (Rs.)":44000,"photopath":"https://raw.githubusercontent.com/MWS003-GIS/MWS003-GIS.github.io/main/IWWRMP/Data/EXD/200_photo/MWS_072/IMG_20250911_145000 Yakkawaththa reserve.jpg"},"geometry":{"type":"Point","coordinates":[80.978044,7.025265]}}
]}