{"type":"FeatureCollection","name":"SWC_ON","crs":{"type":"name","properties":{"name":"urn:ogc:def:crs:OGC:1.3:CRS84"}},"features":[
{"type":"Feature","properties":{"No.":1,"GND No.":"51","GND Name":"Bogahakumbura","Key Activities proposed for Soil and Water conservation":"1. Soil conservation practices -  Mr. Gunapala's land and surrounding areas (40°-65°)","Priority based on Soil Erosion Hazard":5,"N":6.857011,"E":80.873252,"Quantity":"2 ha","Proposed measure/s":"1. Live fencing/SALT  - 1000 m","Uniti_Cost":"250.00 m-1","Total_Cost":250000,"Contribution (Local Community, LA, and the project)":"Labour and other basic services by the Local community","Time frame for the implementation":"0.25 Years","photopath":"https://raw.githubusercontent.com/MWS003-GIS/MWS003-GIS.github.io/main/IWWRMP/Data/EXD/200_photo/MWS_055/Soil Conservation - Mr. Gunapala's land and surrounding areas.jpg"},"geometry":{"type":"Point","coordinates":[80.873252,6.857011]}},
{"type":"Feature","properties":{"No.":2,"GND No.":"51","GND Name":"Bogahakumbura","Key Activities proposed for Soil and Water conservation":"2. Soil conservation practices -  Mr. Jayarathne's land and surrounding areas (40°-65°)","Priority based on Soil Erosion Hazard":5,"N":6.857465,"E":80.871719,"Quantity":"2 ha","Proposed measure/s":"1. Live fencing/SALT  - 1000 m","Uniti_Cost":"250.00 m-1","Total_Cost":250000,"Contribution (Local Community, LA, and the project)":"Labour and other basic services by the Local community","Time frame for the implementation":"0.25 Years","photopath":"https://raw.githubusercontent.com/MWS003-GIS/MWS003-GIS.github.io/main/IWWRMP/Data/EXD/200_photo/MWS_055/Soil Conservation - Mr. Jayarathne's land and surrounding areas (2).jpg"},"geometry":{"type":"Point","coordinates":[80.871719,6.857465]}},
{"type":"Feature","properties":{"No.":3,"GND No.":"51","GND Name":"Bogahakumbura","Key Activities proposed for Soil and Water conservation":"3. Soil conservation practices -  Mr. N M Muthubanda's land and surrounding areas (40°-65°)","Priority based on Soil Erosion Hazard":3,"N":6.856116,"E":80.87172,"Quantity":"2 ha","Proposed measure/s":"1. Live fencing/SALT  - 1000 m","Uniti_Cost":"250.00 m-1","Total_Cost":250000,"Contribution (Local Community, LA, and the project)":"Labour and other basic services by the Local community","Time frame for the implementation":"0.25 Years","photopath":"https://raw.githubusercontent.com/MWS003-GIS/MWS003-GIS.github.io/main/IWWRMP/Data/EXD/200_photo/MWS_055/Soil Conservation - Mr. N M Muthubanda's land and surrounding areas.jpg"},"geometry":{"type":"Point","coordinates":[80.87172,6.856116]}},
{"type":"Feature","properties":{"No.":4,"GND No.":"51","GND Name":"Bogahakumbura","Key Activities proposed for Soil and Water conservation":"4. Soil conservation practices -  Mr. Jayarathne's land and surrounding areas (40°-65°)","Priority based on Soil Erosion Hazard":5,"N":6.856885,"E":80.875724,"Quantity":"2 ha","Proposed measure/s":"1. Live fencing/SALT  - 1000 m","Uniti_Cost":"250.00 m-1","Total_Cost":250000,"Contribution (Local Community, LA, and the project)":"Labour and other basic services by the Local community","Time frame for the implementation":"0.25 Years","photopath":"https://raw.githubusercontent.com/MWS003-GIS/MWS003-GIS.github.io/main/IWWRMP/Data/EXD/200_photo/MWS_055/Soil Conservation - Mr. N M Muthubanda's land and surrounding areas.jpg"},"geometry":{"type":"Point","coordinates":[80.875724,6.856885]}},
{"type":"Feature","properties":{"No.":5,"GND No.":"52C","GND Name":"Mavithikumbura","Key Activities proposed for Soil and Water conservation":"1. Soil conservation practices -  Mr. N.D. Gunapala's land and surrounding areas (40°-65°)","Priority based on Soil Erosion Hazard":5,"N":6.870435,"E":80.894459,"Quantity":"2 ha","Proposed measure/s":"1. Live fencing/SALT  - 1000 m","Uniti_Cost":"250.00 m-1","Total_Cost":250000,"Contribution (Local Community, LA, and the project)":"Labour and other basic services by the Local community","Time frame for the implementation":"0.25 Years","photopath":"https://raw.githubusercontent.com/MWS003-GIS/MWS003-GIS.github.io/main/IWWRMP/Data/EXD/200_photo/MWS_055/Soil Conservation - Mr. N D Gunapala's land and surrounding areas (2).jpg"},"geometry":{"type":"Point","coordinates":[80.894459,6.870435]}},
{"type":"Feature","properties":{"No.":6,"GND No.":"52C","GND Name":"Mavithikumbura","Key Activities proposed for Soil and Water conservation":"2. Soil conservation practices -  Mr. P.D. Gunasekara's land and surrounding areas (40°-65°)","Priority based on Soil Erosion Hazard":5,"N":6.871622,"E":80.894007,"Quantity":"2 ha","Proposed measure/s":"1. Live fencing/SALT  - 1000 m","Uniti_Cost":"250.00 m-1","Total_Cost":250000,"Contribution (Local Community, LA, and the project)":"Labour and other basic services by the Local community","Time frame for the implementation":"0.25 Years","photopath":"https://raw.githubusercontent.com/MWS003-GIS/MWS003-GIS.github.io/main/IWWRMP/Data/EXD/200_photo/MWS_055/Soil Conservation - Mr. P D Gunasekara's land and surrounding areas.jpg"},"geometry":{"type":"Point","coordinates":[80.894007,6.871622]}},
{"type":"Feature","properties":{"No.":7,"GND No.":"52C","GND Name":"Mavithikumbura","Key Activities proposed for Soil and Water conservation":"3. Soil conservation practices -  Mr. Anura Shantha's land and surrounding areas (40°-65°)","Priority based on Soil Erosion Hazard":5,"N":6.873008,"E":80.894994,"Quantity":"2 ha","Proposed measure/s":"1. Live fencing/SALT  - 1000 m","Uniti_Cost":"250.00 m-1","Total_Cost":250000,"Contribution (Local Community, LA, and the project)":"Labour and other basic services by the Local community","Time frame for the implementation":"0.25 Years","photopath":"https://raw.githubusercontent.com/MWS003-GIS/MWS003-GIS.github.io/main/IWWRMP/Data/EXD/200_photo/MWS_055/Soil Conservation - Mr. Anura shantha's land and surrounding areas.jpg"},"geometry":{"type":"Point","coordinates":[80.894994,6.873008]}},
{"type":"Feature","properties":{"No.":8,"GND No.":"52C","GND Name":"Mavithikumbura","Key Activities proposed for Soil and Water conservation":"4. Soil conservation practices -  Mr. M.K. David's land and surrounding areas (40°-65°)","Priority based on Soil Erosion Hazard":5,"N":6.87211,"E":80.896144,"Quantity":"4 ha","Proposed measure/s":"1. Live fencing/SALT  - 2000 m","Uniti_Cost":"250.00 m-1","Total_Cost":500000,"Contribution (Local Community, LA, and the project)":"Labour and other basic services by the Local community","Time frame for the implementation":"0.25 Years","photopath":"https://raw.githubusercontent.com/MWS003-GIS/MWS003-GIS.github.io/main/IWWRMP/Data/EXD/200_photo/MWS_055/Soil Conservation - Mr. M K David's land and surrounding areas.jpg"},"geometry":{"type":"Point","coordinates":[80.896144,6.87211]}},
{"type":"Feature","properties":{"No.":9,"GND No.":"52C","GND Name":"Mavithikumbura","Key Activities proposed for Soil and Water conservation":"5. Soil conservation practices -  Mr. R.D. Vilson Perera's land and surrounding areas (40°-65°)","Priority based on Soil Erosion Hazard":1,"N":6.874134,"E":80.900653,"Quantity":"2 ha","Proposed measure/s":"1. Live fencing/SALT  - 1000 m","Uniti_Cost":"250.00 m-1","Total_Cost":250000,"Contribution (Local Community, LA, and the project)":"Labour and other basic services by the Local community","Time frame for the implementation":"0.25 Years","photopath":"https://raw.githubusercontent.com/MWS003-GIS/MWS003-GIS.github.io/main/IWWRMP/Data/EXD/200_photo/MWS_055/Soil Conservation - Mr. R D Vilson Perera's land and surrounding areas.jpg"},"geometry":{"type":"Point","coordinates":[80.900653,6.874134]}},
{"type":"Feature","properties":{"No.":10,"GND No.":"61B","GND Name":"Alugolla","Key Activities proposed for Soil and Water conservation":"5. Soil conservation practices -  Alugolla School (45°-60°)","Priority based on Soil Erosion Hazard":1,"N":6.852804,"E":80.890535,"Quantity":"0.5 ha","Proposed measure/s":"1. Live fencing/SALT  - 200 m","Uniti_Cost":"250.00 m-1","Total_Cost":50000,"Contribution (Local Community, LA, and the project)":"Labour and other basic services by the Local community","Time frame for the implementation":"0.25 Years","photopath":"https://raw.githubusercontent.com/MWS003-GIS/MWS003-GIS.github.io/main/IWWRMP/Data/EXD/200_photo/MWS_055/Soil Conservation - Alugolla School.jpg"},"geometry":{"type":"Point","coordinates":[80.890535,6.852804]}},
{"type":"Feature","properties":{"No.":11,"GND No.":"61B","GND Name":"Alugolla","Key Activities proposed for Soil and Water conservation":"2. Soil conservation practices -  Mr. Sahul Hameed's land and surrounding areas (20°-30°)","Priority based on Soil Erosion Hazard":2,"N":6.855351,"E":80.88585,"Quantity":"6 ha","Proposed measure/s":"1. Live fencing/SALT  - 3000 m","Uniti_Cost":"250.00 m-1","Total_Cost":750000,"Contribution (Local Community, LA, and the project)":"Labour and other basic services by the Local community","Time frame for the implementation":"0.25 Years","photopath":"https://raw.githubusercontent.com/MWS003-GIS/MWS003-GIS.github.io/main/IWWRMP/Data/EXD/200_photo/MWS_055/Soil Conservation - Mr. Sahul Mohideen's land and surrounding areas.jpg"},"geometry":{"type":"Point","coordinates":[80.88585,6.855351]}},
{"type":"Feature","properties":{"No.":12,"GND No.":"61B","GND Name":"Alugolla","Key Activities proposed for Soil and Water conservation":"3. Soil conservation practices -  Mr. M.S.C. Mohideen's land and surrounding areas (25°-35°)","Priority based on Soil Erosion Hazard":1,"N":6.855296,"E":80.881343,"Quantity":"6 ha","Proposed measure/s":"1. Live fencing/SALT  - 3000 m","Uniti_Cost":"250.00 m-1","Total_Cost":750000,"Contribution (Local Community, LA, and the project)":"Labour and other basic services by the Local community","Time frame for the implementation":"0.25 Years","photopath":"https://raw.githubusercontent.com/MWS003-GIS/MWS003-GIS.github.io/main/IWWRMP/Data/EXD/200_photo/MWS_055/Soil Conservation - Mr. M S C Mohideen's land and surrounding areas.jpg"},"geometry":{"type":"Point","coordinates":[80.881343,6.855296]}},
{"type":"Feature","properties":{"No.":13,"GND No.":"61B","GND Name":"Alugolla","Key Activities proposed for Soil and Water conservation":"4. Soil conservation practices -  Mr. M. Niyaaz's land and surrounding areas (35°-45°)","Priority based on Soil Erosion Hazard":2,"N":6.852564,"E":80.884026,"Quantity":"6 ha","Proposed measure/s":"1. Live fencing/SALT  - 3000 m","Uniti_Cost":"250.00 m-1","Total_Cost":750000,"Contribution (Local Community, LA, and the project)":"Labour and other basic services by the Local community","Time frame for the implementation":"0.25 Years","photopath":"https://raw.githubusercontent.com/MWS003-GIS/MWS003-GIS.github.io/main/IWWRMP/Data/EXD/200_photo/MWS_055/Soil Conservation - Mr. Niyaz's land and surrounding areas.jpg"},"geometry":{"type":"Point","coordinates":[80.884026,6.852564]}}
]}