{"type":"FeatureCollection","name":"DWS","crs":{"type":"name","properties":{"name":"urn:ogc:def:crs:OGC:1.3:CRS84"}},"features":[
{"type":"Feature","properties":{"No":1,"GND No.":"63E","Scheme":"Kithulgahawaka","N":6.79051,"E":80.91234,"Observation":"Water source is located in glanore GND. Although water spring has been developed, water is leaking from the stock tank. This area may be about  0.5 acre of which about 10% are large trees.","Description":"Construction of 6.0 cum water storage tank and provision of required fittings etc. and planting trees around\n\nConstruction of Concrete water storage tank of 6 cum - size internal  2mx2mx1.75m\n\nOther fittings & sockets etc. Required for connecting the val","Estimated Cost":599500,"photopath":"https://raw.githubusercontent.com/MWS003-GIS/MWS003-GIS.github.io/main/IWWRMP/Data/EXD/200_photo/MWS_063/Regularization of Community Water Schemes - Kithulgahawaka community water project (2).jpg"},"geometry":{"type":"Point","coordinates":[80.91234,6.79051]}},
{"type":"Feature","properties":{"No":2,"GND No.":"63E","Scheme":"Othumbe","N":6.792409,"E":80.91747,"Observation":"This water source is difficult to reach. Although it is a well-functioning water scheme, there is no water filtering system here.","Description":"Construction of 2.5 m  x 2.5 m x 1.5 m (L x W x h) Filter tank \n\nSite preparation & setting out\n\nPlywood form work including making, fixing & removing for structure -05 uses\n\nCutting, Bending & Placing tor steel reinforcement bars\n\n1:2:4 (20mm) concrete","Estimated Cost":489500,"photopath":"https://raw.githubusercontent.com/MWS003-GIS/MWS003-GIS.github.io/main/IWWRMP/Data/EXD/200_photo/MWS_063/Regularization of Community Water Schemes - Othumbe community water project (2).jpg"},"geometry":{"type":"Point","coordinates":[80.91747,6.792409]}},
{"type":"Feature","properties":{"No":3,"GND No.":"63J","Scheme":"Arawatta, Kirinda, Welanhinna","N":6.801249,"E":80.913282,"Observation":"This is a well-developed and well-functioning water scheme. Villagers are requesting that a concrete dam be built across the water stream as the water level decreasing the dry season.","Description":"Construction of Concrete anicut of  6.5 m length and height 0.9 m.\n\nClearing the site \n\nCommon excavation for foundation or quarry materials and haul the surplus up to 30m by Manually.\n\nPlywood form work including making, fixing & removing for structure","Estimated Cost":206800,"photopath":"https://raw.githubusercontent.com/MWS003-GIS/MWS003-GIS.github.io/main/IWWRMP/Data/EXD/200_photo/MWS_063/Drinking Water Sources to be Conserved - Perawatta Well (4).jpg"},"geometry":{"type":"Point","coordinates":[80.913282,6.801249]}},
{"type":"Feature","properties":{"No":4,"GND No.":"64F","Scheme":"Water tank near the Glenanore Rural Hospital","N":6.779989,"E":80.919715,"Observation":"Although the water scheme is functioning well, the stock tank is in a dilapidated condition.","Description":"Construction of 6.0 cum water storage tank and provision of required fittings etc. and planting trees around\n\nConstruction of Concrete water storage tank of 6 cum - size internal  2mx2mx1.75m\n\nOther fittings & sockets etc. Required for connecting the val","Estimated Cost":599500,"photopath":"https://raw.githubusercontent.com/MWS003-GIS/MWS003-GIS.github.io/main/IWWRMP/Data/EXD/200_photo/MWS_063/Drinking Water Sources to be Conserved - Near the Glenanore Rural Hospital.jpg"},"geometry":{"type":"Point","coordinates":[80.919715,6.779989]}}
]}