{"type":"FeatureCollection","name":"SWC_OFF","crs":{"type":"name","properties":{"name":"urn:ogc:def:crs:OGC:1.3:CRS84"}},"features":[
{"type":"Feature","properties":{"No.":8,"GND No.":"63E","GND Name":"Horadorowwa","Key Activities proposed for Soil and Water conservation":"1. Establishing a retaining wall - Horadorowwa Weaving workshop building","Priority based on Soil Erosion Hazard":4,"N":6.795455,"E":80.919081,"Quantity":"13 m x 3 m","Proposed measure/s":"Retaining Wall (Concrete)","Total_Cost":1518000,"Contribution (Local Community, LA, and the project)":"By the project","Time frame for the implementation":"0.25 Years","photopath":"https://raw.githubusercontent.com/MWS003-GIS/MWS003-GIS.github.io/main/IWWRMP/Data/EXD/200_photo/MWS_063/Soil Conservation - Horadorowwa Weaving workshop building (2).jpg"},"geometry":{"type":"Point","coordinates":[80.919081,6.795455]}}
]}