{"type":"FeatureCollection","name":"Landslides","crs":{"type":"name","properties":{"name":"urn:ogc:def:crs:OGC:1.3:CRS84"}},"features":[
{"type":"Feature","properties":{"No.":1,"GN Division No.":762,"GN Division":"Karalliyadda","Landslides":"Sinking - Side wall of Aluthwela road near Karalliyadda Uposatharama temple","N":7.31194,"E":80.76014,"NBRO Recommendation N/A":"Needs NBRO concern","Proposed Measures":"1. Construction of a wall 25 m long and 3.0 m  high. 2. Construction of a Retaing wall 10 m long and 2 m  high)","photopath":"https://raw.githubusercontent.com/MWS003-GIS/MWS003-GIS.github.io/main/IWWRMP/Data/EXD/200_photo/MWS_092/IMG_20250225_093456 The embankment near the Karaliyada Uposatharamaya.jpg"},"geometry":{"type":"Point","coordinates":[80.76014,7.31194]}},
{"type":"Feature","properties":{"No.":2,"GN Division No.":763,"GN Division":"Kandegama","Landslides":"1. Landsliding - Kandegama and Siridigana village (a part) Mr N.M. Abeykoon","N":7.318111,"E":80.769884,"NBRO Recommendation N/A":"Needs NBRO concern","Proposed Measures":"Follow the recommendations of NBRO","photopath":"https://raw.githubusercontent.com/MWS003-GIS/MWS003-GIS.github.io/main/IWWRMP/Data/EXD/200_photo/MWS_092/IMG_20250401_124226 Mr N.M Abekoon earth slip land.jpg"},"geometry":{"type":"Point","coordinates":[80.769884,7.318111]}},
{"type":"Feature","properties":{"No.":3,"GN Division No.":763,"GN Division":"Kandegama","Landslides":"2. Landsliding - Mr N.M. Kapilarathna","N":7.317955,"E":80.76993,"NBRO Recommendation N/A":"Needs NBRO concern","Proposed Measures":"Follow the recommendations of NBRO","photopath":"https://raw.githubusercontent.com/MWS003-GIS/MWS003-GIS.github.io/main/IWWRMP/Data/EXD/200_photo/MWS_092/IMG_20250401_124810 Mr N.M Kapilarathna earth slip land.jpg"},"geometry":{"type":"Point","coordinates":[80.76993,7.317955]}},
{"type":"Feature","properties":{"No.":4,"GN Division No.":763,"GN Division":"Kandegama","Landslides":"3. Landsliding - Mrs. Seetha kumari","N":7.317806,"E":80.769855,"NBRO Recommendation N/A":"Needs NBRO concern","Proposed Measures":"Follow the recommendations of NBRO","photopath":"https://raw.githubusercontent.com/MWS003-GIS/MWS003-GIS.github.io/main/IWWRMP/Data/EXD/200_photo/MWS_092/IMG_20250401_124855 Mrs N.M Seethakumari earth slip land.jpg"},"geometry":{"type":"Point","coordinates":[80.769855,7.317806]}},
{"type":"Feature","properties":{"No.":5,"GN Division No.":763,"GN Division":"Kandegama","Landslides":"4. Landsliding - Mr N.M. Aberathna","N":7.317735,"E":80.769636,"NBRO Recommendation N/A":"Needs NBRO concern","Proposed Measures":"Follow the recommendations of NBRO","photopath":"https://raw.githubusercontent.com/MWS003-GIS/MWS003-GIS.github.io/main/IWWRMP/Data/EXD/200_photo/MWS_092/IMG_20250401_125358 Mr N.M Aberathna earth slip land.jpg"},"geometry":{"type":"Point","coordinates":[80.769636,7.317735]}},
{"type":"Feature","properties":{"No.":9,"GN Division No.":767,"GN Division":"Wellethota","Landslides":"1. Land embankments collapse - Kapumpahana - From Mr. Laxman's house to Mr. Wqeerasooriya's house.","N":7.29539,"E":80.77395,"NBRO Recommendation N/A":"Needs NBRO concern","Proposed Measures":"Follow the recommendations of NBRO","photopath":"https://raw.githubusercontent.com/MWS003-GIS/MWS003-GIS.github.io/main/IWWRMP/Data/EXD/200_photo/MWS_092/IMG_20250311_103550 Near the Kapumpana Lakshman House earth slip.jpg"},"geometry":{"type":"Point","coordinates":[80.77395,7.29539]}},
{"type":"Feature","properties":{"No.":10,"GN Division No.":767,"GN Division":"Wellethota","Landslides":"2. Landslide - Road near the Mr. A.M Abesinhe's house","N":7.30124,"E":80.77017,"NBRO Recommendation N/A":"Needs NBRO concern","Proposed Measures":"Follow the recommendations of NBRO","photopath":"https://raw.githubusercontent.com/MWS003-GIS/MWS003-GIS.github.io/main/IWWRMP/Data/EXD/200_photo/MWS_092/IMG_20250311_092809 Near the sena house road earth slip.jpg"},"geometry":{"type":"Point","coordinates":[80.77017,7.30124]}},
{"type":"Feature","properties":{"No.":11,"GN Division No.":768,"GN Division":"Rambukwella","Landslides":"Collapsing branches of the tree - Collapsing branches of the tree near the Mangalika Bakery","N":7.292155,"E":80.778157,"NBRO Recommendation N/A":"Needs NBRO concern","Proposed Measures":"The issue is sorted out.","photopath":"https://raw.githubusercontent.com/MWS003-GIS/MWS003-GIS.github.io/main/IWWRMP/Data/EXD/200_photo/MWS_092/IMG_20250410_110827Branches of the Mara tree near Mangalik Bakery fall.jpg"},"geometry":{"type":"Point","coordinates":[80.778157,7.292155]}},
{"type":"Feature","properties":{"No.":12,"GN Division No.":768,"GN Division":"Rambukwella","Landslides":"Sinking at the rainy days - Toilet pit's wall of Rambukwella Viharaya is sinking","N":7.293518,"E":80.775963,"NBRO Recommendation N/A":"Needs NBRO concern","Proposed Measures":"The toilet has been already built","photopath":"Not_Available"},"geometry":{"type":"Point","coordinates":[80.775963,7.293518]}},
{"type":"Feature","properties":{"No.":13,"GN Division No.":769,"GN Division":"Rambukwella East","Landslides":"1. Landslide - Siyambalagasthenna","N":7.285469,"E":80.782865,"NBRO Recommendation N/A":"NBRO is aware","Proposed Measures":"The house has been already removed","photopath":"https://raw.githubusercontent.com/MWS003-GIS/MWS003-GIS.github.io/main/IWWRMP/Data/EXD/200_photo/MWS_092/IMG_20250403_140132 Mrs vijitha mallika earth slip land.jpg"},"geometry":{"type":"Point","coordinates":[80.782865,7.285469]}},
{"type":"Feature","properties":{"No.":14,"GN Division No.":769,"GN Division":"Rambukwella East","Landslides":"2. Landslide - Siyambalagasthenna upper part","N":7.288383,"E":80.78179,"NBRO Recommendation N/A":"NBRO is aware","Proposed Measures":"Retaining wall should be built by R.D.A","photopath":"https://raw.githubusercontent.com/MWS003-GIS/MWS003-GIS.github.io/main/IWWRMP/Data/EXD/200_photo/MWS_092/IMG_20250403_123123 Mr R.M indika kumara land earth slip.jpg"},"geometry":{"type":"Point","coordinates":[80.78179,7.288383]}},
{"type":"Feature","properties":{"No.":15,"GN Division No.":769,"GN Division":"Rambukwella East","Landslides":"3. Landslide - Ekkassa","N":7.28893,"E":80.783537,"NBRO Recommendation N/A":"Needs NBRO concern","Proposed Measures":"Construction cannot be approved due to the steep slop of land .","photopath":"https://raw.githubusercontent.com/MWS003-GIS/MWS003-GIS.github.io/main/IWWRMP/Data/EXD/200_photo/MWS_092/IMG_20250403 _112313 Ekkessa earth slip.jpg"},"geometry":{"type":"Point","coordinates":[80.783537,7.28893]}},
{"type":"Feature","properties":{"No.":16,"GN Division No.":769,"GN Division":"Rambukwella East","Landslides":"4. Landslide - Pahurugolla","N":7.290337,"E":80.781411,"NBRO Recommendation N/A":"Needs NBRO concern","Proposed Measures":"Construction of a 25 m long and 3 m high retaing  wall","photopath":"https://raw.githubusercontent.com/MWS003-GIS/MWS003-GIS.github.io/main/IWWRMP/Data/EXD/200_photo/MWS_092/IMG_20250403_124328 Mr udara sampath land earth slip.jpg"},"geometry":{"type":"Point","coordinates":[80.781411,7.290337]}},
{"type":"Feature","properties":{"No.":17,"GN Division No.":769,"GN Division":"Rambukwella East","Landslides":"5. Bank collopsed on the road - Siyambalagasthenna","N":7.284167,"E":80.785874,"NBRO Recommendation N/A":"Needs NBRO concern","Proposed Measures":"Construction cannot be approved due to the steep slop of land","photopath":"https://raw.githubusercontent.com/MWS003-GIS/MWS003-GIS.github.io/main/IWWRMP/Data/EXD/200_photo/MWS_092/IMG_20250403_131655 Road drain system.jpg"},"geometry":{"type":"Point","coordinates":[80.785874,7.284167]}},
{"type":"Feature","properties":{"No.":18,"GN Division No.":769,"GN Division":"Rambukwella East","Landslides":"6. Landslide - Mr Y.M. Kiribanda's & Mr. D.A. Nihal Dasanayake's land","N":7.284476,"E":80.785627,"NBRO Recommendation N/A":"Needs NBRO concern","Proposed Measures":"Follow the recommendations of NBRO","photopath":"https://raw.githubusercontent.com/MWS003-GIS/MWS003-GIS.github.io/main/IWWRMP/Data/EXD/200_photo/MWS_092/IMG_20250403_140404 Mr Y.M Kiribanda land earth slip.jpg"},"geometry":{"type":"Point","coordinates":[80.785627,7.284476]}},
{"type":"Feature","properties":{"No.":19,"GN Division No.":769,"GN Division":"Rambukwella East","Landslides":"7. Bank collopsed on the road - Rambukwella East","N":7.29041,"E":80.781816,"NBRO Recommendation N/A":"Needs NBRO concern","Proposed Measures":"Follow the recommendations of NBRO","photopath":"https://raw.githubusercontent.com/MWS003-GIS/MWS003-GIS.github.io/main/IWWRMP/Data/EXD/200_photo/MWS_092/IMG_20250403_141554 Mr D.A Nihal Dasanayake land earth slip.jpg"},"geometry":{"type":"Point","coordinates":[80.781816,7.29041]}},
{"type":"Feature","properties":{"No.":20,"GN Division No.":772,"GN Division":"Ranmulla","Landslides":"1. Landsliding - Pahala Katakithula Galkanda","N":7.305053,"E":80.785003,"NBRO Recommendation N/A":"NBRO is aware","Proposed Measures":"Follow the recommendations of NBRO","photopath":"https://raw.githubusercontent.com/MWS003-GIS/MWS003-GIS.github.io/main/IWWRMP/Data/EXD/200_photo/MWS_092/IMG_20250402_132738 Mr Ajantha senarathna earth slip land.jpg"},"geometry":{"type":"Point","coordinates":[80.785003,7.305053]}},
{"type":"Feature","properties":{"No.":21,"GN Division No.":772,"GN Division":"Ranmulla","Landslides":"2. Landsliding - Mr. P.G. Shantha Kumara's land","N":7.305902,"E":80.779706,"NBRO Recommendation N/A":"NBRO is aware","Proposed Measures":"Follow the recommendations of NBRO","photopath":"https://raw.githubusercontent.com/MWS003-GIS/MWS003-GIS.github.io/main/IWWRMP/Data/EXD/200_photo/MWS_092/IMG_20250408_110214 P.G Shanthakumara Earth slip land.jpg"},"geometry":{"type":"Point","coordinates":[80.779706,7.305902]}},
{"type":"Feature","properties":{"No.":22,"GN Division No.":773,"GN Division":"Udispattuwa","Landslides":"Landsliding - Dodamgahapotawa","N":7.305113,"E":80.775573,"NBRO Recommendation N/A":"-","Proposed Measures":"Follow the recommendations of NBRO","photopath":"https://raw.githubusercontent.com/MWS003-GIS/MWS003-GIS.github.io/main/IWWRMP/Data/EXD/200_photo/MWS_092/IMG_20250327_092557 Earth slip land.jpg"},"geometry":{"type":"Point","coordinates":[80.775573,7.305113]}},
{"type":"Feature","properties":{"No.":23,"GN Division No.":775,"GN Division":"Pallebage","Landslides":"Landsliding - Udumulla","N":7.324121,"E":80.774013,"NBRO Recommendation N/A":"NBRO is aware","Proposed Measures":"Follow the recommendations of NBRO","photopath":"https://raw.githubusercontent.com/MWS003-GIS/MWS003-GIS.github.io/main/IWWRMP/Data/EXD/200_photo/MWS_092/IMG_20250409_120446 Earth slip land.jpg"},"geometry":{"type":"Point","coordinates":[80.774013,7.324121]}},
{"type":"Feature","properties":{"No.":25,"GN Division No.":777,"GN Division":"Embalagama","Landslides":"Landsliding - Galtobuthenna land","N":7.331314,"E":80.779297,"NBRO Recommendation N/A":"-","Proposed Measures":"Follow the recommendations of NBRO","photopath":"https://raw.githubusercontent.com/MWS003-GIS/MWS003-GIS.github.io/main/IWWRMP/Data/EXD/200_photo/MWS_092/IMG_20250409_091631 Mr R.G premalal earth slip land.jpg"},"geometry":{"type":"Point","coordinates":[80.779297,7.331314]}},
{"type":"Feature","properties":{"No.":30,"GN Division No.":785,"GN Division":"Maharawela","Landslides":"Landsliding - Narangolla Katakithula road","N":7.310077,"E":80.78861,"NBRO Recommendation N/A":"Needs NBRO concern","Proposed Measures":"Construction of a retaining wall 22 m long and 3 m high","photopath":"https://raw.githubusercontent.com/MWS003-GIS/MWS003-GIS.github.io/main/IWWRMP/Data/EXD/200_photo/MWS_092/IMG_20250312_093123Narangolla -Katukithula Road.jpg"},"geometry":{"type":"Point","coordinates":[80.78861,7.310077]}},
{"type":"Feature","properties":{"No.":31,"GN Division No.":786,"GN Division":"Nilgala","Landslides":"Bank collapsing near the houses - Mr. W.M.K.G. Mahinda Wijekoon","N":7.314482,"E":80.793333,"NBRO Recommendation N/A":"Needs NBRO concern","Proposed Measures":"Follow the recommendations of NBRO","photopath":"https://raw.githubusercontent.com/MWS003-GIS/MWS003-GIS.github.io/main/IWWRMP/Data/EXD/200_photo/MWS_092/IMG_20250326_115711 W.M.K.G Mahinda Wijekoon land earth slip.jpg"},"geometry":{"type":"Point","coordinates":[80.793333,7.314482]}},
{"type":"Feature","properties":{"No.":32,"GN Division No.":786,"GN Division":"Nilgala","Landslides":"Bank collapsing near the houses - Mr. W.M.K.G. Lokubanda","N":7.314457,"E":80.793573,"NBRO Recommendation N/A":"Needs NBRO concern","Proposed Measures":"Follow the recommendations of NBRO","photopath":"https://raw.githubusercontent.com/MWS003-GIS/MWS003-GIS.github.io/main/IWWRMP/Data/EXD/200_photo/MWS_092/IMG_20250326_120717 W.M.K.G Lokubanda land earth slip.jpg"},"geometry":{"type":"Point","coordinates":[80.793573,7.314457]}},
{"type":"Feature","properties":{"No.":33,"GN Division No.":786,"GN Division":"Nilgala","Landslides":"Bank collapsing near the houses - Mr. Indika","N":7.319469,"E":80.790487,"NBRO Recommendation N/A":"Needs NBRO concern","Proposed Measures":"Follow the recommendations of NBRO","photopath":"https://raw.githubusercontent.com/MWS003-GIS/MWS003-GIS.github.io/main/IWWRMP/Data/EXD/200_photo/MWS_092/IMG_20250326_111841 R.M Indika Nuwantha land earth slip.jpg"},"geometry":{"type":"Point","coordinates":[80.790487,7.319469]}},
{"type":"Feature","properties":{"No.":34,"GN Division No.":786,"GN Division":"Nilgala","Landslides":"Bank collapsing near the houses - Mahakumbura village area (Mr. Y.M. Senevirathna Banda)","N":7.318448,"E":80.79106,"NBRO Recommendation N/A":"Needs NBRO concern","Proposed Measures":"Construction of a 5 m long and 3 m high retaning  wall","photopath":"https://raw.githubusercontent.com/MWS003-GIS/MWS003-GIS.github.io/main/IWWRMP/Data/EXD/200_photo/MWS_092/IMG_20250326_092548 Y.M Senevirathna Banda land earth slip.jpg"},"geometry":{"type":"Point","coordinates":[80.79106,7.318448]}}
]}