{"type":"FeatureCollection","name":"WP","crs":{"type":"name","properties":{"name":"urn:ogc:def:crs:OGC:1.3:CRS84"}},"features":[
{"type":"Feature","properties":{"No.":1,"GND No.":762,"GN Division":"Karalliyadda","Non-point sources of pollution":"Informal disposal of houshold wastes/garbage","N":7.3123706,"E":80.7557149,"Point sources of pollution":"-","Add. N ":"-","Add. E ":"-","Recommended water quality improvement measures":"Preparing a separate place in homegardens for disposing houshold waste,Awareness programme on how to disposal household waste properly and converting them to usable products such as compost,Facilitating garbage collection","Unit Cost (Rs.)":"-","Total Cost (Rs.)":"50,000.00","Contributions (Local Community, LA, Project)":"Local/Central governments","Time frame for the implementation":"0.5 Years","photopath":"Not_Available"},"geometry":{"type":"Point","coordinates":[80.7557149,7.3123706]}},
{"type":"Feature","properties":{"No.":3,"GND No.":764,"GN Division":"Vilamuna","Non-point sources of pollution":"Informal disposal of houshold wastes/garbage","N":7.3065725,"E":80.7625649,"Point sources of pollution":"-","Add. N ":"-","Add. E ":"-","Recommended water quality improvement measures":"Preparing a separate place in homegardens for disposing houshold waste,Awareness programme on how to disposal household waste properly and converting them to usable products such as compost,Facilitating garbage collection","Unit Cost (Rs.)":"-","Total Cost (Rs.)":"50,000.00","Contributions (Local Community, LA, Project)":"Local/Central governments","Time frame for the implementation":"0.5 Years","photopath":"Not_Available"},"geometry":{"type":"Point","coordinates":[80.7625649,7.3065725]}},
{"type":"Feature","properties":{"No.":6,"GND No.":767,"GN Division":"Wellethota","Non-point sources of pollution":"Potential to add human waste - Kapumpana","N":7.2987234,"E":80.7693736,"Point sources of pollution":"-","Add. N ":"-","Add. E ":"-","Recommended water quality improvement measures":"-","Unit Cost (Rs.)":"-","Total Cost (Rs.)":"-","Contributions (Local Community, LA, Project)":"-","Time frame for the implementation":"-","photopath":"Not_Available"},"geometry":{"type":"Point","coordinates":[80.7693736,7.2987234]}},
{"type":"Feature","properties":{"No.":7,"GND No.":767,"GN Division":"Wellethota","Non-point sources of pollution":"Informal disposal of houshold wastes/garbage","N":7.2987234,"E":80.7693736,"Point sources of pollution":"-","Add. N ":"-","Add. E ":"-","Recommended water quality improvement measures":"Preparing a separate place in homegardens for disposing houshold waste,Awareness programme on how to disposal household waste properly and converting them to usable products such as compost,Facilitating garbage collection","Unit Cost (Rs.)":"-","Total Cost (Rs.)":"50,000.00","Contributions (Local Community, LA, Project)":"Local/Central governments","Time frame for the implementation":"0.5 Years","photopath":"Not_Available"},"geometry":{"type":"Point","coordinates":[80.7693736,7.2987234]}},
{"type":"Feature","properties":{"No.":8,"GND No.":768,"GN Division":"Rambukwella","Non-point sources of pollution":"Informal disposal of houshold wastes/garbage","N":7.2907539,"E":80.7782174,"Point sources of pollution":"-","Add. N ":"-","Add. E ":"-","Recommended water quality improvement measures":"Preparing a separate place in homegardens for disposing houshold waste,Awareness programme on how to disposal household waste properly and converting them to usable products such as compost,Facilitating garbage collection","Unit Cost (Rs.)":"-","Total Cost (Rs.)":"50,000.00","Contributions (Local Community, LA, Project)":"Local/Central governments","Time frame for the implementation":"0.5 Years","photopath":"Not_Available"},"geometry":{"type":"Point","coordinates":[80.7782174,7.2907539]}},
{"type":"Feature","properties":{"No.":9,"GND No.":769,"GN Division":"Rambukwella East","Non-point sources of pollution":"Potential to add human waste - Pahurugolla","N":7.2888726,"E":80.7831277,"Point sources of pollution":"-","Add. N ":"-","Add. E ":"-","Recommended water quality improvement measures":"-","Unit Cost (Rs.)":"-","Total Cost (Rs.)":"-","Contributions (Local Community, LA, Project)":"-","Time frame for the implementation":"-","photopath":"https://raw.githubusercontent.com/MWS003-GIS/MWS003-GIS.github.io/main/IWWRMP/Data/EXD/200_photo/MWS_092/IMG_20250403_143933 Littering near the Victoria River.jpg"},"geometry":{"type":"Point","coordinates":[80.7831277,7.2888726]}},
{"type":"Feature","properties":{"No.":10,"GND No.":769,"GN Division":"Rambukwella East","Non-point sources of pollution":"Informal disposal of houshold wastes/garbage","N":7.2888726,"E":80.7831277,"Point sources of pollution":"-","Add. N ":"-","Add. E ":"-","Recommended water quality improvement measures":"Preparing a separate place in homegardens for disposing houshold waste,Awareness programme on how to disposal household waste properly and converting them to usable products such as compost,Facilitating garbage collection","Unit Cost (Rs.)":"-","Total Cost (Rs.)":"50,000.00","Contributions (Local Community, LA, Project)":"Local/Central governments","Time frame for the implementation":"0.5 Years","photopath":"Not_Available"},"geometry":{"type":"Point","coordinates":[80.7831277,7.2888726]}},
{"type":"Feature","properties":{"No.":14,"GND No.":776,"GN Division":"Gabbela","Non-point sources of pollution":"Potential to add human waste - 776 Gabbela Mandandawela Division Gabbela","N":7.3210988,"E":80.7799402,"Point sources of pollution":"-","Add. N ":"-","Add. E ":"-","Recommended water quality improvement measures":"-","Unit Cost (Rs.)":"-","Total Cost (Rs.)":"-","Contributions (Local Community, LA, Project)":"-","Time frame for the implementation":"-","photopath":"Not_Available"},"geometry":{"type":"Point","coordinates":[80.7799402,7.3210988]}},
{"type":"Feature","properties":{"No.":17,"GND No.":782,"GN Division":"Makuldeniya","Non-point sources of pollution":"Potential to add human waste - Makuldeniya GND (there are 10 families in line houses without toilets, and 17 families use public toilets)","N":7.3422538,"E":80.7800292,"Point sources of pollution":"-","Add. N ":"-","Add. E ":"-","Recommended water quality improvement measures":"-","Unit Cost (Rs.)":"-","Total Cost (Rs.)":"-","Contributions (Local Community, LA, Project)":"-","Time frame for the implementation":"-","photopath":"Not_Available"},"geometry":{"type":"Point","coordinates":[80.7800292,7.3422538]}}
]}