{"type":"FeatureCollection","name":"MI","crs":{"type":"name","properties":{"name":"urn:ogc:def:crs:OGC:1.3:CRS84"}},"features":[
{"type":"Feature","properties":{"No":23,"GND No.":504,"Scheme":"Yammaradda canal","N":7.38439,"E":80.5571032,"Observation":"canal bunds are damaged because of that, paddy lands are flooded. have 10 acres of paddy lands","Description":"Construction of  concrete wall for 300m, the height is 8' - 0\" Yammaradda canal\nSite preparation and setting out\nEarth excavation for foundation or quarry materials and haul the surplus materials upto 30m by manually for 300m long\nPlywood Formwork inclu","Amount (Rs.)":22051000.0,"photopath":"https://raw.githubusercontent.com/MWS003-GIS/MWS003-GIS.github.io/main/IWWRMP/Data/EXD/200_photo/MWS_111/yatimaradda canal (1).jpg"},"geometry":{"type":"Point","coordinates":[80.5571032,7.38439]}},
{"type":"Feature","properties":{"No":24,"GND No.":504,"Scheme":"Darada canal","N":7.384955,"E":80.55655,"Observation":"Both canal banks are eroded. need to construct.","Description":"Construction of  concrete wall for 100m, the height is 8' - 0\"  Darada canal\nSite preparation and setting out\nEarth excavation for foundation or quarry materials and haul the surplus materials upto 30m by manually for 300m long\nPlywood Formwork includin","Amount (Rs.)":7350000.0,"photopath":"https://raw.githubusercontent.com/MWS003-GIS/MWS003-GIS.github.io/main/IWWRMP/Data/EXD/200_photo/MWS_111/dadara canal (1).jpg"},"geometry":{"type":"Point","coordinates":[80.55655,7.384955]}},
{"type":"Feature","properties":{"No":25,"GND No.":511,"Scheme":"Canal of Aluheha paddy fields","N":7.368217,"E":80.577613,"Observation":"canal bunds are eroded, 5 acres of paddy lands.","Description":"Construction of  side wall for 400m ( height 1.0m ) and planting trees on both canal banks. Canal of Aluheha paddy fields \nSite preparation and setting out\nEarth excavation for foundation or quarry materials and haul the surplus materials upto 30m by ma","Amount (Rs.)":9362000.0,"photopath":"https://raw.githubusercontent.com/MWS003-GIS/MWS003-GIS.github.io/main/IWWRMP/Data/EXD/200_photo/MWS_111/awelyaya canal (1).jpg"},"geometry":{"type":"Point","coordinates":[80.577613,7.368217]}},
{"type":"Feature","properties":{"No":26,"GND No.":511,"Scheme":"Canal of Mahawelyaya","N":7.367583,"E":80.578168,"Observation":"Canal bunds are eroded, 10 acres of paddy lands.","Description":"Construction of  concerate canal for 500m.( 1.5 feet*1.5feet) Canal of Mahawelyaya \nSite preparation and setting out\nPlywood formwork ( smooth finished ) for structure including making , fixing and removing for structure for each of 5 uses including fix","Amount (Rs.)":8025000.002999999,"photopath":"https://raw.githubusercontent.com/MWS003-GIS/MWS003-GIS.github.io/main/IWWRMP/Data/EXD/200_photo/MWS_111/alupothakuburuyaya canal (2).jpg"},"geometry":{"type":"Point","coordinates":[80.578168,7.367583]}},
{"type":"Feature","properties":{"No":27,"GND No.":512,"Scheme":"Canal bank of Hathiyalwatta","N":7.376086,"E":80.583847,"Observation":"The canal was permentaly close due to the silt accumulation. 3 acres of paddy lands.","Description":"Construct Concrete canal for 1km(1.5 feet) Canal bank of Hathiyalwatta\nSite preparation and setting out\nPlywood formwork ( smooth finished ) for structure including making , fixing and removing for structure for each of 5 uses including fixing and removi","Amount (Rs.)":16038000.0,"photopath":"https://raw.githubusercontent.com/MWS003-GIS/MWS003-GIS.github.io/main/IWWRMP/Data/EXD/200_photo/MWS_111/hathiyawaththa canal (1).jpg"},"geometry":{"type":"Point","coordinates":[80.583847,7.376086]}},
{"type":"Feature","properties":{"No":28,"GND No.":529,"Scheme":"Dehiwatta Narangahawela anicut","N":7.453949,"E":80.571304,"Observation":"Anicut has no sluice gates. Due lack of side walls water flows towards paddyfields.","Description":"Construction of 4'-0\"  concrete wall for 200 feet long  ( 60 m ) Bank of Thotupala Kumbura canal \nSite preparation and setting out \nEarth excavation for foundation or quarry materials and haul the surplus materials upto 30m by manually for 300m long\nPly","Amount (Rs.)":2098000.0,"photopath":"https://raw.githubusercontent.com/MWS003-GIS/MWS003-GIS.github.io/main/IWWRMP/Data/EXD/200_photo/MWS_111/Dehiwatta Narangahawela anicut.JPG"},"geometry":{"type":"Point","coordinates":[80.571304,7.453949]}},
{"type":"Feature","properties":{"No":29,"GND No.":512,"Scheme":"Alpatha Anga canal bank","N":7.372836,"E":80.581512,"Observation":"no proper draingae systems.","Description":"Construction of drainage for 400m  ( 2'-0\" x 2'-0\" ) Alpatha Anga canal bank \nSite preparation and setting out\nPlywood Formwork including making , fixing and removing for structure for each of 5 uses including fixing and removing same once\nCutting , ben","Amount (Rs.)":9217000.0,"photopath":"https://raw.githubusercontent.com/MWS003-GIS/MWS003-GIS.github.io/main/IWWRMP/Data/EXD/200_photo/MWS_111/thotupalakubura canal (1).jpg"},"geometry":{"type":"Point","coordinates":[80.581512,7.372836]}},
{"type":"Feature","properties":{"No":30,"GND No.":512,"Scheme":"Pujapitiya Nilkoho canal","N":7.372835,"E":80.581515,"Observation":"3 acres of paddy land,  no proper drainage systems.","Description":"Construction of drainage for 1000m  ( 2'-0\" x 2'-0\" ) Pujapitiya Nilkoho canal  \nSite preparation and setting out\nPlywood Formwork including making , fixing and removing for structure for each of 5 uses including fixing and removing same once\nCutting ,","Amount (Rs.)":22999000.0,"photopath":"https://raw.githubusercontent.com/MWS003-GIS/MWS003-GIS.github.io/main/IWWRMP/Data/EXD/200_photo/MWS_111/pujapitiya canal (1).jpg"},"geometry":{"type":"Point","coordinates":[80.581515,7.372835]}},
{"type":"Feature","properties":{"No":31,"GND No.":519,"Scheme":"Hatanassa canal","N":7.397647,"E":80.581514,"Observation":"highly erroded due to disaster.water flow through paddy field .4 ac of land is cultivated","Description":"Construction of 3'-0\" width 2' - 0\" height canal for 400m Hatanassa canal\nSite preparation and setting out\nPlywood Formwork including making , fixing and removing for structure for each of 5 uses including fixing and removing same once\nCutting , bending","Amount (Rs.)":9740000.0,"photopath":"Not_Available"},"geometry":{"type":"Point","coordinates":[80.581514,7.397647]}},
{"type":"Feature","properties":{"No":32,"GND No.":556,"Scheme":"Deniya paddy field - agri road","N":7.354546,"E":80.599584,"Observation":"15 acres of paddy field,  the canal was damaged heavily.","Description":"Construction of canal for 100m (1.5' x 1.5 ) Deniya paddy field - agri road\nSite preparation and setting out\nPlywood Formwork including making , fixing and removing for structure for each of 5 uses including fixing and removing same once\nCutting , bendi","Amount (Rs.)":1630000.0,"photopath":"https://raw.githubusercontent.com/MWS003-GIS/MWS003-GIS.github.io/main/IWWRMP/Data/EXD/200_photo/MWS_111/deniya wel yaya canal (1).jpg"},"geometry":{"type":"Point","coordinates":[80.599584,7.354546]}},
{"type":"Feature","properties":{"No":33,"GND No.":556,"Scheme":"Ellena paddy field - agri road","N":7.354546,"E":80.59958,"Observation":"10 acres of paddy land, no water for paddy fields.","Description":"Construction of  a Rubble wall for 1km and planting trees. Ellena paddy field - agri road\nSite preparation and setting out\nEarth excavation in foundation for foundation trenches ( 0.70mx0.70m x0.85m)\n1:3:6 ( 40 mm ) cement concrete with concrete mixer (","Amount (Rs.)":1411000.0,"photopath":"https://raw.githubusercontent.com/MWS003-GIS/MWS003-GIS.github.io/main/IWWRMP/Data/EXD/200_photo/MWS_111/allana welyaya road (1).jpg"},"geometry":{"type":"Point","coordinates":[80.59958,7.354546]}},
{"type":"Feature","properties":{"No":34,"GND No.":556,"Scheme":"Ellena paddy field - canal bunds","N":7.354607,"E":80.599583,"Observation":"20 acres of paddy land. No acceptable road for paddy fields.","Description":"Construction of the road for 300m  Ellena paddy field - canal bunds\nSite preparation and setting out\nStripping top soil to the thickness of 0.15m to forming the road\nBorrow earth from borrow areas and construction the road upto 0.30m height and the widt","Amount (Rs.)":426000.0,"photopath":"https://raw.githubusercontent.com/MWS003-GIS/MWS003-GIS.github.io/main/IWWRMP/Data/EXD/200_photo/MWS_111/allana welyaya road (2).jpg"},"geometry":{"type":"Point","coordinates":[80.599583,7.354607]}}
]}