{"type":"FeatureCollection","name":"SWC_ON","crs":{"type":"name","properties":{"name":"urn:ogc:def:crs:OGC:1.3:CRS84"}},"features":[
{"type":"Feature","properties":{"No.":4,"GND No.":511,"GND Name":"Madadeniya","Key Activities proposed for Soil and Water conservation":"1. Soil conservation practices -  Madadeniya Kanishta Vidyalaya  (45°-55°)","Priority based on Soil Erosion Hazard":3,"N":7.370269,"E":80.5779,"Quantity":"1 ha","Proposed measure/s":"1. Establishing SALT  - 500 m\n2. Lock and spills - 250 m\n3. Stone terracing - 250 m\n4. Agronomic practices should be adapted at optimum level (conservation tillage, crop rotation and diversification, cover crops, mulching, contour farming, windbreaks and","Uniti_Cost":"250.00 m-1\n400.00 m-1\n2500.00 m-1","Total_Cost":850000,"Contribution (Local Community, LA, and the project)":"Labour and other basic services by the Local community","Time frame for the implementation":"0.25 Years","photopath":"Not_Available"},"geometry":{"type":"Point","coordinates":[80.5779,7.370269]}},
{"type":"Feature","properties":{"No.":5,"GND No.":519,"GND Name":"Dolapihilla South","Key Activities proposed for Soil and Water conservation":"1. Soil conservation practices - Near Galgana Rajamaha Viharaya (45°-70°)","Priority based on Soil Erosion Hazard":3,"N":7.392179,"E":80.580331,"Quantity":"1 ha","Proposed measure/s":"1. Live fencing/SALT  - 500 m\n2. Lock and spills - 250 m\n3. Stone terracing - 250 m\n4. Agronomic practices should be adapted at optimum level (conservation tillage, crop rotation and diversification, cover crops, mulching, contour farming, windbreaks and","Uniti_Cost":"250.00 m-1\n400.00 m-1\n2500.00 m-1","Total_Cost":850000,"Contribution (Local Community, LA, and the project)":"Labour and other basic services by the Local community","Time frame for the implementation":"0.25 Years","photopath":"Not_Available"},"geometry":{"type":"Point","coordinates":[80.580331,7.392179]}},
{"type":"Feature","properties":{"No.":6,"GND No.":519,"GND Name":"Dolapihilla South","Key Activities proposed for Soil and Water conservation":"3. Soil conservation practices - Dolapihilla Maha Vidyalaya (45°-65°)","Priority based on Soil Erosion Hazard":1,"N":7.390958,"E":80.578956,"Quantity":"1 ha","Proposed measure/s":"1. Live fencing/SALT  - 500 m\n2. Lock and spills - 250 m\n3. Stone terracing - 250 m\n4. Agronomic practices should be adapted at optimum level (conservation tillage, crop rotation and diversification, cover crops, mulching, contour farming, windbreaks and","Uniti_Cost":"250.00 m-1\n400.00 m-1\n2500.00 m-1","Total_Cost":850000,"Contribution (Local Community, LA, and the project)":"Labour and other basic services by the Local community","Time frame for the implementation":"0.25 Years","photopath":"Not_Available"},"geometry":{"type":"Point","coordinates":[80.578956,7.390958]}}
]}