{"type":"FeatureCollection","name":"SR","crs":{"type":"name","properties":{"name":"urn:ogc:def:crs:OGC:1.3:CRS84"}},"features":[
{"type":"Feature","properties":{"No":1,"GND No.":623,"Scheme":"Gorakagaha Ela","N":7.371182,"E":80.645698,"Observation":"3 acres of paddy lands; both canal banks are damaged.","Description":"Construction of Random Rubble Masonry Wall\n\nPlantation of trees\n\nContingencies (10%)","Amount (Rs.)":132000,"photopath":"https://raw.githubusercontent.com/MWS003-GIS/MWS003-GIS.github.io/main/IWWRMP/Data/EXD/200_photo/MWS_108_1/gorakagaha canal.jpg"},"geometry":{"type":"Point","coordinates":[80.645698,7.371182]}}
]}