{
"type": "FeatureCollection",
"name": "SWC_ON",
"crs": { "type": "name", "properties": { "name": "urn:ogc:def:crs:OGC:1.3:CRS84" } },
"features": [
{ "type": "Feature", "properties": { "No.": 3, "GND No.": 624, "GND Name": "Mahakumbura", "Key Activities proposed for Soil and Water conservation": "2. Soil conservation practices - Paranagama Madya Maha Vidyalaya (35°-55°)", "Priority based on Soil Erosion Hazard": 2, "N": 7.36103, "E": 80.639108, "Quantity": "1 ha", "Proposed measure/s": "1. Establishing SALT  - 500 m\n2. Lock and spills - 250 m\n3. Stone terracing - 250 m\n4. Agronomic practices should be adapted at optimum level (conservation tillage, crop rotation and diversification, cover crops, mulching, contour farming, windbreaks and", "Uniti_Cost": "250.00 m-1\n400.00 m-1\n2500.00 m-1", "Total_Cost": 2675000, "Contribution (Local Community, LA, and the project)": "Labour and other basic services by the Local community", "Time frame for the implementation": "0.25 Years", "photopath": "https://raw.githubusercontent.com/MWS003-GIS/MWS003-GIS.github.io/main/IWWRMP/Data/EXD/200_photo/MWS_108_1/hele wanguwa soil conservation (4).jpg" }, "geometry": { "type": "Point", "coordinates": [ 80.639108, 7.36103 ] } }
]
}
