{"type":"FeatureCollection","name":"MI","crs":{"type":"name","properties":{"name":"urn:ogc:def:crs:OGC:1.3:CRS84"}},"features":[
{"type":"Feature","properties":{"No":"1","GND No.":"499G","Scheme":"Goma Diya Pokuna Ela ","N":7.116574,"E":80.745321,"Observation":"-","Description":"Conveyance efficiency is low. (16-acre vegetable) Recommend to construct100mm(thick) x 300mmx300mmx200m(long)concrete canal lining for the initial stretch.","Amount (Rs.)":"1,328,500","photopath":"https://raw.githubusercontent.com/MWS003-GIS/MWS003-GIS.github.io/main/IWWRMP/Data/EXD/200_photo/MWS_010/KT5.jpg"},"geometry":{"type":"Point","coordinates":[80.745321,7.116574]}},
{"type":"Feature","properties":{"No":"2","GND No.":"501E","Scheme":"Pattiya Arawa canal","N":7.120397,"E":80.768086,"Observation":"-","Description":"Leaks from the concrete lined canal of 1.5km long and irrigating 95 acres. Recommend 75 mm thick curtainwall using grade 25 concrete with grooved cut and fill anchoring at 2m intervals. 2. Earth filling to narrow tracks and depressions to form channel bund of 1.5m wide and length about 300 m. 2. Protection by cover crops by cultivating edible varieties such as Mukunuwenna, Gotukola, and Thampala along the incline surface and vetiver grass edges.","Amount (Rs.)":"2,597,400","photopath":"Not_Available"},"geometry":{"type":"Point","coordinates":[80.768086,7.120397]}},
{"type":"Feature","properties":{"No":"3","GND No.":"501E","Scheme":"Panwala canal","N":7.124612,"E":80.766816,"Observation":"-","Description":"Leaks from the concrete lined canal of 150km long and irrigating 10 acres. Recommend 75 mm thick curtainwall using grade 25 concrete with grooved cut and fill anchoring at 2m intervals. ","Amount (Rs.)":"300,375","photopath":"Not_Available"},"geometry":{"type":"Point","coordinates":[80.766816,7.124612]}},
{"type":"Feature","properties":{"No":"4","GND No.":"501E","Scheme":"Panwatta canal","N":7.125882,"E":80.766566,"Observation":"-","Description":"Leaks from the concrete lined canal of 400m long and irrigating 10 acres. Recommend 75 mm thick curtainwall x 300m long using grade 25 concrete with grooved cut and fill anchoring at 2m intervals. 2. Earth filling to narrow tracks and depressions to form channel bund of 1.5m wide and length about 100 m. 2. Protection by cover crops by cultivating edible varieties such as Mukunuwenna, Gotukola, and Thampala along the incline surface and vetiver grass edges.","Amount (Rs.)":"636,300","photopath":"Not_Available"},"geometry":{"type":"Point","coordinates":[80.766566,7.125882]}}
]}