{
"type": "FeatureCollection",
"name": "DWS",
"crs": { "type": "name", "properties": { "name": "urn:ogc:def:crs:OGC:1.3:CRS84" } },
"features": [
{"type":"Feature","properties":{"No":1,"GND No.":1025,"Scheme":"Unuvinna west Ahas pokuna well","N":7.20056,"E":80.75595,"Observation":"-","Description":"Contamination and unprotected reservation. Recommend 50 sqm reservation with vegetative growth mixed with riparian plant species and peripheral Agave plant line as a barrier.","Estimated Cost":"33,700","photopath":"https://raw.githubusercontent.com/MWS003-GIS/MWS003-GIS.github.io/main/IWWRMP/Data/EXD/200_photo/MWS_008_1/Unuwinna_West/UB(01)1.jpg"},"geometry":{"type":"Point","coordinates":[80.75595,7.20056]}},
{"type":"Feature","properties":{"No":2,"GND No.":1025,"Scheme":"Unuvinna west\nGurubedda well","N":7.203,"E":80.75552,"Observation":"-","Description":"Contamination and unprotected reservation. Recommend 50 sqm reservation with vegetative growth mixed with riparian plant species and peripheral Agave plant line as a barrier.","Estimated Cost":"33,700","photopath":"https://raw.githubusercontent.com/MWS003-GIS/MWS003-GIS.github.io/main/IWWRMP/Data/EXD/200_photo/MWS_008_1/Unuwinna_West/UB(01)2.jpg"},"geometry":{"type":"Point","coordinates":[80.75552,7.203]}},
{"type":"Feature","properties":{"No":3,"GND No.":1003,"Scheme":"Millapokuna well","N":7.21449,"E":80.75912,"Observation":"-","Description":"No pump and storage tank. recommend providing a 1. 5000 L PVC overhead tank, steel structure, pump, and 500m long 50mm Dia delivery pipe system for 15 families. 2. Awareness and establishing maintenance mechanisms for sustainable use.","Estimated Cost":"450,000","photopath":"https://raw.githubusercontent.com/MWS003-GIS/MWS003-GIS.github.io/main/IWWRMP/Data/EXD/200_photo/MWS_008_1/Udamailapitiya_South/MS8.jpg"},"geometry":{"type":"Point","coordinates":[80.75912,7.21449]}},
{"type":"Feature","properties":{"No":4,"GND No.":1003,"Scheme":"Uda Mailapitiya storage tank community water supply scheme","N":7.21815,"E":80.76553,"Observation":"-","Description":"No reservation /No protection for springs. Recommend demarcating 250 Sq.m area and with dense natural vegetative growth mixed with riparian plant species and peripheral Agave (Hana) plant line as a barrier.","Estimated Cost":"200,000","photopath":"https://raw.githubusercontent.com/MWS003-GIS/MWS003-GIS.github.io/main/IWWRMP/Data/EXD/200_photo/MWS_008_1/Udamailapitiya_South/MS18.jpg"},"geometry":{"type":"Point","coordinates":[80.76553,7.21815]}},
{"type":"Feature","properties":{"No":5,"GND No.":1005,"Scheme":"Akkara Paha public well","N":7.237326,"E":80.756742,"Observation":"-","Description":"Dilapidated condition of protective wall and pavement slab / Recommend demolishing and re construct 4m Dia X1m high concrete wall, 5m outer diameter x150mm thick concrete pavement","Estimated Cost":"210,000","photopath":"https://raw.githubusercontent.com/MWS003-GIS/MWS003-GIS.github.io/main/IWWRMP/Data/EXD/200_photo/MWS_008_1/Pathamayilapitiya_North/PAMI_NW1.jpg"},"geometry":{"type":"Point","coordinates":[80.756742,7.237326]}}
]
}
