{
"type": "FeatureCollection",
"name": "SR",
"crs": { "type": "name", "properties": { "name": "urn:ogc:def:crs:OGC:1.3:CRS84" } },
"features": [
{"type":"Feature","properties":{"No":1,"GND No.":1021,"Scheme":"Kahambiliyawa stream 1","N":7.18858,"E":80.75758,"Observation":"-","Description":"Erosion on both sides along an 800m distance. Recommend a 200m long leader drain and contour canals. Then, areca nut mixed with vetiver planting for a 300m distance.","Amount (Rs.)":"450,000","photopath":"https://raw.githubusercontent.com/MWS003-GIS/MWS003-GIS.github.io/main/IWWRMP/Data/EXD/200_photo/MWS_008_1/Kahambiliyawa/KH5.jpg"},"geometry":{"type":"Point","coordinates":[80.75758,7.18858]}},
{"type":"Feature","properties":{"No":2,"GND No.":1021,"Scheme":"Kahambiliyawa stream 2","N":7.1887,"E":80.75759,"Observation":"-","Description":"Erosion in both sides along 700m distance and falling rocks during rains. Recommend 200m long leader drains and 300m contour canals. Then areca nut mixed vetiver planting for 200m distance.","Amount (Rs.)":"530,000","photopath":"https://raw.githubusercontent.com/MWS003-GIS/MWS003-GIS.github.io/main/IWWRMP/Data/EXD/200_photo/MWS_008_1/Kahambiliyawa/KH6.jpg"},"geometry":{"type":"Point","coordinates":[80.75759,7.1887]}},
{"type":"Feature","properties":{"No":3,"GND No.":1025,"Scheme":"Hunukotu Wala Stream","N":7.19025,"E":80.76207,"Observation":"-","Description":"Erosion in both sides along about 1800m distance. Recommend 200m long leader drain. Then areca nut mixed vetiver planting for 300m distance.","Amount (Rs.)":"450,000","photopath":"https://raw.githubusercontent.com/MWS003-GIS/MWS003-GIS.github.io/main/IWWRMP/Data/EXD/200_photo/MWS_008_1/Unuwinna_West/UB(02)1.jpg"},"geometry":{"type":"Point","coordinates":[80.76207,7.19025]}},
{"type":"Feature","properties":{"No":4,"GND No.":1024,"Scheme":"Stream near the powerhouse","N":7.2087,"E":80.7671,"Observation":"-","Description":"Magaha-Ma Oya Erosion in both sides about 1km distance. Recommend 200m long leader drain and Then areca nut +betel creeper mixed vetiver planting for 700m distance.","Amount (Rs.)":"564,500","photopath":"https://raw.githubusercontent.com/MWS003-GIS/MWS003-GIS.github.io/main/IWWRMP/Data/EXD/200_photo/MWS_008_1/Unuwinna_East/UN(02)1.jpg"},"geometry":{"type":"Point","coordinates":[80.7671,7.2087]}},
{"type":"Feature","properties":{"No":5,"GND No.":1024,"Scheme":"Aswedduma Stream","N":7.20713,"E":80.76833,"Observation":"-","Description":"Erosion in both sides along 1km. distance. Recommend 100m long leader drain and contour canals. Then areca nut +betel creeper mixed vetiver planting for 800m distance.","Amount (Rs.)":"388,000","photopath":"https://raw.githubusercontent.com/MWS003-GIS/MWS003-GIS.github.io/main/IWWRMP/Data/EXD/200_photo/MWS_008_1/Unuwinna_East/UN(02)2.jpg"},"geometry":{"type":"Point","coordinates":[80.76833,7.20713]}},
{"type":"Feature","properties":{"No":6,"GND No.":1020,"Scheme":"Stream near Neelawala Kovil","N":7.18749,"E":80.74162,"Observation":"-","Description":"Erosion of both sides of the stream over 1.2 km. Recommend dense natural forestation mixed with Areca nut and Vetiver grass plantation of 800m length.","Amount (Rs.)":"583,200","photopath":"Not_Available"},"geometry":{"type":"Point","coordinates":[80.74162,7.18749]}},
{"type":"Feature","properties":{"No":7,"GND No.":1020,"Scheme":"Pihathala stream 1","N":7.18753,"E":80.74105,"Observation":"-","Description":"Erosion of both sides of the stream about 1.0 km. Recommend dense natural forestation mixed with Areca nut and Vetiver grass plantation of 600m length.","Amount (Rs.)":"468,400","photopath":"https://raw.githubusercontent.com/MWS003-GIS/MWS003-GIS.github.io/main/IWWRMP/Data/EXD/200_photo/MWS_008_1/Neelawala/NWL0202.jpg"},"geometry":{"type":"Point","coordinates":[80.74105,7.18753]}},
{"type":"Feature","properties":{"No":8,"GND No.":1020,"Scheme":"Pihathala stream 2","N":7.189599,"E":80.73945,"Observation":"-","Description":"Erosion of both sides of the stream about 600m. Recommend dense natural forestation mixed with Areca nut and Vetiver grass plantation of 400m length.","Amount (Rs.)":"291,600","photopath":"https://raw.githubusercontent.com/MWS003-GIS/MWS003-GIS.github.io/main/IWWRMP/Data/EXD/200_photo/MWS_008_1/Neelawala/NWL0203.jpg"},"geometry":{"type":"Point","coordinates":[80.73945,7.189599]}},
{"type":"Feature","properties":{"No":9,"GND No.":1020,"Scheme":"Pihathala stream 3","N":7.19104,"E":80.73979,"Observation":"-","Description":"Erosion of both sides of the stream about 600m. Recommend dense natural forestation mixed with Areca nut and Vetiver grass plantation of 400m length.","Amount (Rs.)":"291,600","photopath":"https://raw.githubusercontent.com/MWS003-GIS/MWS003-GIS.github.io/main/IWWRMP/Data/EXD/200_photo/MWS_008_1/Neelawala/NWL0204.jpg"},"geometry":{"type":"Point","coordinates":[80.73979,7.19104]}},
{"type":"Feature","properties":{"No":10,"GND No.":1020,"Scheme":"Pihathala stream 4","N":7.19135,"E":80.74001,"Observation":"-","Description":"Erosion of both sides of the stream about100m. Recommend dense natural forestation mixed with Areca nut and Vetiver grass plantation of 100m length.","Amount (Rs.)":"88,400","photopath":"https://raw.githubusercontent.com/MWS003-GIS/MWS003-GIS.github.io/main/IWWRMP/Data/EXD/200_photo/MWS_008_1/Neelawala/NWL0205.jpg"},"geometry":{"type":"Point","coordinates":[80.74001,7.19135]}},
{"type":"Feature","properties":{"No":11,"GND No.":1020,"Scheme":"Haven Madiththa stream","N":7.18842,"E":80.75287,"Observation":"-","Description":"Erosion of both sides of the stream about100m. Recommend dense natural forestation mixed with Areca nut and Vetiver grass plantation of 100m length.","Amount (Rs.)":"88,400","photopath":"https://raw.githubusercontent.com/MWS003-GIS/MWS003-GIS.github.io/main/IWWRMP/Data/EXD/200_photo/MWS_008_1/Neelawala/NWL0411.jpg"},"geometry":{"type":"Point","coordinates":[80.75287,7.18842]}},
{"type":"Feature","properties":{"No":12,"GND No.":1019,"Scheme":"Mullahena stream 1","N":7.19938,"E":80.75093,"Observation":"-","Description":"Erosion in both sides about 700 m. Recommends 200m long leader drains and Then areca nut mixed vetiver planting for 500m distance.","Amount (Rs.)":"510,000","photopath":"https://raw.githubusercontent.com/MWS003-GIS/MWS003-GIS.github.io/main/IWWRMP/Data/EXD/200_photo/MWS_008_1/Pothgoda/PTG_0401.jpg"},"geometry":{"type":"Point","coordinates":[80.75093,7.19938]}},
{"type":"Feature","properties":{"No":13,"GND No.":1019,"Scheme":"Thikattawela stream","N":7.19872,"E":80.75181,"Observation":"-","Description":"Erosion in both sides 60m. Recommends areca nut mixed vetiver planting for 50m distance.","Amount (Rs.)":"15,000","photopath":"https://raw.githubusercontent.com/MWS003-GIS/MWS003-GIS.github.io/main/IWWRMP/Data/EXD/200_photo/MWS_008_1/Pothgoda/PTG0202.jpg"},"geometry":{"type":"Point","coordinates":[80.75181,7.19872]}},
{"type":"Feature","properties":{"No":14,"GND No.":1019,"Scheme":"Pothgoda stream 3","N":7.19436,"E":80.75168,"Observation":"-","Description":"Erosion in both sides 200 Recommends a bio fence with mixed areca betel vegetation in both sides","Amount (Rs.)":"60000","photopath":"Not_Available"},"geometry":{"type":"Point","coordinates":[80.75168,7.19436]}},
{"type":"Feature","properties":{"No":15,"GND No.":1003,"Scheme":"Millapokuna stream","N":7.21302,"E":80.75716,"Observation":"-","Description":"Erosion on both sides extending 2.5km to Victoria Reservoir. Recommend 1. 400m long leader drains and 2. Areca nut mixed vetiver planting for 1.5 km distance. 3. Dense natural vegetation for one hectare along the stream.","Amount (Rs.)":"3,975,000","photopath":"https://raw.githubusercontent.com/MWS003-GIS/MWS003-GIS.github.io/main/IWWRMP/Data/EXD/200_photo/MWS_008_1/Udamailapitiya_South/MS11.jpg"},"geometry":{"type":"Point","coordinates":[80.75716,7.21302]}},
{"type":"Feature","properties":{"No":16,"GND No.":1003,"Scheme":"Keppetiyawa stream","N":7.22109,"E":80.75811,"Observation":"-","Description":"Erosion on both sides extending 1.5km to Victoria Reservoir. Recommend \n1. 200m long leader drains and \n2. Areca nut mixed vetiver planting for 1 km distance.\n3. Dense natural vegetation for 0.5 ha along the stream.","Amount (Rs.)":"2,070,000","photopath":"https://raw.githubusercontent.com/MWS003-GIS/MWS003-GIS.github.io/main/IWWRMP/Data/EXD/200_photo/MWS_008_1/Udamailapitiya_South/MS14.jpg"},"geometry":{"type":"Point","coordinates":[80.75811,7.22109]}},
{"type":"Feature","properties":{"No":17,"GND No.":1005,"Scheme":"Akkara Paha kandura","N":7.2448,"E":80.75347,"Observation":"-","Description":"Discharging to Victoria reservoir and embankment erosion of 200m length. Recommend Constructing a leader drain of 200m and areca nut with Vetiver grass protection for both sides","Amount (Rs.)":"524000","photopath":"https://raw.githubusercontent.com/MWS003-GIS/MWS003-GIS.github.io/main/IWWRMP/Data/EXD/200_photo/MWS_008_1/Pathamayilapitiya_North/PAMI_NK1.jpg"},"geometry":{"type":"Point","coordinates":[80.75347,7.2448]}},
{"type":"Feature","properties":{"No":18,"GND No.":1005,"Scheme":"Samurdhi Mawatha kandura","N":7.23758,"E":80.75707,"Observation":"-","Description":"Discharging to Victoria reservoir and embankment erosion of 500m length. Recommend Constructing a leader drain of 300 m and areca nut with Vetiver grass protection for both sides","Amount (Rs.)":"786000","photopath":"https://raw.githubusercontent.com/MWS003-GIS/MWS003-GIS.github.io/main/IWWRMP/Data/EXD/200_photo/MWS_008_1/Pathamayilapitiya_North/PAMI_NK2.jpg"},"geometry":{"type":"Point","coordinates":[80.75707,7.23758]}},
{"type":"Feature","properties":{"No":19,"GND No.":1005,"Scheme":"Galdiya Kandura","N":7.23777,"E":80.75032,"Observation":"-","Description":"Discharging to Victoria reservoir and embankment erosion of 300m length. Recommend Constructing a leader drain of 200m and areca nut with Vetiver grass protection for both sides","Amount (Rs.)":"724000","photopath":"https://raw.githubusercontent.com/MWS003-GIS/MWS003-GIS.github.io/main/IWWRMP/Data/EXD/200_photo/MWS_008_1/Pathamayilapitiya_North/PAMI_NK3.jpg"},"geometry":{"type":"Point","coordinates":[80.75032,7.23777]}}
]
}
