{"type":"FeatureCollection","name":"SWC_ON","crs":{"type":"name","properties":{"name":"urn:ogc:def:crs:OGC:1.3:CRS84"}},"features":[
{"type":"Feature","properties":{"No.":1,"GND No.":1003,"GND Name":"Udamailapitiya South","Key Activities proposed for Soil and Water conservation":"1. Development of natural drain - Alawaththaketiya Kandura","Priority based on Soil Erosion Hazard":4,"N":7.21294,"E":80.756101,"Quantity":"500 m","Proposed measure/s":"Clearing and planting some trees along the banks (Aracanut)","Uniti_Cost":"-","Total_Cost":"50,000.00","Contribution (Local Community, LA, and the project)":"Labour and other basic services by the Local community","Time frame for the implementation":"0.25 Years","photopath":"https://raw.githubusercontent.com/MWS003-GIS/MWS003-GIS.github.io/main/IWWRMP/Data/EXD/200_photo/MWS_008_1/Udamayilapitiya_South/MS1.jpg"},"geometry":{"type":"Point","coordinates":[80.756101,7.21294]}},
{"type":"Feature","properties":{"No.":2,"GND No.":1003,"GND Name":"Udamailapitiya South","Key Activities proposed for Soil and Water conservation":"-","Priority based on Soil Erosion Hazard":1,"N":7.218444,"E":80.764013,"Quantity":"-","Proposed measure/s":"-","Uniti_Cost":"-","Total_Cost":"-","Contribution (Local Community, LA, and the project)":"-","Time frame for the implementation":"-","photopath":"https://raw.githubusercontent.com/MWS003-GIS/MWS003-GIS.github.io/main/IWWRMP/Data/EXD/200_photo/MWS_008_1/Udamayilapitiya_South/MS1.1.jpg"},"geometry":{"type":"Point","coordinates":[80.764013,7.218444]}},
{"type":"Feature","properties":{"No.":3,"GND No.":1003,"GND Name":"Udamailapitiya South","Key Activities proposed for Soil and Water conservation":"2. Development of natural drain - Mallapokona Kandura","Priority based on Soil Erosion Hazard":4,"N":7.213018,"E":80.757158,"Quantity":"500 m","Proposed measure/s":"Clearing and planting some trees along the banks (Aracanut)","Uniti_Cost":"-","Total_Cost":"50,000.00","Contribution (Local Community, LA, and the project)":"Labour and other basic services by the Local community","Time frame for the implementation":"0.25 Years","photopath":"https://raw.githubusercontent.com/MWS003-GIS/MWS003-GIS.github.io/main/IWWRMP/Data/EXD/200_photo/MWS_008_1/Udamayilapitiya_South/MS11.jpg"},"geometry":{"type":"Point","coordinates":[80.757158,7.213018]}},
{"type":"Feature","properties":{"No.":4,"GND No.":1003,"GND Name":"Udamailapitiya South","Key Activities proposed for Soil and Water conservation":"3. Development of natural drain - Keppetiyawa Kandura","Priority based on Soil Erosion Hazard":4,"N":7.22109,"E":80.758112,"Quantity":"150 m","Proposed measure/s":"Clearing and planting some trees along the banks (Aracanut)","Uniti_Cost":"-","Total_Cost":"15,000.00","Contribution (Local Community, LA, and the project)":"Labour and other basic services by the Local community","Time frame for the implementation":"0.25 Years","photopath":"https://raw.githubusercontent.com/MWS003-GIS/MWS003-GIS.github.io/main/IWWRMP/Data/EXD/200_photo/MWS_008_1/Udamayilapitiya_South/MS14.jpg"},"geometry":{"type":"Point","coordinates":[80.758112,7.22109]}},
{"type":"Feature","properties":{"No.":5,"GND No.":1003,"GND Name":"Udamailapitiya South","Key Activities proposed for Soil and Water conservation":"4. Soil conservation practices - Alawaththaketiya (75)","Priority based on Soil Erosion Hazard":3,"N":7.213243,"E":80.7575502,"Quantity":"3 ha","Proposed measure/s":"Live fencing/SALT","Uniti_Cost":"250.00 m-1","Total_Cost":"750,000.00","Contribution (Local Community, LA, and the project)":"Labour and other basic services by the Local community","Time frame for the implementation":"0.25 Years","photopath":"https://raw.githubusercontent.com/MWS003-GIS/MWS003-GIS.github.io/main/IWWRMP/Data/EXD/200_photo/MWS_008_1/Udamayilapitiya_South/MS2.jpg"},"geometry":{"type":"Point","coordinates":[80.7575502,7.213243]}},
{"type":"Feature","properties":{"No.":6,"GND No.":1003,"GND Name":"Udamailapitiya South","Key Activities proposed for Soil and Water conservation":"-","Priority based on Soil Erosion Hazard":1,"N":7.214036,"E":80.758544,"Quantity":"2 ha","Proposed measure/s":"Live fencing/SALT","Uniti_Cost":"250.00 m-1","Total_Cost":"500,000.00","Contribution (Local Community, LA, and the project)":"-","Time frame for the implementation":"-","photopath":"https://raw.githubusercontent.com/MWS003-GIS/MWS003-GIS.github.io/main/IWWRMP/Data/EXD/200_photo/MWS_008_1/Udamayilapitiya_South/MS4.jpg"},"geometry":{"type":"Point","coordinates":[80.758544,7.214036]}},
{"type":"Feature","properties":{"No.":7,"GND No.":1003,"GND Name":"Udamailapitiya South","Key Activities proposed for Soil and Water conservation":"5. Soil conservation practices - Millapokuna (40)","Priority based on Soil Erosion Hazard":5,"N":7.214648,"E":80.759287,"Quantity":"2 ha","Proposed measure/s":"Live fencing/SALT","Uniti_Cost":"250.00 m-1","Total_Cost":"500,000.00","Contribution (Local Community, LA, and the project)":"Labour and other basic services by the Local community","Time frame for the implementation":"0.25 Years","photopath":"https://raw.githubusercontent.com/MWS003-GIS/MWS003-GIS.github.io/main/IWWRMP/Data/EXD/200_photo/MWS_008_1/Udamayilapitiya_South/MS9.jpg"},"geometry":{"type":"Point","coordinates":[80.759287,7.214648]}},
{"type":"Feature","properties":{"No.":8,"GND No.":1003,"GND Name":"Udamailapitiya South","Key Activities proposed for Soil and Water conservation":"6. Soil conservation practices - Alawaththaketiya (75)","Priority based on Soil Erosion Hazard":1,"N":7.212947,"E":80.755531,"Quantity":"26 ha","Proposed measure/s":"Live fencing/SALT","Uniti_Cost":"250.00 m-1","Total_Cost":"6,500,000.00","Contribution (Local Community, LA, and the project)":"Labour and other basic services by the Local community","Time frame for the implementation":"0.25 Years","photopath":"https://raw.githubusercontent.com/MWS003-GIS/MWS003-GIS.github.io/main/IWWRMP/Data/EXD/200_photo/MWS_008_1/Udamayilapitiya_South/MS13.jpg"},"geometry":{"type":"Point","coordinates":[80.755531,7.212947]}},
{"type":"Feature","properties":{"No.":9,"GND No.":1003,"GND Name":"Udamailapitiya South","Key Activities proposed for Soil and Water conservation":"7. Soil conservation practices - Keppetiyawa (70)","Priority based on Soil Erosion Hazard":4,"N":7.22145,"E":80.757904,"Quantity":"14 ha","Proposed measure/s":"Live fencing/SALT","Uniti_Cost":"250.00 m-1","Total_Cost":"3,500,000.00","Contribution (Local Community, LA, and the project)":"Labour and other basic services by the Local community","Time frame for the implementation":"0.25 Years","photopath":"https://raw.githubusercontent.com/MWS003-GIS/MWS003-GIS.github.io/main/IWWRMP/Data/EXD/200_photo/MWS_008_1/Udamayilapitiya_South/MS15.jpg"},"geometry":{"type":"Point","coordinates":[80.757904,7.22145]}},
{"type":"Feature","properties":{"No.":10,"GND No.":1005,"GND Name":"Patha Mailapitiya North","Key Activities proposed for Soil and Water conservation":"1. Developemnt of natural dain - Akkara 5 Kandura","Priority based on Soil Erosion Hazard":3,"N":7.244801,"E":80.753467,"Quantity":"300 m","Proposed measure/s":"Clearing and planting some trees along the banks (Aracanut)","Uniti_Cost":"-","Total_Cost":"30,000.00","Contribution (Local Community, LA, and the project)":"Labour and other basic services by the Local community","Time frame for the implementation":"0.25 Years","photopath":"https://raw.githubusercontent.com/MWS003-GIS/MWS003-GIS.github.io/main/IWWRMP/Data/EXD/200_photo/MWS_008_1/Pathamayilapitiya_North/PAMI_NK1.jpg"},"geometry":{"type":"Point","coordinates":[80.753467,7.244801]}},
{"type":"Feature","properties":{"No.":11,"GND No.":1005,"GND Name":"Patha Mailapitiya North","Key Activities proposed for Soil and Water conservation":"2. Developemnt of natural dain - Samurdhi Mawatha Kandura","Priority based on Soil Erosion Hazard":1,"N":7.237578,"E":80.757065,"Quantity":"800 m","Proposed measure/s":"Clearing and planting some trees along the banks (Aracanut)","Uniti_Cost":"-","Total_Cost":"80,000.00","Contribution (Local Community, LA, and the project)":"Labour and other basic services by the Local community","Time frame for the implementation":"0.25 Years","photopath":"https://raw.githubusercontent.com/MWS003-GIS/MWS003-GIS.github.io/main/IWWRMP/Data/EXD/200_photo/MWS_008_1/Pathamayilapitiya_North/PAMI_NK2.jpg"},"geometry":{"type":"Point","coordinates":[80.757065,7.237578]}},
{"type":"Feature","properties":{"No.":12,"GND No.":1005,"GND Name":"Patha Mailapitiya North","Key Activities proposed for Soil and Water conservation":"3. Developemnt of natural dain - Galdiya Kandura","Priority based on Soil Erosion Hazard":5,"N":7.237769,"E":80.750322,"Quantity":"800 m","Proposed measure/s":"Clearing and planting some trees along the banks (Aracanut)","Uniti_Cost":"-","Total_Cost":"80,000.00","Contribution (Local Community, LA, and the project)":"Labour and other basic services by the Local community","Time frame for the implementation":"0.25 Years","photopath":"https://raw.githubusercontent.com/MWS003-GIS/MWS003-GIS.github.io/main/IWWRMP/Data/EXD/200_photo/MWS_008_1/Pathamayilapitiya_North/PAMI_NK3.jpg"},"geometry":{"type":"Point","coordinates":[80.750322,7.237769]}},
{"type":"Feature","properties":{"No.":13,"GND No.":1005,"GND Name":"Patha Mailapitiya North","Key Activities proposed for Soil and Water conservation":"4. Soil conservation practices - No. 4 (40 - 65)","Priority based on Soil Erosion Hazard":5,"N":7.24509,"E":80.75298,"Quantity":"16 ha","Proposed measure/s":"Live fencing/SALT","Uniti_Cost":"250.00 m-1","Total_Cost":"4,000,000.00","Contribution (Local Community, LA, and the project)":"Labour and other basic services by the Local community","Time frame for the implementation":"0.5 Years","photopath":"https://raw.githubusercontent.com/MWS003-GIS/MWS003-GIS.github.io/main/IWWRMP/Data/EXD/200_photo/MWS_008_1/Pathamayilapitiya_North/(05)PAMI_NL1.jpg"},"geometry":{"type":"Point","coordinates":[80.75298,7.24509]}},
{"type":"Feature","properties":{"No.":14,"GND No.":1005,"GND Name":"Patha Mailapitiya North","Key Activities proposed for Soil and Water conservation":"-","Priority based on Soil Erosion Hazard":1,"N":7.248677,"E":80.750718,"Quantity":"4 ha","Proposed measure/s":"Live fencing/SALT","Uniti_Cost":"250.00 m-1","Total_Cost":"1,000,000.00","Contribution (Local Community, LA, and the project)":"Labour and other basic services by the Local community","Time frame for the implementation":"0.25 Years","photopath":"https://raw.githubusercontent.com/MWS003-GIS/MWS003-GIS.github.io/main/IWWRMP/Data/EXD/200_photo/MWS_008_1/Pathamayilapitiya_North/(05)PAMI_NL2.jpg"},"geometry":{"type":"Point","coordinates":[80.750718,7.248677]}},
{"type":"Feature","properties":{"No.":15,"GND No.":1005,"GND Name":"Patha Mailapitiya North","Key Activities proposed for Soil and Water conservation":"5. Soil conservation practices - Galliinda (30","Priority based on Soil Erosion Hazard":3,"N":7.237892,"E":80.750297,"Quantity":"9 ha","Proposed measure/s":"Lock and spills","Uniti_Cost":"400.00 m-1","Total_Cost":"3,600,000.00","Contribution (Local Community, LA, and the project)":"Labour and other basic services by the Local community","Time frame for the implementation":"0.25 Years","photopath":"https://raw.githubusercontent.com/MWS003-GIS/MWS003-GIS.github.io/main/IWWRMP/Data/EXD/200_photo/MWS_008_1/Pathamayilapitiya_North/(05)PAMI_NL3.jpg"},"geometry":{"type":"Point","coordinates":[80.750297,7.237892]}},
{"type":"Feature","properties":{"No.":16,"GND No.":1005,"GND Name":"Patha Mailapitiya North","Key Activities proposed for Soil and Water conservation":"6. Soil conservation practices - Other (35)","Priority based on Soil Erosion Hazard":4,"N":7.234364,"E":80.746473,"Quantity":"2.25 ha","Proposed measure/s":"Lock and spills","Uniti_Cost":"400.00 m-1","Total_Cost":"900,000.00","Contribution (Local Community, LA, and the project)":"Labour and other basic services by the Local community","Time frame for the implementation":"0.25 Years","photopath":"https://raw.githubusercontent.com/MWS003-GIS/MWS003-GIS.github.io/main/IWWRMP/Data/EXD/200_photo/MWS_008_1/Pathamayilapitiya_North/(05)PAMI_NL4.jpg"},"geometry":{"type":"Point","coordinates":[80.746473,7.234364]}},
{"type":"Feature","properties":{"No.":17,"GND No.":1019,"GND Name":"Poththagoda","Key Activities proposed for Soil and Water conservation":"1. Developemnt of natural dain - Mullahena Kandura","Priority based on Soil Erosion Hazard":3,"N":7.199382,"E":80.750933,"Quantity":"700 m","Proposed measure/s":"Clearing and planting some trees along the banks (Aracanut)","Uniti_Cost":"-","Total_Cost":"70,000.00","Contribution (Local Community, LA, and the project)":"Labour and other basic services by the Local community","Time frame for the implementation":"0.25 Years","photopath":"https://raw.githubusercontent.com/MWS003-GIS/MWS003-GIS.github.io/main/IWWRMP/Data/EXD/200_photo/MWS_008_1/Pothgoda/PTG_0201.jpg"},"geometry":{"type":"Point","coordinates":[80.750933,7.199382]}},
{"type":"Feature","properties":{"No.":18,"GND No.":1019,"GND Name":"Poththagoda","Key Activities proposed for Soil and Water conservation":"2. Developemnt of natural dain - Thikaththawela Kandura","Priority based on Soil Erosion Hazard":4,"N":7.198716,"E":80.751806,"Quantity":"60 m","Proposed measure/s":"Clearing and planting some trees along the banks (Aracanut)","Uniti_Cost":"-","Total_Cost":"6,000.00","Contribution (Local Community, LA, and the project)":"Labour and other basic services by the Local community","Time frame for the implementation":"0.25 Years","photopath":"https://raw.githubusercontent.com/MWS003-GIS/MWS003-GIS.github.io/main/IWWRMP/Data/EXD/200_photo/MWS_008_1/Pothgoda/PTG_0202.jpg"},"geometry":{"type":"Point","coordinates":[80.751806,7.198716]}},
{"type":"Feature","properties":{"No.":19,"GND No.":1019,"GND Name":"Poththagoda","Key Activities proposed for Soil and Water conservation":"3. Developemnt of natural dain - Pothgoda Kandura","Priority based on Soil Erosion Hazard":3,"N":7.194358,"E":80.751681,"Quantity":"200 m","Proposed measure/s":"Clearing and planting some trees along the banks (Aracanut)","Uniti_Cost":"-","Total_Cost":"20,000.00","Contribution (Local Community, LA, and the project)":"Labour and other basic services by the Local community","Time frame for the implementation":"0.25 Years","photopath":"Not_Available"},"geometry":{"type":"Point","coordinates":[80.751681,7.194358]}},
{"type":"Feature","properties":{"No.":20,"GND No.":1019,"GND Name":"Poththagoda","Key Activities proposed for Soil and Water conservation":"4. Soil conservation practices (45)","Priority based on Soil Erosion Hazard":1,"N":7.19668,"E":80.747564,"Quantity":"5 ha","Proposed measure/s":"Live fencing/SALT","Uniti_Cost":"250.00 m-1","Total_Cost":"1,250,000.00","Contribution (Local Community, LA, and the project)":"Labour and other basic services by the Local community","Time frame for the implementation":"0.25 Years","photopath":"https://raw.githubusercontent.com/MWS003-GIS/MWS003-GIS.github.io/main/IWWRMP/Data/EXD/200_photo/MWS_008_1/Pothgoda/PTG_0501.jpg"},"geometry":{"type":"Point","coordinates":[80.747564,7.19668]}},
{"type":"Feature","properties":{"No.":21,"GND No.":1019,"GND Name":"Poththagoda","Key Activities proposed for Soil and Water conservation":"5. Establishing a retaining wall - Thikaththawela Pahala Wewa","Priority based on Soil Erosion Hazard":3,"N":7.199109,"E":80.751476,"Quantity":"20 m x 3.5 m","Proposed measure/s":"Retaining wall","Uniti_Cost":"2,000.00 m-2","Total_Cost":"140,000.00","Contribution (Local Community, LA, and the project)":"Labour and other basic services by the Local community","Time frame for the implementation":"0.25 Years","photopath":"https://raw.githubusercontent.com/MWS003-GIS/MWS003-GIS.github.io/main/IWWRMP/Data/EXD/200_photo/MWS_008_1/Pothgoda/PTG_1101.jpg"},"geometry":{"type":"Point","coordinates":[80.751476,7.199109]}},
{"type":"Feature","properties":{"No.":22,"GND No.":1019,"GND Name":"Poththagoda","Key Activities proposed for Soil and Water conservation":"6. Establishing a retaining wall - Thikaththawela","Priority based on Soil Erosion Hazard":1,"N":7.199257,"E":80.750615,"Quantity":"6 m x 3 m","Proposed measure/s":"Retaining wall","Uniti_Cost":"2,000.00 m-2","Total_Cost":"36,000.00","Contribution (Local Community, LA, and the project)":"Labour and other basic services by the Local community","Time frame for the implementation":"0.25 Years","photopath":"https://raw.githubusercontent.com/MWS003-GIS/MWS003-GIS.github.io/main/IWWRMP/Data/EXD/200_photo/MWS_008_1/Pothgoda/PTG_1102.jpg"},"geometry":{"type":"Point","coordinates":[80.750615,7.199257]}},
{"type":"Feature","properties":{"No.":23,"GND No.":1020,"GND Name":"Neelawala","Key Activities proposed for Soil and Water conservation":"1. Developemnt of natural dain - Kandura near Neelawala Devalaya","Priority based on Soil Erosion Hazard":1,"N":7.187487,"E":80.741621,"Quantity":"2350 m","Proposed measure/s":"Clearing and planting some trees along the banks (Aracanut)","Uniti_Cost":"-","Total_Cost":"235,000.00","Contribution (Local Community, LA, and the project)":"Labour and other basic services by the Local community","Time frame for the implementation":"0.25 Years","photopath":"Not_Available"},"geometry":{"type":"Point","coordinates":[80.741621,7.187487]}},
{"type":"Feature","properties":{"No.":24,"GND No.":1020,"GND Name":"Neelawala","Key Activities proposed for Soil and Water conservation":"2. Developemnt of natural dain - Pihiathala Kandura 1","Priority based on Soil Erosion Hazard":5,"N":7.187526,"E":80.741049,"Quantity":"1.5 km","Proposed measure/s":"Clearing and planting some trees along the banks (Aracanut)","Uniti_Cost":"-","Total_Cost":"150,000.00","Contribution (Local Community, LA, and the project)":"Labour and other basic services by the Local community","Time frame for the implementation":"0.25 Years","photopath":"https://raw.githubusercontent.com/MWS003-GIS/MWS003-GIS.github.io/main/IWWRMP/Data/EXD/200_photo/MWS_008_1/Neelawala/NWL_0202.jpg"},"geometry":{"type":"Point","coordinates":[80.741049,7.187526]}},
{"type":"Feature","properties":{"No.":25,"GND No.":1020,"GND Name":"Neelawala","Key Activities proposed for Soil and Water conservation":"3. Developemnt of natural dain - Pihiathala Kandura 2","Priority based on Soil Erosion Hazard":1,"N":7.190599,"E":80.739448,"Quantity":"400 m","Proposed measure/s":"Clearing and planting some trees along the banks (Aracanut)","Uniti_Cost":"-","Total_Cost":"40,000.00","Contribution (Local Community, LA, and the project)":"Labour and other basic services by the Local community","Time frame for the implementation":"0.25 Years","photopath":"https://raw.githubusercontent.com/MWS003-GIS/MWS003-GIS.github.io/main/IWWRMP/Data/EXD/200_photo/MWS_008_1/Neelawala/NWL_0203.jpg"},"geometry":{"type":"Point","coordinates":[80.739448,7.190599]}},
{"type":"Feature","properties":{"No.":26,"GND No.":1020,"GND Name":"Neelawala","Key Activities proposed for Soil and Water conservation":"4. Developemnt of natural dain - Pihiathala Kandura 3","Priority based on Soil Erosion Hazard":5,"N":7.191039,"E":80.739794,"Quantity":"400 m","Proposed measure/s":"Clearing and planting some trees along the banks (Aracanut)","Uniti_Cost":"-","Total_Cost":"40,000.00","Contribution (Local Community, LA, and the project)":"Labour and other basic services by the Local community","Time frame for the implementation":"0.25 Years","photopath":"https://raw.githubusercontent.com/MWS003-GIS/MWS003-GIS.github.io/main/IWWRMP/Data/EXD/200_photo/MWS_008_1/Neelawala/NWL_0204.jpg"},"geometry":{"type":"Point","coordinates":[80.739794,7.191039]}},
{"type":"Feature","properties":{"No.":27,"GND No.":1020,"GND Name":"Neelawala","Key Activities proposed for Soil and Water conservation":"5. Developemnt of natural dain - Pihiathala Kandura 4","Priority based on Soil Erosion Hazard":5,"N":7.191346,"E":80.740012,"Quantity":"400 m","Proposed measure/s":"Clearing and planting some trees along the banks (Aracanut)","Uniti_Cost":"-","Total_Cost":"40,000.00","Contribution (Local Community, LA, and the project)":"Labour and other basic services by the Local community","Time frame for the implementation":"0.25 Years","photopath":"https://raw.githubusercontent.com/MWS003-GIS/MWS003-GIS.github.io/main/IWWRMP/Data/EXD/200_photo/MWS_008_1/Neelawala/NWL_0205.jpg"},"geometry":{"type":"Point","coordinates":[80.740012,7.191346]}},
{"type":"Feature","properties":{"No.":28,"GND No.":1020,"GND Name":"Neelawala","Key Activities proposed for Soil and Water conservation":"6. Developemnt of natural dain - Havan Madiththa Kandura","Priority based on Soil Erosion Hazard":4,"N":7.188415,"E":80.752867,"Quantity":"100 m","Proposed measure/s":"Clearing and planting some trees along the banks (Aracanut)","Uniti_Cost":"-","Total_Cost":"10,000.00","Contribution (Local Community, LA, and the project)":"Labour and other basic services by the Local community","Time frame for the implementation":"0.25 Years","photopath":"https://raw.githubusercontent.com/MWS003-GIS/MWS003-GIS.github.io/main/IWWRMP/Data/EXD/200_photo/MWS_008_1/Neelawala/NWL_0206.jpg"},"geometry":{"type":"Point","coordinates":[80.752867,7.188415]}},
{"type":"Feature","properties":{"No.":29,"GND No.":1020,"GND Name":"Neelawala","Key Activities proposed for Soil and Water conservation":"7. Soil conservation practices - Pihathalawa (60 - 80)","Priority based on Soil Erosion Hazard":1,"N":7.187839,"E":80.739298,"Quantity":"10 ha","Proposed measure/s":"Live fencing/SALT","Uniti_Cost":"250.00 m-1","Total_Cost":"2,500,000.00","Contribution (Local Community, LA, and the project)":"Labour and other basic services by the Local community","Time frame for the implementation":"0.25 Years","photopath":"https://raw.githubusercontent.com/MWS003-GIS/MWS003-GIS.github.io/main/IWWRMP/Data/EXD/200_photo/MWS_008_1/Neelawala/NWL_0501.jpg"},"geometry":{"type":"Point","coordinates":[80.739298,7.187839]}},
{"type":"Feature","properties":{"No.":30,"GND No.":1020,"GND Name":"Neelawala","Key Activities proposed for Soil and Water conservation":"-","Priority based on Soil Erosion Hazard":5,"N":7.188602,"E":80.739591,"Quantity":"2.25 ha","Proposed measure/s":"Live fencing/SALT","Uniti_Cost":"250.00 m-1","Total_Cost":"562,500.00","Contribution (Local Community, LA, and the project)":"Labour and other basic services by the Local community","Time frame for the implementation":"0.25 Years","photopath":"https://raw.githubusercontent.com/MWS003-GIS/MWS003-GIS.github.io/main/IWWRMP/Data/EXD/200_photo/MWS_008_1/Neelawala/NWL_0502.jpg"},"geometry":{"type":"Point","coordinates":[80.739591,7.188602]}},
{"type":"Feature","properties":{"No.":31,"GND No.":1020,"GND Name":"Neelawala","Key Activities proposed for Soil and Water conservation":"-","Priority based on Soil Erosion Hazard":1,"N":7.189273,"E":80.739657,"Quantity":"6 ha","Proposed measure/s":"Live fencing/SALT","Uniti_Cost":"250.00 m-1","Total_Cost":"1,500,000.00","Contribution (Local Community, LA, and the project)":"Labour and other basic services by the Local community","Time frame for the implementation":"0.25 Years","photopath":"https://raw.githubusercontent.com/MWS003-GIS/MWS003-GIS.github.io/main/IWWRMP/Data/EXD/200_photo/MWS_008_1/Neelawala/NWL_0503.jpg"},"geometry":{"type":"Point","coordinates":[80.739657,7.189273]}},
{"type":"Feature","properties":{"No.":32,"GND No.":1020,"GND Name":"Neelawala","Key Activities proposed for Soil and Water conservation":"-","Priority based on Soil Erosion Hazard":5,"N":7.189699,"E":80.73958,"Quantity":"0.5 ha","Proposed measure/s":"Live fencing/SALT","Uniti_Cost":"250.00 m-1","Total_Cost":"125,000.00","Contribution (Local Community, LA, and the project)":"Labour and other basic services by the Local community","Time frame for the implementation":"0.25 Years","photopath":"https://raw.githubusercontent.com/MWS003-GIS/MWS003-GIS.github.io/main/IWWRMP/Data/EXD/200_photo/MWS_008_1/Neelawala/NWL_0504.jpg"},"geometry":{"type":"Point","coordinates":[80.73958,7.189699]}},
{"type":"Feature","properties":{"No.":33,"GND No.":1020,"GND Name":"Neelawala","Key Activities proposed for Soil and Water conservation":"8. Soil conservation practices - Pihathalawa Tigolgoda (65 - 70)","Priority based on Soil Erosion Hazard":5,"N":7.191497,"E":80.740229,"Quantity":"17 ha","Proposed measure/s":"Live fencing/SALT","Uniti_Cost":"250.00 m-1","Total_Cost":"4,250,000.00","Contribution (Local Community, LA, and the project)":"Labour and other basic services by the Local community","Time frame for the implementation":"0.25 Years","photopath":"https://raw.githubusercontent.com/MWS003-GIS/MWS003-GIS.github.io/main/IWWRMP/Data/EXD/200_photo/MWS_008_1/Neelawala/NWL_0505.jpg"},"geometry":{"type":"Point","coordinates":[80.740229,7.191497]}},
{"type":"Feature","properties":{"No.":34,"GND No.":1020,"GND Name":"Neelawala","Key Activities proposed for Soil and Water conservation":"-","Priority based on Soil Erosion Hazard":5,"N":7.192989,"E":80.74096,"Quantity":"17 ha","Proposed measure/s":"Live fencing/SALT","Uniti_Cost":"250.00 m-1","Total_Cost":"4,250,000.00","Contribution (Local Community, LA, and the project)":"Labour and other basic services by the Local community","Time frame for the implementation":"0.25 Years","photopath":"Not_Available"},"geometry":{"type":"Point","coordinates":[80.74096,7.192989]}},
{"type":"Feature","properties":{"No.":35,"GND No.":1020,"GND Name":"Neelawala","Key Activities proposed for Soil and Water conservation":"9. Soil conservation practices - Neelawala Polwaththa (35)","Priority based on Soil Erosion Hazard":1,"N":7.190304,"E":80.745855,"Quantity":"5 ha","Proposed measure/s":"Lock and spills","Uniti_Cost":"400.00 m-1","Total_Cost":"2,000,000.00","Contribution (Local Community, LA, and the project)":"Labour and other basic services by the Local community","Time frame for the implementation":"0.25 Years","photopath":"Not_Available"},"geometry":{"type":"Point","coordinates":[80.745855,7.190304]}},
{"type":"Feature","properties":{"No.":36,"GND No.":1020,"GND Name":"Neelawala","Key Activities proposed for Soil and Water conservation":"10. Soil conservation practices - Ethpanthiya Waththa (30)","Priority based on Soil Erosion Hazard":1,"N":7.190957,"E":80.748479,"Quantity":"2 ha","Proposed measure/s":"Lock and spills","Uniti_Cost":"400.00 m-1","Total_Cost":"800,000.00","Contribution (Local Community, LA, and the project)":"Labour and other basic services by the Local community","Time frame for the implementation":"0.25 Years","photopath":"https://raw.githubusercontent.com/MWS003-GIS/MWS003-GIS.github.io/main/IWWRMP/Data/EXD/200_photo/MWS_008_1/Neelawala/NWL_0508.jpg"},"geometry":{"type":"Point","coordinates":[80.748479,7.190957]}},
{"type":"Feature","properties":{"No.":37,"GND No.":1020,"GND Name":"Neelawala","Key Activities proposed for Soil and Water conservation":"11. Establishing a retaining wall","Priority based on Soil Erosion Hazard":2,"N":7.190387,"E":80.748812,"Quantity":"20 m x 2 m","Proposed measure/s":"Retaining wall","Uniti_Cost":"2,000.00 m-2","Total_Cost":"80,000.00","Contribution (Local Community, LA, and the project)":"Labour and other basic services by the Local community","Time frame for the implementation":"0.25 Years","photopath":"https://raw.githubusercontent.com/MWS003-GIS/MWS003-GIS.github.io/main/IWWRMP/Data/EXD/200_photo/MWS_008_1/Neelawala/NWL_1101.jpg"},"geometry":{"type":"Point","coordinates":[80.748812,7.190387]}},
{"type":"Feature","properties":{"No.":38,"GND No.":1021,"GND Name":"Kahambiliyawa","Key Activities proposed for Soil and Water conservation":"1. Developemnt of natural dain - Kahambiliyawa Kandura 1","Priority based on Soil Erosion Hazard":5,"N":7.18858,"E":80.75758,"Quantity":"200 m","Proposed measure/s":"Clearing and planting some trees along the banks (Aracanut)","Uniti_Cost":"-","Total_Cost":"20,000.00","Contribution (Local Community, LA, and the project)":"Labour and other basic services by the Local community","Time frame for the implementation":"0.25 Years","photopath":"https://raw.githubusercontent.com/MWS003-GIS/MWS003-GIS.github.io/main/IWWRMP/Data/EXD/200_photo/MWS_008_1/Kahambiliyawa/KH5.jpg"},"geometry":{"type":"Point","coordinates":[80.75758,7.18858]}},
{"type":"Feature","properties":{"No.":39,"GND No.":1021,"GND Name":"Kahambiliyawa","Key Activities proposed for Soil and Water conservation":"2. Developemnt of natural dain - Kahambiliyawa Kandura 2","Priority based on Soil Erosion Hazard":4,"N":7.188698,"E":80.757592,"Quantity":"100 m","Proposed measure/s":"Clearing and planting some trees along the banks (Aracanut)","Uniti_Cost":"-","Total_Cost":"10,000.00","Contribution (Local Community, LA, and the project)":"Labour and other basic services by the Local community","Time frame for the implementation":"0.25 Years","photopath":"https://raw.githubusercontent.com/MWS003-GIS/MWS003-GIS.github.io/main/IWWRMP/Data/EXD/200_photo/MWS_008_1/Kahambiliyawa/KH6.jpg"},"geometry":{"type":"Point","coordinates":[80.757592,7.188698]}},
{"type":"Feature","properties":{"No.":40,"GND No.":1021,"GND Name":"Kahambiliyawa","Key Activities proposed for Soil and Water conservation":"3. Soil conservation practices - Rajasingha Nursery School (70)","Priority based on Soil Erosion Hazard":3,"N":7.18981,"E":80.757265,"Quantity":"0.5 ha","Proposed measure/s":"Live fencing/SALT","Uniti_Cost":"250.00 m-1","Total_Cost":"125,000.00","Contribution (Local Community, LA, and the project)":"Labour and other basic services by the Local community","Time frame for the implementation":"0.25 Years","photopath":"https://raw.githubusercontent.com/MWS003-GIS/MWS003-GIS.github.io/main/IWWRMP/Data/EXD/200_photo/MWS_008_1/Kahambiliyawa/KH01.jpg"},"geometry":{"type":"Point","coordinates":[80.757265,7.18981]}},
{"type":"Feature","properties":{"No.":41,"GND No.":1021,"GND Name":"Kahambiliyawa","Key Activities proposed for Soil and Water conservation":"4. Soil conservation practices - Area above the Hunuwatawala Ela (30)","Priority based on Soil Erosion Hazard":1,"N":7.191268,"E":80.75797,"Quantity":"1.25 ha","Proposed measure/s":"Lock and spills\nPlanting trees ","Uniti_Cost":"400.00 m-1","Total_Cost":"500,000.00","Contribution (Local Community, LA, and the project)":"Labour and other basic services by the Local community","Time frame for the implementation":"0.25 Years","photopath":"https://raw.githubusercontent.com/MWS003-GIS/MWS003-GIS.github.io/main/IWWRMP/Data/EXD/200_photo/MWS_008_1/Kahambiliyawa/KH12.jpg"},"geometry":{"type":"Point","coordinates":[80.75797,7.191268]}},
{"type":"Feature","properties":{"No.":42,"GND No.":1021,"GND Name":"Kahambiliyawa","Key Activities proposed for Soil and Water conservation":"5. Soil conservation practices - Kahambiliyawa (30)","Priority based on Soil Erosion Hazard":2,"N":7.186334,"E":80.752447,"Quantity":"10 ha","Proposed measure/s":"Lock and spills","Uniti_Cost":"400.00 m-1","Total_Cost":"4,000,000.00","Contribution (Local Community, LA, and the project)":"Labour and other basic services by the Local community","Time frame for the implementation":"0.25 Years","photopath":"https://raw.githubusercontent.com/MWS003-GIS/MWS003-GIS.github.io/main/IWWRMP/Data/EXD/200_photo/MWS_008_1/Kahambiliyawa/KH3.jpg"},"geometry":{"type":"Point","coordinates":[80.752447,7.186334]}},
{"type":"Feature","properties":{"No.":43,"GND No.":1021,"GND Name":"Kahambiliyawa","Key Activities proposed for Soil and Water conservation":"6. Soil conservation in Kurudiya Forest Reserve","Priority based on Soil Erosion Hazard":2,"N":7.188341,"E":80.759748,"Quantity":"0.5 ha","Proposed measure/s":"Planting trees","Uniti_Cost":"-","Total_Cost":"50,000.00","Contribution (Local Community, LA, and the project)":"Labour and other basic services by the Local community","Time frame for the implementation":"0.25 Years","photopath":"https://raw.githubusercontent.com/MWS003-GIS/MWS003-GIS.github.io/main/IWWRMP/Data/EXD/200_photo/MWS_008_1/Kahambiliyawa/KH9.jpg"},"geometry":{"type":"Point","coordinates":[80.759748,7.188341]}},
{"type":"Feature","properties":{"No.":44,"GND No.":1024,"GND Name":"Unuvinna East","Key Activities proposed for Soil and Water conservation":"1. Developemnt of natural dain - Kandura near Pwer Station","Priority based on Soil Erosion Hazard":5,"N":7.2087,"E":80.767099,"Quantity":"1 km","Proposed measure/s":"Clearing and planting some trees along the banks (Aracanut)","Uniti_Cost":"-","Total_Cost":"100,000.00","Contribution (Local Community, LA, and the project)":"Labour and other basic services by the Local community","Time frame for the implementation":"0.25 Years","photopath":"https://raw.githubusercontent.com/MWS003-GIS/MWS003-GIS.github.io/main/IWWRMP/Data/EXD/200_photo/MWS_008_1/Unuvinna_East/UN(02)1.jpg"},"geometry":{"type":"Point","coordinates":[80.767099,7.2087]}},
{"type":"Feature","properties":{"No.":45,"GND No.":1024,"GND Name":"Unuvinna East","Key Activities proposed for Soil and Water conservation":"2. Developemnt of natural dain - Asweduma Kandura","Priority based on Soil Erosion Hazard":4,"N":7.207132,"E":80.768327,"Quantity":"1 km","Proposed measure/s":"Clearing and planting some trees along the banks (Aracanut)","Uniti_Cost":"-","Total_Cost":"100,000.00","Contribution (Local Community, LA, and the project)":"Labour and other basic services by the Local community","Time frame for the implementation":"0.25 Years","photopath":"https://raw.githubusercontent.com/MWS003-GIS/MWS003-GIS.github.io/main/IWWRMP/Data/EXD/200_photo/MWS_008_1/Unuvinna_East/UN(02)2.jpg"},"geometry":{"type":"Point","coordinates":[80.768327,7.207132]}},
{"type":"Feature","properties":{"No.":46,"GND No.":1024,"GND Name":"Unuvinna East","Key Activities proposed for Soil and Water conservation":"3. Soil conservation practices - Magahamadiththa (50)","Priority based on Soil Erosion Hazard":4,"N":7.208601,"E":80.761755,"Quantity":"12 ha","Proposed measure/s":"Live fencing/SALT","Uniti_Cost":"250.00 m-1","Total_Cost":"3,000,000.00","Contribution (Local Community, LA, and the project)":"Labour and other basic services by the Local community","Time frame for the implementation":"0.25 Years","photopath":"https://raw.githubusercontent.com/MWS003-GIS/MWS003-GIS.github.io/main/IWWRMP/Data/EXD/200_photo/MWS_008_1/Unuvinna_East/UN(05)1.jpg"},"geometry":{"type":"Point","coordinates":[80.761755,7.208601]}},
{"type":"Feature","properties":{"No.":47,"GND No.":1024,"GND Name":"Unuvinna East","Key Activities proposed for Soil and Water conservation":"4. Soil conservation practices - Ele Mukalana (70)","Priority based on Soil Erosion Hazard":1,"N":7.205088,"E":80.769034,"Quantity":"7 ha","Proposed measure/s":"Live fencing/SALT","Uniti_Cost":"250.00 m-1","Total_Cost":"1,750,000.00","Contribution (Local Community, LA, and the project)":"Labour and other basic services by the Local community","Time frame for the implementation":"0.25 Years","photopath":"https://raw.githubusercontent.com/MWS003-GIS/MWS003-GIS.github.io/main/IWWRMP/Data/EXD/200_photo/MWS_008_1/Unuvinna_East/UN(05)2.jpg"},"geometry":{"type":"Point","coordinates":[80.769034,7.205088]}},
{"type":"Feature","properties":{"No.":48,"GND No.":1024,"GND Name":"Unuvinna East","Key Activities proposed for Soil and Water conservation":"5. Soil conservation practices - Pallema Oya (70)","Priority based on Soil Erosion Hazard":4,"N":7.210367,"E":80.767393,"Quantity":"18 ha","Proposed measure/s":"Live fencing/SALT","Uniti_Cost":"250.00 m-1","Total_Cost":"4,500,000.00","Contribution (Local Community, LA, and the project)":"Labour and other basic services by the Local community","Time frame for the implementation":"0.25 Years","photopath":"https://raw.githubusercontent.com/MWS003-GIS/MWS003-GIS.github.io/main/IWWRMP/Data/EXD/200_photo/MWS_008_1/Unuvinna_East/UN(05)3.jpg"},"geometry":{"type":"Point","coordinates":[80.767393,7.210367]}},
{"type":"Feature","properties":{"No.":49,"GND No.":1025,"GND Name":"Unuvinna West","Key Activities proposed for Soil and Water conservation":"1. Developemnt of natural dain - Hunukotawela Kandura","Priority based on Soil Erosion Hazard":4,"N":7.190253,"E":80.762076,"Quantity":"2 km","Proposed measure/s":"Clearing and planting some trees along the banks (Aracanut)","Uniti_Cost":"-","Total_Cost":"200,000.00","Contribution (Local Community, LA, and the project)":"Labour and other basic services by the Local community","Time frame for the implementation":"0.25 Years","photopath":"https://raw.githubusercontent.com/MWS003-GIS/MWS003-GIS.github.io/main/IWWRMP/Data/EXD/200_photo/MWS_008_1/Unuvinna_West/UB(02)1.jpg"},"geometry":{"type":"Point","coordinates":[80.762076,7.190253]}},
{"type":"Feature","properties":{"No.":50,"GND No.":1025,"GND Name":"Unuvinna West","Key Activities proposed for Soil and Water conservation":"2. Soil conservation practices - Munamale (60)","Priority based on Soil Erosion Hazard":4,"N":7.200566,"E":80.756105,"Quantity":"0.5 ha","Proposed measure/s":"Live fencing/SALT","Uniti_Cost":"250.00 m-1","Total_Cost":"125,000.00","Contribution (Local Community, LA, and the project)":"Labour and other basic services by the Local community","Time frame for the implementation":"0.25 Years","photopath":"https://raw.githubusercontent.com/MWS003-GIS/MWS003-GIS.github.io/main/IWWRMP/Data/EXD/200_photo/MWS_008_1/Unuvinna_West/UB(05)1.jpg"},"geometry":{"type":"Point","coordinates":[80.756105,7.200566]}},
{"type":"Feature","properties":{"No.":51,"GND No.":1025,"GND Name":"Unuvinna West","Key Activities proposed for Soil and Water conservation":"3. Soil conservation practices - Unuvinna School (65)","Priority based on Soil Erosion Hazard":5,"N":7.196817,"E":80.759989,"Quantity":"0.75 ha","Proposed measure/s":"Live fencing/SALT","Uniti_Cost":"250.00 m-1","Total_Cost":"187,500.00","Contribution (Local Community, LA, and the project)":"Labour and other basic services by the Local community","Time frame for the implementation":"0.25 Years","photopath":"https://raw.githubusercontent.com/MWS003-GIS/MWS003-GIS.github.io/main/IWWRMP/Data/EXD/200_photo/MWS_008_1/Unuvinna_West/UB(05)2.jpg"},"geometry":{"type":"Point","coordinates":[80.759989,7.196817]}},
{"type":"Feature","properties":{"No.":52,"GND No.":1025,"GND Name":"Unuvinna West","Key Activities proposed for Soil and Water conservation":"4. Soil conservation practices - Hunukotawela (80)","Priority based on Soil Erosion Hazard":5,"N":7.193058,"E":80.764443,"Quantity":"1.5 ha","Proposed measure/s":"Live fencing/SALT","Uniti_Cost":"250.00 m-1","Total_Cost":"375,000.00","Contribution (Local Community, LA, and the project)":"Labour and other basic services by the Local community","Time frame for the implementation":"0.25 Years","photopath":"https://raw.githubusercontent.com/MWS003-GIS/MWS003-GIS.github.io/main/IWWRMP/Data/EXD/200_photo/MWS_008_1/Unuvinna_West/UB(05)3.jpg"},"geometry":{"type":"Point","coordinates":[80.764443,7.193058]}}
]}