{"type":"FeatureCollection","name":"MT","crs":{"type":"name","properties":{"name":"urn:ogc:def:crs:OGC:1.3:CRS84"}},"features":[
{"type":"Feature","properties":{"Name_of_Tank":"Pussellava Water Spring","Custodians":"Private Land","N":7.06254,"E":80.94698,"Remarks":"Proposal if to construct a new tank which needs an Embankment of Length 40 m and Height 9 m.The proposal is not taken for further action as explained above.","photopath":"Not_Available"},"geometry":{"type":"Point","coordinates":[80.94698,7.06254]}}
]}