{"type":"FeatureCollection","name":"WSP","crs":{"type":"name","properties":{"name":"urn:ogc:def:crs:OGC:1.3:CRS84"}},"features":[
{"type":"Feature","properties":{"No":1,"GND No.":529,"Name of the Tank":"Thotupola Pihilla","N":7.451505,"E":80.572768,"Observation":"No proper path for the canal carries water to the place","Description":"Provide 600mm x 600mm u-drain for 20m length\nSite preparation & setting out\nForming channel bund for planting aricunut trees( 0.7m height in 1:1.5 slopes with 0.6 bund top width ) for 200m ( Manual )\nPlywood Formwork including making , fixing and rem","Amount (Rs.)":692000,"photopath":"https://raw.githubusercontent.com/MWS003-GIS/MWS003-GIS.github.io/main/IWWRMP/Data/EXD/200_photo/MWS_109/Thotupola Pihilla.jpg"},"geometry":{"type":"Point","coordinates":[80.572768,7.451505]}},
{"type":"Feature","properties":{"No":2,"GND No.":530,"Name of the Tank":"Gonamada area","N":7.440101,"E":80.561289,"Observation":"Lack of proper distribution line observed.","Description":"Provide 2 inch diameter PVC pipes for 300m long to repair the distribution line\nSite preparation & setting out\nPurchasing of 2\" dia PVC Pipe with necessary joints and etc ( Type 600 )\nFor Laying and jointing the pipes\nMaterial transport\nTyding upsite","Amount (Rs.)":531500,"photopath":"https://raw.githubusercontent.com/MWS003-GIS/MWS003-GIS.github.io/main/IWWRMP/Data/EXD/200_photo/MWS_109/Gonamada area.jpg"},"geometry":{"type":"Point","coordinates":[80.561289,7.440101]}},
{"type":"Feature","properties":{"No":3,"GND No.":530,"Name of the Tank":"Egodamulla area","N":7.43962,"E":80.561167,"Observation":"capacity is not enough. Need proper drainages.","Description":"provide 1m height, 1m diameter cylindrical shape concrete to increase the capacity\nSite preparation & setting out\nCutting , bending and placing of 6mm dia.mild steel Reinforcements\n1:2:4 (3/4\")  Reinforced cement concrete (cylindrical shape thickness","Amount (Rs.)":7000,"photopath":"https://raw.githubusercontent.com/MWS003-GIS/MWS003-GIS.github.io/main/IWWRMP/Data/EXD/200_photo/MWS_109/Egodamulla area.jpg"},"geometry":{"type":"Point","coordinates":[80.561167,7.43962]}},
{"type":"Feature","properties":{"No":4,"GND No.":536,"Name of the Tank":"Bogahapitiya Pathana","N":7.42135,"E":80.574187,"Observation":"This has not been used due to malfunctioning of canal, carries water to paddy field.","Description":"Construct  600mm x 600mm u-drain for 20m long and plant arecanut in reservation along rest 150m along the canal.\nSite preparation and setting out\nForming channel bund for planting aricunut trees( 0.7m height in 1:1.5 slopes with 0.6 bund top width ) for","Amount (Rs.)":662000,"photopath":"https://raw.githubusercontent.com/MWS003-GIS/MWS003-GIS.github.io/main/IWWRMP/Data/EXD/200_photo/MWS_109/Bogahapitiya Pathana.jpg"},"geometry":{"type":"Point","coordinates":[80.574187,7.42135]}},
{"type":"Feature","properties":{"No":6,"GND No.":537,"Name of the Tank":"Galkotuwa well","N":7.418975,"E":80.577092,"Observation":"According to EDO they need 2ft access road for the well","Description":"Install precast 2'-0\" x 2' -0\" cement concrete blocks along existing access road for 20 m  length\nSite preparation and setting out\nMaking the mould ( 0.6mx0.6m size 0.10m thick ) using 1\" thick timber planks\nCutting , bending and placing of 6mm dia mild","Amount (Rs.)":53400,"photopath":"https://raw.githubusercontent.com/MWS003-GIS/MWS003-GIS.github.io/main/IWWRMP/Data/EXD/200_photo/MWS_109/Galkotuwa well.jpg"},"geometry":{"type":"Point","coordinates":[80.577092,7.418975]}},
{"type":"Feature","properties":{"No":7,"GND No.":539,"Name of the Tank":"Burutha Gahamula well","N":7.428344,"E":80.570524,"Observation":"this well doesn't have proper drainage path.","Description":"Constructing 150mm x 150mm U Shape drain for 20 m length\nSite preparation and setting out\nPlywood Formwork including making , fixing and removing for structure for each of 5 uses including fixing and removing same once\nCutting , bending and placing of 10","Amount (Rs.)":194000,"photopath":"https://raw.githubusercontent.com/MWS003-GIS/MWS003-GIS.github.io/main/IWWRMP/Data/EXD/200_photo/MWS_109/Burutha Gahamula well.jpg"},"geometry":{"type":"Point","coordinates":[80.570524,7.428344]}}
]}