{
"type": "FeatureCollection",
"name": "DWS",
"crs": { "type": "name", "properties": { "name": "urn:ogc:def:crs:OGC:1.3:CRS84" } },
"features": [
{ "type": "Feature", "properties": { "No": 12, "GND No.": "534B", "Scheme": "Piduruthalagala reservation", "N": 6.983155, "E": 80.801009, "Observation": "Although there is no water filtration system, this is a well-functioning water scheme.", "Description": "Building a filtering system\n\nContingencies 10%", "Estimated Cost": 220000.0, "photopath": "https://raw.githubusercontent.com/MWS003-GIS/MWS003-GIS.github.io/main/IWWRMP/Data/EXD/200_photo/MWS_168/Forest Conservation - Piduruthalagala reservation (2).jpg" }, "geometry": { "type": "Point", "coordinates": [ 80.801009, 6.983155 ] } },
{ "type": "Feature", "properties": { "No": 13, "GND No.": "534B", "Scheme": "Piduruthalagala reservation", "N": 6.985564, "E": 80.800579, "Observation": "Although there is no water filtration system, this is a well-functioning water scheme.", "Description": "Building a filtering system\n\nContingencies 10%", "Estimated Cost": 220000.0, "photopath": "https://raw.githubusercontent.com/MWS003-GIS/MWS003-GIS.github.io/main/IWWRMP/Data/EXD/200_photo/MWS_168/Forest Conservation - Piduruthalagala reservation (3).jpg" }, "geometry": { "type": "Point", "coordinates": [ 80.800579, 6.985564 ] } },
{ "type": "Feature", "properties": { "No": 14, "GND No.": "534H", "Scheme": "Pedro", "N": 6.981525, "E": 80.795864, "Observation": "This is a well-functioning water scheme. but its stock tanks and some parts of the pipeline are in a dilapidated condition.", "Description": "Construction of Concrete water storage tank of 20 cum - size internal t 3mx3mx2.5\n\nSupplying & laying 50mm Dia PVC pipe line in plain ended type in PN-11 rate including socket, solvent cement, etc.\n\nExcavation in trenches less than 300mm width in normal", "Estimated Cost": 990000.0, "photopath": "https://raw.githubusercontent.com/MWS003-GIS/MWS003-GIS.github.io/main/IWWRMP/Data/EXD/200_photo/MWS_168/Drinking Water Sources to be Conserved - Pedro springs.jpg" }, "geometry": { "type": "Point", "coordinates": [ 80.795864, 6.981525 ] } },
{ "type": "Feature", "properties": { "No": 15, "GND No.": "534H", "Scheme": "Summerhill", "N": 6.975079, "E": 80.805069, "Observation": "The water spring has not been developed and currently only a few families obtain water from this spring. The villagers request that there is sufficient water throughout the year and that it be developed as a new water project. There is a stock tank.", "Description": "Construction of 1.20m Dia x 1.50m deep well\n\nExcavation in wells/pits in normal earth up \nto a depth of 1.0m including backfilling \nbehind wall/ring and disposal of surplus \nearth, rate excluding shoring\n\nExcavation in wells/pits in normal earth \n1.0m to", "Estimated Cost": 1540000.0, "photopath": "https://raw.githubusercontent.com/MWS003-GIS/MWS003-GIS.github.io/main/IWWRMP/Data/EXD/200_photo/MWS_168/New Water Projects - Summerhill No. 06 - Water spring (2).jpg" }, "geometry": { "type": "Point", "coordinates": [ 80.805069, 6.975079 ] } },
{ "type": "Feature", "properties": { "No": 16, "GND No.": "535E", "Scheme": "Nesly", "N": 6.957343, "E": 80.784681, "Observation": "Although the spring has been developed and a tank has been built, the tank is currently in a dilapidated condition (L=4m, W=3m, H=1.5).", "Description": "Scarifying existing rock or concrete surface\n\nSupplying and fixing M.S. dowels spliced and dovetailed with wedge at one end 16mm dia. And 600mm long, boring holes to 0.3m depth in fixing\n\nCutting, Bending & Placing tor steel reinforcement bars, Plywood f", "Estimated Cost": 484000.0033, "photopath": "https://raw.githubusercontent.com/MWS003-GIS/MWS003-GIS.github.io/main/IWWRMP/Data/EXD/200_photo/MWS_168/Regularization of Community Water Schemes - Water tank near Neshy Kovil (3).jpg" }, "geometry": { "type": "Point", "coordinates": [ 80.784681, 6.957343 ] } }
]
}
