{
"type": "FeatureCollection",
"name": "MT",
"crs": { "type": "name", "properties": { "name": "urn:ogc:def:crs:OGC:1.3:CRS84" } },
"features": [
{ "type": "Feature", "properties": { "Name_of_Tank": "Pond near Sandathenna Community Hall", "Custodians": "DAD", "N": 6.956203, "E": 80.796191, "Remarks": "Marking reservation. Improving tree cover.", "photopath": "https://raw.githubusercontent.com/MWS003-GIS/MWS003-GIS.github.io/main/IWWRMP/Data/EXD/200_photo/MWS_168/Ponds - Watershed near Sandathenna community hall.jpg" }, "geometry": { "type": "Point", "coordinates": [ 80.796191, 6.956203 ] } }
]
}
