{"type":"FeatureCollection","name":"SR","crs":{"type":"name","properties":{"name":"urn:ogc:def:crs:OGC:1.3:CRS84"}},"features":[
{"type":"Feature","properties":{"No":1,"GND No.":"37","Scheme":"Naaya Kadura","N":7.028571,"E":80.946272,"Observation":"During the rainy season when too much water flows, Bank erosion occurs","Description":"Arrange stone packing-rubble packing-to prevent bank erosion\n\nVegetative cover improving along the river banks (5m x 10m) with Areca nut seedling in 1.5m x \n1.5m grid, Kumbuk/ Mee/ Godapara/ Kaduru/ Aththikka/ Wal Del/ Kekuna/ randomly mixed \nseedlings a","Amount (Rs.)":"583,000","photopath":"https://raw.githubusercontent.com/MWS003-GIS/MWS003-GIS.github.io/main/IWWRMP/Data/EXD/200_photo/MWS_049/IMG_20250702_131033 Nayakandura.jpg"},"geometry":{"type":"Point","coordinates":[80.946272,7.028571]}},
{"type":"Feature","properties":{"No":2,"GND No.":"37A","Scheme":"Atalaha kandura","N":7.037738,"E":80.941087,"Observation":"During the rainy season when too much water flows, Bank erosion occurs. Only the left bank belongs to the GND.","Description":"Arrange stone packing-rubble packing-to prevent bank erosion\n\nVegetative cover improving along the river banks (5m x 10m) with Areca nut seedling in 1.5m x \n1.5m grid, Kumbuk/ Mee/ Godapara/ Kaduru/ Aththikka/ Wal Del/ Kekuna/ randomly mixed \nseedlings a","Amount (Rs.)":"716,100","photopath":"Not_Available"},"geometry":{"type":"Point","coordinates":[80.941087,7.037738]}},
{"type":"Feature","properties":{"No":3,"GND No.":"37B","Scheme":"Wetaman Oya","N":7.012406,"E":80.94447,"Observation":"During the rainy season when too much water flows, Bank erosion occurs.","Description":"Arrange stone packing-rubble packing-to prevent bank erosion\n\nVegetative cover improving along the river banks (5m x 10m) with Areca nut seedling in 1.5m x \n1.5m grid, Kumbuk/ Mee/ Godapara/ Kaduru/ Aththikka/ Wal Del/ Kekuna/ randomly mixed \nseedlings a","Amount (Rs.)":"856,900","photopath":"https://raw.githubusercontent.com/MWS003-GIS/MWS003-GIS.github.io/main/IWWRMP/Data/EXD/200_photo/MWS_049/IMG_20250709_132641Wetaman oya.jpg"},"geometry":{"type":"Point","coordinates":[80.94447,7.012406]}},
{"type":"Feature","properties":{"No":4,"GND No.":"37C","Scheme":"Deligolla Kadura","N":7.024405,"E":80.931901,"Observation":"During the rainy season when too much water flows, Bank erosion occurs","Description":"Arrange stone packing-rubble packing-to prevent bank erosion\n\nVegetative cover improving along the river banks (5m x 10m) with Areca nut seedling in 1.5m x \n1.5m grid, Kumbuk/ Mee/ Godapara/ Kaduru/ Aththikka/ Wal Del/ Kekuna/ randomly mixed \nseedlings a","Amount (Rs.)":"713,900","photopath":"https://raw.githubusercontent.com/MWS003-GIS/MWS003-GIS.github.io/main/IWWRMP/Data/EXD/200_photo/MWS_049/IMG_20250701_103222 Deligolla kandura.jpg"},"geometry":{"type":"Point","coordinates":[80.931901,7.024405]}},
{"type":"Feature","properties":{"No":5,"GND No.":"37D","Scheme":"Nayamulla kandura","N":7.016071,"E":80.936926,"Observation":"During the rainy season when too much water flows, Bank erosion occurs","Description":"Arrange stone packing-rubble packing-to prevent bank erosion\n\nVegetative cover improving along the river banks (5m x 10m) with Areca nut seedling in 1.5m x \n1.5m grid, Kumbuk/ Mee/ Godapara/ Kaduru/ Aththikka/ Wal Del/ Kekuna/ randomly mixed \nseedlings a","Amount (Rs.)":"689,700","photopath":"Not_Available"},"geometry":{"type":"Point","coordinates":[80.936926,7.016071]}},
{"type":"Feature","properties":{"No":6,"GND No.":"37F","Scheme":"Naaya Kadura","N":7.030182,"E":80.941173,"Observation":"During the rainy season when too much water flows, Bank erosion occurs","Description":"Arrange stone packing-rubble packing-to prevent bank erosion\n\nVegetative cover improving along the river banks (5m x 10m) with Areca nut seedling in 1.5m x \n1.5m grid, Kumbuk/ Mee/ Godapara/ Kaduru/ Aththikka/ Wal Del/ Kekuna/ randomly mixed \nseedlings a","Amount (Rs.)":"796,400","photopath":"https://raw.githubusercontent.com/MWS003-GIS/MWS003-GIS.github.io/main/IWWRMP/Data/EXD/200_photo/MWS_049/IMG_20250718_130119 Nayakandura.jpg"},"geometry":{"type":"Point","coordinates":[80.941173,7.030182]}},
{"type":"Feature","properties":{"No":7,"GND No.":"37F","Scheme":"Atalaha Kadura","N":7.034417,"E":80.94245,"Observation":"Only the right bank belongs to the GND.During the rainy season when too much water flows, Bank erosion occurs","Description":"Arrange stone packing-rubble packing-to prevent bank erosion\n\nVegetative cover improving along the river banks (5m x 10m) with Areca nut seedling in 1.5m x \n1.5m grid, Kumbuk/ Mee/ Godapara/ Kaduru/ Aththikka/ Wal Del/ Kekuna/ randomly mixed \nseedlings a","Amount (Rs.)":"880,000","photopath":"https://raw.githubusercontent.com/MWS003-GIS/MWS003-GIS.github.io/main/IWWRMP/Data/EXD/200_photo/MWS_049/IMG_20250718_101153 Atalaha kandura.jpg"},"geometry":{"type":"Point","coordinates":[80.94245,7.034417]}},
{"type":"Feature","properties":{"No":8,"GND No.":"37F","Scheme":"Kabal Arawa Kadura","N":7.032427,"E":80.941719,"Observation":"During the rainy season when too much water flows, Bank erosion occurs","Description":"Arrange stone packing-rubble packing-to prevent bank erosion\n\nVegetative cover improving along the river banks (5m x 10m) with Areca nut seedling in 1.5m x \n1.5m grid, Kumbuk/ Mee/ Godapara/ Kaduru/ Aththikka/ Wal Del/ Kekuna/ randomly mixed \nseedlings a","Amount (Rs.)":"880,000","photopath":"https://raw.githubusercontent.com/MWS003-GIS/MWS003-GIS.github.io/main/IWWRMP/Data/EXD/200_photo/MWS_049/IMG_20250718_105905 kabal arawa kandura.jpg"},"geometry":{"type":"Point","coordinates":[80.941719,7.032427]}},
{"type":"Feature","properties":{"No":9,"GND No.":"38","Scheme":"Geduma Kadura","N":7.002854,"E":80.944306,"Observation":"During the rainy season when too much water flows, Bank erosion occurs","Description":"Arrange stone packing-rubble packing-to prevent bank erosion\n\nVegetative cover improving along the river banks (5m x 10m) with Areca nut seedling in 1.5m x \n1.5m grid, Kumbuk/ Mee/ Godapara/ Kaduru/ Aththikka/ Wal Del/ Kekuna/ randomly mixed \nseedlings a","Amount (Rs.)":"776,600","photopath":"Not_Available"},"geometry":{"type":"Point","coordinates":[80.944306,7.002854]}},
{"type":"Feature","properties":{"No":10,"GND No.":"38","Scheme":"Kalugamuwa Oya","N":7.002804,"E":80.935245,"Observation":"During the rainy season when too much water flows, Bank erosion occurs, Only the right bank belongs to the GND.","Description":"Arrange stone packing-rubble packing-to prevent bank erosion\n\nVegetative cover improving along the river banks (5m x 10m) with Areca nut seedling in 1.5m x \n1.5m grid, Kumbuk/ Mee/ Godapara/ Kaduru/ Aththikka/ Wal Del/ Kekuna/ randomly mixed \nseedlings a","Amount (Rs.)":"792,000","photopath":"https://raw.githubusercontent.com/MWS003-GIS/MWS003-GIS.github.io/main/IWWRMP/Data/EXD/200_photo/MWS_049/IMG_20250703_154232 Kalugamuwa oya.jpg"},"geometry":{"type":"Point","coordinates":[80.935245,7.002804]}},
{"type":"Feature","properties":{"No":11,"GND No.":"38A","Scheme":"Geduma Kadura","N":7.010474,"E":80.943312,"Observation":"During the rainy season when too much water flows, Bank erosion occurs","Description":"Arrange stone packing-rubble packing-to prevent bank erosion\n\nVegetative cover improving along the river banks (5m x 10m) with Areca nut seedling in 1.5m x \n1.5m grid, Kumbuk/ Mee/ Godapara/ Kaduru/ Aththikka/ Wal Del/ Kekuna/ randomly mixed \nseedlings a","Amount (Rs.)":"784,300","photopath":"Not_Available"},"geometry":{"type":"Point","coordinates":[80.943312,7.010474]}},
{"type":"Feature","properties":{"No":12,"GND No.":"38D","Scheme":"Nayamulla kandura","N":7.012163,"E":80.936139,"Observation":"During the rainy season when too much water flows, Bank erosion occurs","Description":"Arrange stone packing-rubble packing-to prevent bank erosion\n\nVegetative cover improving along the river banks (5m x 10m) with Areca nut seedling in 1.5m x \n1.5m grid, Kumbuk/ Mee/ Godapara/ Kaduru/ Aththikka/ Wal Del/ Kekuna/ randomly mixed \nseedlings a","Amount (Rs.)":"731,500","photopath":"https://raw.githubusercontent.com/MWS003-GIS/MWS003-GIS.github.io/main/IWWRMP/Data/EXD/200_photo/MWS_049/IMG_20250715_111155  Nayamulla kandura.jpg"},"geometry":{"type":"Point","coordinates":[80.936139,7.012163]}},
{"type":"Feature","properties":{"No":13,"GND No.":"38D","Scheme":"Kalugamuwa Oya","N":7.002335,"E":80.93441,"Observation":"During the rainy season when too much water flows, Bank erosion occurs","Description":"Arrange stone packing-rubble packing-to prevent bank erosion\n\nVegetative cover improving along the river banks (5m x 10m) with Areca nut seedling in 1.5m x \n1.5m grid, Kumbuk/ Mee/ Godapara/ Kaduru/ Aththikka/ Wal Del/ Kekuna/ randomly mixed \nseedlings a","Amount (Rs.)":"742,500","photopath":"https://raw.githubusercontent.com/MWS003-GIS/MWS003-GIS.github.io/main/IWWRMP/Data/EXD/200_photo/MWS_049/IMG_20250715_094558 Kalugamuwa oya.jpg"},"geometry":{"type":"Point","coordinates":[80.93441,7.002335]}}
]}