{"type":"FeatureCollection","name":"WP","crs":{"type":"name","properties":{"name":"urn:ogc:def:crs:OGC:1.3:CRS84"}},"features":[
{"type":"Feature","properties":{"No.":3,"GND No.":"37B","GN Division":"Kindigoda","Non-point sources of pollution":"Potential to add human waste - Kindigoda","N":7.0185091,"E":80.9456951,"Point sources of pollution":"-","Add. N ":"-","Add. E ":"-","Recommended water quality improvement measures":"-","Unit Cost (Rs.)":"-","Total Cost (Rs.)":"-","Contributions (Local Community, LA, Project)":"-","Time frame for the implementation":"-","photopath":"Not_Available"},"geometry":{"type":"Point","coordinates":[80.9456951,7.0185091]}},
{"type":"Feature","properties":{"No.":4,"GND No.":"37B","GN Division":"Kindigoda","Non-point sources of pollution":"Potential to add human waste - Galkotuwa","N":7.0185091,"E":80.9456951,"Point sources of pollution":"-","Add. N ":"-","Add. E ":"-","Recommended water quality improvement measures":"-","Unit Cost (Rs.)":"-","Total Cost (Rs.)":"-","Contributions (Local Community, LA, Project)":"-","Time frame for the implementation":"-","photopath":"Not_Available"},"geometry":{"type":"Point","coordinates":[80.9456951,7.0185091]}},
{"type":"Feature","properties":{"No.":5,"GND No.":"37B","GN Division":"Kindigoda","Non-point sources of pollution":"Potential to add human waste - Amune Kadura","N":7.0185091,"E":80.9456951,"Point sources of pollution":"-","Add. N ":"-","Add. E ":"-","Recommended water quality improvement measures":"-","Unit Cost (Rs.)":"-","Total Cost (Rs.)":"-","Contributions (Local Community, LA, Project)":"-","Time frame for the implementation":"-","photopath":"Not_Available"},"geometry":{"type":"Point","coordinates":[80.9456951,7.0185091]}},
{"type":"Feature","properties":{"No.":6,"GND No.":"37C","GN Division":"Kohilegama","Non-point sources of pollution":"Potential to add human waste - Pera mandiya, Thawalam Mandiya","N":7.0236782,"E":80.9351763,"Point sources of pollution":"-","Add. N ":"-","Add. E ":"-","Recommended water quality improvement measures":"-","Unit Cost (Rs.)":"-","Total Cost (Rs.)":"-","Contributions (Local Community, LA, Project)":"-","Time frame for the implementation":"-","photopath":"Not_Available"},"geometry":{"type":"Point","coordinates":[80.9351763,7.0236782]}},
{"type":"Feature","properties":{"No.":7,"GND No.":"37C","GN Division":"Kohilegama","Non-point sources of pollution":"Informal disposal of houshold wastes/garbage including plastic bottles, polythene etc.","N":7.0236782,"E":80.9351763,"Point sources of pollution":"-","Add. N ":"-","Add. E ":"-","Recommended water quality improvement measures":"Preparing a separate place in homegardens for disposing houshold waste/Awareness programme on how to disposal household waste properly and converting them to usable products such as compost/Facilitating garbage collection","Unit Cost (Rs.)":"-","Total Cost (Rs.)":"50,000.00","Contributions (Local Community, LA, Project)":"Local/Central governments","Time frame for the implementation":"0.5 Years","photopath":"Not_Available"},"geometry":{"type":"Point","coordinates":[80.9351763,7.0236782]}},
{"type":"Feature","properties":{"No.":8,"GND No.":"37D","GN Division":"Ellanda","Non-point sources of pollution":"Potential to add human waste - Bleyarlomand Watta","N":7.015372,"E":80.9327205,"Point sources of pollution":"-","Add. N ":"-","Add. E ":"-","Recommended water quality improvement measures":"-","Unit Cost (Rs.)":"-","Total Cost (Rs.)":"-","Contributions (Local Community, LA, Project)":"-","Time frame for the implementation":"-","photopath":"https://raw.githubusercontent.com/MWS003-GIS/MWS003-GIS.github.io/main/IWWRMP/Data/EXD/200_photo/MWS_049/IMG_20250708_175626 Gabege disposal area.jpg"},"geometry":{"type":"Point","coordinates":[80.9327205,7.015372]}},
{"type":"Feature","properties":{"No.":9,"GND No.":"37D","GN Division":"Ellanda","Non-point sources of pollution":"Informal disposal of houshold wastes/garbage including plastic bottles, polythene etc.","N":7.015372,"E":80.9327205,"Point sources of pollution":"-","Add. N ":"-","Add. E ":"-","Recommended water quality improvement measures":"Preparing a separate place in homegardens for disposing houshold waste/Awareness programme on how to disposal household waste properly and converting them to usable products such as compost/Facilitating garbage collection","Unit Cost (Rs.)":"-","Total Cost (Rs.)":"50,000.00","Contributions (Local Community, LA, Project)":"Local/Central governments","Time frame for the implementation":"0.5 Years","photopath":"https://raw.githubusercontent.com/MWS003-GIS/MWS003-GIS.github.io/main/IWWRMP/Data/EXD/200_photo/MWS_049/IMG_20250708_175626 Gabege disposal area.jpg"},"geometry":{"type":"Point","coordinates":[80.9327205,7.015372]}},
{"type":"Feature","properties":{"No.":10,"GND No.":"37F","GN Division":"Ritikumbura","Non-point sources of pollution":"Potential to add human waste - Adungala","N":7.0341705,"E":80.937124,"Point sources of pollution":"-","Add. N ":"-","Add. E ":"-","Recommended water quality improvement measures":"-","Unit Cost (Rs.)":"-","Total Cost (Rs.)":"-","Contributions (Local Community, LA, Project)":"-","Time frame for the implementation":"-","photopath":"Not_Available"},"geometry":{"type":"Point","coordinates":[80.937124,7.0341705]}},
{"type":"Feature","properties":{"No.":11,"GND No.":"37F","GN Division":"Ritikumbura","Non-point sources of pollution":"Informal disposal of houshold wastes/garbage including plastic bottles, polythene etc.","N":7.0341705,"E":80.937124,"Point sources of pollution":"-","Add. N ":"-","Add. E ":"-","Recommended water quality improvement measures":"Preparing a separate place in homegardens for disposing houshold waste/Awareness programme on how to disposal household waste properly and converting them to usable products such as compost/Facilitating garbage collection","Unit Cost (Rs.)":"-","Total Cost (Rs.)":"50,000.00","Contributions (Local Community, LA, Project)":"Local/Central governments","Time frame for the implementation":"0.5 Years","photopath":"Not_Available"},"geometry":{"type":"Point","coordinates":[80.937124,7.0341705]}},
{"type":"Feature","properties":{"No.":12,"GND No.":"38","GN Division":"Wewegama","Non-point sources of pollution":"Informal disposal of houshold wastes/garbage including plastic bottles, polythene etc.","N":7.0028803,"E":80.9405563,"Point sources of pollution":"-","Add. N ":"-","Add. E ":"-","Recommended water quality improvement measures":"Preparing a separate place in homegardens for disposing houshold waste/Awareness programme on how to disposal household waste properly and converting them to usable products such as compost/Facilitating garbage collection","Unit Cost (Rs.)":"-","Total Cost (Rs.)":"50,000.00","Contributions (Local Community, LA, Project)":"Local/Central governments","Time frame for the implementation":"0.5 Years","photopath":"Not_Available"},"geometry":{"type":"Point","coordinates":[80.9405563,7.0028803]}},
{"type":"Feature","properties":{"No.":14,"GND No.":"38C","GN Division":"Gampaha","Non-point sources of pollution":"Potential to add human waste - Maha Laima at Namige Watta Upper Division","N":6.9961448,"E":80.9292232,"Point sources of pollution":"-","Add. N ":"-","Add. E ":"-","Recommended water quality improvement measures":"-","Unit Cost (Rs.)":"-","Total Cost (Rs.)":"-","Contributions (Local Community, LA, Project)":"-","Time frame for the implementation":"-","photopath":"https://raw.githubusercontent.com/MWS003-GIS/MWS003-GIS.github.io/main/IWWRMP/Data/EXD/200_photo/MWS_049/IMG_20250717_101413 Garbage dump place.jpg"},"geometry":{"type":"Point","coordinates":[80.9292232,6.9961448]}},
{"type":"Feature","properties":{"No.":15,"GND No.":"38C","GN Division":"Gampaha","Non-point sources of pollution":"Potential to add human waste - Namige Watta Lower Division","N":6.9961448,"E":80.9292232,"Point sources of pollution":"-","Add. N ":"-","Add. E ":"-","Recommended water quality improvement measures":"-","Unit Cost (Rs.)":"-","Total Cost (Rs.)":"-","Contributions (Local Community, LA, Project)":"-","Time frame for the implementation":"-","photopath":"Not_Available"},"geometry":{"type":"Point","coordinates":[80.9292232,6.9961448]}},
{"type":"Feature","properties":{"No.":16,"GND No.":"38C","GN Division":"Gampaha","Non-point sources of pollution":"Informal disposal of houshold wastes/garbage including plastic bottles, polythene etc.","N":6.9961448,"E":80.9292232,"Point sources of pollution":"-","Add. N ":"-","Add. E ":"-","Recommended water quality improvement measures":"Preparing a separate place in homegardens for disposing houshold waste/Awareness programme on how to disposal household waste properly and converting them to usable products such as compost/Facilitating garbage collection","Unit Cost (Rs.)":"-","Total Cost (Rs.)":"50,000.00","Contributions (Local Community, LA, Project)":"Local/Central governments","Time frame for the implementation":"0.5 Years","photopath":"Not_Available"},"geometry":{"type":"Point","coordinates":[80.9292232,6.9961448]}},
{"type":"Feature","properties":{"No.":17,"GND No.":"38D","GN Division":"Ilukwela","Non-point sources of pollution":"Informal disposal of houshold wastes/garbage including plastic bottles, polythene etc.","N":7.0082087,"E":80.934647,"Point sources of pollution":"-","Add. N ":"-","Add. E ":"-","Recommended water quality improvement measures":"Preparing a separate place in homegardens for disposing houshold waste/Awareness programme on how to disposal household waste properly and converting them to usable products such as compost/Facilitating garbage collection","Unit Cost (Rs.)":"-","Total Cost (Rs.)":"50,000.00","Contributions (Local Community, LA, Project)":"Local/Central governments","Time frame for the implementation":"0.5 Years","photopath":"https://raw.githubusercontent.com/MWS003-GIS/MWS003-GIS.github.io/main/IWWRMP/Data/EXD/200_photo/MWS_049/IMG_20250715_134054 Garbage dump location.jpg"},"geometry":{"type":"Point","coordinates":[80.934647,7.0082087]}}
]}