{
"type": "FeatureCollection",
"name": "MWS_112_2",
"crs": { "type": "name", "properties": { "name": "urn:ogc:def:crs:OGC:1.3:CRS84" } },
"features": [
{ "type": "Feature", "properties": { "FID": 39, "OBJECTID": 40, "No_GN": 0, "MainDSD": "Pathadumbara", "MWS_ID": "106", "MWS_Area": 16.541066452900001, "Main_MWS": "106", "Sub_ID": " ", "FP_MWS": "106", "Area_Ha": 1654.10664529, "Scale": 30000, "District": "Kandy" }, "geometry": { "type": "MultiPolygon", "coordinates": [ [ [ [ 80.62492531591937, 7.326531626367261 ], [ 80.625322165227956, 7.326087703335781 ], [ 80.625474836950389, 7.325916921238496 ], [ 80.62492531591937, 7.326531626367261 ] ] ], [ [ [ 80.622833858532729, 7.330391637446897 ], [ 80.622840234526734, 7.330342754910847 ], [ 80.622853080958478, 7.330244258290624 ], [ 80.622833858532729, 7.330391637446897 ] ] ], [ [ [ 80.622398265453782, 7.331543782507293 ], [ 80.622470049182041, 7.331381960690136 ], [ 80.622494197951752, 7.331327521887041 ], [ 80.622398265453782, 7.331543782507293 ] ] ], [ [ [ 80.621808019771862, 7.333789474058193 ], [ 80.621905832624449, 7.333499248755164 ], [ 80.621924608180279, 7.333443538506994 ], [ 80.621808019771862, 7.333789474058193 ] ] ], [ [ [ 80.620361036448131, 7.337884564599054 ], [ 80.620513603468297, 7.337685878452966 ], [ 80.62052165572382, 7.337675391356496 ], [ 80.620361036448131, 7.337884564599054 ] ] ], [ [ [ 80.625474836950389, 7.325916921238496 ], [ 80.625596763416937, 7.325716275901973 ], [ 80.62571347346136, 7.325524215125003 ], [ 80.625751026483954, 7.325296625201592 ], [ 80.625474836950389, 7.325916921238496 ] ] ] ] } },
{ "type": "Feature", "properties": { "FID": 40, "OBJECTID": 41, "No_GN": 0, "MainDSD": "Gangawata Korale", "MWS_ID": "117", "MWS_Area": 19.6890535912, "Main_MWS": "117", "Sub_ID": " ", "FP_MWS": "117", "Area_Ha": 1968.90535912, "Scale": 40000, "District": "Kandy" }, "geometry": { "type": "MultiPolygon", "coordinates": [ [ [ [ 80.609903901363481, 7.290667824202551 ], [ 80.609903506595742, 7.290667459526137 ], [ 80.609886477311406, 7.290652798134841 ], [ 80.609877132542124, 7.290647875763272 ], [ 80.60990065049036, 7.290666458316437 ], [ 80.609903901363481, 7.290667824202551 ] ] ], [ [ [ 80.613143552504283, 7.291569703397665 ], [ 80.613364861148312, 7.291641190134471 ], [ 80.61336973817815, 7.291641191892812 ], [ 80.61314355088669, 7.291569702875153 ], [ 80.613143552504283, 7.291569703397665 ] ] ], [ [ [ 80.616884022608573, 7.294644608650069 ], [ 80.616864691452633, 7.294615725971261 ], [ 80.616680198106678, 7.29436264968184 ], [ 80.616223706797726, 7.293736462249562 ], [ 80.616884022608573, 7.294644608650069 ] ] ], [ [ [ 80.625625774229036, 7.3217415330958 ], [ 80.625625777243826, 7.321741532934622 ], [ 80.625609797257582, 7.320675798316011 ], [ 80.625625774229036, 7.3217415330958 ] ] ] ] } },
{ "type": "Feature", "properties": { "FID": 138, "OBJECTID": 145, "No_GN": 0, "MainDSD": "Harispattuwa", "MWS_ID": "113-1", "MWS_Area": 18.944632761400001, "Main_MWS": "113", "Sub_ID": "1", "FP_MWS": "113_1", "Area_Ha": 1894.4632761400001, "Scale": 40000, "District": "Kandy" }, "geometry": { "type": "MultiPolygon", "coordinates": [ [ [ [ 80.578518105700724, 7.306003643741385 ], [ 80.578518498324158, 7.306006520743836 ], [ 80.578745457663999, 7.306254203998535 ], [ 80.57851890697269, 7.306006113083643 ], [ 80.578518105700724, 7.306003643741385 ] ] ] ] } },
{ "type": "Feature", "properties": { "FID": 139, "OBJECTID": 147, "No_GN": 0, "MainDSD": "Harispattuwa", "MWS_ID": "112-2", "MWS_Area": 19.463663011200001, "Main_MWS": "112", "Sub_ID": "2", "FP_MWS": "112_2", "Area_Ha": 1946.3663011199999, "Scale": 30000, "District": "Kandy" }, "geometry": { "type": "MultiPolygon", "coordinates": [ [ [ [ 80.625751027046363, 7.32529662179312 ], [ 80.62571347346136, 7.325524215125003 ], [ 80.625596763416937, 7.325716275901973 ], [ 80.625474836950389, 7.325916921238496 ], [ 80.625322165227956, 7.326087703335781 ], [ 80.62492531591937, 7.326531626367261 ], [ 80.624617803704055, 7.326825578081694 ], [ 80.624543490274675, 7.32689280319742 ], [ 80.624415665654382, 7.327018802483953 ], [ 80.624245033084435, 7.327186996433023 ], [ 80.623990610757517, 7.327457540615248 ], [ 80.623984853954028, 7.327465264112092 ], [ 80.623827877005041, 7.327675857067019 ], [ 80.623501810690556, 7.32811407662348 ], [ 80.623261998880608, 7.32860209259715 ], [ 80.623137303574381, 7.328831743567079 ], [ 80.623110440998104, 7.328900642171557 ], [ 80.623073984559753, 7.328988677945144 ], [ 80.623041344053917, 7.329132224641818 ], [ 80.623029825783362, 7.329174332215404 ], [ 80.623000475636672, 7.329244268101512 ], [ 80.622995288732994, 7.329256627226544 ], [ 80.62295883511166, 7.329338921580955 ], [ 80.622912777781266, 7.3294690646586 ], [ 80.622887824733937, 7.32956093314815 ], [ 80.622880713063196, 7.329652824000752 ], [ 80.62288012171318, 7.329660463335485 ], [ 80.622878764726991, 7.329700676242215 ], [ 80.6228704370115, 7.32994757746657 ], [ 80.622853080958478, 7.330244258290624 ], [ 80.622840234526734, 7.330342754910847 ], [ 80.622833858532729, 7.330391637446897 ], [ 80.622812726085115, 7.330519875510884 ], [ 80.622803803919723, 7.330563780807577 ], [ 80.622781999315606, 7.330671079546221 ], [ 80.622716754718951, 7.330845241941363 ], [ 80.622603556345183, 7.331097864994075 ], [ 80.622494197951752, 7.331327521887041 ], [ 80.622470049182041, 7.331381960690136 ], [ 80.622398265453782, 7.331543782507293 ], [ 80.622336855523429, 7.331717945243519 ], [ 80.62227575345895, 7.331910671567054 ], [ 80.622228467295017, 7.332091325674344 ], [ 80.622189574540258, 7.332290859032454 ], [ 80.622152129304027, 7.332468856951555 ], [ 80.622108948892958, 7.332596610836601 ], [ 80.622075806990992, 7.332800449719748 ], [ 80.622046997528557, 7.332948304808331 ], [ 80.621986535738387, 7.33315357304676 ], [ 80.621924608180279, 7.333443538506994 ], [ 80.621905832624449, 7.333499248755164 ], [ 80.621808019771862, 7.333789474058193 ], [ 80.621701526564863, 7.334049277471697 ], [ 80.621593607782231, 7.334271755341799 ], [ 80.621497197860506, 7.334479881368847 ], [ 80.621399332801516, 7.334731074201673 ], [ 80.621305784556824, 7.334979396437528 ], [ 80.621279696093765, 7.33505249564561 ], [ 80.621245333654656, 7.335148774654842 ], [ 80.62117765334466, 7.335437302860587 ], [ 80.621042339323111, 7.335876542884933 ], [ 80.620945876587712, 7.336232534598347 ], [ 80.620857654533609, 7.336585250138789 ], [ 80.620762992716038, 7.337007387501841 ], [ 80.620747153586564, 7.337078023284097 ], [ 80.620708137687373, 7.337216828989243 ], [ 80.620683807830844, 7.337303386564407 ], [ 80.62062479121991, 7.337482814661225 ], [ 80.620554282270277, 7.337633524500809 ], [ 80.62052165572382, 7.337675391356496 ], [ 80.620513603468297, 7.337685878452966 ], [ 80.620361036448131, 7.337884564599054 ], [ 80.62026812855855, 7.338007155518205 ], [ 80.620136278087742, 7.338132723401666 ], [ 80.62002840490355, 7.338219419176879 ], [ 80.619899574878389, 7.338270216836738 ], [ 80.61987724026298, 7.338289198470225 ], [ 80.619818668855231, 7.338338977005265 ], [ 80.619492047198761, 7.33861700790662 ], [ 80.619261315383312, 7.338808337001773 ], [ 80.619165421701908, 7.338909989360494 ], [ 80.619102480146282, 7.339002682569505 ], [ 80.61905151673183, 7.339107342956213 ], [ 80.61900954765531, 7.339191070117575 ], [ 80.619006521668766, 7.339280791959777 ], [ 80.619018371784705, 7.339654645751159 ], [ 80.619045189789446, 7.34006439375688 ], [ 80.619060016262736, 7.340495073018862 ], [ 80.619065909156021, 7.340776210381946 ], [ 80.619053844635332, 7.341012478197074 ], [ 80.619029794954827, 7.34124874181118 ], [ 80.619008737183833, 7.341499960887543 ], [ 80.618996742134726, 7.341535846565726 ], [ 80.618986149519671, 7.341563139166679 ], [ 80.618977552312714, 7.341585286996396 ], [ 80.618963987363387, 7.341616574659361 ], [ 80.618931501821265, 7.341691504469324 ], [ 80.618908142487015, 7.341739038073682 ], [ 80.618859554765436, 7.34183790901508 ], [ 80.618802000421752, 7.341945555754399 ], [ 80.618724309615786, 7.342071861085198 ], [ 80.618622168556072, 7.34220533343873 ], [ 80.61849701848395, 7.342353154354566 ], [ 80.618404964198319, 7.34243207917674 ], [ 80.618277946628794, 7.342522508844268 ], [ 80.618081353995962, 7.342658786408689 ], [ 80.617594090393752, 7.342106052461337 ], [ 80.617361489165319, 7.342011753821838 ], [ 80.61699832199271, 7.341876885242142 ], [ 80.616863841477922, 7.341807656711588 ], [ 80.616642644302857, 7.341700423927941 ], [ 80.616365800817391, 7.341434676287022 ], [ 80.616274903329014, 7.341061852366152 ], [ 80.616205707636212, 7.34079189491481 ], [ 80.616065349310375, 7.340216148175615 ], [ 80.615731831115269, 7.339976497933419 ], [ 80.615385287871248, 7.339770952091428 ], [ 80.615232898712406, 7.339570289252952 ], [ 80.615186208398811, 7.339043952439179 ], [ 80.614707984511213, 7.338950568052511 ], [ 80.6141591275276, 7.338496928670695 ], [ 80.613738942869205, 7.338032440205501 ], [ 80.613692017354538, 7.337213651468484 ], [ 80.61301378870931, 7.336582558202696 ], [ 80.612680371739174, 7.336474400120221 ], [ 80.612333657309009, 7.33614157433556 ], [ 80.612339071138763, 7.335881502200414 ], [ 80.612290666099724, 7.33545465740568 ], [ 80.612268567181246, 7.33520551364034 ], [ 80.61179374887206, 7.335635743694408 ], [ 80.610173165049503, 7.335678640686229 ], [ 80.609930994389956, 7.335493088113465 ], [ 80.609764334065716, 7.334966860081432 ], [ 80.60930145963988, 7.334911384002734 ], [ 80.609110135237827, 7.33476479449207 ], [ 80.608977958613536, 7.334484900492523 ], [ 80.608647525711604, 7.334179001725141 ], [ 80.608350771390619, 7.333961514289408 ], [ 80.607880750732932, 7.333535439138208 ], [ 80.607386603149379, 7.333554813718033 ], [ 80.607079931512757, 7.333661996312156 ], [ 80.6067494707127, 7.333930302476093 ], [ 80.606495241418045, 7.334323034554236 ], [ 80.606234926662495, 7.334231821536465 ], [ 80.605973968463942, 7.334118011470265 ], [ 80.605928680729676, 7.334117994304492 ], [ 80.605928697925293, 7.334072779296241 ], [ 80.605724543874686, 7.333824472331937 ], [ 80.605702646999717, 7.333078266150094 ], [ 80.605689727418309, 7.33263801076721 ], [ 80.605680196688283, 7.332313206880253 ], [ 80.60517083228865, 7.331824225361626 ], [ 80.605670027380455, 7.331522249465904 ], [ 80.605816014218576, 7.331472420926666 ], [ 80.606365523640548, 7.33138332478118 ], [ 80.60654071646384, 7.331201405025593 ], [ 80.606901668651489, 7.330934467785154 ], [ 80.606949363518879, 7.330795529133528 ], [ 80.607028537995348, 7.328955088560797 ], [ 80.607313809204626, 7.328535245891729 ], [ 80.606641058942643, 7.327889419675644 ], [ 80.606584888862812, 7.32737141239713 ], [ 80.606362067414025, 7.326996340136787 ], [ 80.606055383803991, 7.326657297738801 ], [ 80.605953749046563, 7.326544940609105 ], [ 80.605868096006759, 7.326368507154011 ], [ 80.605234699193971, 7.325786343898899 ], [ 80.604958653686111, 7.325729786988149 ], [ 80.604390575324018, 7.325679133829282 ], [ 80.604323799670283, 7.325549589861784 ], [ 80.604194931318673, 7.325020935303916 ], [ 80.604058879593197, 7.324740673049382 ], [ 80.603418637481667, 7.324057147053694 ], [ 80.603368711110676, 7.323903323522786 ], [ 80.602739818336929, 7.324556337283156 ], [ 80.602685618554062, 7.324389342706903 ], [ 80.601789427755406, 7.323528994507653 ], [ 80.601833884312853, 7.323332189827343 ], [ 80.602053993754595, 7.322790996953725 ], [ 80.602174639265968, 7.322052888388468 ], [ 80.602332615839458, 7.321840286902211 ], [ 80.602513854093417, 7.321602005867633 ], [ 80.602424463347603, 7.320890806707881 ], [ 80.602378340062188, 7.320710833963151 ], [ 80.602326453906812, 7.320338650780719 ], [ 80.601836126951838, 7.319895848372232 ], [ 80.600974815822255, 7.319805988955909 ], [ 80.600930021435531, 7.319759398219953 ], [ 80.600907013581946, 7.319735467793415 ], [ 80.600674986672217, 7.320003860592461 ], [ 80.600612474137762, 7.320076170307008 ], [ 80.600455593756195, 7.320257638369086 ], [ 80.600362750621358, 7.320437402377857 ], [ 80.600227081042817, 7.320716333304889 ], [ 80.599118235438681, 7.321704293309574 ], [ 80.598890825335445, 7.32188415863276 ], [ 80.59861992320171, 7.322111032101959 ], [ 80.598226980653621, 7.322368025501696 ], [ 80.597945059650485, 7.322638255389696 ], [ 80.597725247206981, 7.323090152029091 ], [ 80.597395812597327, 7.323285232515799 ], [ 80.597124908866817, 7.32351210503348 ], [ 80.596598708251889, 7.323809689458342 ], [ 80.596036759834163, 7.324415065548215 ], [ 80.59597869647591, 7.324652453648229 ], [ 80.59577209979237, 7.324866965772023 ], [ 80.595502576960286, 7.32487234394931 ], [ 80.594976301415173, 7.324692254224439 ], [ 80.594612158132023, 7.324617640035342 ], [ 80.593954145758715, 7.325229001776675 ], [ 80.593772073854922, 7.325273237754632 ], [ 80.593521413585492, 7.325358785879178 ], [ 80.593183271472455, 7.325453858526974 ], [ 80.592630677633068, 7.325960954645511 ], [ 80.592232876019921, 7.32613260093199 ], [ 80.591739505869086, 7.326326648770656 ], [ 80.59145859261713, 7.326496575289123 ], [ 80.591190184571659, 7.326583417887436 ], [ 80.5911186013155, 7.326651397206252 ], [ 80.590247278528807, 7.327478850959659 ], [ 80.589792110879685, 7.327712717863294 ], [ 80.589197975182515, 7.327759088679108 ], [ 80.588200734849252, 7.327802982546205 ], [ 80.587960553385827, 7.327996392231989 ], [ 80.588019909389928, 7.327034252130756 ], [ 80.588088397812868, 7.326786050510687 ], [ 80.587975604634664, 7.326854278842074 ], [ 80.587560894233278, 7.326898414824978 ], [ 80.587161142276528, 7.326761619003084 ], [ 80.587040194546077, 7.32664969993383 ], [ 80.586495289042375, 7.326145472501388 ], [ 80.586392201366166, 7.325722476274422 ], [ 80.586027857724105, 7.325677869684662 ], [ 80.58582643291173, 7.325626243899135 ], [ 80.585371499826181, 7.32515308155518 ], [ 80.585396285369413, 7.323965316113179 ], [ 80.585939169272578, 7.323371867852089 ], [ 80.586028894138707, 7.323234427809322 ], [ 80.585362758011314, 7.3232477237681 ], [ 80.584929084774913, 7.32286068376977 ], [ 80.584535729584886, 7.322330422176915 ], [ 80.584051347394634, 7.322063142391942 ], [ 80.583539737569424, 7.321606556994953 ], [ 80.582723694587173, 7.321561897055539 ], [ 80.581626251794304, 7.320540542760078 ], [ 80.581547841727556, 7.319977960296136 ], [ 80.581411174123673, 7.319752731445574 ], [ 80.581324958365357, 7.319575101418333 ], [ 80.581138418886482, 7.319344165558529 ], [ 80.581245531820272, 7.319241507032998 ], [ 80.58159355904786, 7.318984155584961 ], [ 80.581846767984828, 7.318780267627577 ], [ 80.581955112441875, 7.318589651833818 ], [ 80.58173272332516, 7.318296773388376 ], [ 80.581684621735945, 7.31785291504081 ], [ 80.581457402284315, 7.317582432073671 ], [ 80.581413053800176, 7.31751123454679 ], [ 80.581529835816809, 7.317339380382711 ], [ 80.581558469402196, 7.317297243349577 ], [ 80.581684067866433, 7.317039044980385 ], [ 80.58200213226533, 7.316678367555566 ], [ 80.582227792389787, 7.316361054674251 ], [ 80.582500550508655, 7.316045572339018 ], [ 80.58263557982454, 7.315863865219792 ], [ 80.583016210224656, 7.31542361290671 ], [ 80.583832124255352, 7.31468649197771 ], [ 80.584029095098344, 7.314386805130141 ], [ 80.584810861648123, 7.314328390174938 ], [ 80.585317948723983, 7.314224917426061 ], [ 80.585732440784753, 7.313861165455447 ], [ 80.585851852073503, 7.313559271017557 ], [ 80.585988749215716, 7.313243728991597 ], [ 80.586078509859774, 7.313016786633662 ], [ 80.586802186914198, 7.312196134269228 ], [ 80.587097841267195, 7.311501540619558 ], [ 80.586757572476273, 7.311391142664752 ], [ 80.586398993739039, 7.311206510871738 ], [ 80.585985988023538, 7.311072512918132 ], [ 80.585992228138906, 7.310773572869986 ], [ 80.585804414226686, 7.310526224390383 ], [ 80.585423377665208, 7.310533823024977 ], [ 80.585214609691462, 7.310529485279452 ], [ 80.585042311945756, 7.310350273954827 ], [ 80.584856067550433, 7.310259963828065 ], [ 80.58467632624567, 7.3101674146296 ], [ 80.584586188795768, 7.310213728931534 ], [ 80.584377541498014, 7.310264418426785 ], [ 80.584053904379957, 7.310460186328194 ], [ 80.583626145549573, 7.310904338842827 ], [ 80.583453785855809, 7.310845350893275 ], [ 80.58295740252845, 7.310800828477577 ], [ 80.582321418037793, 7.311388350329916 ], [ 80.582139311679597, 7.31152301173505 ], [ 80.581528167437938, 7.312088387746074 ], [ 80.581506065967559, 7.311884458542671 ], [ 80.580751112620007, 7.311057743437161 ], [ 80.580652812925152, 7.310855215353952 ], [ 80.580378346426386, 7.310402869286491 ], [ 80.580305381523587, 7.3101897329432 ], [ 80.580192254348717, 7.309841122211191 ], [ 80.580057032171354, 7.30957877024877 ], [ 80.579990554201061, 7.3093739155442 ], [ 80.579876690470641, 7.309041310522097 ], [ 80.579831928203163, 7.308628251972974 ], [ 80.579785775631962, 7.308538707061395 ], [ 80.579741516159956, 7.30826649254851 ], [ 80.57901638548158, 7.307498426075448 ], [ 80.57899441428907, 7.3070005983708 ], [ 80.578972444035998, 7.306502771560099 ], [ 80.578745457663999, 7.306254203998535 ], [ 80.578518498324158, 7.306006520743836 ], [ 80.578518105611664, 7.306003643088768 ], [ 80.578496788116553, 7.305847397813828 ], [ 80.578555631814254, 7.305786301967573 ], [ 80.579069805103813, 7.305361985272349 ], [ 80.579267445641449, 7.305172556544103 ], [ 80.579241501684336, 7.303875009176587 ], [ 80.57956241289763, 7.303610173865812 ], [ 80.579983041378128, 7.303257931347727 ], [ 80.580484824281655, 7.30309559143509 ], [ 80.581656185162799, 7.301973814372295 ], [ 80.581999530948067, 7.301749267164627 ], [ 80.582061707481969, 7.301495114059066 ], [ 80.582416550411295, 7.300808077825456 ], [ 80.582542144444247, 7.300549877992981 ], [ 80.582652617522484, 7.300387301414678 ], [ 80.582844836222662, 7.299992127621738 ], [ 80.583006638230344, 7.299678860395575 ], [ 80.583153769645222, 7.299376378748993 ], [ 80.583159817702537, 7.299363943585816 ], [ 80.583504168163344, 7.298954727432356 ], [ 80.583548584818928, 7.298863411127091 ], [ 80.584002544738695, 7.298367144525899 ], [ 80.58417742678462, 7.298101061568832 ], [ 80.584409387955304, 7.297914262039505 ], [ 80.584619504635839, 7.297776840593704 ], [ 80.585102817895816, 7.297065570569548 ], [ 80.585221167866834, 7.296701935290512 ], [ 80.585346985289249, 7.296510498282041 ], [ 80.586225006456431, 7.295558261806192 ], [ 80.5863423593633, 7.29495937729538 ], [ 80.586620228707588, 7.294492440691783 ], [ 80.586764755020212, 7.294342362969484 ], [ 80.586857172809218, 7.294253782043095 ], [ 80.586975971095313, 7.294093907113661 ], [ 80.587049317759892, 7.293995199928799 ], [ 80.587401210549316, 7.293824919001135 ], [ 80.58767655984731, 7.293616488649779 ], [ 80.587899462845314, 7.293508621665981 ], [ 80.588115656963097, 7.293397528845937 ], [ 80.588623669317457, 7.293214573043397 ], [ 80.588713349086021, 7.293168490021174 ], [ 80.589638308330919, 7.293099361247242 ], [ 80.590227875164075, 7.292993836438349 ], [ 80.590258062510514, 7.292988433912511 ], [ 80.590479076822604, 7.292874868659855 ], [ 80.590692557955862, 7.292771566733662 ], [ 80.591431640535291, 7.292266214269296 ], [ 80.591611923864278, 7.29212973758305 ], [ 80.591928497712672, 7.29205281585511 ], [ 80.592312652657739, 7.291653906942685 ], [ 80.592613004600224, 7.291366014552872 ], [ 80.592958480891809, 7.291007260207873 ], [ 80.593392834675882, 7.29075004396637 ], [ 80.594199968256916, 7.290000070908181 ], [ 80.594728788844435, 7.289744171867026 ], [ 80.595146086118532, 7.289283511720176 ], [ 80.595258235104481, 7.289112874239878 ], [ 80.595372592828369, 7.289057527025404 ], [ 80.595545658226158, 7.288968601217451 ], [ 80.595886409294863, 7.288858349224136 ], [ 80.596263080253792, 7.288497286928505 ], [ 80.596393172332725, 7.288245386697568 ], [ 80.596414203563768, 7.288204662604128 ], [ 80.596440741890675, 7.287587940299466 ], [ 80.596459240327263, 7.287158044422132 ], [ 80.596550766584102, 7.28702331814906 ], [ 80.596640480359639, 7.286886825938291 ], [ 80.596699705017684, 7.286830043035201 ], [ 80.597049148878071, 7.286345289635404 ], [ 80.597224991765898, 7.286077733887788 ], [ 80.597430434639236, 7.285938792343964 ], [ 80.597733848085113, 7.285924791565328 ], [ 80.597931882738763, 7.285915653969215 ], [ 80.597931900624076, 7.285870438883247 ], [ 80.59797718348004, 7.285870456739481 ], [ 80.598091261400427, 7.285848755051973 ], [ 80.598511647033746, 7.285726058426147 ], [ 80.598912798883504, 7.285649739123327 ], [ 80.599085884907623, 7.285530918399814 ], [ 80.599262350302652, 7.285447843272897 ], [ 80.599584137732521, 7.285169392561542 ], [ 80.599897917385491, 7.285126021734923 ], [ 80.60438646639237, 7.281261231113318 ], [ 80.604586745114801, 7.281646650274644 ], [ 80.604695154511404, 7.28178824365214 ], [ 80.60508351186175, 7.282295478299587 ], [ 80.605480265844875, 7.282813676840802 ], [ 80.605490395075648, 7.282826906086482 ], [ 80.605607811819254, 7.282980264007304 ], [ 80.605698967294316, 7.283083739723327 ], [ 80.607218901250477, 7.284809088905915 ], [ 80.607910474259398, 7.285980718639517 ], [ 80.608045668176501, 7.286201534471014 ], [ 80.608478177720201, 7.286907958899724 ], [ 80.608491341634178, 7.286929459050585 ], [ 80.608509418741548, 7.286994796173759 ], [ 80.608645989844902, 7.287488388795562 ], [ 80.608744656686696, 7.287937794873939 ], [ 80.608849299131649, 7.288414414498597 ], [ 80.608848490538293, 7.2885919404871 ], [ 80.608847837732242, 7.2887352956631 ], [ 80.608971858055241, 7.289246053505508 ], [ 80.609034097100704, 7.289502375683789 ], [ 80.609070674190718, 7.289585375222638 ], [ 80.60926327852026, 7.290022420638667 ], [ 80.609385400449725, 7.290259336862821 ], [ 80.609877129925223, 7.290647874384818 ], [ 80.609886477311406, 7.290652798134841 ], [ 80.609903506595742, 7.290667459526137 ], [ 80.609903902237448, 7.2906678250099 ], [ 80.610295617946079, 7.29083240736693 ], [ 80.610328926874956, 7.290846402825073 ], [ 80.61035710637357, 7.290857205114947 ], [ 80.61078635150885, 7.29102175651974 ], [ 80.610801753850424, 7.291027660923552 ], [ 80.611084681148057, 7.291133399600385 ], [ 80.611089473288885, 7.291135190062012 ], [ 80.611089281287846, 7.291135188183182 ], [ 80.611109373393163, 7.291143005081618 ], [ 80.611142450027913, 7.291155872730866 ], [ 80.611148222291973, 7.291157146289199 ], [ 80.611167431606319, 7.291164325329376 ], [ 80.611189591185266, 7.291172606886757 ], [ 80.611195684958616, 7.291173889604938 ], [ 80.611628529518072, 7.291264990489154 ], [ 80.612275663081803, 7.291337825918996 ], [ 80.612839735794623, 7.291471564994503 ], [ 80.612938004787935, 7.291503308079149 ], [ 80.613143502462393, 7.291569687570113 ], [ 80.61336973817815, 7.291641191892812 ], [ 80.613364861148312, 7.291641190134471 ], [ 80.61355619049742, 7.291702993083329 ], [ 80.613563727394407, 7.291708246176795 ], [ 80.613754458306815, 7.291822340109633 ], [ 80.61378002706212, 7.291837731488372 ], [ 80.614390504937617, 7.292205206799164 ], [ 80.614717451909797, 7.292531389933273 ], [ 80.614798026589384, 7.292592542343152 ], [ 80.615560100390425, 7.293170921016662 ], [ 80.616223706797726, 7.293736462249562 ], [ 80.616680198106678, 7.29436264968184 ], [ 80.616864691452633, 7.294615725971261 ], [ 80.616884026459289, 7.29464461440342 ], [ 80.617039969256254, 7.29483434140116 ], [ 80.617798505933933, 7.295757210924878 ], [ 80.61806929566356, 7.296086664542091 ], [ 80.618064526223023, 7.296081899006412 ], [ 80.618198094074728, 7.296243905427981 ], [ 80.618342914828176, 7.296419559860448 ], [ 80.618645005502415, 7.296775306729526 ], [ 80.618845925771666, 7.297011913380842 ], [ 80.619181252545317, 7.297454668987852 ], [ 80.620921619078274, 7.299624795638594 ], [ 80.621661608911907, 7.300929281560485 ], [ 80.622479368162942, 7.303291169007212 ], [ 80.622792478388703, 7.305254114221689 ], [ 80.622810541333735, 7.305626438749869 ], [ 80.622811028796221, 7.305636475765326 ], [ 80.622859160409305, 7.30646959585957 ], [ 80.622872441085164, 7.307442474805405 ], [ 80.622952764940621, 7.308146430754194 ], [ 80.623000168143349, 7.308561892278138 ], [ 80.623021731041632, 7.308750773037338 ], [ 80.623022127510097, 7.308754103716502 ], [ 80.623106987156149, 7.309467238005118 ], [ 80.623247219225405, 7.310052856449028 ], [ 80.623428055736355, 7.310515156291871 ], [ 80.623574136366841, 7.310837900543737 ], [ 80.62359143161531, 7.311118221024022 ], [ 80.623596710448481, 7.311119826139766 ], [ 80.623814307091024, 7.311509440535404 ], [ 80.623892897968673, 7.311686534865714 ], [ 80.62398249665695, 7.31188843428769 ], [ 80.624135775630961, 7.312420277099138 ], [ 80.624324697920301, 7.31288654737789 ], [ 80.624498791681091, 7.313389340951955 ], [ 80.624703530199298, 7.313796949809648 ], [ 80.624869102191283, 7.314242567690008 ], [ 80.624869938735088, 7.314257000629369 ], [ 80.624897935618009, 7.314739720956777 ], [ 80.625061947467771, 7.315551448456769 ], [ 80.625098307047708, 7.316120443760185 ], [ 80.625201110978153, 7.317034788879067 ], [ 80.625461725800307, 7.317803407054327 ], [ 80.625493506684748, 7.318178243545013 ], [ 80.625547787259279, 7.318818448576561 ], [ 80.625590268762252, 7.319373272703926 ], [ 80.625591247651101, 7.319438610638916 ], [ 80.625594555569819, 7.319659188114258 ], [ 80.625594571502148, 7.319660292271958 ], [ 80.625594587434179, 7.319661397333964 ], [ 80.625603044131594, 7.320225386904857 ], [ 80.6256057124249, 7.320403357985204 ], [ 80.625609797257582, 7.320675798316011 ], [ 80.625625777243826, 7.321741532934622 ], [ 80.624567675142345, 7.321798104357568 ], [ 80.62457263079763, 7.321681735979412 ], [ 80.624575750336817, 7.321563273523433 ], [ 80.624576612814849, 7.321425999928604 ], [ 80.624585181093735, 7.321273084512492 ], [ 80.624602731128377, 7.321067634007091 ], [ 80.624616436362047, 7.32095318478772 ], [ 80.624377257360251, 7.320919654922555 ], [ 80.624315661038878, 7.320888782977831 ], [ 80.624310728568076, 7.320880380350683 ], [ 80.624199690117692, 7.320769974646615 ], [ 80.624221422433948, 7.320675651575199 ], [ 80.624291058629098, 7.320629694069403 ], [ 80.624348611258611, 7.320514867193068 ], [ 80.624431578733379, 7.32038621306721 ], [ 80.624441745598858, 7.320369945397471 ], [ 80.624372512751393, 7.320377727971223 ], [ 80.624291307534946, 7.320386856614393 ], [ 80.624216495787664, 7.320385473992027 ], [ 80.6241677726007, 7.320370806939908 ], [ 80.624116336741579, 7.320342845731871 ], [ 80.624002252249909, 7.320238540273428 ], [ 80.623965581936361, 7.320201541931203 ], [ 80.623937140308769, 7.320148104358852 ], [ 80.623913446198173, 7.320103588422787 ], [ 80.623891572658835, 7.320045574591462 ], [ 80.623886028261282, 7.320030872387441 ], [ 80.623844573577699, 7.319954897016068 ], [ 80.623820233564373, 7.319886794861449 ], [ 80.623651997130978, 7.319749463964371 ], [ 80.62361396549764, 7.319720692468716 ], [ 80.623584685856528, 7.319716017246554 ], [ 80.623543596185016, 7.319709455259895 ], [ 80.6234621700183, 7.319710781366628 ], [ 80.623406103492229, 7.31971682205641 ], [ 80.623307184074349, 7.31975549075521 ], [ 80.623227376117114, 7.319792266896312 ], [ 80.623155444183382, 7.319842792894891 ], [ 80.623113313605543, 7.319884647726607 ], [ 80.623067205695435, 7.319903439701368 ], [ 80.623038856632988, 7.319902890184188 ], [ 80.623005532560612, 7.319883345925114 ], [ 80.622962240570843, 7.319833151488134 ], [ 80.623136316404199, 7.320449789784646 ], [ 80.623175491604343, 7.320588561856728 ], [ 80.623052972331621, 7.320741241328664 ], [ 80.622783057948411, 7.321077599277343 ], [ 80.622739978313163, 7.321287974856291 ], [ 80.621984362130263, 7.321407630458367 ], [ 80.621350556164231, 7.321223402763673 ], [ 80.620739486291669, 7.321371151103981 ], [ 80.619974959127475, 7.32137844893002 ], [ 80.619859959830876, 7.321297059833963 ], [ 80.619634833180172, 7.321298014253983 ], [ 80.619631577077911, 7.321298027589575 ], [ 80.619635045760546, 7.321348068314533 ], [ 80.619636508387771, 7.3213691842611 ], [ 80.61965195058734, 7.321492535440703 ], [ 80.619659971554654, 7.321607206360768 ], [ 80.619661144960673, 7.321644735276557 ], [ 80.619663229313133, 7.321711430941747 ], [ 80.619664089203297, 7.321738963600829 ], [ 80.619671078469608, 7.321783805816811 ], [ 80.619683609262268, 7.321864217038192 ], [ 80.61971135486958, 7.321881353254853 ], [ 80.619766570807442, 7.321915456483032 ], [ 80.619770632134973, 7.321917964618796 ], [ 80.619878854104911, 7.32194965097931 ], [ 80.619957277538106, 7.321983953056261 ], [ 80.620023739210467, 7.322041039361785 ], [ 80.620061694530165, 7.322078158736569 ], [ 80.620068609243518, 7.322084922598081 ], [ 80.620117991913048, 7.32213322038662 ], [ 80.620151743380745, 7.322171399040826 ], [ 80.620183088367838, 7.322206854006397 ], [ 80.620192973719668, 7.322214090037434 ], [ 80.62028432155897, 7.322280951390595 ], [ 80.620322613069476, 7.322276031697587 ], [ 80.620527159014202, 7.32224975119111 ], [ 80.62069401212915, 7.322204867838105 ], [ 80.620752200255623, 7.32220394747701 ], [ 80.620850794185756, 7.322202389967771 ], [ 80.621007939439707, 7.322199913072382 ], [ 80.621111092345856, 7.322233772235508 ], [ 80.621194125029675, 7.322294751676329 ], [ 80.621313847925748, 7.322335034330572 ], [ 80.621420343009717, 7.322387340515074 ], [ 80.621469794644057, 7.322372796467266 ], [ 80.621531216734041, 7.322354733371792 ], [ 80.621640825924999, 7.322304070483854 ], [ 80.621685851581432, 7.322283258986388 ], [ 80.6217023492446, 7.322276062796505 ], [ 80.621822999937805, 7.322223444034284 ], [ 80.621975440910688, 7.322210203095179 ], [ 80.622024347608388, 7.322210445936166 ], [ 80.622171438145728, 7.322211177267073 ], [ 80.62224873686209, 7.322211263413577 ], [ 80.622290996464642, 7.322211310430031 ], [ 80.622369230856407, 7.322266679537818 ], [ 80.62238740028539, 7.322368331044872 ], [ 80.622400859700136, 7.322470611238529 ], [ 80.622438969335846, 7.322533834940002 ], [ 80.622528228417934, 7.32266571440606 ], [ 80.622607815537052, 7.322738538762348 ], [ 80.622705611996878, 7.322836461876467 ], [ 80.622837358732667, 7.323003990683508 ], [ 80.622816827305869, 7.323243047527223 ], [ 80.622833939028652, 7.323434560896962 ], [ 80.623092949387896, 7.324268945895793 ], [ 80.623430326110153, 7.324704341605378 ], [ 80.623484758067804, 7.324733852981277 ], [ 80.624061393218042, 7.324272938812096 ], [ 80.624183489560679, 7.323862957156665 ], [ 80.624169729629216, 7.323841612798899 ], [ 80.624134611449577, 7.323775222483953 ], [ 80.62411642236782, 7.323730182119514 ], [ 80.624107916285865, 7.323701783272067 ], [ 80.624135729756119, 7.32367990948593 ], [ 80.624161113654267, 7.323627136703457 ], [ 80.62416265086344, 7.323623941421728 ], [ 80.624184939561971, 7.323601432753494 ], [ 80.624231146184428, 7.323556957640667 ], [ 80.624255530542385, 7.323502979080589 ], [ 80.62427546000113, 7.32349321935728 ], [ 80.62427700020865, 7.32349186342536 ], [ 80.624314696254984, 7.323442863920819 ], [ 80.624369312758446, 7.323438000943186 ], [ 80.62448280191029, 7.323438673158267 ], [ 80.624580421947456, 7.323433248620059 ], [ 80.624607343585922, 7.323431752033346 ], [ 80.624682070098828, 7.323418846608006 ], [ 80.624698969073833, 7.323414107430933 ], [ 80.624760332930506, 7.323396898441406 ], [ 80.624825651506285, 7.323354690454583 ], [ 80.624843240713304, 7.323580468813491 ], [ 80.624652435959788, 7.323636861004313 ], [ 80.624736221658722, 7.323900078948965 ], [ 80.624892006197342, 7.323849287943298 ], [ 80.624942877857478, 7.324001835400189 ], [ 80.6249398311231, 7.324154365622257 ], [ 80.624915763210694, 7.324462409636952 ], [ 80.624951291343805, 7.324538374774196 ], [ 80.624952620909681, 7.324541221962483 ], [ 80.6249862565234, 7.32461314604133 ], [ 80.625005341115966, 7.324653956350131 ], [ 80.625039721948539, 7.324726529964044 ], [ 80.625071694047989, 7.324915770316043 ], [ 80.625257677757602, 7.325008207183545 ], [ 80.625484568449394, 7.325151287720263 ], [ 80.625678374751615, 7.325250455945916 ], [ 80.625751027046363, 7.32529662179312 ] ] ] ] } },
{ "type": "Feature", "properties": { "FID": 143, "OBJECTID": 153, "No_GN": 0, "MainDSD": "Yatinuwara", "MWS_ID": "118-2", "MWS_Area": 16.2052284524, "Main_MWS": "118", "Sub_ID": "2", "FP_MWS": "118_2", "Area_Ha": 1620.5228452399999, "Scale": 30000, "District": "Kandy" }, "geometry": { "type": "MultiPolygon", "coordinates": [ [ [ [ 80.596420859403608, 7.288049998915126 ], [ 80.596440741890675, 7.287587940299466 ], [ 80.596414203563768, 7.288204662604128 ], [ 80.596420859403608, 7.288049998915126 ] ] ], [ [ [ 80.603881883243673, 7.281695700194766 ], [ 80.60438646639237, 7.281261231113318 ], [ 80.599897917385491, 7.285126021734923 ], [ 80.603881883243673, 7.281695700194766 ] ] ] ] } }
]
}
