{"type":"FeatureCollection","name":"SWC_OFF","crs":{"type":"name","properties":{"name":"urn:ogc:def:crs:OGC:1.3:CRS84"}},"features":[
{"type":"Feature","properties":{"No.":3,"GND No.":"516","GND Name":"Ketakandura","Key Activities proposed for Soil and Water conservation":"2. Renovation of natural drains - Hunuketiya Kandura","Priority based on Soil Erosion Hazard":"-","N":7.106619,"E":80.877315,"Quantity":"1 km","Proposed measure/s":"Clearing and planting some trees along the banks (Aracanut) and other conservation practices","Total_Cost":"100,000.00","Contribution (Local Community, LA, and the project)":"Labour and other basic services by the Local community/ Shramadana","Time frame for the implementation":"0.5 Years","photopath":"https://raw.githubusercontent.com/MWS003-GIS/MWS003-GIS.github.io/main/IWWRMP/Data/EXD/200_photo/MWS_027/14. Hunukete Kandura.jpg"},"geometry":{"type":"Point","coordinates":[80.877315,7.106619]}},
{"type":"Feature","properties":{"No.":4,"GND No.":"516","GND Name":"Ketakandura","Key Activities proposed for Soil and Water conservation":"3. Renovation of natural drains - Keena Kandura","Priority based on Soil Erosion Hazard":"-","N":7.103641,"E":80.875632,"Quantity":"800 km","Proposed measure/s":"Clearing and planting some trees along the banks (Aracanut) and other conservation practices","Total_Cost":"80,000.00","Contribution (Local Community, LA, and the project)":"Labour and other basic services by the Local community/ Shramadana","Time frame for the implementation":"0.25 Years","photopath":"https://raw.githubusercontent.com/MWS003-GIS/MWS003-GIS.github.io/main/IWWRMP/Data/EXD/200_photo/MWS_027/17. Keena Kandura.jpg"},"geometry":{"type":"Point","coordinates":[80.875632,7.103641]}},
{"type":"Feature","properties":{"No.":10,"GND No.":"516B","GND Name":"Egodakanda","Key Activities proposed for Soil and Water conservation":"1. Renovation of natural drains - Yakkatuwa Oya","Priority based on Soil Erosion Hazard":"-","N":7.082263,"E":80.872972,"Quantity":"2.5 km","Proposed measure/s":"Clearing and planting some trees along the banks and other conservation practices","Total_Cost":"250,000.00","Contribution (Local Community, LA, and the project)":"Labour and other basic services by the Local community/ Shramadana","Time frame for the implementation":"0.5 Years","photopath":"https://raw.githubusercontent.com/MWS003-GIS/MWS003-GIS.github.io/main/IWWRMP/Data/EXD/200_photo/MWS_027/1. Yakkatuwa Oya.jpg"},"geometry":{"type":"Point","coordinates":[80.872972,7.082263]}},
{"type":"Feature","properties":{"No.":11,"GND No.":"516B","GND Name":"Egodakanda","Key Activities proposed for Soil and Water conservation":"2. Renovation of natural drains - Kovil Oya","Priority based on Soil Erosion Hazard":"-","N":7.093577,"E":80.870517,"Quantity":"2 km","Proposed measure/s":"Clearing and planting some trees along the banks and other conservation practices","Total_Cost":"200,000.00","Contribution (Local Community, LA, and the project)":"Labour and other basic services by the Local community/Shramadana","Time frame for the implementation":"0.5 Years","photopath":"https://raw.githubusercontent.com/MWS003-GIS/MWS003-GIS.github.io/main/IWWRMP/Data/EXD/200_photo/MWS_027/13. Kovil Oya.jpg"},"geometry":{"type":"Point","coordinates":[80.870517,7.093577]}},
{"type":"Feature","properties":{"No.":16,"GND No.":"516C","GND Name":"Werellapathana","Key Activities proposed for Soil and Water conservation":"1. Renovation of natural drains - Halmee Kandura","Priority based on Soil Erosion Hazard":"-","N":7.074022,"E":80.878283,"Quantity":"2.4 km","Proposed measure/s":"Clearing and planting some trees along the banks (Aracanut) and other conservation practices","Total_Cost":"240,000.00","Contribution (Local Community, LA, and the project)":"Labour and other basic services by the Local community/ Shramadana","Time frame for the implementation":"0.5 Years","photopath":"https://raw.githubusercontent.com/MWS003-GIS/MWS003-GIS.github.io/main/IWWRMP/Data/EXD/200_photo/MWS_027/8. Halmee Kandura.jpg"},"geometry":{"type":"Point","coordinates":[80.878283,7.074022]}},
{"type":"Feature","properties":{"No.":20,"GND No.":"516D","GND Name":"Mahapathana","Key Activities proposed for Soil and Water conservation":"1. Renovation of natural drains - Mahapathana Ela","Priority based on Soil Erosion Hazard":"-","N":7.06884,"E":80.877083,"Quantity":"1 km","Proposed measure/s":"Clearing and planting some trees along the banks (Aracanut) and other conservation practices","Total_Cost":"100,000.00","Contribution (Local Community, LA, and the project)":"Labour and other basic services by the Local community/ Shramadana","Time frame for the implementation":"0.5 Years","photopath":"https://raw.githubusercontent.com/MWS003-GIS/MWS003-GIS.github.io/main/IWWRMP/Data/EXD/200_photo/MWS_027/Mahapathana Canal.jpg"},"geometry":{"type":"Point","coordinates":[80.877083,7.06884]}},
{"type":"Feature","properties":{"No.":21,"GND No.":"516D","GND Name":"Mahapathana","Key Activities proposed for Soil and Water conservation":"2. Renovation of natural drains - Ma Ussakele - Yakkatava Oya","Priority based on Soil Erosion Hazard":"-","N":7.06082,"E":80.87521,"Quantity":"6.5 km","Proposed measure/s":"Clearing and planting some trees along the banks (Aracanut) and other conservation practices","Total_Cost":"650,000.00","Contribution (Local Community, LA, and the project)":"Labour and other basic services by the Local community/ Shramadana","Time frame for the implementation":"1 Year","photopath":"https://raw.githubusercontent.com/MWS003-GIS/MWS003-GIS.github.io/main/IWWRMP/Data/EXD/200_photo/MWS_027/Yakkatuwa Oya.jpg"},"geometry":{"type":"Point","coordinates":[80.87521,7.06082]}},
{"type":"Feature","properties":{"No.":22,"GND No.":"516D","GND Name":"Mahapathana","Key Activities proposed for Soil and Water conservation":"3. Renovation of natural drains - Ma Ussakele Upper Division Ela","Priority based on Soil Erosion Hazard":"-","N":7.06288,"E":80.875558,"Quantity":"1 km","Proposed measure/s":"Clearing and planting some trees along the banks (Aracanut) and other conservation practices","Total_Cost":"100,000.00","Contribution (Local Community, LA, and the project)":"Labour and other basic services by the Local community/ Shramadana","Time frame for the implementation":"0.5 Years","photopath":"https://raw.githubusercontent.com/MWS003-GIS/MWS003-GIS.github.io/main/IWWRMP/Data/EXD/200_photo/MWS_027/Maussa Kale.jpg"},"geometry":{"type":"Point","coordinates":[80.875558,7.06288]}}
]}