{"type":"FeatureCollection","name":"WP","crs":{"type":"name","properties":{"name":"urn:ogc:def:crs:OGC:1.3:CRS84"}},"features":[
{"type":"Feature","properties":{"No.":1,"GND No.":"515E","GN Division":"Maha Uva","Non-point sources of pollution":"Potential to adding human waste to water - Dam Lower Division","N":7.074276,"E":80.86652,"Point sources of pollution":"-","Add. N ":"-","Add. E ":"-","Recommended water quality improvement measures":"-","Unit Cost (Rs.)":"-","Total Cost (Rs.)":"-","Contributions (Local Community, LA, Project)":"-","Time frame for the implementation":"-","photopath":"Not_Available"},"geometry":{"type":"Point","coordinates":[80.86652,7.074276]}},
{"type":"Feature","properties":{"No.":2,"GND No.":"515E","GN Division":"Maha Uva","Non-point sources of pollution":"Potential to adding human waste to water - Dam Upper Division","N":7.074276,"E":80.86652,"Point sources of pollution":"-","Add. N ":"-","Add. E ":"-","Recommended water quality improvement measures":"-","Unit Cost (Rs.)":"-","Total Cost (Rs.)":"-","Contributions (Local Community, LA, Project)":"-","Time frame for the implementation":"-","photopath":"Not_Available"},"geometry":{"type":"Point","coordinates":[80.86652,7.074276]}},
{"type":"Feature","properties":{"No.":3,"GND No.":"515E","GN Division":"Maha Uva","Non-point sources of pollution":"Potential to adding human waste to water - Industrial Division","N":7.074276,"E":80.86652,"Point sources of pollution":"-","Add. N ":"-","Add. E ":"-","Recommended water quality improvement measures":"-","Unit Cost (Rs.)":"-","Total Cost (Rs.)":"-","Contributions (Local Community, LA, Project)":"-","Time frame for the implementation":"-","photopath":"Not_Available"},"geometry":{"type":"Point","coordinates":[80.86652,7.074276]}},
{"type":"Feature","properties":{"No.":4,"GND No.":"515E","GN Division":"Maha Uva","Non-point sources of pollution":"Potential to adding human waste to water No. 3 Division","N":7.074276,"E":80.86652,"Point sources of pollution":"-","Add. N ":"-","Add. E ":"-","Recommended water quality improvement measures":"-","Unit Cost (Rs.)":"-","Total Cost (Rs.)":"-","Contributions (Local Community, LA, Project)":"-","Time frame for the implementation":"-","photopath":"Not_Available"},"geometry":{"type":"Point","coordinates":[80.86652,7.074276]}},
{"type":"Feature","properties":{"No.":5,"GND No.":"515E","GN Division":"Maha Uva","Non-point sources of pollution":"Potential to adding human waste to water - No. 4 Division","N":7.074276,"E":80.86652,"Point sources of pollution":"-","Add. N ":"-","Add. E ":"-","Recommended water quality improvement measures":"-","Unit Cost (Rs.)":"-","Total Cost (Rs.)":"-","Contributions (Local Community, LA, Project)":"-","Time frame for the implementation":"-","photopath":"Not_Available"},"geometry":{"type":"Point","coordinates":[80.86652,7.074276]}},
{"type":"Feature","properties":{"No.":6,"GND No.":"515E","GN Division":"Maha Uva","Non-point sources of pollution":"Improper disposal of household waste - Maha Uva","N":7.074276,"E":80.86652,"Point sources of pollution":"-","Add. N ":"-","Add. E ":"-","Recommended water quality improvement measures":"Preparing a separate place in home gardens for disposing household waste\nAwareness programme on how to disposal household waste properly and converting them to usable products such as compost\nFacilitating garbage collection","Unit Cost (Rs.)":"-","Total Cost (Rs.)":"50,000.00","Contributions (Local Community, LA, Project)":"Local/Central governments","Time frame for the implementation":"0.5 Years","photopath":"Not_Available"},"geometry":{"type":"Point","coordinates":[80.86652,7.074276]}},
{"type":"Feature","properties":{"No.":7,"GND No.":"516","GN Division":"Ketakandura","Non-point sources of pollution":"Improper disposal of household waste - Ketakandura","N":7.106539,"E":80.875566,"Point sources of pollution":"-","Add. N ":"-","Add. E ":"-","Recommended water quality improvement measures":"Preparing a separate place in home gardens for disposing household waste\nAwareness programme on how to disposal household waste properly and converting them to usable products such as compost\nFacilitating garbage collection","Unit Cost (Rs.)":"-","Total Cost (Rs.)":"50,000.00","Contributions (Local Community, LA, Project)":"Local/Central governments","Time frame for the implementation":"0.5 Years","photopath":"Not_Available"},"geometry":{"type":"Point","coordinates":[80.875566,7.106539]}},
{"type":"Feature","properties":{"No.":9,"GND No.":"516B","GN Division":"Egodakanda","Non-point sources of pollution":"Potential to adding human waste to water - Egodakanda","N":7.085885,"E":80.869837,"Point sources of pollution":"-","Add. N ":"-","Add. E ":"-","Recommended water quality improvement measures":"-","Unit Cost (Rs.)":"-","Total Cost (Rs.)":"-","Contributions (Local Community, LA, Project)":"-","Time frame for the implementation":"-","photopath":"Not_Available"},"geometry":{"type":"Point","coordinates":[80.869837,7.085885]}},
{"type":"Feature","properties":{"No.":10,"GND No.":"516B","GN Division":"Egodakanda","Non-point sources of pollution":"Improper disposal of household waste - Egodakanda (Dumping of garbage in the reserve near Bandara Kade and Dumping of garbage in the canal near Maha Uva Colony)","N":7.085885,"E":80.869837,"Point sources of pollution":"-","Add. N ":"-","Add. E ":"-","Recommended water quality improvement measures":"Preparing a separate place in home gardens for disposing household waste\nAwareness programme on how to disposal household waste properly and converting them to usable products such as compost\nFacilitating garbage collection","Unit Cost (Rs.)":"-","Total Cost (Rs.)":"50,000.00","Contributions (Local Community, LA, Project)":"Local/Central governments","Time frame for the implementation":"0.5 Years","photopath":"Not_Available"},"geometry":{"type":"Point","coordinates":[80.869837,7.085885]}},
{"type":"Feature","properties":{"No.":11,"GND No.":"516C","GN Division":"Werellapathana","Non-point sources of pollution":"Potential to adding human waste to water - Ilukpathana","N":7.074728,"E":80.879034,"Point sources of pollution":"-","Add. N ":"-","Add. E ":"-","Recommended water quality improvement measures":"-","Unit Cost (Rs.)":"-","Total Cost (Rs.)":"-","Contributions (Local Community, LA, Project)":"-","Time frame for the implementation":"-","photopath":"Not_Available"},"geometry":{"type":"Point","coordinates":[80.879034,7.074728]}},
{"type":"Feature","properties":{"No.":12,"GND No.":"516C","GN Division":"Werellapathana","Non-point sources of pollution":"Potential to adding human waste to water - Werellapathana","N":7.074728,"E":80.879034,"Point sources of pollution":"-","Add. N ":"-","Add. E ":"-","Recommended water quality improvement measures":"-","Unit Cost (Rs.)":"-","Total Cost (Rs.)":"-","Contributions (Local Community, LA, Project)":"-","Time frame for the implementation":"-","photopath":"Not_Available"},"geometry":{"type":"Point","coordinates":[80.879034,7.074728]}},
{"type":"Feature","properties":{"No.":13,"GND No.":"516C","GN Division":"Werellapathana","Non-point sources of pollution":"Improper disposal of household waste - Werellapathana","N":7.074728,"E":80.879034,"Point sources of pollution":"-","Add. N ":"-","Add. E ":"-","Recommended water quality improvement measures":"Preparing a separate place in home gardens for disposing household waste\nAwareness programme on how to disposal household waste properly and converting them to usable products such as compost\nFacilitating garbage collection","Unit Cost (Rs.)":"-","Total Cost (Rs.)":"50,000.00","Contributions (Local Community, LA, Project)":"Local/Central governments","Time frame for the implementation":"0.5 Years","photopath":"Not_Available"},"geometry":{"type":"Point","coordinates":[80.879034,7.074728]}},
{"type":"Feature","properties":{"No.":14,"GND No.":"516D","GN Division":"Mahapathana","Non-point sources of pollution":"Potential to adding human waste to water - Mahapathana","N":7.060406,"E":80.875265,"Point sources of pollution":"-","Add. N ":"-","Add. E ":"-","Recommended water quality improvement measures":"-","Unit Cost (Rs.)":"-","Total Cost (Rs.)":"-","Contributions (Local Community, LA, Project)":"-","Time frame for the implementation":"-","photopath":"Not_Available"},"geometry":{"type":"Point","coordinates":[80.875265,7.060406]}}
]}