{"type":"FeatureCollection","name":"Landslides","crs":{"type":"name","properties":{"name":"urn:ogc:def:crs:OGC:1.3:CRS84"}},"features":[
{"type":"Feature","properties":{"No.":2,"GN Division No.":1132,"GN Division":"Mulgama","Landslides":"Landslides - Mulgama","N":7.157405,"E":80.67253,"NBRO Recommendation N/A":"Needs NBRO concern","Proposed Measures":"Taking appropriate action on the recommendations of NBRO","photopath":"https://raw.githubusercontent.com/MWS003-GIS/MWS003-GIS.github.io/main/IWWRMP/Data/EXD/200_photo/MWS_128/Disaster_High_Risk_Landslide_Area_Mulgama.jpg"},"geometry":{"type":"Point","coordinates":[80.67253,7.157405]}},
{"type":"Feature","properties":{"No.":5,"GN Division No.":1133,"GN Division":"Pitawala","Landslides":"High risk area - Pitawala Village 1","N":7.15936,"E":80.674833,"NBRO Recommendation N/A":"NBRO is aware","Proposed Measures":"Follow the recommendations of NBRO","photopath":"https://raw.githubusercontent.com/MWS003-GIS/MWS003-GIS.github.io/main/IWWRMP/Data/EXD/200_photo/MWS_128/Disaster_Pitawala_Village_Landslide (2).jpg"},"geometry":{"type":"Point","coordinates":[80.674833,7.15936]}},
{"type":"Feature","properties":{"No.":6,"GN Division No.":1133,"GN Division":"Pitawala","Landslides":"Landslides - Pitawala Village 2","N":7.159157,"E":80.674835,"NBRO Recommendation N/A":"Needs NBRO concern","Proposed Measures":"Taking appropriate action on the recommendations of NBRO","photopath":"https://raw.githubusercontent.com/MWS003-GIS/MWS003-GIS.github.io/main/IWWRMP/Data/EXD/200_photo/MWS_128/Disaster_Pitawala_Village_High_Risk_Landslide_Area.jpg"},"geometry":{"type":"Point","coordinates":[80.674835,7.159157]}},
{"type":"Feature","properties":{"No.":7,"GN Division No.":1133,"GN Division":"Pitawala","Landslides":"Landslides - C.G. Division 1","N":7.167001,"E":80.681003,"NBRO Recommendation N/A":"NBRO is aware","Proposed Measures":"Follow the recommendations of NBRO","photopath":"https://raw.githubusercontent.com/MWS003-GIS/MWS003-GIS.github.io/main/IWWRMP/Data/EXD/200_photo/MWS_128/Disaster_CG_Division_Village_High_Risk_Landslide_Area (2).jpg"},"geometry":{"type":"Point","coordinates":[80.681003,7.167001]}},
{"type":"Feature","properties":{"No.":8,"GN Division No.":1133,"GN Division":"Pitawala","Landslides":"High risk area - C.G. Division 2","N":7.166062,"E":80.680408,"NBRO Recommendation N/A":"NBRO is aware","Proposed Measures":"Follow the recommendations of NBRO","photopath":"https://raw.githubusercontent.com/MWS003-GIS/MWS003-GIS.github.io/main/IWWRMP/Data/EXD/200_photo/MWS_128/Disaster_CG_Division_Landslide_Area (5).jpg"},"geometry":{"type":"Point","coordinates":[80.680408,7.166062]}},
{"type":"Feature","properties":{"No.":3,"GN Division No.":1135,"GN Division":"Palledelthota","Landslides":"Landsliding (moderate risk) - Palledelthota village Maussawa division","N":7.186923,"E":80.655349,"NBRO Recommendation N/A":"NBRO is aware","Proposed Measures":"Follow the recommendations of NBRO","photopath":"https://raw.githubusercontent.com/MWS003-GIS/MWS003-GIS.github.io/main/IWWRMP/Data/EXD/200_photo/MWS_128/Disaster_Land_Slide_Crak_Maussawa_Division.jpg"},"geometry":{"type":"Point","coordinates":[80.655349,7.186923]}},
{"type":"Feature","properties":{"No.":1,"GN Division No.":1136,"GN Division":"Nawa Nillamba","Landslides":"Landslides - Halwattha Ihala","N":7.192945,"E":80.657546,"NBRO Recommendation N/A":"NBRO is aware","Proposed Measures":"Follow the recommendations of NBRO","photopath":"https://raw.githubusercontent.com/MWS003-GIS/MWS003-GIS.github.io/main/IWWRMP/Data/EXD/200_photo/MWS_128/nawanillamba landslide area.jpg"},"geometry":{"type":"Point","coordinates":[80.657546,7.192945]}},
{"type":"Feature","properties":{"No.":4,"GN Division No.":1140,"GN Division":"Thumpelawaka","Landslides":"Landslides - Dewalawattha","N":7.163453,"E":80.660906,"NBRO Recommendation N/A":"NBRO is aware","Proposed Measures":"Follow the recommendations of NBRO","photopath":"https://raw.githubusercontent.com/MWS003-GIS/MWS003-GIS.github.io/main/IWWRMP/Data/EXD/200_photo/MWS_128/Lands_Soil_Erosion (2).jpg"},"geometry":{"type":"Point","coordinates":[80.660906,7.163453]}}
]}