{"type":"FeatureCollection","name":"WSP","crs":{"type":"name","properties":{"name":"urn:ogc:def:crs:OGC:1.3:CRS84"}},"features":[
{"type":"Feature","properties":{"No":25,"GND No.":"63G","Name of the Tank":"Kosgahakumbura spring and catchment area","N":6.813353,"E":80.959951,"Observation":"It is exists as a water source and jungle. People were invading .","Description":"Surveying before demarcating\n\nContingencies 10%","Amount (Rs.)":22000,"photopath":"https://raw.githubusercontent.com/MWS003-GIS/MWS003-GIS.github.io/main/IWWRMP/Data/EXD/200_photo/MWS_065_2/Kosgahakumbura spring and catchment area.jpg"},"geometry":{"type":"Point","coordinates":[80.959951,6.813353]}},
{"type":"Feature","properties":{"No":26,"GND No.":"63H","Name of the Tank":"Near the B Government Resort","N":6.801743,"E":80.960353,"Observation":"It is exists as a water source and jungle. People had been invaded","Description":"Surveying before demarcating\n\nContingencies 10%","Amount (Rs.)":66000,"photopath":"https://raw.githubusercontent.com/MWS003-GIS/MWS003-GIS.github.io/main/IWWRMP/Data/EXD/200_photo/MWS_065_2/Near the B Government Resort Reserve.jpg"},"geometry":{"type":"Point","coordinates":[80.960353,6.801743]}},
{"type":"Feature","properties":{"No":27,"GND No.":"63H","Name of the Tank":"Umankandura spring","N":6.803438,"E":80.956799,"Observation":"There  is a existing water stream","Description":"Surveying before demarcating\n\nContingencies 10%","Amount (Rs.)":82500,"photopath":"https://raw.githubusercontent.com/MWS003-GIS/MWS003-GIS.github.io/main/IWWRMP/Data/EXD/200_photo/MWS_065_2/Umankandura spring.jpg"},"geometry":{"type":"Point","coordinates":[80.956799,6.803438]}},
{"type":"Feature","properties":{"No":28,"GND No.":"64A","Name of the Tank":"Kotuwa Watta","N":6.835598,"E":80.977463,"Observation":"There is a 2.5m diax3.5mhight well. Water is taken for   drinking. Well wall has collapsed on some places","Description":"Site preparation before constructions including removal of collapsed wall\n\n150mm x 225mm Random Rubble masonry work in 1:5 cement and sand mortar in structures\n\nScarifying existing rock or concrete surface\n\nPlaster 12mm thick in 1:3 cement and sand finis","Amount (Rs.)":148500,"photopath":"https://raw.githubusercontent.com/MWS003-GIS/MWS003-GIS.github.io/main/IWWRMP/Data/EXD/200_photo/MWS_065_2/Kotuwa Watta well.jpg"},"geometry":{"type":"Point","coordinates":[80.977463,6.835598]}},
{"type":"Feature","properties":{"No":29,"GND No.":"64A","Name of the Tank":"Keselatta Arawa well","N":6.832394,"E":80.980555,"Observation":"There is a 3.5m x 1.8 x 3.0m hight well. Water is taken for   drinking.","Description":"Fabricating & fixing security weld mesh in open-type buildings in GI weld mesh 50mm x 50mm SWG 10, welded on 40mm x 40mm x 5mm angle frame complete with application of two coats enamel paint over two coats of anticorrosive paint and complete.\nAll as per","Amount (Rs.)":121000,"photopath":"https://raw.githubusercontent.com/MWS003-GIS/MWS003-GIS.github.io/main/IWWRMP/Data/EXD/200_photo/MWS_065_2/Keselatta Arawa well.jpg"},"geometry":{"type":"Point","coordinates":[80.980555,6.832394]}},
{"type":"Feature","properties":{"No":30,"GND No.":"64A","Name of the Tank":"Paradehi Arawa canal reservation","N":6.831607,"E":80.971716,"Observation":"They digholes and  install pipes to obtain water","Description":"Surveying before demarcating\n\nClearing the site before constructions\n\nConstruction of 3.5m long x 0.9m high weir across the river\n\nConstruction of 0.9 m high Weir across stream excluding abutments and stop planks\n\nConstruction of 1.0m high 1:3:6 (40mm) c","Amount (Rs.)":2409000,"photopath":"https://raw.githubusercontent.com/MWS003-GIS/MWS003-GIS.github.io/main/IWWRMP/Data/EXD/200_photo/MWS_065_2/Paradehiarawa stream in water intake place.jpg"},"geometry":{"type":"Point","coordinates":[80.971716,6.831607]}},
{"type":"Feature","properties":{"No":31,"GND No.":"64A","Name of the Tank":"Sirimalwatta Kadura","N":6.837292,"E":80.975702,"Observation":"It is exists as a jungle. People were invading .The environment is polluted because people throw garbage","Description":"Surveying before demarcating\n\nDisplay notice boards to prevent littering\n\nMiscellaneous\n\nContingencies 10%","Amount (Rs.)":38500,"photopath":"https://raw.githubusercontent.com/MWS003-GIS/MWS003-GIS.github.io/main/IWWRMP/Data/EXD/200_photo/MWS_065_2/Sirimalwaththa kandura.jpg"},"geometry":{"type":"Point","coordinates":[80.975702,6.837292]}},
{"type":"Feature","properties":{"No":32,"GND No.":"64C","Name of the Tank":"Boragaha spring","N":6.830425,"E":80.974676,"Observation":"It is exists as a water source about 3 km long.People were invading .","Description":"Surveying before demarcating\n\nContingencies 10%","Amount (Rs.)":22000,"photopath":"https://raw.githubusercontent.com/MWS003-GIS/MWS003-GIS.github.io/main/IWWRMP/Data/EXD/200_photo/MWS_065_2/Boragaha spring.jpg"},"geometry":{"type":"Point","coordinates":[80.974676,6.830425]}},
{"type":"Feature","properties":{"No":33,"GND No.":"64C","Name of the Tank":"Deekirilla spring","N":6.824994,"E":80.973732,"Observation":"It is exists as a water source about 1 km long.People were invading .","Description":"Surveying before demarcating\n\nContingencies 10%","Amount (Rs.)":22000,"photopath":"https://raw.githubusercontent.com/MWS003-GIS/MWS003-GIS.github.io/main/IWWRMP/Data/EXD/200_photo/MWS_065_2/Deekirilla spring.jpg"},"geometry":{"type":"Point","coordinates":[80.973732,6.824994]}},
{"type":"Feature","properties":{"No":34,"GND No.":"64C","Name of the Tank":"Henagaha spring","N":6.827343,"E":80.975664,"Observation":"It is exists as a water source about 3 km long.People were invading .","Description":"Surveying before demarcating\n\nContingencies 10%","Amount (Rs.)":22000,"photopath":"https://raw.githubusercontent.com/MWS003-GIS/MWS003-GIS.github.io/main/IWWRMP/Data/EXD/200_photo/MWS_065_2/Henagaha spring.jpg"},"geometry":{"type":"Point","coordinates":[80.975664,6.827343]}},
{"type":"Feature","properties":{"No":35,"GND No.":"64C","Name of the Tank":"Hompallagoda Pathana","N":6.821226,"E":80.973332,"Observation":"It is exists as a water source about 1 km long.People were invading .","Description":"Surveying before demarcating\n\nContingencies 10%","Amount (Rs.)":22000,"photopath":"https://raw.githubusercontent.com/MWS003-GIS/MWS003-GIS.github.io/main/IWWRMP/Data/EXD/200_photo/MWS_065_2/Hompallagoda Pathana.jpg"},"geometry":{"type":"Point","coordinates":[80.973332,6.821226]}},
{"type":"Feature","properties":{"No":36,"GND No.":"64G","Name of the Tank":"Boyer reservation","N":6.817677,"E":80.963057,"Observation":"It is exists as a jungle. People were invading .The boundary is separated by a fence. Which is in a dilapidated state.","Description":"Surveying before demarcating\n\nRepairing the fence\n\nVegetative cover improving around structures (5m x 10m) with planting Arecanut seedling in 1.5m x 1.5m grid, and planting Kumbuk/ Mee/ Godapara/ Kaduru/ Aththikka/ Wal Del/ Kekuna/ randomly mixed seedlin","Amount (Rs.)":506000,"photopath":"https://raw.githubusercontent.com/MWS003-GIS/MWS003-GIS.github.io/main/IWWRMP/Data/EXD/200_photo/MWS_065_2/Boyer Reservation (4).jpg"},"geometry":{"type":"Point","coordinates":[80.963057,6.817677]}}
]}