{"type":"FeatureCollection","name":"DWS","crs":{"type":"name","properties":{"name":"urn:ogc:def:crs:OGC:1.3:CRS84"}},"features":[
{"type":"Feature","properties":{"No":1,"GND No.":800,"Scheme":"Hukmana","N":7.314144,"E":80.806026,"Observation":"There is a 6.5m dia and 2.2m hight 2 no's Stock tank and filter tanks.Water is taken for Drinking","Description":"Repairts to the existing storage tanks\n\nScarifying existing or concrete surface\n\nPlaster 12mm thick in 1:3 cement and sand finished smooth with gray cement floating\n\nWater proofing with cementitious water proofing agent approved by the Engineer, (Thorose","Estimated Cost":"2,695,000.00","photopath":"https://raw.githubusercontent.com/MWS003-GIS/MWS003-GIS.github.io/main/IWWRMP/Data/EXD/200_photo/MWS_087/Prabashvara com water suply project (5).jpg"},"geometry":{"type":"Point","coordinates":[80.806026,7.314144]}},
{"type":"Feature","properties":{"No":2,"GND No.":801,"Scheme":"Retiyagama","N":7.310046,"E":80.808721,"Observation":"There is a 5.0m dia and 2.2m hight Stock tank and 2 no's filter tanks.Water is taken for Drinking","Description":"Repairts to the existing storage tanks\n\nScarifying existing or concrete surface\n\nPlaster 12mm thick in 1:3 cement and sand finished smooth with gray cement floating\n\nWater proofing with cementitious water proofing agent approved by the Engineer, (Thorose","Estimated Cost":"852,500.00","photopath":"https://raw.githubusercontent.com/MWS003-GIS/MWS003-GIS.github.io/main/IWWRMP/Data/EXD/200_photo/MWS_087/Retiyagama kandura_20250401_125707.jpg"},"geometry":{"type":"Point","coordinates":[80.808721,7.310046]}},
{"type":"Feature","properties":{"No":3,"GND No.":801,"Scheme":"Retiyagama ihala kotasa","N":7.307312,"E":80.814157,"Observation":"The  storage water tank is constructed (2.0m x 2.0m x 1.1m, L*W*H) and drinking water is distributed.","Description":"Construction of 1.0 m x 1.0 m x 1.5 m (LxWxH) filter tank with necessary parts\n\nProviding the filter media\n\nFabricating & fixing security weld mesh in open-type buildings in GI weld mesh 50mm x 50mm SWG 10, welded on 40mm x 40mm x 5mm angle frame complet","Estimated Cost":"667,700.00","photopath":"https://raw.githubusercontent.com/MWS003-GIS/MWS003-GIS.github.io/main/IWWRMP/Data/EXD/200_photo/MWS_087/Retiyagama ihala area water tank20250401_115457.jpg"},"geometry":{"type":"Point","coordinates":[80.814157,7.307312]}},
{"type":"Feature","properties":{"No":4,"GND No.":802,"Scheme":"Delpatan oya spring","N":7.318673,"E":80.827801,"Observation":"The  water tank is constructed (1.8m x 1.8m x 1.5m, L*W*H) and drinking water is distributed. But that tank is damage","Description":"Construction of 0.9 m high Weir across stream excluding abutments and stop planks\n\nSupplying & fixing 50mm Dia PVC pipe line in solvent socket type in PN-11 rate including socket, solvent cement, etc.. Starting from the anicut\n\nRepairs to the existing Wa","Estimated Cost":"1,144,000.00","photopath":"https://raw.githubusercontent.com/MWS003-GIS/MWS003-GIS.github.io/main/IWWRMP/Data/EXD/200_photo/MWS_087/Delpatanoya Spring20250403_134441.jpg"},"geometry":{"type":"Point","coordinates":[80.827801,7.318673]}},
{"type":"Feature","properties":{"No":5,"GND No.":802,"Scheme":"Kandekumbura village","N":7.305827,"E":80.816668,"Observation":"There is no water distribution system now.","Description":"Construction of 0.6 m high Weir across stream excluding abutments and stop planks\n\nSupplying & fixing 50mm Dia PVC pipe line in solvent socket type in PN-11 rate including socket, solvent cement, etc.. Starting from the anicut\n\nConstruction of Concrete w","Estimated Cost":"2,150,500.00","photopath":"https://raw.githubusercontent.com/MWS003-GIS/MWS003-GIS.github.io/main/IWWRMP/Data/EXD/200_photo/MWS_087/Kandekumbura water project anicut_20250403_130946.jpg"},"geometry":{"type":"Point","coordinates":[80.816668,7.305827]}}
]}