{"type":"FeatureCollection","name":"SR","crs":{"type":"name","properties":{"name":"urn:ogc:def:crs:OGC:1.3:CRS84"}},"features":[
{"type":"Feature","properties":{"No":1,"GND No.":800,"Scheme":"Aguruwella oya reserve  area","N":7.317244,"E":80.815333,"Observation":"During the rainy season when too much water flows, Bank erosion occurs","Description":"Arrange stone packing-rubble packing\n\nVegetative cover improving around structures (5m x 10m) with Areca nut seedling in 1.5m x \n1.5m grid, Kumbuk/ Mee/ Godapara/ Kaduru/ Aththikka/ Wal Del/ Kekuna/ randomly mixed \nseedlings and planting at 3.5m x 3.5 m","Amount (Rs.)":"161,700.00","photopath":"Not_Available"},"geometry":{"type":"Point","coordinates":[80.815333,7.317244]}},
{"type":"Feature","properties":{"No":2,"GND No.":801,"Scheme":"Retiyagama Kandura","N":7.306869,"E":80.809872,"Observation":"During the rainy season when too much water flows, Bank erosion occurs","Description":"Arrange stone packing-rubble packing\n\nVegetative cover improving around structures (5m x 10m) with Areca nut seedling in 1.5m x \n1.5m grid, Kumbuk/ Mee/ Godapara/ Kaduru/ Aththikka/ Wal Del/ Kekuna/ randomly mixed \nseedlings and planting at 3.5m x 3.5 m","Amount (Rs.)":"107,745.00","photopath":"https://raw.githubusercontent.com/MWS003-GIS/MWS003-GIS.github.io/main/IWWRMP/Data/EXD/200_photo/MWS_087/Retiyagama kandura_20250401_125707.jpg"},"geometry":{"type":"Point","coordinates":[80.809872,7.306869]}},
{"type":"Feature","properties":{"No":3,"GND No.":801,"Scheme":"Aguruwella oya reserve  area","N":7.31117,"E":80.807042,"Observation":"During the rainy season when too much water flows, Bank erosion occurs","Description":"Arrange stone packing-rubble packing\n\nVegetative cover improving around structures (5m x 10m) with Areca nut seedling in 1.5m x \n1.5m grid, Kumbuk/ Mee/ Godapara/ Kaduru/ Aththikka/ Wal Del/ Kekuna/ randomly mixed \nseedlings and planting at 3.5m x 3.5 m","Amount (Rs.)":"116,710.00","photopath":"https://raw.githubusercontent.com/MWS003-GIS/MWS003-GIS.github.io/main/IWWRMP/Data/EXD/200_photo/MWS_087/Anguruwella oya_20250401_144518.jpg"},"geometry":{"type":"Point","coordinates":[80.807042,7.31117]}},
{"type":"Feature","properties":{"No":4,"GND No.":802,"Scheme":"Galpothu Oya","N":7.300232,"E":80.812801,"Observation":"During the rainy season when too much water flows, Bank erosion occurs","Description":"Arrange stone packing-rubble packing\n\nVegetative cover improving around structures (5m x 10m) with Areca nut seedling in 1.5m x \n1.5m grid, Kumbuk/ Mee/ Godapara/ Kaduru/ Aththikka/ Wal Del/ Kekuna/ randomly mixed \nseedlings and planting at 3.5m x 3.5 m","Amount (Rs.)":"143,550.00","photopath":"https://raw.githubusercontent.com/MWS003-GIS/MWS003-GIS.github.io/main/IWWRMP/Data/EXD/200_photo/MWS_087/Galpotu oya_20250403_102620.jpg"},"geometry":{"type":"Point","coordinates":[80.812801,7.300232]}},
{"type":"Feature","properties":{"No":5,"GND No.":802,"Scheme":"Galmal oya","N":7.303799,"E":80.81065,"Observation":"During the rainy season when too much water flows, Bank erosion occurs","Description":"Arrange stone packing-rubble packing\n\nVegetative cover improving around structures (5m x 10m) with Areca nut seedling in 1.5m x \n1.5m grid, Kumbuk/ Mee/ Godapara/ Kaduru/ Aththikka/ Wal Del/ Kekuna/ randomly mixed \nseedlings and planting at 3.5m x 3.5 m","Amount (Rs.)":"94,050.00","photopath":"https://raw.githubusercontent.com/MWS003-GIS/MWS003-GIS.github.io/main/IWWRMP/Data/EXD/200_photo/MWS_087/Galmal oya_20250403_103710.jpg"},"geometry":{"type":"Point","coordinates":[80.81065,7.303799]}}
]}