{"type":"FeatureCollection","name":"WP","crs":{"type":"name","properties":{"name":"urn:ogc:def:crs:OGC:1.3:CRS84"}},"features":[
{"type":"Feature","properties":{"No.":1,"GND No.":"533L","GN Division":"Delmar","Non-point sources of pollution":"Potential to adding human waste - Grazeline Estate","N":6.99333718,"E":80.87468419,"Point sources of pollution":"-","Add. N ":"-","Add. E ":"-","Recommended water quality improvement measures":"-","Unit Cost (Rs.)":"-","Total Cost (Rs.)":"-","Contributions (Local Community, LA, Project)":"-","Time frame for the implementation":"-","photopath":"Not_Available"},"geometry":{"type":"Point","coordinates":[80.87468419,6.99333718]}},
{"type":"Feature","properties":{"No.":2,"GND No.":"533L","GN Division":"Delmar","Non-point sources of pollution":"Potential to adding human waste - Delnar UD","N":6.99333718,"E":80.87468419,"Point sources of pollution":"-","Add. N ":"-","Add. E ":"-","Recommended water quality improvement measures":"-","Unit Cost (Rs.)":"-","Total Cost (Rs.)":"-","Contributions (Local Community, LA, Project)":"-","Time frame for the implementation":"-","photopath":"Not_Available"},"geometry":{"type":"Point","coordinates":[80.87468419,6.99333718]}},
{"type":"Feature","properties":{"No.":3,"GND No.":"533L","GN Division":"Delmar","Non-point sources of pollution":"Potential to adding human waste - Delnar MD","N":6.99333718,"E":80.87468419,"Point sources of pollution":"-","Add. N ":"-","Add. E ":"-","Recommended water quality improvement measures":"-","Unit Cost (Rs.)":"-","Total Cost (Rs.)":"-","Contributions (Local Community, LA, Project)":"-","Time frame for the implementation":"-","photopath":"Not_Available"},"geometry":{"type":"Point","coordinates":[80.87468419,6.99333718]}},
{"type":"Feature","properties":{"No.":4,"GND No.":"533L","GN Division":"Delmar","Non-point sources of pollution":"Potential to adding human waste - Goarden Estate","N":6.99333718,"E":80.87468419,"Point sources of pollution":"-","Add. N ":"-","Add. E ":"-","Recommended water quality improvement measures":"-","Unit Cost (Rs.)":"-","Total Cost (Rs.)":"-","Contributions (Local Community, LA, Project)":"-","Time frame for the implementation":"-","photopath":"Not_Available"},"geometry":{"type":"Point","coordinates":[80.87468419,6.99333718]}},
{"type":"Feature","properties":{"No.":5,"GND No.":"533L","GN Division":"Delmar","Non-point sources of pollution":"Improper disposal of domestic waste in some places near houses","N":6.99333718,"E":80.87468419,"Point sources of pollution":"-","Add. N ":"-","Add. E ":"-","Recommended water quality improvement measures":"Preparing a separate place in homegardens for disposing houshold waste\nAwareness programme on how to disposal household waste properly and converting them to usable products such as compost\nFacilitating garbage collection by the local governments, as needed","Unit Cost (Rs.)":"-","Total Cost (Rs.)":"50,000.00","Contributions (Local Community, LA, Project)":"Local/Central governments ","Time frame for the implementation":"0.5 Years","photopath":"Not_Available"},"geometry":{"type":"Point","coordinates":[80.87468419,6.99333718]}},
{"type":"Feature","properties":{"No.":6,"GND No.":"533D","GN Division":"Udapussallawa North","Non-point sources of pollution":"Improper disposal of domestic waste in some places near houses","N":7.00595774,"E":80.91138573,"Point sources of pollution":"-","Add. N ":"-","Add. E ":"Preparing a separate place in homegardens for disposing houshold waste\nAwareness programme on how to disposal household waste properly and converting them to usable products such as compost\nFacilitating garbage collection by the local governments, as needed","Recommended water quality improvement measures":"-","Unit Cost (Rs.)":"50,000.00","Total Cost (Rs.)":"Local/Central governments ","Contributions (Local Community, LA, Project)":"0.5 Years","Time frame for the implementation":null,"photopath":"Not_Available"},"geometry":{"type":"Point","coordinates":[80.91138573,7.00595774]}},
{"type":"Feature","properties":{"No.":7,"GND No.":"533E","GN Division":"Udapussellawa South","Non-point sources of pollution":"Potential to adding human waste - Woldmar Estate","N":6.98606242,"E":80.88769024,"Point sources of pollution":"-","Add. N ":"-","Add. E ":"-","Recommended water quality improvement measures":"-","Unit Cost (Rs.)":"-","Total Cost (Rs.)":"-","Contributions (Local Community, LA, Project)":"-","Time frame for the implementation":"-","photopath":"Not_Available"},"geometry":{"type":"Point","coordinates":[80.88769024,6.98606242]}},
{"type":"Feature","properties":{"No.":8,"GND No.":"533E","GN Division":"Udapussellawa South","Non-point sources of pollution":"Potential to adding human waste - Amherst Estate","N":6.98606242,"E":80.88769024,"Point sources of pollution":"-","Add. N ":"-","Add. E ":"-","Recommended water quality improvement measures":"-","Unit Cost (Rs.)":"-","Total Cost (Rs.)":"-","Contributions (Local Community, LA, Project)":"-","Time frame for the implementation":"-","photopath":"Not_Available"},"geometry":{"type":"Point","coordinates":[80.88769024,6.98606242]}},
{"type":"Feature","properties":{"No.":9,"GND No.":"533E","GN Division":"Udapussellawa South","Non-point sources of pollution":"Improper disposal of domestic waste in some places near houses","N":6.98606242,"E":80.88769024,"Point sources of pollution":"-","Add. N ":"-","Add. E ":"-","Recommended water quality improvement measures":"Preparing a separate place in homegardens for disposing houshold waste\nAwareness programme on how to disposal household waste properly and converting them to usable products such as compost\nFacilitating garbage collection by the local governments, as needed","Unit Cost (Rs.)":"-","Total Cost (Rs.)":"50,000.00","Contributions (Local Community, LA, Project)":"Local/Central governments ","Time frame for the implementation":"0.5 Years","photopath":"Not_Available"},"geometry":{"type":"Point","coordinates":[80.88769024,6.98606242]}},
{"type":"Feature","properties":{"No.":10,"GND No.":"533F","GN Division":"Sooriyagahapathana Pahala","Non-point sources of pollution":"Potential to adding human waste - Rocklanwatta No. Two Line House","N":7.01113562,"E":80.89852326,"Point sources of pollution":"-","Add. N ":"-","Add. E ":"-","Recommended water quality improvement measures":"-","Unit Cost (Rs.)":"-","Total Cost (Rs.)":"-","Contributions (Local Community, LA, Project)":"-","Time frame for the implementation":"-","photopath":"Not_Available"},"geometry":{"type":"Point","coordinates":[80.89852326,7.01113562]}},
{"type":"Feature","properties":{"No.":11,"GND No.":"533K","GN Division":"St. Magret","Non-point sources of pollution":"Potential to adding human waste - Enwic lowerdivision","N":6.99341415,"E":80.90771518,"Point sources of pollution":"-","Add. N ":"-","Add. E ":"-","Recommended water quality improvement measures":"-","Unit Cost (Rs.)":"-","Total Cost (Rs.)":"-","Contributions (Local Community, LA, Project)":"-","Time frame for the implementation":"-","photopath":"Not_Available"},"geometry":{"type":"Point","coordinates":[80.90771518,6.99341415]}},
{"type":"Feature","properties":{"No.":13,"GND No.":"533H","GN Division":"Galkadapathana","Non-point sources of pollution":"Improper disposal of domestic waste in some places near houses","N":7.0137524,"E":80.89150907,"Point sources of pollution":"-","Add. N ":"-","Add. E ":"-","Recommended water quality improvement measures":"Preparing a separate place in homegardens for disposing houshold waste\nAwareness programme on how to disposal household waste properly and converting them to usable products such as compost\nFacilitating garbage collection by the local governments, as needed","Unit Cost (Rs.)":"-","Total Cost (Rs.)":"50,000.00","Contributions (Local Community, LA, Project)":"Local/Central governments ","Time frame for the implementation":"0.5 Years","photopath":"Not_Available"},"geometry":{"type":"Point","coordinates":[80.89150907,7.0137524]}}
]}