{"type":"FeatureCollection","name":"WP","crs":{"type":"name","properties":{"name":"urn:ogc:def:crs:OGC:1.3:CRS84"}},"features":[
{"type":"Feature","properties":{"No.":2,"GND No.":"518B","GN Division":"Udamadura North","Non-point sources of pollution":"Potential to add human waste - Udamadura North GN Division","N":7.1044806,"E":80.9214312,"Point sources of pollution":"-","Add. N ":"-","Add. E ":"-","Recommended water quality improvement measures":"-","Unit Cost (Rs.)":"-","Total Cost (Rs.)":"-","Contributions (Local Community, LA, Project)":"-","Time frame for the implementation":"-","photopath":"Not_Available"},"geometry":{"type":"Point","coordinates":[80.9214312,7.1044806]}},
{"type":"Feature","properties":{"No.":3,"GND No.":"518B","GN Division":"Udamadura North","Non-point sources of pollution":"Improper disposal of domestic waste ","N":7.1044806,"E":80.9214312,"Point sources of pollution":"-","Add. N ":"Preparing a separate place in homegardens for disposing houshold waste\nAwareness programme on how to disposal household waste properly and converting them to usable products such as compost\n","Add. E ":"-","Recommended water quality improvement measures":"50,000.00","Unit Cost (Rs.)":"Local/Central governments ","Total Cost (Rs.)":"0.5 Years","Contributions (Local Community, LA, Project)":"-","Time frame for the implementation":"-","photopath":"Not_Available"},"geometry":{"type":"Point","coordinates":[80.9214312,7.1044806]}},
{"type":"Feature","properties":{"No.":4,"GND No.":"518C","GN Division":"Galkadawela","Non-point sources of pollution":"Improper disposal of domestic waste ","N":7.1016396,"E":80.9327109,"Point sources of pollution":"-","Add. N ":"-","Add. E ":"-","Recommended water quality improvement measures":"Preparing a separate place in homegardens for disposing houshold waste\nAwareness programme on how to disposal household waste properly and converting them to usable products such as compost\nFacilitating garbage collection","Unit Cost (Rs.)":null,"Total Cost (Rs.)":"50,000.00","Contributions (Local Community, LA, Project)":"Local/Central governments ","Time frame for the implementation":"0.5 Years","photopath":"Not_Available"},"geometry":{"type":"Point","coordinates":[80.9327109,7.1016396]}},
{"type":"Feature","properties":{"No.":5,"GND No.":"521","GN Division":"Bolagandawela","Non-point sources of pollution":"Potential to add human waste - Purankumbura Village","N":7.1165536,"E":80.9481553,"Point sources of pollution":"-","Add. N ":"-","Add. E ":"-","Recommended water quality improvement measures":"-","Unit Cost (Rs.)":"-","Total Cost (Rs.)":"-","Contributions (Local Community, LA, Project)":"-","Time frame for the implementation":"-","photopath":"Not_Available"},"geometry":{"type":"Point","coordinates":[80.9481553,7.1165536]}}
]}