{"type":"FeatureCollection","name":"SR","crs":{"type":"name","properties":{"name":"urn:ogc:def:crs:OGC:1.3:CRS84"}},"features":[
{"type":"Feature","properties":{"No":4,"GND No.":"63","Scheme":"Area of the Oya near the Boragasketiya bridge","N":6.799841,"E":80.946794,"Observation":"There are  apala trees at some places on both sides of the bank. But banks are eroded. Too much water flows in rainy season. In some places, small amounts of garbage have been dumped into streams, and in some places, reserved lands are being misused.","Description":"Paving available stone in the river banks and Planting trees\n\nDry rubble packing (with locally found rubble, size over 225mm )\n\nStream / canal  reservation protection by earth filling of  strip   of 1.5m to 2m wide  and average Depth of 0.5m\n\nVegetative","Amount (Rs.)":1171500,"photopath":"https://raw.githubusercontent.com/MWS003-GIS/MWS003-GIS.github.io/main/IWWRMP/Data/EXD/200_photo/MWS_064/Streams - Boragasketiya Oya.jpg"},"geometry":{"type":"Point","coordinates":[80.946794,6.799841]}},
{"type":"Feature","properties":{"No":5,"GND No.":"63","Scheme":"Tissaran amuna oya","N":6.802715,"E":80.942368,"Observation":"There are  apala trees at some places on both sides of the bank. But banks are eroded. Too much water flows in rainy season. In some places, small amounts of garbage have been dumped into streams, and in some places, reserved lands are being misused.","Description":"Paving available stone in the river banks and Planting trees\n\nDry rubble packing (with locally found rubble, size over 225mm )\n\nStream / canal  reservation protection by earth filling of  strip   of 1.5m to 2m wide  and average Depth of 0.5m\n\nVegetative","Amount (Rs.)":1518000,"photopath":"https://raw.githubusercontent.com/MWS003-GIS/MWS003-GIS.github.io/main/IWWRMP/Data/EXD/200_photo/MWS_064/Promotion of Eco-Tourism Industry - Thisaran Amuna.jpg"},"geometry":{"type":"Point","coordinates":[80.942368,6.802715]}},
{"type":"Feature","properties":{"No":6,"GND No.":"63A","Scheme":"Haputhale Oya","N":6.778252,"E":80.949826,"Observation":"There are  apala trees at some places on both sides of the bank. But banks are eroded. Too much water flows in rainy season. In some places, small amounts of garbage have been dumped into streams, and in some places, reserved lands are being misused.","Description":"Paving available stone in the river banks and Planting trees\n\nDry rubble packing (with locally found rubble, size over 225mm )\n\nStream / canal  reservation protection by earth filling of  strip   of 1.5m to 2m wide  and average Depth of 0.5m\n\nVegetative","Amount (Rs.)":1518000,"photopath":"Not_Available"},"geometry":{"type":"Point","coordinates":[80.949826,6.778252]}},
{"type":"Feature","properties":{"No":7,"GND No.":"63C","Scheme":"Haputhalegama Oya","N":6.787555,"E":80.944686,"Observation":"There are  apala trees at some places on both sides of the bank. But banks are eroded. Too much water flows in rainy season. In some places, small amounts of garbage have been dumped into streams, and in some places, reserved lands are being misused.","Description":"Paving available stone in the river banks and Planting trees\n\nDry rubble packing (with locally found rubble, size over 225mm )\n\nStream / canal  reservation protection by earth filling of  strip   of 1.5m to 2m wide  and average Depth of 0.5m\n\nVegetative","Amount (Rs.)":3102000,"photopath":"https://raw.githubusercontent.com/MWS003-GIS/MWS003-GIS.github.io/main/IWWRMP/Data/EXD/200_photo/MWS_064/Streams - Haputhalegama Oya.jpg"},"geometry":{"type":"Point","coordinates":[80.944686,6.787555]}}
]}