{"type":"FeatureCollection","name":"WSP","crs":{"type":"name","properties":{"name":"urn:ogc:def:crs:OGC:1.3:CRS84"}},"features":[
{"type":"Feature","properties":{"No":15,"GND No.":"63","Name of the Tank":"Idamegama spring","N":6.792278,"E":80.943601,"Observation":"Although this well has been developed (L=2.4m, W=2.4m, H=1.5m), it is currently in a dilapidated condition.","Description":"Repairs to the well  \n\nScarifying existing surfaces of the walls of the well\n\nPlaster 12mm thick in 1:3 cement and sand finished smooth with gray cement floating\n\nFabricating & fixing security weld mesh in open-type buildings in GI weld mesh 50mm x 50mm","Amount (Rs.)":124300,"photopath":"https://raw.githubusercontent.com/MWS003-GIS/MWS003-GIS.github.io/main/IWWRMP/Data/EXD/200_photo/MWS_064/Drinking Water Sources to be Conserved - Idamegama spring.jpg"},"geometry":{"type":"Point","coordinates":[80.943601,6.792278]}},
{"type":"Feature","properties":{"No":16,"GND No.":"63","Name of the Tank":"Boragasketiya reservation","N":6.805239,"E":80.948192,"Observation":"Many parts of this reserved land, which is about two acres, have been illegally occupied and construction has been carried out.  The spring water flowing from this reserve is used for agricultural purposes.","Description":"Planting trees around the water source\n\nVegetative cover improving around structures (5m x 10m) with planting Arecanut seedling in 1.5m x 1.5m grid, and planting Kumbuk/ Mee/ Godapara/ Kaduru/ Aththikka/ Wal Del/ Kekuna/ randomly mixed seedlings in 3.5m","Amount (Rs.)":487300,"photopath":"https://raw.githubusercontent.com/MWS003-GIS/MWS003-GIS.github.io/main/IWWRMP/Data/EXD/200_photo/MWS_064/Water Catchment Area Conservation - Boragasketiya reservation.jpg"},"geometry":{"type":"Point","coordinates":[80.948192,6.805239]}},
{"type":"Feature","properties":{"No":17,"GND No.":"63","Name of the Tank":"Minuwan Ulpatha (Boragasketiya)","N":6.804588,"E":80.950569,"Observation":"Reserve land is being illegally acquired because the boundaries are not marked. This area may be about  1 acre of which about 25% are large trees. The spring water flowing from this reserve is used for agricultural purposes.","Description":"Planting trees around the water source\n\nVegetative cover improving around structures (5m x 10m) with planting Arecanut seedling in 1.5m x 1.5m grid, and planting Kumbuk/ Mee/ Godapara/ Kaduru/ Aththikka/ Wal Del/ Kekuna/ randomly mixed seedlings in 3.5m","Amount (Rs.)":245300,"photopath":"https://raw.githubusercontent.com/MWS003-GIS/MWS003-GIS.github.io/main/IWWRMP/Data/EXD/200_photo/MWS_064/Water Catchment Area Conservation - Minuwan Ulpatha (Boragasketiya) (3).jpg"},"geometry":{"type":"Point","coordinates":[80.950569,6.804588]}},
{"type":"Feature","properties":{"No":18,"GND No.":"63A","Name of the Tank":"Spring near the Haputhale cemetery","N":6.767817,"E":80.952925,"Observation":"There are many water springs in this area and people use the water privately. There are no large trees in this area and no boundaries.","Description":"Planting trees around the water source\n\nVegetative cover improving around structures (5m x 10m) with planting Arecanut seedling in 1.5m x 1.5m grid, and planting Kumbuk/ Mee/ Godapara/ Kaduru/ Aththikka/ Wal Del/ Kekuna/ randomly mixed seedlings in 3.5m","Amount (Rs.)":245300,"photopath":"https://raw.githubusercontent.com/MWS003-GIS/MWS003-GIS.github.io/main/IWWRMP/Data/EXD/200_photo/MWS_064/Drinking Water Sources to be Conserved - Springd near the Haputhale cemetry.jpg"},"geometry":{"type":"Point","coordinates":[80.952925,6.767817]}},
{"type":"Feature","properties":{"No":19,"GND No.":"63A","Name of the Tank":"Spring at Siyamgolla Division","N":6.780218,"E":80.960029,"Observation":"Nowadays, people use water irregularly. There are no large trees in this area and the water is still sufficient to start a new water project.","Description":"Construction of the Catchpit (D=2.0 m, H=1.0 m) with necessary fittings \n\nEarth excavation for catchpit and haul the surplus materials up to 30m by Manually.\n\nDealing with water\n\n150mm x 225mm Random Rubble masonry work in 1:5 cement and sand mortar in 3","Amount (Rs.)":1284800,"photopath":"https://raw.githubusercontent.com/MWS003-GIS/MWS003-GIS.github.io/main/IWWRMP/Data/EXD/200_photo/MWS_064/Drinking Water Sources to be Conserved - Spring at Siyamgolla Division.jpg"},"geometry":{"type":"Point","coordinates":[80.960029,6.780218]}},
{"type":"Feature","properties":{"No":20,"GND No.":"63A","Name of the Tank":"Spring at Sherwood Upper Division (spring at the forest reservation area of Haputhale)","N":6.771387,"E":80.966174,"Observation":"This water spring is located on the border of the Haputhale reserve and Tea estate. Spring has been developed and a water scheme has been built. There is no boundaries.","Description":"Covering the well by a net\n\nFabricating & fixing security weld mesh in open-type buildings in GI weld mesh 50mm x 50mm SWG 10, welded on 40mm x 40mm x 5mm angle frame complete with application of two coats enamel paint over two coats of anticorrosive pai","Amount (Rs.)":294800,"photopath":"https://raw.githubusercontent.com/MWS003-GIS/MWS003-GIS.github.io/main/IWWRMP/Data/EXD/200_photo/MWS_064/Drinking Water Sources to be Conserved - Spring at Sherwood Upper Division.jpg"},"geometry":{"type":"Point","coordinates":[80.966174,6.771387]}},
{"type":"Feature","properties":{"No":21,"GND No.":"63F","Name of the Tank":"Near the Hapugahawatta Tea Factory","N":6.796005,"E":80.957089,"Observation":"Reserve land is being illegally acquired because the boundaries are not marked. This area may be about  4 acres of which about 45% are large trees. The spring water flowing from this reserve is used for agricultural purposes.","Description":"Planting trees around the water source\n\nVegetative cover improving around structures (5m x 10m) with planting Arecanut seedling in 1.5m x 1.5m grid, and planting Kumbuk/ Mee/ Godapara/ Kaduru/ Aththikka/ Wal Del/ Kekuna/ randomly mixed seedlings in 3.5m","Amount (Rs.)":245300,"photopath":"https://raw.githubusercontent.com/MWS003-GIS/MWS003-GIS.github.io/main/IWWRMP/Data/EXD/200_photo/MWS_064/Water Catchment Area Conservation - Near the Hapugahawatta Tea Factory.jpg"},"geometry":{"type":"Point","coordinates":[80.957089,6.796005]}},
{"type":"Feature","properties":{"No":22,"GND No.":"63F","Name of the Tank":"Deniya reservation","N":6.800256,"E":80.955049,"Observation":"Reserve land is being illegally acquired because the boundaries are not marked. This area may be about  0.4 Hectares of which about 25% are large trees. The spring water flowing from this reserve is used for agricultural purposes. Located in borders of U","Description":"Planting trees around the water source\n\nVegetative cover improving around structures (5m x 10m) with planting Arecanut seedling in 1.5m x 1.5m grid, and planting Kumbuk/ Mee/ Godapara/ Kaduru/ Aththikka/ Wal Del/ Kekuna/ randomly mixed seedlings in 3.5m","Amount (Rs.)":245300,"photopath":"https://raw.githubusercontent.com/MWS003-GIS/MWS003-GIS.github.io/main/IWWRMP/Data/EXD/200_photo/MWS_064/Water Catchment Area Conservation - Deniya reservation (4).jpg"},"geometry":{"type":"Point","coordinates":[80.955049,6.800256]}},
{"type":"Feature","properties":{"No":23,"GND No.":"63I","Name of the Tank":"Welamandiya spring","N":6.793209,"E":80.950104,"Observation":"Although this well has been developed (L=2.6m, W=2.0m, H=0.75m), it is currently in a dilapidated condition. Reserve land is being illegally acquired because the boundaries are not marked. This area may be about  40 perches of which about 25% are large t","Description":"Repairs to the well\n\nScarifying existing surfaces of the walls of the well\n\nPlaster 12mm thick in 1:3 cement and sand finished smooth with gray cement floating\n\nFabricating & fixing security weld mesh in open-type buildings in GI weld mesh 50mm x 50mm SW","Amount (Rs.)":415800,"photopath":"https://raw.githubusercontent.com/MWS003-GIS/MWS003-GIS.github.io/main/IWWRMP/Data/EXD/200_photo/MWS_064/Water Catchment Area Conservation - We lamandiya spring (3).jpg"},"geometry":{"type":"Point","coordinates":[80.950104,6.793209]}},
{"type":"Feature","properties":{"No":24,"GND No.":"63L","Name of the Tank":"Kadawana Pathana spring","N":6.765709,"E":80.949202,"Observation":"Reserve land is being illegally acquired because the boundaries are not marked. This area may be about  2.5 acres of which about 10% are large trees. The spring water flowing from this reserve is used for agricultural purposes.","Description":"Planting trees around the water source\n\nVegetative cover improving around structures (5m x 10m) with planting Arecanut seedling in 1.5m x 1.5m grid, and planting Kumbuk/ Mee/ Godapara/ Kaduru/ Aththikka/ Wal Del/ Kekuna/ randomly mixed seedlings in 3.5m","Amount (Rs.)":487300,"photopath":"https://raw.githubusercontent.com/MWS003-GIS/MWS003-GIS.github.io/main/IWWRMP/Data/EXD/200_photo/MWS_064/Water Catchment Area Conservation - Kadawana Pathana spring (2).jpg"},"geometry":{"type":"Point","coordinates":[80.949202,6.765709]}}
]}