{"type":"FeatureCollection","name":"DWS","crs":{"type":"name","properties":{"name":"urn:ogc:def:crs:OGC:1.3:CRS84"}},"features":[
{"type":"Feature","properties":{"No":1,"GND No.":787,"Scheme":"Poddalgoda","N":7.331783,"E":80.793542,"Observation":"There is a 4.8m dia and 2.0m hight Tank. Water is taken for Drinking","Description":"Covering the water tank by a net\n\nFabricating & fixing security weld mesh in open-type buildings in GI weld mesh 50mm x 50mm SWG 10, welded on 40mm x 40mm x 5mm angle frame complete with application of two coats enamel paint over two coats of anticorrosi","Estimated Cost":"1,067,000.00","photopath":"https://raw.githubusercontent.com/MWS003-GIS/MWS003-GIS.github.io/main/IWWRMP/Data/EXD/200_photo/MWS_085/787 Poddalgoda Wahala canal_20250327_094942.jpg"},"geometry":{"type":"Point","coordinates":[80.793542,7.331783]}},
{"type":"Feature","properties":{"No":3,"GND No.":787,"Scheme":"Purakewela","N":7.322283,"E":80.792059,"Observation":"There isused 750mm dia and 750mm hight' 3 no's hume pipe  well. Water is taken for driking .","Description":"Covering the well by a net\n\nFabricating & fixing security weld mesh in open-type buildings in GI weld mesh 50mm x 50mm SWG 10, welded on 40mm x 40mm x 5mm angle frame complete with application of two coats enamel paint over two coats of anticorrosive pai","Estimated Cost":"863,500.00","photopath":"https://raw.githubusercontent.com/MWS003-GIS/MWS003-GIS.github.io/main/IWWRMP/Data/EXD/200_photo/MWS_085/puranewela thammettakumbura spring20250327_130448.jpg"},"geometry":{"type":"Point","coordinates":[80.792059,7.322283]}},
{"type":"Feature","properties":{"No":4,"GND No.":787,"Scheme":"Tube well of Oyee Kade","N":7.323341,"E":80.795971,"Observation":"The tube well is broken","Description":"Repairs to the Tube well","Estimated Cost":"20,000.00","photopath":"https://raw.githubusercontent.com/MWS003-GIS/MWS003-GIS.github.io/main/IWWRMP/Data/EXD/200_photo/MWS_085/Tube well20250327_121648.jpg"},"geometry":{"type":"Point","coordinates":[80.795971,7.323341]}},
{"type":"Feature","properties":{"No":2,"GND No.":789,"Scheme":"Katugoda Muththettuwa","N":7.33391,"E":80.798409,"Observation":"There is a 7m dia and 2.0m hight Tank. Water is taken for Drinking","Description":"Covering the fltering tank by a net\n\nFabricating & fixing security weld mesh in open-type buildings in GI weld mesh 50mm x 50mm SWG 10, welded on 40mm x 40mm x 5mm angle frame complete with application of two coats enamel paint over two coats of anticorr","Estimated Cost":"319,000.00","photopath":"https://raw.githubusercontent.com/MWS003-GIS/MWS003-GIS.github.io/main/IWWRMP/Data/EXD/200_photo/MWS_085/789 Katugoda Praboda com.water project_094119.jpg"},"geometry":{"type":"Point","coordinates":[80.798409,7.33391]}},
{"type":"Feature","properties":{"No":5,"GND No.":797,"Scheme":"Thennakade","N":7.308838,"E":80.797634,"Observation":"The tube well is broken","Description":"Repairs to the Tube well","Estimated Cost":"20,000.00","photopath":"https://raw.githubusercontent.com/MWS003-GIS/MWS003-GIS.github.io/main/IWWRMP/Data/EXD/200_photo/MWS_085/Tube well No 2_20250401_091129.jpg"},"geometry":{"type":"Point","coordinates":[80.797634,7.308838]}},
{"type":"Feature","properties":{"No":6,"GND No.":797,"Scheme":"Thennakade No 2","N":7.310921,"E":80.799121,"Observation":"The tube well is broken","Description":"Repairs to the Tube well","Estimated Cost":"20,000.00","photopath":"https://raw.githubusercontent.com/MWS003-GIS/MWS003-GIS.github.io/main/IWWRMP/Data/EXD/200_photo/MWS_085/Tube well No 2_20250401_091129.jpg"},"geometry":{"type":"Point","coordinates":[80.799121,7.310921]}}
]}