{"type":"FeatureCollection","name":"SR","crs":{"type":"name","properties":{"name":"urn:ogc:def:crs:OGC:1.3:CRS84"}},"features":[
{"type":"Feature","properties":{"No":1,"GND No.":787,"Scheme":"Poddalgoda  Stream","N":7.326623,"E":80.796111,"Observation":"During the rainy season when too much water flows, Bank erosion occurs","Description":"Arrange stone packing-rubble packing\n\n Vegetative cover improving around structures (5m x 10m) with Areca nut seedling in 1.5m x \n1.5m grid, Kumbuk/ Mee/ Godapara/ Kaduru/ Aththikka/ Wal Del/ Kekuna/ randomly mixed \nseedlings and planting at 3.5m x 3.5 m","Amount (Rs.)":"205,975.00","photopath":"https://raw.githubusercontent.com/MWS003-GIS/MWS003-GIS.github.io/main/IWWRMP/Data/EXD/200_photo/MWS_085/Poddalgoda oya20250327_104233.jpg"},"geometry":{"type":"Point","coordinates":[80.796111,7.326623]}},
{"type":"Feature","properties":{"No":2,"GND No.":788,"Scheme":"Bus haravana kandura","N":7.341879,"E":80.790106,"Observation":"During the rainy season when too much water flows, Bank erosion occurs","Description":"Arrange stone packing-rubble packing\n\n Vegetative cover improving around structures (5m x 10m) with Areca nut seedling in 1.5m x \n1.5m grid, Kumbuk/ Mee/ Godapara/ Kaduru/ Aththikka/ Wal Del/ Kekuna/ randomly mixed \nseedlings and planting at 3.5m x 3.5 m","Amount (Rs.)":"125,400.00","photopath":"https://raw.githubusercontent.com/MWS003-GIS/MWS003-GIS.github.io/main/IWWRMP/Data/EXD/200_photo/MWS_085/Bus haravana kandura_20250321_095013.jpg"},"geometry":{"type":"Point","coordinates":[80.790106,7.341879]}},
{"type":"Feature","properties":{"No":3,"GND No.":788,"Scheme":"Welandarada Kandura","N":7.334701,"E":80.790132,"Observation":"During the rainy season when too much water flows, Bank erosion occurs","Description":"Arrange stone packing-rubble packing\n\n Vegetative cover improving around structures (5m x 10m) with Areca nut seedling in 1.5m x \n1.5m grid, Kumbuk/ Mee/ Godapara/ Kaduru/ Aththikka/ Wal Del/ Kekuna/ randomly mixed \nseedlings and planting at 3.5m x 3.5 m","Amount (Rs.)":"89,815.00","photopath":"https://raw.githubusercontent.com/MWS003-GIS/MWS003-GIS.github.io/main/IWWRMP/Data/EXD/200_photo/MWS_085/Velandarada kandura_20250321_100325.jpg"},"geometry":{"type":"Point","coordinates":[80.790132,7.334701]}},
{"type":"Feature","properties":{"No":4,"GND No.":789,"Scheme":"Rangala oya","N":7.338174,"E":80.799254,"Observation":"During the rainy season when too much water flows, Bank erosion occurs","Description":"Arrange stone packing-rubble packing\n\n Vegetative cover improving around structures (5m x 10m) with Areca nut seedling in 1.5m x \n1.5m grid, Kumbuk/ Mee/ Godapara/ Kaduru/ Aththikka/ Wal Del/ Kekuna/ randomly mixed \nseedlings and planting at 3.5m x 3.5 m","Amount (Rs.)":"116,435.00","photopath":"https://raw.githubusercontent.com/MWS003-GIS/MWS003-GIS.github.io/main/IWWRMP/Data/EXD/200_photo/MWS_085/Rangala Stream20250325_100823.jpg"},"geometry":{"type":"Point","coordinates":[80.799254,7.338174]}},
{"type":"Feature","properties":{"No":5,"GND No.":789,"Scheme":"Kalaketiya oya","N":7.327612,"E":80.801391,"Observation":"During the rainy season when too much water flows, Bank erosion occurs","Description":"Arrange stone packing-rubble packing\n\n Vegetative cover improving around structures (5m x 10m) with Areca nut seedling in 1.5m x \n1.5m grid, Kumbuk/ Mee/ Godapara/ Kaduru/ Aththikka/ Wal Del/ Kekuna/ randomly mixed \nseedlings and planting at 3.5m x 3.5 m","Amount (Rs.)":"134,585.00","photopath":"https://raw.githubusercontent.com/MWS003-GIS/MWS003-GIS.github.io/main/IWWRMP/Data/EXD/200_photo/MWS_085/Kalaketiya steam_20250325_122637.jpg"},"geometry":{"type":"Point","coordinates":[80.801391,7.327612]}},
{"type":"Feature","properties":{"No":6,"GND No.":790,"Scheme":"The stream flows across the bridge (Podi Paalama) of Rangala Aluthwatta","N":7.346564,"E":80.806967,"Observation":"During the rainy season when too much water flows, Bank erosion occurs. Discarding into canals/ streams","Description":"Arrange stone packing-rubble packing\n\n Vegetative cover improving around structures (5m x 10m) with Areca nut seedling in 1.5m x \n1.5m grid, Kumbuk/ Mee/ Godapara/ Kaduru/ Aththikka/ Wal Del/ Kekuna/ randomly mixed \nseedlings and planting at 3.5m x 3.5 m","Amount (Rs.)":"107,745.00","photopath":"https://raw.githubusercontent.com/MWS003-GIS/MWS003-GIS.github.io/main/IWWRMP/Data/EXD/200_photo/MWS_085/Podi palama oya 20250404_093819.jpg"},"geometry":{"type":"Point","coordinates":[80.806967,7.346564]}},
{"type":"Feature","properties":{"No":7,"GND No.":790,"Scheme":"New division  oya No 1","N":7.348163,"E":80.802135,"Observation":"During the rainy season when too much water flows, Bank erosion occurs","Description":"Arrange stone packing-rubble packing\n\n Vegetative cover improving around structures (5m x 10m) with Areca nut seedling in 1.5m x \n1.5m grid, Kumbuk/ Mee/ Godapara/ Kaduru/ Aththikka/ Wal Del/ Kekuna/ randomly mixed \nseedlings and planting at 3.5m x 3.5 m","Amount (Rs.)":"143,550.00","photopath":"https://raw.githubusercontent.com/MWS003-GIS/MWS003-GIS.github.io/main/IWWRMP/Data/EXD/200_photo/MWS_085/New division No 1oya20250404_110841.jpg"},"geometry":{"type":"Point","coordinates":[80.802135,7.348163]}},
{"type":"Feature","properties":{"No":8,"GND No.":790,"Scheme":"New division  oya No 2","N":7.350792,"E":80.798203,"Observation":"During the rainy season when too much water flows, Bank erosion occurs","Description":"Arrange stone packing-rubble packing\n\n Vegetative cover improving around structures (5m x 10m) with Areca nut seedling in 1.5m x \n1.5m grid, Kumbuk/ Mee/ Godapara/ Kaduru/ Aththikka/ Wal Del/ Kekuna/ randomly mixed \nseedlings and planting at 3.5m x 3.5 m","Amount (Rs.)":"116,435.00","photopath":"https://raw.githubusercontent.com/MWS003-GIS/MWS003-GIS.github.io/main/IWWRMP/Data/EXD/200_photo/MWS_085/New division oya no 2_20250404_103740.jpg"},"geometry":{"type":"Point","coordinates":[80.798203,7.350792]}},
{"type":"Feature","properties":{"No":9,"GND No.":791,"Scheme":"Rangala oya","N":7.3477,"E":80.79315,"Observation":"During the rainy season when too much water flows, Bank erosion occurs","Description":"Arrange stone packing-rubble packing\n\n Vegetative cover improving around structures (5m x 10m) with Areca nut seedling in 1.5m x \n1.5m grid, Kumbuk/ Mee/ Godapara/ Kaduru/ Aththikka/ Wal Del/ Kekuna/ randomly mixed \nseedlings and planting at 3.5m x 3.5 m","Amount (Rs.)":"89,815.00","photopath":"https://raw.githubusercontent.com/MWS003-GIS/MWS003-GIS.github.io/main/IWWRMP/Data/EXD/200_photo/MWS_085/791 Rangala GND Rangala oya_20250402_114636.jpg"},"geometry":{"type":"Point","coordinates":[80.79315,7.3477]}},
{"type":"Feature","properties":{"No":10,"GND No.":792,"Scheme":"Saumiyapura steam","N":7.356845,"E":80.78694,"Observation":"During the rainy season when too much water flows, Bank erosion occurs","Description":"Arrange stone packing-rubble packing\n\n Vegetative cover improving around structures (5m x 10m) with Areca nut seedling in 1.5m x \n1.5m grid, Kumbuk/ Mee/ Godapara/ Kaduru/ Aththikka/ Wal Del/ Kekuna/ randomly mixed \nseedlings and planting at 3.5m x 3.5 m","Amount (Rs.)":"161,480.00","photopath":"https://raw.githubusercontent.com/MWS003-GIS/MWS003-GIS.github.io/main/IWWRMP/Data/EXD/200_photo/MWS_085/Saumiyapura Ihala Kandura_20250402_100923.jpg"},"geometry":{"type":"Point","coordinates":[80.78694,7.356845]}},
{"type":"Feature","properties":{"No":11,"GND No.":797,"Scheme":"Galmal oya","N":7.316219,"E":80.79909,"Observation":"During the rainy season when too much water flows, Bank erosion occurs","Description":"Arrange stone packing-rubble packing\n\n Vegetative cover improving around structures (5m x 10m) with Areca nut seedling in 1.5m x \n1.5m grid, Kumbuk/ Mee/ Godapara/ Kaduru/ Aththikka/ Wal Del/ Kekuna/ randomly mixed \nseedlings and planting at 3.5m x 3.5 m","Amount (Rs.)":"107,965.00","photopath":"https://raw.githubusercontent.com/MWS003-GIS/MWS003-GIS.github.io/main/IWWRMP/Data/EXD/200_photo/MWS_085/Galmal oya_20250401_093341.jpg"},"geometry":{"type":"Point","coordinates":[80.79909,7.316219]}}
]}