{"type":"FeatureCollection","name":"SWC_OFF","crs":{"type":"name","properties":{"name":"urn:ogc:def:crs:OGC:1.3:CRS84"}},"features":[
{"type":"Feature","properties":{"No.":1,"GND No.":787,"GND Name":"Poddalgoda","Key Activities proposed for Soil and Water conservation":"1. Establishing a wall - Puranewela","Priority based on Soil Erosion Hazard":4,"N":7.322199,"E":80.792957,"Quantity":"15 m x 3 m","Proposed measure/s":"Retaining Wall (Concrete)","Total_Cost":"1,749,000.00","Contribution (Local Community, LA, and the project)":"By the project","Time frame for the implementation":"0.25 Years","photopath":"https://raw.githubusercontent.com/MWS003-GIS/MWS003-GIS.github.io/main/IWWRMP/Data/EXD/200_photo/MWS_085/Puranevela road erotion_20250327_131328.jpg"},"geometry":{"type":"Point","coordinates":[80.792957,7.322199]}},
{"type":"Feature","properties":{"No.":3,"GND No.":789,"GND Name":"Katugoda","Key Activities proposed for Soil and Water conservation":"1. Establishing a retaining wall - near No. 355/2 Mr. A.M.P.G. weerakoon Banda's house","Priority based on Soil Erosion Hazard":1,"N":7.327549,"E":80.801052,"Quantity":"10 m x 3 m","Proposed measure/s":"Retaining Wall (Concrete)","Total_Cost":"1,171,500.00","Contribution (Local Community, LA, and the project)":"By the project","Time frame for the implementation":"0.25 Years","photopath":"Not_Available"},"geometry":{"type":"Point","coordinates":[80.801052,7.327549]}},
{"type":"Feature","properties":{"No.":4,"GND No.":789,"GND Name":"Katugoda","Key Activities proposed for Soil and Water conservation":"2. Establishing a retaining wall - near Mr. Indika's house","Priority based on Soil Erosion Hazard":1,"N":7.328423,"E":80.799835,"Quantity":"20 m x 3 m","Proposed measure/s":"Retaining Wall (Concrete)","Total_Cost":"2,332,000.00","Contribution (Local Community, LA, and the project)":"By the project","Time frame for the implementation":"0.25 Years","photopath":"Not_Available"},"geometry":{"type":"Point","coordinates":[80.799835,7.328423]}},
{"type":"Feature","properties":{"No.":5,"GND No.":789,"GND Name":"Katugoda","Key Activities proposed for Soil and Water conservation":"3. Establishing a retaining wall - Katugoda Meda road near the Mrs. Tikirikumari's house","Priority based on Soil Erosion Hazard":1,"N":7.327683,"E":80.797309,"Quantity":"5 m x 2 m","Proposed measure/s":"Retaining Wall (Masonary)","Total_Cost":"220,000.00","Contribution (Local Community, LA, and the project)":"By the project","Time frame for the implementation":"0.25 Years","photopath":"Not_Available"},"geometry":{"type":"Point","coordinates":[80.797309,7.327683]}}
]}