{"type":"FeatureCollection","name":"WP","crs":{"type":"name","properties":{"name":"urn:ogc:def:crs:OGC:1.3:CRS84"}},"features":[
{"type":"Feature","properties":{"No.":1,"GND No.":787,"GN Division":"Poddalgoda","Non-point sources of pollution":"Potential to add human waste - Oyee Kade","N":7.3269194,"E":80.7940566,"Point sources of pollution":"-","Add. N ":"-","Add. E ":"-","Recommended water quality improvement measures":"-","Unit Cost (Rs.)":"-","Total Cost (Rs.)":"-","Contributions (Local Community, LA, Project)":"-","Time frame for the implementation":"-","photopath":"https://raw.githubusercontent.com/MWS003-GIS/MWS003-GIS.github.io/main/IWWRMP/Data/EXD/200_photo/MWS_085/Garbage disposal_20250327_122114.jpg"},"geometry":{"type":"Point","coordinates":[80.7940566,7.3269194]}},
{"type":"Feature","properties":{"No.":2,"GND No.":787,"GN Division":"Poddalgoda","Non-point sources of pollution":"Informal disposal of houshold wastes/garbage","N":7.32357,"E":80.796203,"Point sources of pollution":"-","Add. N ":"-","Add. E ":"-","Recommended water quality improvement measures":"Preparing a separate place in homegardens for disposing houshold waste,Awareness programme on how to disposal household waste properly and converting them to usable products such as compost,Facilitating garbage collection","Unit Cost (Rs.)":"-","Total Cost (Rs.)":"50,000.00","Contributions (Local Community, LA, Project)":"Local/Central governments","Time frame for the implementation":"0.5 Years","photopath":"https://raw.githubusercontent.com/MWS003-GIS/MWS003-GIS.github.io/main/IWWRMP/Data/EXD/200_photo/MWS_085/Garbage disposal_20250327_122114.jpg"},"geometry":{"type":"Point","coordinates":[80.796203,7.32357]}},
{"type":"Feature","properties":{"No.":5,"GND No.":790,"GN Division":"Rangala Aluthwatta","Non-point sources of pollution":"Informal disposal of houshold wastes/garbage","N":7.3533608,"E":80.8037094,"Point sources of pollution":"-","Add. N ":"-","Add. E ":"-","Recommended water quality improvement measures":"Preparing a separate place in homegardens for disposing houshold waste,Awareness programme on how to disposal household waste properly and converting them to usable products such as compost,Facilitating garbage collection","Unit Cost (Rs.)":"-","Total Cost (Rs.)":"50,000.00","Contributions (Local Community, LA, Project)":"Local/Central governments","Time frame for the implementation":"0.5 Years","photopath":"Not_Available"},"geometry":{"type":"Point","coordinates":[80.8037094,7.3533608]}},
{"type":"Feature","properties":{"No.":6,"GND No.":791,"GN Division":"Rangala","Non-point sources of pollution":"Potential to add human waste - Rangala and Podawagolla","N":7.3435778,"E":80.7985782,"Point sources of pollution":"-","Add. N ":"-","Add. E ":"-","Recommended water quality improvement measures":"-","Unit Cost (Rs.)":"-","Total Cost (Rs.)":"-","Contributions (Local Community, LA, Project)":"-","Time frame for the implementation":"-","photopath":"https://raw.githubusercontent.com/MWS003-GIS/MWS003-GIS.github.io/main/IWWRMP/Data/EXD/200_photo/MWS_085/Garbage disposal_20250402_144455.jpg"},"geometry":{"type":"Point","coordinates":[80.7985782,7.3435778]}},
{"type":"Feature","properties":{"No.":7,"GND No.":791,"GN Division":"Rangala","Non-point sources of pollution":"Informal disposal of houshold wastes/garbage","N":7.348673,"E":80.794902,"Point sources of pollution":"-","Add. N ":"-","Add. E ":"-","Recommended water quality improvement measures":"Preparing a separate place in homegardens for disposing houshold waste,Awareness programme on how to disposal household waste properly and converting them to usable products such as compost,Facilitating garbage collection","Unit Cost (Rs.)":"-","Total Cost (Rs.)":"50,000.00","Contributions (Local Community, LA, Project)":"Local/Central governments","Time frame for the implementation":"0.5 Years","photopath":"https://raw.githubusercontent.com/MWS003-GIS/MWS003-GIS.github.io/main/IWWRMP/Data/EXD/200_photo/MWS_085/Garbage disposal_20250402_144455.jpg"},"geometry":{"type":"Point","coordinates":[80.794902,7.348673]}},
{"type":"Feature","properties":{"No.":8,"GND No.":792,"GN Division":"Duckwariya","Non-point sources of pollution":"Potential to add human waste estate houses near the 'Ganadevi Kovil' of Duckwariya Watta leads to contaminate water of the canal","N":7.3525767,"E":80.7890071,"Point sources of pollution":"-","Add. N ":"-","Add. E ":"-","Recommended water quality improvement measures":"-","Unit Cost (Rs.)":"-","Total Cost (Rs.)":"-","Contributions (Local Community, LA, Project)":"-","Time frame for the implementation":"-","photopath":"https://raw.githubusercontent.com/MWS003-GIS/MWS003-GIS.github.io/main/IWWRMP/Data/EXD/200_photo/MWS_085/Garbage disposal_20250402_102441.jpg"},"geometry":{"type":"Point","coordinates":[80.7890071,7.3525767]}},
{"type":"Feature","properties":{"No.":9,"GND No.":792,"GN Division":"Duckwariya","Non-point sources of pollution":"Informal disposal of houshold wastes/garbage","N":7.356532,"E":80.789415,"Point sources of pollution":"-","Add. N ":"-","Add. E ":"-","Recommended water quality improvement measures":"Preparing a separate place in homegardens for disposing houshold waste","Unit Cost (Rs.)":"-","Total Cost (Rs.)":"50,000.00","Contributions (Local Community, LA, Project)":"Local/Central governments","Time frame for the implementation":"0.5 Years","photopath":"https://raw.githubusercontent.com/MWS003-GIS/MWS003-GIS.github.io/main/IWWRMP/Data/EXD/200_photo/MWS_085/Garbage disposal_20250402_102445.jpg"},"geometry":{"type":"Point","coordinates":[80.789415,7.356532]}},
{"type":"Feature","properties":{"No.":10,"GND No.":792,"GN Division":"Duckwariya","Non-point sources of pollution":"Informal disposal of houshold wastes/garbage","N":7.356532,"E":80.789415,"Point sources of pollution":"-","Add. N ":"-","Add. E ":"-","Recommended water quality improvement measures":"Awareness programme on how to disposal household waste properly and converting them to usable products such as compost","Unit Cost (Rs.)":"-","Total Cost (Rs.)":"-","Contributions (Local Community, LA, Project)":"-","Time frame for the implementation":"-","photopath":"https://raw.githubusercontent.com/MWS003-GIS/MWS003-GIS.github.io/main/IWWRMP/Data/EXD/200_photo/MWS_085/Garbage disposal_20250402_102445.jpg"},"geometry":{"type":"Point","coordinates":[80.789415,7.356532]}},
{"type":"Feature","properties":{"No.":11,"GND No.":792,"GN Division":"Duckwariya","Non-point sources of pollution":"Informal disposal of houshold wastes/garbage","N":7.356532,"E":80.789415,"Point sources of pollution":"-","Add. N ":"-","Add. E ":"-","Recommended water quality improvement measures":"Facilitating garbage collection","Unit Cost (Rs.)":"-","Total Cost (Rs.)":"-","Contributions (Local Community, LA, Project)":"-","Time frame for the implementation":"-","photopath":"https://raw.githubusercontent.com/MWS003-GIS/MWS003-GIS.github.io/main/IWWRMP/Data/EXD/200_photo/MWS_085/Garbage disposal_20250402_102445.jpg"},"geometry":{"type":"Point","coordinates":[80.789415,7.356532]}},
{"type":"Feature","properties":{"No.":12,"GND No.":797,"GN Division":"Kurukohogama","Non-point sources of pollution":"Potential to add human waste - Boraluwela","N":7.3143195,"E":80.7976866,"Point sources of pollution":"-","Add. N ":"-","Add. E ":"-","Recommended water quality improvement measures":"-","Unit Cost (Rs.)":"-","Total Cost (Rs.)":"-","Contributions (Local Community, LA, Project)":"-","Time frame for the implementation":"-","photopath":"Not_Available"},"geometry":{"type":"Point","coordinates":[80.7976866,7.3143195]}}
]}