{"type":"FeatureCollection","name":"MT","crs":{"type":"name","properties":{"name":"urn:ogc:def:crs:OGC:1.3:CRS84"}},"features":[
{"type":"Feature","properties":{"No":1,"GND_No":735,"Name of Tank":"Relugas Pokuna","Custodianship":"Community ","N":7.454766,"E":80.711962,"Remarks":"Desilting of the pond and repairs to pipeline","photopath":"Not_Available"},"geometry":{"type":"Point","coordinates":[80.711962,7.454766]}},
{"type":"Feature","properties":{"No":2,"GND_No":735,"Name of Tank":"Galhiriya Pokuna","Custodianship":"Community","N":7.441339,"E":80.718387,"Remarks":"Desilting of the pond","photopath":"https://raw.githubusercontent.com/MWS003-GIS/MWS003-GIS.github.io/main/IWWRMP/Data/EXD/200_photo/MWS_095/galahiriya tank (1).jpg"},"geometry":{"type":"Point","coordinates":[80.718387,7.441339]}}
]}