{
  "type": "FeatureCollection",
  "name": "MI",
  "crs": {
    "type": "name",
    "properties": {
      "name": "urn:ogc:def:crs:OGC:1.3:CRS84"
    }
  },
  "features": [
    {
      "type": "Feature",
      "properties": {
        "No": 1,
        "GND No.": "511A",
        "Scheme": "Deegalahinna canal",
        "N": 7.060563,
        "E": 80.774256,
        "Observation": "Seepages towards the field side.",
        "Description": "1. Canal reservation protection for 50m with concrete lining.\n2. Canal reservation protection by earth filling.\n3. Providing vegetative cover with Areca Nut seedling and beetle creeper and green gram as cover crop.",
        "Amount (Rs.)": "270,000",
        "photopath": "https://raw.githubusercontent.com/MWS003-GIS/MWS003-GIS.github.io/main/IWWRMP/Data/EXD/200_photo/MWS_015/DH5.jpg"
      },
      "geometry": {
        "type": "Point",
        "coordinates": [
          80.774256,
          7.060563
        ]
      }
    },
    {
      "type": "Feature",
      "properties": {
        "No": 2,
        "GND No.": "511A",
        "Scheme": "Nagemulla canal",
        "N": 7.064005,
        "E": 80.767459,
        "Observation": "A pipe needs to be provided to convey water. (L- 50m)",
        "Description": "1.  Laying and joining 6\" dia - 9\" dia Concrete pipes\n2. Canal reservation protection by earth filling.\n3. Providing vegetative cover with Areca Nut seedling and beetle creeper and green gram as cover crop.",
        "Amount (Rs.)": "82,200",
        "photopath": "https://raw.githubusercontent.com/MWS003-GIS/MWS003-GIS.github.io/main/IWWRMP/Data/EXD/200_photo/MWS_015/DH6.jpg"
      },
      "geometry": {
        "type": "Point",
        "coordinates": [
          80.767459,
          7.064005
        ]
      }
    },
    {
      "type": "Feature",
      "properties": {
        "No": 3,
        "GND No.": "511A",
        "Scheme": "Waththekumbura canal",
        "N": 7.063279,
        "E": 80.764963,
        "Observation": "The canal needs to be concrete lined with U section.  ",
        "Description": "1. Canals reservation protection by concrete lining  for  100m.\n2. Canal reservation protection by earth filling.\n3. Providing vegetative cover with Areca Nut seedling and beetle creeper and green gram as cover crop.",
        "Amount (Rs.)": "939,500",
        "photopath": "https://raw.githubusercontent.com/MWS003-GIS/MWS003-GIS.github.io/main/IWWRMP/Data/EXD/200_photo/MWS_015/DH7.jpg"
      },
      "geometry": {
        "type": "Point",
        "coordinates": [
          80.764963,
          7.063279
        ]
      }
    },
    {
      "type": "Feature",
      "properties": {
        "No": 4,
        "GND No.": "511A",
        "Scheme": "Waththekumbura anicut",
        "N": 7.063279,
        "E": 80.764963,
        "Observation": "A side wall needs to be constructed to the anicut. ",
        "Description": "1. Construction of 1:3:6 (1 1/2\") ct concrete retaining wall.\n2.  Providing vegetative cover with Areca Nut seedling and beetle creeper and green gram as cover crop.",
        "Amount (Rs.)": "80,400",
        "photopath": "https://raw.githubusercontent.com/MWS003-GIS/MWS003-GIS.github.io/main/IWWRMP/Data/EXD/200_photo/MWS_015/DH8 (2).jpg"
      },
      "geometry": {
        "type": "Point",
        "coordinates": [
          80.764963,
          7.063279
        ]
      }
    },
    {
      "type": "Feature",
      "properties": {
        "No": 5,
        "GND No.": "511E",
        "Scheme": "Kapurukaduwa canal",
        "N": 7.04715,
        "E": 80.772817,
        "Observation": "Reservation area needs to be allocated, and Areca Nut trees need to be planted.\nThe canal needs to be concrete lined with U section.",
        "Description": "Providing vegetative cover with Areca Nut seedling and beetle creeper and green gram as cover crop for 1 km.",
        "Amount (Rs.)": "470,000",
        "photopath": "https://raw.githubusercontent.com/MWS003-GIS/MWS003-GIS.github.io/main/IWWRMP/Data/EXD/200_photo/MWS_015/E2 (2).jpg"
      },
      "geometry": {
        "type": "Point",
        "coordinates": [
          80.772817,
          7.04715
        ]
      }
    },
    {
      "type": "Feature",
      "properties": {
        "No": 6,
        "GND No.": "511E",
        "Scheme": "Kanamillarawa canal",
        "N": 7.052938,
        "E": 80.768341,
        "Observation": "Two side walls need to be constructed. ",
        "Description": "1. Canals reservation protection by concrete lining for 750m.\n2. Canal reservation protection by earth filling.\n3. Providing vegetative cover with Areca Nut seedling and beetle creeper and green gram as cover crop.",
        "Amount (Rs.)": "4,738,500",
        "photopath": "https://raw.githubusercontent.com/MWS003-GIS/MWS003-GIS.github.io/main/IWWRMP/Data/EXD/200_photo/MWS_015/E5.jpg"
      },
      "geometry": {
        "type": "Point",
        "coordinates": [
          80.768341,
          7.052938
        ]
      }
    },
    {
      "type": "Feature",
      "properties": {
        "No": 7,
        "GND No.": "511E",
        "Scheme": "Kahagolla canal",
        "N": 7.056867,
        "E": 80.769982,
        "Observation": "Two side walls need to be constructed.\nSoil conservation practices need to be introduced to above lands.",
        "Description": "1. Canals reservation protection by concrete lining for 250m.\n2. Canal reservation protection by earth filling.\n3. Providing vegetative cover with Areca Nut seedling and beetle creeper and green gram as cover crop.",
        "Amount (Rs.)": "1,579,500",
        "photopath": "https://raw.githubusercontent.com/MWS003-GIS/MWS003-GIS.github.io/main/IWWRMP/Data/EXD/200_photo/MWS_015/E8.jpg"
      },
      "geometry": {
        "type": "Point",
        "coordinates": [
          80.769982,
          7.056867
        ]
      }
    }
  ]
}