{
  "type": "FeatureCollection",
  "name": "SR",
  "crs": {
    "type": "name",
    "properties": {
      "name": "urn:ogc:def:crs:OGC:1.3:CRS84"
    }
  },
  "features": [
    {
      "type": "Feature",
      "properties": {
        "No": 1,
        "GND No.": "511 A",
        "Scheme": "Torrent 1",
        "N": 7.061496,
        "E": 80.767824,
        "Observation": "Bank erosion on both sides of the torrent during rainy days.",
        "Description": "1. Construction of leader drain across streams -1m(W)x1m(H)\n2. Boulder/Rubble dams (SABO) across streams to trap sediment.\n3. Vegetative cover improving with Areca nut seedling @ 1.5m spacing in a single row, Kumbuk/ Mee/ Godapara/ Kaduru/ Aththikka/ Wal Del/ Kekuna/ randomly mixed seedlings and dense planting at 500mm grid interval\n4.Vegetative cover improving, replanting bamboo species and vetiver grass or riparian species at 500mm grid interval.\n5. Vegetative cover improving (1.5m-2.0m wide) with Areca nut seedlings @ 1.5m spacing in two rows, Beetle creeper VP @ 3m spacing in a single row, Green gram as a cover crop",
        "Amount (Rs.)": "1,493,600",
        "photopath": "https://raw.githubusercontent.com/MWS003-GIS/MWS003-GIS.github.io/main/IWWRMP/Data/EXD/200_photo/MWS_015/DH12 (2).jpg"
      },
      "geometry": {
        "type": "Point",
        "coordinates": [
          80.767824,
          7.061496
        ]
      }
    },
    {
      "type": "Feature",
      "properties": {
        "No": 2,
        "GND No.": "512 A",
        "Scheme": "Kalu Palama Ella",
        "N": 7.064181,
        "E": 80.767129,
        "Observation": "Extreme bank erosion on both sides.",
        "Description": "1. Three Boulder /Rubble dams (SABO) across streams to trap sediment-Size 3m(L)x2m(W)x1m(H)\n2 Vegetative cover improving with Areca nut seedling @ 1.5m spacing in a single row, Kumbuk/ Mee/ Godapara/ Kaduru/ Aththikka/ Wal Del/ Kekuna/ randomly mixed seedlings and dense planting at 500mm grid interval\n3.Vegetative cover improving, replanting bamboo species and vetiver grass or riparian species at 500mm grid interval.\n4. Vegetative cover improving (1.5m-2.0m wide) with Areca nut seedlings @ 1.5m spacing in two rows, Beetle creeper VP @ 3m spacing in a single row, Green gram as a cover crop",
        "Amount (Rs.)": "1,170,200",
        "photopath": "https://raw.githubusercontent.com/MWS003-GIS/MWS003-GIS.github.io/main/IWWRMP/Data/EXD/200_photo/MWS_015/DH4 (2).jpg"
      },
      "geometry": {
        "type": "Point",
        "coordinates": [
          80.767129,
          7.064181
        ]
      }
    },
    {
      "type": "Feature",
      "properties": {
        "No": 3,
        "GND No.": "513 A",
        "Scheme": "Waththe Kumbura torrent",
        "N": 7.063279,
        "E": 80.764963,
        "Observation": "Bank erosion on both sides of the torrent.",
        "Description": "Vegetative cover improving (1.5m-2.0m wide) with Areca nut seedlings @ 1.5m spacing in two rows, Beetle creeper VP @ 3m spacing in a single row, Green gram as a cover crop. ",
        "Amount (Rs.)": "235,000",
        "photopath": "https://raw.githubusercontent.com/MWS003-GIS/MWS003-GIS.github.io/main/IWWRMP/Data/EXD/200_photo/MWS_015/DH12.jpg"
      },
      "geometry": {
        "type": "Point",
        "coordinates": [
          80.764963,
          7.063279
        ]
      }
    },
    {
      "type": "Feature",
      "properties": {
        "No": 4,
        "GND No.": "511 E",
        "Scheme": "Dothuru torrent",
        "N": 7.047505,
        "E": 80.773644,
        "Observation": "Bank erosion on both sides of the torrent.",
        "Description": " 1. Two Boulder /Rubble dams (SABO) across streams to trap sediment-Size 3m(L)x2m(W)x1m(H)\n2 Vegetative cover improving with Areca nut seedling @ 1.5m spacing in a single row, Kumbuk/ Mee/ Godapara/ Kaduru/ Aththikka/ Wal Del/ Kekuna/ randomly mixed seedlings and dense planting at 500mm grid interval\n3.Vegetative cover improving, replanting bamboo species and vetiver grass or riparian species at 500mm grid interval.",
        "Amount (Rs.)": "756,800",
        "photopath": "https://raw.githubusercontent.com/MWS003-GIS/MWS003-GIS.github.io/main/IWWRMP/Data/EXD/200_photo/MWS_015/DH8.jpg"
      },
      "geometry": {
        "type": "Point",
        "coordinates": [
          80.773644,
          7.047505
        ]
      }
    },
    {
      "type": "Feature",
      "properties": {
        "No": 5,
        "GND No.": "511 E",
        "Scheme": "Torrent flows by the animal farm",
        "N": 7.057515,
        "E": 80.768026,
        "Observation": "Bank erosion on both sides of the torrent during rainy days.",
        "Description": "Vegetative cover improving (1.5m-2.0m wide) with Areca nut seedlings @ 1.5m spacing in two rows, Beetle creeper VP @ 3m spacing in a single row, Green gram as a cover crop. ",
        "Amount (Rs.)": "188,000",
        "photopath": "https://raw.githubusercontent.com/MWS003-GIS/MWS003-GIS.github.io/main/IWWRMP/Data/EXD/200_photo/MWS_015/E9 (2).jpg"
      },
      "geometry": {
        "type": "Point",
        "coordinates": [
          80.768026,
          7.057515
        ]
      }
    },
    {
      "type": "Feature",
      "properties": {
        "No": 6,
        "GND No.": "511 E",
        "Scheme": "Torrent flows in the middle of 10 houses",
        "N": 7.05738,
        "E": 80.770321,
        "Observation": "Bank erosion on both sides of the torrent.",
        "Description": "Vegetative cover improving (1.5m-2.0m wide) with Areca nut seedlings @ 1.5m spacing in two rows, Beetle creeper VP @ 3m spacing in a single row, Green gram as a cover crop  ",
        "Amount (Rs.)": "235,000",
        "photopath": "https://raw.githubusercontent.com/MWS003-GIS/MWS003-GIS.github.io/main/IWWRMP/Data/EXD/200_photo/MWS_015/E8.jpg"
      },
      "geometry": {
        "type": "Point",
        "coordinates": [
          80.770321,
          7.05738
        ]
      }
    },
    {
      "type": "Feature",
      "properties": {
        "No": 7,
        "GND No.": "511 E",
        "Scheme": "Torrent flows by the animal farm",
        "N": 7.056947,
        "E": 80.77134,
        "Observation": "Bank erosion on both sides of the torrent.",
        "Description": " 1. Boulder /Rubble dams (SABO) across streams to trap sediment-Size 3m(L)x2m(W)x1m(H)\n2 Vegetative cover improving with Areca nut seedling @ 1.5m spacing in a single row, Kumbuk/ Mee/ Godapara/ Kaduru/ Aththikka/ Wal Del/ Kekuna/ randomly mixed seedlings and dense planting at 500mm grid interval\n3.Vegetative cover improving, replanting bamboo species and vetiver grass or riparian species at 500mm grid interval.",
        "Amount (Rs.)": "519,400",
        "photopath": "https://raw.githubusercontent.com/MWS003-GIS/MWS003-GIS.github.io/main/IWWRMP/Data/EXD/200_photo/MWS_015/E11.jpg"
      },
      "geometry": {
        "type": "Point",
        "coordinates": [
          80.77134,
          7.056947
        ]
      }
    },
    {
      "type": "Feature",
      "properties": {
        "No": 8,
        "GND No.": "511 E",
        "Scheme": "Torrent near the estate houses",
        "N": 7.056944,
        "E": 80.772166,
        "Observation": "Bank erosion on both sides of the torrent and discarding wastes into the torrent.",
        "Description": "1. Construction of leader drain across streams -1m(W)x1m(H)\n2. Boulder /Rubble dams (SABO) across streams to trap sediment - Size 3m(L)x2m(W)x1m(H)\n3. Vegetative cover improving (1.5m-2.0m wide) with Areca nut seedlings @ 1.5m spacing in two rows, Beetle creeper VP @ 3m spacing in a single row, Green gram as a cover crop.\n4.  Kumbuk/ Mee/ Godapara/ Kaduru/ Aththikka/ Wal Del/ Kekuna/ randomly mixed seedlings and dense planting at 500mm grid interval.",
        "Amount (Rs.)": "619,400",
        "photopath": "https://raw.githubusercontent.com/MWS003-GIS/MWS003-GIS.github.io/main/IWWRMP/Data/EXD/200_photo/MWS_015/E5.jpg"
      },
      "geometry": {
        "type": "Point",
        "coordinates": [
          80.772166,
          7.056944
        ]
      }
    }
  ]
}