{
  "type": "FeatureCollection",
  "name": "SWC_OFF",
  "crs": {
    "type": "name",
    "properties": {
      "name": "urn:ogc:def:crs:OGC:1.3:CRS84"
    }
  },
  "features": [
    {
      "type": "Feature",
      "properties": {
        "No.": 1,
        "GND No.": "511 A",
        "GND Name": "Deegalahinna",
        "Key Activities proposed for Soil and Water conservation": "1. Renovation of natural drains - Torrent 1 (Kandura 1)",
        "Priority based on Soil Erosion Hazard": 5,
        "N": 7.061496,
        "E": 80.767824,
        "Quantity": "4 km",
        "Proposed measure/s": "Clearing and planting some trees along the banks (Areca nut) and other conservation practices",
        "Total_Cost": "400,000.00",
        "Contribution (Local Community, LA, and the project)": "Labour and other basic services by the Local community/ Shramadana",
        "Time frame for the implementation": "0.5 Years",
        "photopath": "https://raw.githubusercontent.com/MWS003-GIS/MWS003-GIS.github.io/main/IWWRMP/Data/EXD/200_photo/MWS_015/DH2 (2).jpg"
      },
      "geometry": {
        "type": "Point",
        "coordinates": [
          80.767824,
          7.061496
        ]
      }
    },
    {
      "type": "Feature",
      "properties": {
        "No.": 2,
        "GND No.": "511 A",
        "GND Name": "Deegalahinna",
        "Key Activities proposed for Soil and Water conservation": "2. Renovation of natural drains - Kalu Palama Ella",
        "Priority based on Soil Erosion Hazard": 5,
        "N": 7.064181,
        "E": 80.767129,
        "Quantity": "6 km",
        "Proposed measure/s": "Clearing and planting some trees along the banks (Areca nut) and other conservation practices",
        "Total_Cost": "600,000.00",
        "Contribution (Local Community, LA, and the project)": "Labour and other basic services by the Local community/ Shramadana",
        "Time frame for the implementation": "0.5 Years",
        "photopath": "https://raw.githubusercontent.com/MWS003-GIS/MWS003-GIS.github.io/main/IWWRMP/Data/EXD/200_photo/MWS_015/M (05)2.jpg"
      },
      "geometry": {
        "type": "Point",
        "coordinates": [
          80.767129,
          7.064181
        ]
      }
    },
    {
      "type": "Feature",
      "properties": {
        "No.": 3,
        "GND No.": "511 A",
        "GND Name": "Deegalahinna",
        "Key Activities proposed for Soil and Water conservation": "3. Renovation of natural drains - Waththa Kumbura torrent (Kandura)",
        "Priority based on Soil Erosion Hazard": 3,
        "N": 7.063279,
        "E": 80.764963,
        "Quantity": "5 km",
        "Proposed measure/s": "Clearing and planting some trees along the banks (Areca nut) and other conservation practices",
        "Total_Cost": "500,000.00",
        "Contribution (Local Community, LA, and the project)": "Labour and other basic services by the Local community/ Shramadana",
        "Time frame for the implementation": "0.5 Years",
        "photopath": "https://raw.githubusercontent.com/MWS003-GIS/MWS003-GIS.github.io/main/IWWRMP/Data/EXD/200_photo/MWS_015/DH6.jpg"
      },
      "geometry": {
        "type": "Point",
        "coordinates": [
          80.764963,
          7.063279
        ]
      }
    },
    {
      "type": "Feature",
      "properties": {
        "No.": 7,
        "GND No.": "511 E",
        "GND Name": "Elamulla",
        "Key Activities proposed for Soil and Water conservation": "1. Renovation of natural drains - Dothuru torrent",
        "Priority based on Soil Erosion Hazard": 4,
        "N": 7.047505,
        "E": 80.773644,
        "Quantity": "7 km",
        "Proposed measure/s": "Clearing and planting some trees along the banks (Areca nut) and other conservation practices",
        "Total_Cost": "700,000.00",
        "Contribution (Local Community, LA, and the project)": "Labour and other basic services by the Local community/ Shramadana",
        "Time frame for the implementation": "0.5 Years",
        "photopath": "https://raw.githubusercontent.com/MWS003-GIS/MWS003-GIS.github.io/main/IWWRMP/Data/EXD/200_photo/MWS_015/E6.jpg"
      },
      "geometry": {
        "type": "Point",
        "coordinates": [
          80.773644,
          7.047505
        ]
      }
    },
    {
      "type": "Feature",
      "properties": {
        "No.": 8,
        "GND No.": "511 E",
        "GND Name": "Elamulla",
        "Key Activities proposed for Soil and Water conservation": "2. Renovation of natural drains - Torrent flows by the animal farm",
        "Priority based on Soil Erosion Hazard": 5,
        "N": 7.057515,
        "E": 80.768026,
        "Quantity": "2 km",
        "Proposed measure/s": "Clearing and planting some trees along the banks (Areca nut) and other conservation practices",
        "Total_Cost": "200,000.00",
        "Contribution (Local Community, LA, and the project)": "Labour and other basic services by the Local community/ Shramadana",
        "Time frame for the implementation": "0.5 Years",
        "photopath": "https://raw.githubusercontent.com/MWS003-GIS/MWS003-GIS.github.io/main/IWWRMP/Data/EXD/200_photo/MWS_015/E2 (2).jpg"
      },
      "geometry": {
        "type": "Point",
        "coordinates": [
          80.768026,
          7.057515
        ]
      }
    },
    {
      "type": "Feature",
      "properties": {
        "No.": 9,
        "GND No.": "511 E",
        "GND Name": "Elamulla",
        "Key Activities proposed for Soil and Water conservation": "3. Renovation of natural drains - Torrent flows in the middle of 10 houses",
        "Priority based on Soil Erosion Hazard": 5,
        "N": 7.05738,
        "E": 80.770321,
        "Quantity": "2.5 km",
        "Proposed measure/s": "Clearing and planting some trees along the banks (Areca nut) and other conservation practices",
        "Total_Cost": "250,000.00",
        "Contribution (Local Community, LA, and the project)": "Labour and other basic services by the Local community/ Shramadana",
        "Time frame for the implementation": "0.5 Years",
        "photopath": "https://raw.githubusercontent.com/MWS003-GIS/MWS003-GIS.github.io/main/IWWRMP/Data/EXD/200_photo/MWS_015/E3.jpg"
      },
      "geometry": {
        "type": "Point",
        "coordinates": [
          80.770321,
          7.05738
        ]
      }
    },
    {
      "type": "Feature",
      "properties": {
        "No.": 10,
        "GND No.": "511 E",
        "GND Name": "Elamulla",
        "Key Activities proposed for Soil and Water conservation": "4. Renovation of natural drains - Torrent flows by the animal farm 2",
        "Priority based on Soil Erosion Hazard": 1,
        "N": 7.057738,
        "E": 80.770321,
        "Quantity": "3 km",
        "Proposed measure/s": "Clearing and planting some trees along the banks (Areca nut) and other conservation practices",
        "Total_Cost": "300,000.00",
        "Contribution (Local Community, LA, and the project)": "Labour and other basic services by the Local community/ Shramadana",
        "Time frame for the implementation": "0.5 Years",
        "photopath": "https://raw.githubusercontent.com/MWS003-GIS/MWS003-GIS.github.io/main/IWWRMP/Data/EXD/200_photo/MWS_015/E12 (4).jpg"
      },
      "geometry": {
        "type": "Point",
        "coordinates": [
          80.770321,
          7.057738
        ]
      }
    },
    {
      "type": "Feature",
      "properties": {
        "No.": 11,
        "GND No.": "511 E",
        "GND Name": "Elamulla",
        "Key Activities proposed for Soil and Water conservation": "5. Renovation of natural drains - Torrent flows by the animal farm",
        "Priority based on Soil Erosion Hazard": 1,
        "N": 7.056947,
        "E": 80.77134,
        "Quantity": "3 km",
        "Proposed measure/s": "Clearing and planting some trees along the banks (Areca nut) and other conservation practices",
        "Total_Cost": "300,000.00",
        "Contribution (Local Community, LA, and the project)": "Labour and other basic services by the Local community/ Shramadana",
        "Time frame for the implementation": "0.5 Years",
        "photopath": "https://raw.githubusercontent.com/MWS003-GIS/MWS003-GIS.github.io/main/IWWRMP/Data/EXD/200_photo/MWS_015/E4.jpg"
      },
      "geometry": {
        "type": "Point",
        "coordinates": [
          80.77134,
          7.056947
        ]
      }
    },
    {
      "type": "Feature",
      "properties": {
        "No.": 12,
        "GND No.": "511 E",
        "GND Name": "Elamulla",
        "Key Activities proposed for Soil and Water conservation": "6. Renovation of natural drains - Torrent near the estate houses",
        "Priority based on Soil Erosion Hazard": 1,
        "N": 7.056944,
        "E": 80.772166,
        "Quantity": "3.5 km",
        "Proposed measure/s": "Clearing and planting some trees along the banks (Areca nut) and other conservation practices",
        "Total_Cost": "350,000.00",
        "Contribution (Local Community, LA, and the project)": "Labour and other basic services by the Local community/ Shramadana",
        "Time frame for the implementation": "0.5 Years",
        "photopath": "https://raw.githubusercontent.com/MWS003-GIS/MWS003-GIS.github.io/main/IWWRMP/Data/EXD/200_photo/MWS_015/E12.jpg"
      },
      "geometry": {
        "type": "Point",
        "coordinates": [
          80.772166,
          7.056944
        ]
      }
    }
  ]
}