{"type":"FeatureCollection","name":"MI","crs":{"type":"name","properties":{"name":"urn:ogc:def:crs:OGC:1.3:CRS84"}},"features":[
{"type":"Feature","properties":{"No":1,"GND No.":"50D","Scheme":"Mahakumbura canal","N":6.882326,"E":80.865598,"Observation":"Existing Earthen canal,  - Water from this canal is used to grow paddy and vegetables on an area of about 35 acres.During the rainy season when too much water flows, Bank erosion occurs","Description":"Canal lining and protection including EW & tree planting\n\nCanal reservation protection by concrete lining  For  150 mm thick , 600 mm  wide  and 500 mm high canal -double banking\n\nStream / canal  reservation protection by earthfilling of  strip   of 1.5m","Amount (Rs.)":1408000,"photopath":"https://raw.githubusercontent.com/MWS003-GIS/MWS003-GIS.github.io/main/IWWRMP/Data/EXD/200_photo/MWS_060/Mahakumbura canal.jpg"},"geometry":{"type":"Point","coordinates":[80.865598,6.882326]}},
{"type":"Feature","properties":{"No":2,"GND No.":"50D","Scheme":"Canal from Kosgahakumbura Bibila spout to Yaya","N":6.890469,"E":80.86825,"Observation":"Existing Earthen canal,  some places Constructed of rectangular concrete lining(450mm x 450mm)   Water from this canal is used to grow paddy and vegetables on an area of about 15 acres.","Description":"Canal lining, Earth work, tree planting and construction of a side wall\n\nCanals reservation protection by concrete lining  For  125mm thick , 500 mm  wide  and 400 mm high canal -double banking\n\nTransporting of earth moving machinery\n\nMiscellaneous\n\nCont","Amount (Rs.)":841500,"photopath":"https://raw.githubusercontent.com/MWS003-GIS/MWS003-GIS.github.io/main/IWWRMP/Data/EXD/200_photo/MWS_060/Canal from Kosgahakumbura Bibila spout to Yaya.jpg"},"geometry":{"type":"Point","coordinates":[80.86825,6.890469]}},
{"type":"Feature","properties":{"No":3,"GND No.":"50D","Scheme":"Canal from Aswedduma to Aswedduma Yaya","N":6.884376,"E":80.86535,"Observation":"Existing Earthen canal,  some places Constructed of rectangular concrete lining(300mm x 300mm)   Water from this canal is used to grow paddy and vegetables on an area of about 10 acres.About 15m of the existing canal has been risk","Description":"Canal lining and protection including EW & tree planting\n\nCanal reservation protection by concrete lining  For  100 mm thick , 300 mm  wide  and 300 mm high canal -double banking\n\nMiscellaneous\n\nContingancies 10%\n\nConstruction of 15 m long 3.0 m high Con","Amount (Rs.)":2323200,"photopath":"https://raw.githubusercontent.com/MWS003-GIS/MWS003-GIS.github.io/main/IWWRMP/Data/EXD/200_photo/MWS_060/Canal from Aswedduma to Aswedduma Yaya.jpg"},"geometry":{"type":"Point","coordinates":[80.86535,6.884376]}},
{"type":"Feature","properties":{"No":4,"GND No.":"50G","Scheme":"Maha Ela","N":6.879392,"E":80.852489,"Observation":"Existing Earthen canal,  some places Constructed of rectangular concrete lining(600mm x 600mm)   Water from this canal is used to grow paddy and vegetables on an area of about 110 acres.About 23 m of the existing canal has been risk near the water source","Description":"Construction of 23 m long 3.0 m high Concrete Retaining wall\n\nConstruction of 3.0m high 1:3:6 (40mm) cement concrete Retaining Wall \n\nMiscellaneous\n\nContingancies 10%","Amount (Rs.)":2700500,"photopath":"https://raw.githubusercontent.com/MWS003-GIS/MWS003-GIS.github.io/main/IWWRMP/Data/EXD/200_photo/MWS_060/Maha ela.jpg"},"geometry":{"type":"Point","coordinates":[80.852489,6.879392]}},
{"type":"Feature","properties":{"No":5,"GND No.":"50G","Scheme":"Heen Ela","N":6.876818,"E":80.852249,"Observation":"A  portion of the existing wall has broken in anicut.Water from this anicut is used to grow paddy and vegetables on an area of about 18 acres","Description":"Construction of Concrete anicut of 4.0 m length and height1.0 m.\n\nClearing the site \n\nEarth excavation for foundation or quarry materials and haul the surplus materials up to 30m by Manually.\n\nSawn timber form work including making, fixing & removing for","Amount (Rs.)":104500,"photopath":"https://raw.githubusercontent.com/MWS003-GIS/MWS003-GIS.github.io/main/IWWRMP/Data/EXD/200_photo/MWS_060/Heen ela Anicut (2).jpg"},"geometry":{"type":"Point","coordinates":[80.852249,6.876818]}},
{"type":"Feature","properties":{"No":6,"GND No.":"50F","Scheme":"Hewanakumbura Maha Ela","N":6.883542,"E":80.851301,"Observation":"Existing Earthen canal,  some places Constructed of rectangular concrete lining(600mm x 600mm)   Water from this canal is used to grow paddy and vegetables on an area of about 110 acres.During the rainy season when too much water flows, Bank erosion occu","Description":"Canal lining and protection including EW & tree planting\n\nCanal reservation protection by concrete lining  For  150 mm thick , 600 mm  wide  and 500 mm high canal -double banking\n\nStream / canal  reservation protection by earthfilling of  strip   of 1.5m","Amount (Rs.)":1831500,"photopath":"https://raw.githubusercontent.com/MWS003-GIS/MWS003-GIS.github.io/main/IWWRMP/Data/EXD/200_photo/MWS_060/Hewanakumbura Maha Ela.jpg"},"geometry":{"type":"Point","coordinates":[80.851301,6.883542]}}
]}