{"type":"FeatureCollection","name":"SWC_ON","crs":{"type":"name","properties":{"name":"urn:ogc:def:crs:OGC:1.3:CRS84"}},"features":[
{"type":"Feature","properties":{"No.":1,"GND No.":"50D","GND Name":"Keppetipola","Key Activities proposed for Soil and Water conservation":"1. Soil conservation practices -  Farmlands (50°-70°)","Priority based on Soil Erosion Hazard":5,"N":6.886082,"E":80.859805,"Quantity":"75 ha","Proposed measure/s":"1. Live fencing/SALT  - 65000 m","Uniti_Cost":"250.00 m-1","Total_Cost":16250000,"Contribution (Local Community, LA, and the project)":"Labour and other basic services by the Local community","Time frame for the implementation":"0.25 Years","photopath":"https://raw.githubusercontent.com/MWS003-GIS/MWS003-GIS.github.io/main/IWWRMP/Data/EXD/200_photo/MWS_060/Soil conservation.jpg"},"geometry":{"type":"Point","coordinates":[80.859805,6.886082]}},
{"type":"Feature","properties":{"No.":3,"GND No.":"50F","GND Name":"Hewanakumbura","Key Activities proposed for Soil and Water conservation":"1. Soil conservation practices -  Idampola Metipathkara (55°-65°)","Priority based on Soil Erosion Hazard":5,"N":6.890184,"E":80.852937,"Quantity":"16 ha","Proposed measure/s":"1. Live fencing/SALT  - 12000 m","Uniti_Cost":"250.00 m-1","Total_Cost":3000000,"Contribution (Local Community, LA, and the project)":"Labour and other basic services by the Local community","Time frame for the implementation":"0.25 Years","photopath":"https://raw.githubusercontent.com/MWS003-GIS/MWS003-GIS.github.io/main/IWWRMP/Data/EXD/200_photo/MWS_060/Idampola Metipathkara.jpg"},"geometry":{"type":"Point","coordinates":[80.852937,6.890184]}},
{"type":"Feature","properties":{"No.":4,"GND No.":"50F","GND Name":"Hewanakumbura","Key Activities proposed for Soil and Water conservation":"2. Soil conservation practices -  Metipiya Landa Yenbuwelthenna (40°-60°)","Priority based on Soil Erosion Hazard":2,"N":6.884517,"E":80.856847,"Quantity":"21 ha","Proposed measure/s":"1. Live fencing/SALT  - 17000 m","Uniti_Cost":"250.00 m-1","Total_Cost":4250000,"Contribution (Local Community, LA, and the project)":"Labour and other basic services by the Local community","Time frame for the implementation":"0.25 Years","photopath":"https://raw.githubusercontent.com/MWS003-GIS/MWS003-GIS.github.io/main/IWWRMP/Data/EXD/200_photo/MWS_060/Metipiya Landa Yenbuwelthenna.jpg"},"geometry":{"type":"Point","coordinates":[80.856847,6.884517]}},
{"type":"Feature","properties":{"No.":5,"GND No.":"50F","GND Name":"Hewanakumbura","Key Activities proposed for Soil and Water conservation":"3. Soil conservation practices -  Maragaha Eella Pitahakumbura (35°-40°)","Priority based on Soil Erosion Hazard":4,"N":6.885064,"E":80.856773,"Quantity":"10 ha","Proposed measure/s":"1. Live fencing/SALT  - 6000 m","Uniti_Cost":"250.00 m-1","Total_Cost":1500000,"Contribution (Local Community, LA, and the project)":"Labour and other basic services by the Local community","Time frame for the implementation":"0.25 Years","photopath":"https://raw.githubusercontent.com/MWS003-GIS/MWS003-GIS.github.io/main/IWWRMP/Data/EXD/200_photo/MWS_060/Maragaha Eella Pitahakumbura.jpg"},"geometry":{"type":"Point","coordinates":[80.856773,6.885064]}}
]}