{"type":"FeatureCollection","name":"DWS","crs":{"type":"name","properties":{"name":"urn:ogc:def:crs:OGC:1.3:CRS84"}},"features":[
{"type":"Feature","properties":{"No":1,"GND No.":"62G","Scheme":"Bowa Watta","N":6.789779,"E":80.898282,"Observation":"Currently running as a water project","Description":"Construction of 6.0 cum water storage tank and provision of stop valves\n\nConstruction of Concrete water storage tank of 6 cum - size internal  2mx2mx1.75m\n\nSupply of 40 mm dia bronze stop valves\n\nSupply of 50 mm dia bronze stop valves\n\nSupply of 63 mm di","Estimated Cost":369578,"photopath":"https://raw.githubusercontent.com/MWS003-GIS/MWS003-GIS.github.io/main/IWWRMP/Data/EXD/200_photo/MWS_051/IMG_20250806_113304 Bowawaththa No-02 spring.jpg"},"geometry":{"type":"Point","coordinates":[80.898282,6.789779]}}
]}