{"type":"FeatureCollection","name":"SWC_ON","crs":{"type":"name","properties":{"name":"urn:ogc:def:crs:OGC:1.3:CRS84"}},"features":[
{"type":"Feature","properties":{"No.":1,"GND No.":"62","GND Name":"Rathkarawwa","Key Activities proposed for Soil and Water conservation":"1. Soil conservation practices -  Yalpathwela (40°-45°)","Priority based on Soil Erosion Hazard":5,"N":6.799976,"E":80.908215,"Quantity":"4 ha","Proposed measure/s":"1. Live fencing/SALT  - 2000 m","Uniti_Cost":"250.00 m-1","Total_Cost":500000,"Contribution (Local Community, LA, and the project)":"Labour and other basic services by the Local community","Time frame for the implementation":"0.25 Years","photopath":"Not_Available"},"geometry":{"type":"Point","coordinates":[80.908215,6.799976]}},
{"type":"Feature","properties":{"No.":2,"GND No.":"62E","GND Name":"Hinnarangolla","Key Activities proposed for Soil and Water conservation":"1. Soil conservation practices -  Gannilagoda (40°-50°)","Priority based on Soil Erosion Hazard":1,"N":6.815983,"E":80.898402,"Quantity":"6 ha","Proposed measure/s":"1. Live fencing/SALT  - 3000 m","Uniti_Cost":"250.00 m-1","Total_Cost":750000,"Contribution (Local Community, LA, and the project)":"Labour and other basic services by the Local community","Time frame for the implementation":"0.25 Years","photopath":"https://raw.githubusercontent.com/MWS003-GIS/MWS003-GIS.github.io/main/IWWRMP/Data/EXD/200_photo/MWS_051/IMG_20250801_123429 Tea cultivation land.jpg"},"geometry":{"type":"Point","coordinates":[80.898402,6.815983]}},
{"type":"Feature","properties":{"No.":4,"GND No.":"62I","GND Name":"Pitapola","Key Activities proposed for Soil and Water conservation":"1. Soil conservation practices - Pitapola (50°-60°)","Priority based on Soil Erosion Hazard":4,"N":6.806941,"E":80.874824,"Quantity":"4 ha","Proposed measure/s":"1. Live fencing/SALT  - 2000 m","Uniti_Cost":"250.00 m-1","Total_Cost":500000,"Contribution (Local Community, LA, and the project)":"Labour and other basic services by the Local community","Time frame for the implementation":"0.25 Years","photopath":"https://raw.githubusercontent.com/MWS003-GIS/MWS003-GIS.github.io/main/IWWRMP/Data/EXD/200_photo/MWS_051/IMG_20250812_151550 cultivated land.jpg"},"geometry":{"type":"Point","coordinates":[80.874824,6.806941]}},
{"type":"Feature","properties":{"No.":5,"GND No.":"62K","GND Name":"Ohiya Estate","Key Activities proposed for Soil and Water conservation":"1. Soil conservation practices - Land that owned by Estate corporation (50°-70°)","Priority based on Soil Erosion Hazard":4,"N":6.792229,"E":80.863693,"Quantity":"10 ha","Proposed measure/s":"1. Live fencing/SALT  - 2000 m","Uniti_Cost":"250.00 m-1","Total_Cost":500000,"Contribution (Local Community, LA, and the project)":"Labour and other basic services by the Local community","Time frame for the implementation":"0.25 Years","photopath":"https://raw.githubusercontent.com/MWS003-GIS/MWS003-GIS.github.io/main/IWWRMP/Data/EXD/200_photo/MWS_051/IMG_20250805_093459 Cultivated land.jpg"},"geometry":{"type":"Point","coordinates":[80.863693,6.792229]}}
]}