{"type":"FeatureCollection","name":"Landslides","crs":{"type":"name","properties":{"name":"urn:ogc:def:crs:OGC:1.3:CRS84"}},"features":[
{"type":"Feature","properties":{"No.":1,"GN Division No.":974,"GN Division":"Shriyagama","Landslides":"Breaking the wall in Kirimatiya Kovila (85)","N":7.216192,"E":80.688977,"NBRO Recommendation N/A":"Needs NBRO concern","Proposed Measures":"Establishing a retaining wall (10 m x 4 m)","photopath":"https://raw.githubusercontent.com/MWS003-GIS/MWS003-GIS.github.io/main/IWWRMP/Data/EXD/200_photo/MWS_005/Shriyagama/S20.jpg"},"geometry":{"type":"Point","coordinates":[80.688977,7.216192]}},
{"type":"Feature","properties":{"No.":2,"GN Division No.":975,"GN Division":"Latiyagoolla","Landslides":"Soil sloughing - Moragolla Janapadaya (80)","N":7.226807,"E":80.686003,"NBRO Recommendation N/A":"NBRO has visited","Proposed Measures":"Establishing a retaining wall (500 m x 6 m)","photopath":"https://raw.githubusercontent.com/MWS003-GIS/MWS003-GIS.github.io/main/IWWRMP/Data/EXD/200_photo/MWS_005/Latiyagolla/L1.jpg"},"geometry":{"type":"Point","coordinates":[80.686003,7.226807]}},
{"type":"Feature","properties":{"No.":3,"GN Division No.":975,"GN Division":"Latiyagoolla","Landslides":"Breaking the wall in Kirimatiya, Gammaddagama (70)","N":7.219735,"E":80.689326,"NBRO Recommendation N/A":"Needs NBRO concern","Proposed Measures":"Adopting proper soil conservation practices in adjecent lands","photopath":"https://raw.githubusercontent.com/MWS003-GIS/MWS003-GIS.github.io/main/IWWRMP/Data/EXD/200_photo/MWS_005/Latiyagolla/L26.jpg"},"geometry":{"type":"Point","coordinates":[80.689326,7.219735]}},
{"type":"Feature","properties":{"No.":4,"GN Division No.":983,"GN Division":"Nugaliyadda Ihala","Landslides":"Land Slides - Kandegama (60)","N":7.223697,"E":80.686913,"NBRO Recommendation N/A":"NBRO has visited","Proposed Measures":"Trasferring occupants to other lands, Avoiding construction of heavy structures, trees etc., Monitoring continuously","photopath":"https://raw.githubusercontent.com/MWS003-GIS/MWS003-GIS.github.io/main/IWWRMP/Data/EXD/200_photo/MWS_005/Nugaliyadda_Ihala/NGLUP1101.jpg"},"geometry":{"type":"Point","coordinates":[80.686913,7.223697]}},
{"type":"Feature","properties":{"No.":5,"GN Division No.":985,"GN Division":"Butawawaththa South","Landslides":"Land Slides - Saman Sewana Egodawaththa","N":7.237688,"E":80.701251,"NBRO Recommendation N/A":"Needs NBRO concern","Proposed Measures":"Trasferring occupants to other lands, Avoiding construction of heavy structures, trees etc., Monitoring continuously","photopath":"https://raw.githubusercontent.com/MWS003-GIS/MWS003-GIS.github.io/main/IWWRMP/Data/EXD/200_photo/MWS_005/Butawawatta/BTW(11)1.jpg"},"geometry":{"type":"Point","coordinates":[80.701251,7.237688]}},
{"type":"Feature","properties":{"No.":6,"GN Division No.":991,"GN Division":"Kapuliyadda West","Landslides":"Land Slides - Near Kandy-Marassana Road","N":7.240003,"E":80.716473,"NBRO Recommendation N/A":"Needs NBRO concern","Proposed Measures":"Trasferring occupants to other lands, Avoiding construction of heavy structures, trees etc., Monitoring continuously, Planting areca nut","photopath":"https://raw.githubusercontent.com/MWS003-GIS/MWS003-GIS.github.io/main/IWWRMP/Data/EXD/200_photo/MWS_005/Kapuliyadda_East/KE10.jpg"},"geometry":{"type":"Point","coordinates":[80.716473,7.240003]}},
{"type":"Feature","properties":{"No.":7,"GN Division No.":993,"GN Division":"Narangasthenna","Landslides":"Land sliding/soil sloughing - Korale Gedara Waththa (70)","N":7.23565,"E":80.71346,"NBRO Recommendation N/A":"NBRO has visited","Proposed Measures":"Soil conservation practices in the lands and introducing perennial crops","photopath":"https://raw.githubusercontent.com/MWS003-GIS/MWS003-GIS.github.io/main/IWWRMP/Data/EXD/200_photo/MWS_005/Narangasthenna/N34.jpg"},"geometry":{"type":"Point","coordinates":[80.71346,7.23565]}},
{"type":"Feature","properties":{"No.":8,"GN Division No.":996,"GN Division":"Madagama Udagama","Landslides":"Falling rocks/stones down - Galapamula","N":7.208213,"E":80.707201,"NBRO Recommendation N/A":"NBRO has visited","Proposed Measures":"Removal of risky boulders/stones\nAwareness on soil conservation ","photopath":"https://raw.githubusercontent.com/MWS003-GIS/MWS003-GIS.github.io/main/IWWRMP/Data/EXD/200_photo/MWS_005/Madagama_Udagama/MU24.jpg"},"geometry":{"type":"Point","coordinates":[80.707201,7.208213]}},
{"type":"Feature","properties":{"No.":9,"GN Division No.":997,"GN Division":"Medagama Pallegama","Landslides":"1. Breaking down the side wall - Medagama Central College/Lower the road (85)","N":7.220798,"E":80.713457,"NBRO Recommendation N/A":"Needs NBRO concern","Proposed Measures":"Establishing a reataining wall (150 m x 6 m)","photopath":"https://raw.githubusercontent.com/MWS003-GIS/MWS003-GIS.github.io/main/IWWRMP/Data/EXD/200_photo/MWS_005/Madagama_Pallegama/MGPL1101.jpg"},"geometry":{"type":"Point","coordinates":[80.713457,7.220798]}},
{"type":"Feature","properties":{"No.":10,"GN Division No.":997,"GN Division":"Medagama Pallegama","Landslides":"2. Falling down the wall - Medagama Central College/Lower the wall (70)","N":7.220867,"E":80.713459,"NBRO Recommendation N/A":"Needs NBRO concern","Proposed Measures":"Establishing a reataining wall (200 m x 7 m)","photopath":"https://raw.githubusercontent.com/MWS003-GIS/MWS003-GIS.github.io/main/IWWRMP/Data/EXD/200_photo/MWS_005/Madagama_Pallegama/MGPL1102.jpg"},"geometry":{"type":"Point","coordinates":[80.713459,7.220867]}},
{"type":"Feature","properties":{"No.":11,"GN Division No.":997,"GN Division":"Medagama Pallegama","Landslides":"3. Landsliding including the house","N":7.216479,"E":80.712368,"NBRO Recommendation N/A":"Needs NBRO concern","Proposed Measures":"Trasferring occupants to other lands, Avoiding construction of heavy structures, trees etc., Monitoring continuously, Planting areca nut","photopath":"https://raw.githubusercontent.com/MWS003-GIS/MWS003-GIS.github.io/main/IWWRMP/Data/EXD/200_photo/MWS_005/Madagama_Pallegama/MGPL1103.jpg"},"geometry":{"type":"Point","coordinates":[80.712368,7.216479]}},
{"type":"Feature","properties":{"No.":12,"GN Division No.":999,"GN Division":"Bolapa","Landslides":"Flooding at Lunu Ella Kanda","N":7.238493,"E":80.723024,"NBRO Recommendation N/A":"Needs NBRO concern","Proposed Measures":"Practicing soil conservation and water drainage practices in other lands includung natural drains as specified under Soil and Water Conservation Practices","photopath":"Not_Available"},"geometry":{"type":"Point","coordinates":[80.723024,7.238493]}},
{"type":"Feature","properties":{"No.":13,"GN Division No.":987,"GN Division":"Doolmure","Landslides":"Soil sloughing - Doolmure (60)","N":7.242023,"E":80.706107,"NBRO Recommendation N/A":"Needs NBRO concern","Proposed Measures":"Establishing a retaining wall (100 m x 1.5 m)","photopath":"Not_Available"},"geometry":{"type":"Point","coordinates":[80.706107,7.242023]}}
]}