{"type":"FeatureCollection","name":"MT","crs":{"type":"name","properties":{"name":"urn:ogc:def:crs:OGC:1.3:CRS84"}},"features":[
{"type":"Feature","properties":{"Name_of_Tank":"Muthukeliyawa Wewa","Custodians":"DAD","N":7.213453,"E":80.696547,"Remarks":"Recommended to improve reservation","photopath":"Not_Available"},"geometry":{"type":"Point","coordinates":[80.696547,7.213453]}},
{"type":"Feature","properties":{"Name_of_Tank":"Kirimetiya Wewa","Custodians":"DAD","N":7.216957,"E":80.689617,"Remarks":"Recommended to improve reservation and eradicate aquatic weeds","photopath":"Not_Available"},"geometry":{"type":"Point","coordinates":[80.689617,7.216957]}},
{"type":"Feature","properties":{"Name_of_Tank":"Pihibiyakele  Wewa","Custodians":"DAD","N":7.22313,"E":80.67952,"Remarks":"Recommended to improve reservation","photopath":"Not_Available"},"geometry":{"type":"Point","coordinates":[80.67952,7.22313]}},
{"type":"Feature","properties":{"Name_of_Tank":"Katukithula Wewa","Custodians":"DAD","N":7.22105,"E":80.68088,"Remarks":"Recommended to improve reservation","photopath":"Not_Available"},"geometry":{"type":"Point","coordinates":[80.68088,7.22105]}},
{"type":"Feature","properties":{"Name_of_Tank":"Bogamuwa Wewa","Custodians":"DAD","N":7.2027805,"E":80.69781,"Remarks":"Recommended to improve reservation","photopath":"Not_Available"},"geometry":{"type":"Point","coordinates":[80.69781,7.2027805]}}
]}