{"type":"FeatureCollection","name":"WSP","crs":{"type":"name","properties":{"name":"urn:ogc:def:crs:OGC:1.3:CRS84"}},"features":[
{"type":"Feature","properties":{"No":1,"GND No.":974,"Name of the Tank":"Ambalanmana Batagolla stream 1","N":7.224507,"E":80.67348,"Observation":"-","Description":"No vegetation in the reservation ,Recommend dense randomly mixed natural reforestation , and single row of areca ,vetiver plantation ","Amount (Rs.)":"290,000","photopath":"https://raw.githubusercontent.com/MWS003-GIS/MWS003-GIS.github.io/main/IWWRMP/Data/EXD/200_photo/MWS_005/Shriyagama/S3.jpg"},"geometry":{"type":"Point","coordinates":[80.67348,7.224507]}},
{"type":"Feature","properties":{"No":2,"GND No.":975,"Name of the Tank":"Pihimbiya kele stream","N":7.222275,"E":80.677545,"Observation":"-","Description":"No reservation. Need 100 sqm reservation and dense randomly mixed natural reforestation , and single row of areca ,vetiver plantation","Amount (Rs.)":"90,000","photopath":"https://raw.githubusercontent.com/MWS003-GIS/MWS003-GIS.github.io/main/IWWRMP/Data/EXD/200_photo/MWS_005/Latiyagolla/L6.jpg"},"geometry":{"type":"Point","coordinates":[80.677545,7.222275]}},
{"type":"Feature","properties":{"No":3,"GND No.":975,"Name of the Tank":"Katukithula Wewa reservation","N":7.220948,"E":80.680987,"Observation":"-","Description":"No reservation. Need 4000 sqm reservation and dense randomly mixed natural reforestation , and single row of areca ,vetiver plantation along the perimeter.","Amount (Rs.)":"900,000","photopath":"https://raw.githubusercontent.com/MWS003-GIS/MWS003-GIS.github.io/main/IWWRMP/Data/EXD/200_photo/MWS_005/Latiyagolla/L13.jpg"},"geometry":{"type":"Point","coordinates":[80.680987,7.220948]}},
{"type":"Feature","properties":{"No":4,"GND No.":989,"Name of the Tank":"Puwakkotuwa well","N":7.230657,"E":80.705453,"Observation":"-","Description":"surface runoff inflow to the well. Need concrete retaining wall about 6m long and 1.5m high.","Amount (Rs.)":"215,000","photopath":"https://raw.githubusercontent.com/MWS003-GIS/MWS003-GIS.github.io/main/IWWRMP/Data/EXD/200_photo/MWS_005/Godamunna_East/G25.jpg"},"geometry":{"type":"Point","coordinates":[80.705453,7.230657]}},
{"type":"Feature","properties":{"No":5,"GND No.":990,"Name of the Tank":"Puppaladeniya spring well","N":7.230416,"E":80.69916,"Observation":"-","Description":"leaks through peripheral wall. Need crack filling and plastering to the wall.","Amount (Rs.)":"80,000","photopath":"https://raw.githubusercontent.com/MWS003-GIS/MWS003-GIS.github.io/main/IWWRMP/Data/EXD/200_photo/MWS_005/Godamunna_West/GMWS0101.jpg"},"geometry":{"type":"Point","coordinates":[80.69916,7.230416]}},
{"type":"Feature","properties":{"No":6,"GND No.":992,"Name of the Tank":"Kiwule well","N":7.240965,"E":80.720497,"Observation":"-","Description":" No reservation. High alkalinity and difficult to drink. Need acquire about 100 -150 sqm reservation and plant dense randomly mixed natural reforestation , and single row of areca ,vetiver plantation enriches with riparian species. ","Amount (Rs.)":"125,000","photopath":"https://raw.githubusercontent.com/MWS003-GIS/MWS003-GIS.github.io/main/IWWRMP/Data/EXD/200_photo/MWS_005/Kapuliyadda_East/KE4.jpg"},"geometry":{"type":"Point","coordinates":[80.720497,7.240965]}},
{"type":"Feature","properties":{"No":7,"GND No.":993,"Name of the Tank":"Thalmuka well","N":7.233275,"E":80.707871,"Observation":"-","Description":"Leaks at the bottom.  Contamination from fallen leaves etc. Recommend 200mm thick pebble layer after cleaning.  Need a framed net of 2.5mx 5m size.","Amount (Rs.)":"40,000","photopath":"https://raw.githubusercontent.com/MWS003-GIS/MWS003-GIS.github.io/main/IWWRMP/Data/EXD/200_photo/MWS_005/Narangasthenna/N10.jpg"},"geometry":{"type":"Point","coordinates":[80.707871,7.233275]}},
{"type":"Feature","properties":{"No":8,"GND No.":993,"Name of the Tank":"Kumbukgaha mala well","N":7.229555,"E":80.711723,"Observation":"-","Description":"Contamination from fallen leaves etc. Need a framed net of 2.5mx 2.5m size.","Amount (Rs.)":"10,000","photopath":"https://raw.githubusercontent.com/MWS003-GIS/MWS003-GIS.github.io/main/IWWRMP/Data/EXD/200_photo/MWS_005/Narangasthenna/N28.jpg"},"geometry":{"type":"Point","coordinates":[80.711723,7.229555]}},
{"type":"Feature","properties":{"No":9,"GND No.":996,"Name of the Tank":"Gangoda springs","N":7.21297,"E":80.70092,"Observation":"-","Description":"No reservation.  Leaking surface runoff in to the well. 1. Need to acquire about 100 sqm reservation and plant dense randomly mixed natural reforestation , and single row of areca ,vetiver plantation enriches with riparian species. 2. Need to construct dry masonry wall of 10m long and 1m high.","Amount (Rs.)":"275,000","photopath":"https://raw.githubusercontent.com/MWS003-GIS/MWS003-GIS.github.io/main/IWWRMP/Data/EXD/200_photo/MWS_005/Madagama_Udagama/MU17.jpg"},"geometry":{"type":"Point","coordinates":[80.70092,7.21297]}},
{"type":"Feature","properties":{"No":10,"GND No.":996,"Name of the Tank":"Thulamuwa springs","N":7.20383,"E":80.70125,"Observation":"-","Description":"No reservation. 1. Need to acquire about 4000 sqm reservation and plant dense randomly mixed natural reforestation , and single row of areca ,vetiver plantation enriches with riparian species","Amount (Rs.)":"900,000","photopath":"https://raw.githubusercontent.com/MWS003-GIS/MWS003-GIS.github.io/main/IWWRMP/Data/EXD/200_photo/MWS_005/Madagama_Udagama/MU21.jpg"},"geometry":{"type":"Point","coordinates":[80.70125,7.20383]}},
{"type":"Feature","properties":{"No":11,"GND No.":999,"Name of the Tank":"Kiwul Linda Junction","N":7.24066,"E":80.72174,"Observation":"-","Description":"Accumulation of floating debris ,house hold refuse , plastic refuse etc direct discharge into Victoria reservoir- Need a trapping barrier using (200L ,30-40 barrels ) series of partially floating plastic barrels connected by stainless steel wire ropes and bulldog clips and anchored to the embankment.","Amount (Rs.)":"775,000","photopath":"https://raw.githubusercontent.com/MWS003-GIS/MWS003-GIS.github.io/main/IWWRMP/Data/EXD/200_photo/MWS_005/Bolapa/KL(09)P1.jpg"},"geometry":{"type":"Point","coordinates":[80.72174,7.24066]}}
]}