{
"type": "FeatureCollection",
"name": "WSP",
"crs": { "type": "name", "properties": { "name": "urn:ogc:def:crs:OGC:1.3:CRS84" } },
"features": [
{ "type": "Feature", "properties": { "No": 1, "GND No.": 277, "Name of the Tank": "Tube well near Mr. Gunasekara's house at Dambawela", "N": 7.26535, "E": 80.68897, "Observation": "already developed.", "Description": "Site Clearing\nRepairs of Tube Well ( cleaning )\nTyding up site after construction\nContingencies (10%)", "Amount (Rs.)": 58500, "photopath": "https://raw.githubusercontent.com/MWS003-GIS/MWS003-GIS.github.io/main/IWWRMP/Data/EXD/200_photo/MWS_004_1/tube well  dambawela (1).jpg" }, "geometry": { "type": "Point", "coordinates": [ 80.68897, 7.26535 ] } },
{ "type": "Feature", "properties": { "No": 2, "GND No.": 277, "Name of the Tank": "Bathing well at Delumwatta road", "N": 7.267023, "E": 80.683388, "Observation": "The well, used by 300 families, has some leakages.", "Description": "Site Clearing\nRepairs of  Well including fixing the leaks etc. \nConcreting  around the well. \nTyding up site after construction\nContingencies (10%)", "Amount (Rs.)": 86000, "photopath": "https://raw.githubusercontent.com/MWS003-GIS/MWS003-GIS.github.io/main/IWWRMP/Data/EXD/200_photo/MWS_004_1/delumwaththa drinking well (1).jpg" }, "geometry": { "type": "Point", "coordinates": [ 80.683388, 7.267023 ] } },
{ "type": "Feature", "properties": { "No": 3, "GND No.": 277, "Name of the Tank": "Well at Delumwatta road (used for obtaining drinking water)", "N": 7.26334, "E": 80.689268, "Observation": "300 families used this well.  heavily damaged", "Description": "Site Clearing\nRebuild the well to standered condition to use for drinking purposes\nTyding up site after construction\nContingencies (10%)", "Amount (Rs.)": 287000, "photopath": "https://raw.githubusercontent.com/MWS003-GIS/MWS003-GIS.github.io/main/IWWRMP/Data/EXD/200_photo/MWS_004_1/delumwaththa daily use well (1).jpg" }, "geometry": { "type": "Point", "coordinates": [ 80.689268, 7.26334 ] } },
{ "type": "Feature", "properties": { "No": 4, "GND No.": 277, "Name of the Tank": "Dambawela Pathaha", "N": 7.266882, "E": 80.683021, "Observation": "The toilet pipes are clogged.", "Description": "Site Clearing\nRemoving of loose soil and desilting to a thickness of 0.225m  and clearing the pathaha area and spoil to waste\nPlanting arecunut trees along the boundaries of pathaha ( assuming the perimeter of pathaha is 100m )( Refer sheet no.4  GND 5", "Amount (Rs.)": 388000, "photopath": "https://raw.githubusercontent.com/MWS003-GIS/MWS003-GIS.github.io/main/IWWRMP/Data/EXD/200_photo/MWS_004_1/pathaha damabawela (1).jpg" }, "geometry": { "type": "Point", "coordinates": [ 80.683021, 7.266882 ] } },
{ "type": "Feature", "properties": { "No": 5, "GND No.": 278, "Name of the Tank": "Gal Linda at Kirimetiya Gama Meda road", "N": 7.270095, "E": 80.684918, "Observation": "have some leakages in the well.", "Description": "Site Clearing\nRepair the leakages\nTyding up site after construction\nContingencies 10%\n", "Amount (Rs.)": 343000, "photopath": "https://raw.githubusercontent.com/MWS003-GIS/MWS003-GIS.github.io/main/IWWRMP/Data/EXD/200_photo/MWS_004_1/kirimatiya gal well (1).jpg" }, "geometry": { "type": "Point", "coordinates": [ 80.684918, 7.270095 ] } },
{ "type": "Feature", "properties": { "No": 6, "GND No.": 281, "Name of the Tank": "Kandure watta pihilla (public)", "N": 7.258753, "E": 80.66989, "Observation": "The pipeline, which 150 families currently use as their water source, was damaged.", "Description": "For 100m - ( length of a PVC Pipe is 3.6m )\nSite Clearing\nEarth excavation in trench for laying PVC pipes( trench 0.225 width with 0.30m height )\nAllow un skilled labour for fixing pipes\nPurchasing of other necessary sockets , elbows etc .", "Amount (Rs.)": 205800, "photopath": "https://raw.githubusercontent.com/MWS003-GIS/MWS003-GIS.github.io/main/IWWRMP/Data/EXD/200_photo/MWS_004_1/kaduruwaththa pihilla (2).jpg" }, "geometry": { "type": "Point", "coordinates": [ 80.66989, 7.258753 ] } }
]
}
