{
  "type": "FeatureCollection",
  "name": "Landslides",
  "crs": {
    "type": "name",
    "properties": {
      "name": "urn:ogc:def:crs:OGC:1.3:CRS84"
    }
  },
  "features": [
    {
      "type": "Feature",
      "properties": {
        "No.": 1,
        "GN Division No.": 28,
        "GN Division": "Godapola West",
        "Landslides": "Landsliding prone area and soil erosion -  Land slide near Mr. Bus's house on Kamburadeniya Road",
        "N": 7.229967,
        "E": 80.594694,
        "NBRO Recommendation N/A": "Needs NBRO concern",
        "Proposed Measures": "Constructing a retaining wall (60 m x 3 m)",
        "photopath": "https://raw.githubusercontent.com/MWS003-GIS/MWS003-GIS.github.io/main/IWWRMP/Data/EXD/200_photo/MWS_121/land slide near Mr. Bus_s house on Kamburadeniya Road.jpg"
      },
      "geometry": {
        "type": "Point",
        "coordinates": [
          80.594694,
          7.229967
        ]
      }
    }
  ]
}