{"type":"FeatureCollection","name":"SWC_ON","crs":{"type":"name","properties":{"name":"urn:ogc:def:crs:OGC:1.3:CRS84"}},"features":[
{"type":"Feature","properties":{"No.":1,"GND No.":647,"GND Name":"Dunuhappawa","Key Activities proposed for Soil and Water conservation":"1. Soil conservation practices - Dunuhappawa new colony  (60?-70?)","Priority based on Soil Erosion Hazard":"4","N":7.356835,"E":80.72481,"Quantity":"4 ha","Proposed measure/s":"Live fencing/SALT and/or stone terracing/lock and spills, as applied","Uniti_Cost":"250.00 m-1","Total_Cost":"1,000,000.00","Contribution (Local Community, LA, and the project)":"Labour and other basic services by the Local community","Time frame for the implementation":"0.25 Years","photopath":"https://raw.githubusercontent.com/MWS003-GIS/MWS003-GIS.github.io/main/IWWRMP/Data/EXD/200_photo/MWS_101_1/IMG_20241212_091702 Dunuhappawala community  water supply project.jpg"},"geometry":{"type":"Point","coordinates":[80.72481,7.356835]}},
{"type":"Feature","properties":{"No.":2,"GND No.":647,"GND Name":"Dunuhappawa","Key Activities proposed for Soil and Water conservation":"2. Soil conservation practices - Katukendagolla Land (50?-70?)","Priority based on Soil Erosion Hazard":"1","N":7.356865,"E":80.720612,"Quantity":"12 ha","Proposed measure/s":"Live fencing/SALT and/or stone terracing/lock and spills, as applied","Uniti_Cost":"250.00 m-1","Total_Cost":"3,000,000.00","Contribution (Local Community, LA, and the project)":"Labour and other basic services by the Local community","Time frame for the implementation":"0.5 Years","photopath":"https://raw.githubusercontent.com/MWS003-GIS/MWS003-GIS.github.io/main/IWWRMP/Data/EXD/200_photo/MWS_101_1/IMG_20241212_103705 Morahela land.jpg"},"geometry":{"type":"Point","coordinates":[80.720612,7.356865]}},
{"type":"Feature","properties":{"No.":3,"GND No.":649,"GND Name":"Alawathugirigama","Key Activities proposed for Soil and Water conservation":"1. Soil conservation practices - Nugagahamula deniyagammedda land  (50?-70?)","Priority based on Soil Erosion Hazard":"1","N":7.34953,"E":80.71437,"Quantity":"20 ha","Proposed measure/s":"Live fencing/SALT and/or stone terracing/lock and spills, as applied","Uniti_Cost":"250.00 m-1","Total_Cost":"5,000,000.00","Contribution (Local Community, LA, and the project)":"Labour and other basic services by the Local community","Time frame for the implementation":"1.5 Years","photopath":"https://raw.githubusercontent.com/MWS003-GIS/MWS003-GIS.github.io/main/IWWRMP/Data/EXD/200_photo/MWS_101_1/IMG_20241231_144615 Nugagahamula land.jpg"},"geometry":{"type":"Point","coordinates":[80.71437,7.34953]}},
{"type":"Feature","properties":{"No.":4,"GND No.":649,"GND Name":"Alawathugirigama","Key Activities proposed for Soil and Water conservation":"2. Soil conservation practices - Pudaluoya gam kotase land (50?-70?)","Priority based on Soil Erosion Hazard":"5","N":7.34383,"E":80.70636,"Quantity":"10 ha","Proposed measure/s":"Live fencing/SALT and/or stone terracing/lock and spills, as applied","Uniti_Cost":"250.00 m-1","Total_Cost":"2,500,000.00","Contribution (Local Community, LA, and the project)":"Labour and other basic services by the Local community","Time frame for the implementation":"0.5 Years","photopath":"https://raw.githubusercontent.com/MWS003-GIS/MWS003-GIS.github.io/main/IWWRMP/Data/EXD/200_photo/MWS_101_1/IMG_20241231_112813 pudaluoya village land.jpg"},"geometry":{"type":"Point","coordinates":[80.70636,7.34383]}},
{"type":"Feature","properties":{"No.":5,"GND No.":716,"GND Name":"Kumbukkandra North","Key Activities proposed for Soil and Water conservation":"1. Soil conservation practices - Kumbukkandura (50?-70?)","Priority based on Soil Erosion Hazard":"1","N":7.30097,"E":80.74167,"Quantity":"2 ha","Proposed measure/s":"Live fencing/SALT and/or stone terracing/lock and spills, as applied","Uniti_Cost":"250.00 m-1","Total_Cost":"500,000.00","Contribution (Local Community, LA, and the project)":"Labour and other basic services by the Local community","Time frame for the implementation":"0.25 Years","photopath":"https://raw.githubusercontent.com/MWS003-GIS/MWS003-GIS.github.io/main/IWWRMP/Data/EXD/200_photo/MWS_101_1/IMG_20241226_101559ihala gammedda land.jpg"},"geometry":{"type":"Point","coordinates":[80.74167,7.30097]}},
{"type":"Feature","properties":{"No.":6,"GND No.":716,"GND Name":"Kumbukkandra North","Key Activities proposed for Soil and Water conservation":"2. Soil conservation practices - Near the Huluganga (50?-60?)","Priority based on Soil Erosion Hazard":"1","N":7.303919,"E":80.74428,"Quantity":"1 ha","Proposed measure/s":"Live fencing/SALT and/or stone terracing/lock and spills, as applied","Uniti_Cost":"250.00 m-1","Total_Cost":"250,000.00","Contribution (Local Community, LA, and the project)":"Labour and other basic services by the Local community","Time frame for the implementation":"0.25 Years","photopath":"https://raw.githubusercontent.com/MWS003-GIS/MWS003-GIS.github.io/main/IWWRMP/Data/EXD/200_photo/MWS_101_1/IMG_20241226_105221near the hulugaga land.jpg"},"geometry":{"type":"Point","coordinates":[80.74428,7.303919]}},
{"type":"Feature","properties":{"No.":7,"GND No.":716,"GND Name":"Kumbukkandra North","Key Activities proposed for Soil and Water conservation":"3. Soil conservation practices - Ihalagammedda  (50?-70?)","Priority based on Soil Erosion Hazard":"3","N":7.30227,"E":80.74199,"Quantity":"2 ha","Proposed measure/s":"Live fencing/SALT and/or stone terracing/lock and spills, as applied","Uniti_Cost":"250.00 m-1","Total_Cost":"500,000.00","Contribution (Local Community, LA, and the project)":"Labour and other basic services by the Local community","Time frame for the implementation":"0.25 Years","photopath":"https://raw.githubusercontent.com/MWS003-GIS/MWS003-GIS.github.io/main/IWWRMP/Data/EXD/200_photo/MWS_101_1/IMG_20241226_101559ihala gammedda land.jpg"},"geometry":{"type":"Point","coordinates":[80.74199,7.30227]}},
{"type":"Feature","properties":{"No.":8,"GND No.":717,"GND Name":"Kumbukkandra South","Key Activities proposed for Soil and Water conservation":"1. Soil conservation practices - Kumbukkandra South  (50?-70?)","Priority based on Soil Erosion Hazard":"4","N":7.30453,"E":80.73929,"Quantity":"3 ha","Proposed measure/s":"Live fencing/SALT and/or stone terracing/lock and spills, as applied","Uniti_Cost":"250.00 m-1","Total_Cost":"750,000.00","Contribution (Local Community, LA, and the project)":"Labour and other basic services by the Local community","Time frame for the implementation":"0.25 Years","photopath":"Not_Available"},"geometry":{"type":"Point","coordinates":[80.73929,7.30453]}},
{"type":"Feature","properties":{"No.":10,"GND No.":719,"GND Name":"Gonawala South","Key Activities proposed for Soil and Water conservation":"1. Soil conservation practices - Dodamgolla land (50?-70?)","Priority based on Soil Erosion Hazard":"1","N":7.313366,"E":80.728739,"Quantity":"10 ha","Proposed measure/s":"Live fencing/SALT and/or stone terracing/lock and spills, as applied","Uniti_Cost":"250.00 m-1","Total_Cost":"2,500,000.00","Contribution (Local Community, LA, and the project)":"Labour and other basic services by the Local community","Time frame for the implementation":"0.5 Years","photopath":"Not_Available"},"geometry":{"type":"Point","coordinates":[80.728739,7.313366]}},
{"type":"Feature","properties":{"No.":11,"GND No.":719,"GND Name":"Gonawala South","Key Activities proposed for Soil and Water conservation":"2. Soil conservation practices - Udagammedda (50?-70?)","Priority based on Soil Erosion Hazard":"4,4","N":7.311011,"E":80.729722,"Quantity":"4 ha","Proposed measure/s":"Live fencing/SALT and/or stone terracing/lock and spills, as applied","Uniti_Cost":"250.00 m-1","Total_Cost":"1,000,000.00","Contribution (Local Community, LA, and the project)":"Labour and other basic services by the Local community","Time frame for the implementation":"0.25 Years","photopath":"https://raw.githubusercontent.com/MWS003-GIS/MWS003-GIS.github.io/main/IWWRMP/Data/EXD/200_photo/MWS_101_1/IMG_20241213_101525 udagammedde land.jpg"},"geometry":{"type":"Point","coordinates":[80.729722,7.311011]}},
{"type":"Feature","properties":{"No.":12,"GND No.":720,"GND Name":"Maluwegama","Key Activities proposed for Soil and Water conservation":"1. Soil conservation practices -  Maluwegama (50?-60?)","Priority based on Soil Erosion Hazard":"4","N":7.325762,"E":80.739657,"Quantity":"4 ha","Proposed measure/s":"Live fencing/SALT and/or stone terracing/lock and spills, as applied","Uniti_Cost":"250.00 m-1","Total_Cost":"1,000,000.00","Contribution (Local Community, LA, and the project)":"Labour and other basic services by the Local community","Time frame for the implementation":"0.25 Years","photopath":"Not_Available"},"geometry":{"type":"Point","coordinates":[80.739657,7.325762]}},
{"type":"Feature","properties":{"No.":13,"GND No.":721,"GND Name":"Wepathana","Key Activities proposed for Soil and Water conservation":"1. Soil conservation practices - Diwrumhena land (50?-60?)","Priority based on Soil Erosion Hazard":"1","N":7.322569,"E":80.729383,"Quantity":"2 ha","Proposed measure/s":"Live fencing/SALT and/or stone terracing/lock and spills, as applied","Uniti_Cost":"250.00 m-1","Total_Cost":"500,000.00","Contribution (Local Community, LA, and the project)":"Labour and other basic services by the Local community","Time frame for the implementation":"0.25 Years","photopath":"Not_Available"},"geometry":{"type":"Point","coordinates":[80.729383,7.322569]}},
{"type":"Feature","properties":{"No.":14,"GND No.":721,"GND Name":"Wepathana","Key Activities proposed for Soil and Water conservation":"2. Soil conservation practices - Wepathana land (50?-60?)","Priority based on Soil Erosion Hazard":"2","N":7.309613,"E":80.734088,"Quantity":"2 ha","Proposed measure/s":"Live fencing/SALT and/or stone terracing/lock and spills, as applied","Uniti_Cost":"250.00 m-1","Total_Cost":"500,000.00","Contribution (Local Community, LA, and the project)":"Labour and other basic services by the Local community","Time frame for the implementation":"0.25 Years","photopath":"Not_Available"},"geometry":{"type":"Point","coordinates":[80.734088,7.309613]}},
{"type":"Feature","properties":{"No.":15,"GND No.":721,"GND Name":"Wepathana","Key Activities proposed for Soil and Water conservation":"3. Soil conservation practices - Dispensary road  (50?-70?)","Priority based on Soil Erosion Hazard":"1","N":7.319351,"E":80.732902,"Quantity":"3 ha","Proposed measure/s":"Live fencing/SALT and/or stone terracing/lock and spills, as applied","Uniti_Cost":"250.00 m-1","Total_Cost":"750,000.00","Contribution (Local Community, LA, and the project)":"Labour and other basic services by the Local community","Time frame for the implementation":"0.25 Years","photopath":"Not_Available"},"geometry":{"type":"Point","coordinates":[80.732902,7.319351]}},
{"type":"Feature","properties":{"No.":16,"GND No.":722,"GND Name":"Kuruambemuduna","Key Activities proposed for Soil and Water conservation":"1. Soil conservation practices - Diwrumhena land (50?-60?)","Priority based on Soil Erosion Hazard":"4","N":7.33112,"E":80.73429,"Quantity":"4 ha","Proposed measure/s":"Live fencing/SALT and/or stone terracing/lock and spills, as applied","Uniti_Cost":"250.00 m-1","Total_Cost":"1,000,000.00","Contribution (Local Community, LA, and the project)":"Labour and other basic services by the Local community","Time frame for the implementation":"0.25 Years","photopath":"Not_Available"},"geometry":{"type":"Point","coordinates":[80.73429,7.33112]}},
{"type":"Feature","properties":{"No.":17,"GND No.":722,"GND Name":"Kuruambemuduna","Key Activities proposed for Soil and Water conservation":"2. Soil conservation practices - Kotadeniya land (50?-60?)","Priority based on Soil Erosion Hazard":"4","N":7.32882,"E":80.7326,"Quantity":"4 ha","Proposed measure/s":"Live fencing/SALT and/or stone terracing/lock and spills, as applied","Uniti_Cost":"250.00 m-1","Total_Cost":"1,000,000.00","Contribution (Local Community, LA, and the project)":"Labour and other basic services by the Local community","Time frame for the implementation":"0.25 Years","photopath":"https://raw.githubusercontent.com/MWS003-GIS/MWS003-GIS.github.io/main/IWWRMP/Data/EXD/200_photo/MWS_101_1/IMG_20241224_094944 kotadeniya land.jpg"},"geometry":{"type":"Point","coordinates":[80.7326,7.32882]}},
{"type":"Feature","properties":{"No.":18,"GND No.":723,"GND Name":"Naranpanawa East","Key Activities proposed for Soil and Water conservation":"1. Soil conservation practices - Udawaththa land (60?-70?)","Priority based on Soil Erosion Hazard":"3","N":7.339556,"E":80.732875,"Quantity":"6 ha","Proposed measure/s":"Live fencing/SALT and/or stone terracing/lock and spills, as applied","Uniti_Cost":"250.00 m-1","Total_Cost":"1,500,000.00","Contribution (Local Community, LA, and the project)":"Labour and other basic services by the Local community","Time frame for the implementation":"0.5 Years","photopath":"https://raw.githubusercontent.com/MWS003-GIS/MWS003-GIS.github.io/main/IWWRMP/Data/EXD/200_photo/MWS_101_1/IMG_20241211_151516 Udawaththa Land.jpg"},"geometry":{"type":"Point","coordinates":[80.732875,7.339556]}},
{"type":"Feature","properties":{"No.":19,"GND No.":723,"GND Name":"Naranpanawa East","Key Activities proposed for Soil and Water conservation":"2. Soil conservation practices - Egoda gammedda (50?-70?)","Priority based on Soil Erosion Hazard":"1","N":7.347503,"E":80.726812,"Quantity":"3 ha","Proposed measure/s":"Live fencing/SALT and/or stone terracing/lock and spills, as applied","Uniti_Cost":"250.00 m-1","Total_Cost":"750,000.00","Contribution (Local Community, LA, and the project)":"Labour and other basic services by the Local community","Time frame for the implementation":"0.25 Years","photopath":"https://raw.githubusercontent.com/MWS003-GIS/MWS003-GIS.github.io/main/IWWRMP/Data/EXD/200_photo/MWS_101_1/IMG_20241211_151750 Egodagammedda land.jpg"},"geometry":{"type":"Point","coordinates":[80.726812,7.347503]}},
{"type":"Feature","properties":{"No.":20,"GND No.":723,"GND Name":"Naranpanawa East","Key Activities proposed for Soil and Water conservation":"3. Soil conservation practices - Galagawa land (50?-60?)","Priority based on Soil Erosion Hazard":"5","N":7.339904,"E":80.733696,"Quantity":"4 ha","Proposed measure/s":"Live fencing/SALT and/or stone terracing/lock and spills, as applied","Uniti_Cost":"250.00 m-1","Total_Cost":"1,000,000.00","Contribution (Local Community, LA, and the project)":"Labour and other basic services by the Local community","Time frame for the implementation":"0.25 Years","photopath":"https://raw.githubusercontent.com/MWS003-GIS/MWS003-GIS.github.io/main/IWWRMP/Data/EXD/200_photo/MWS_101_1/IMG_20241211_151516 Udawaththa Land.jpg"},"geometry":{"type":"Point","coordinates":[80.733696,7.339904]}},
{"type":"Feature","properties":{"No.":21,"GND No.":723,"GND Name":"Naranpanawa East","Key Activities proposed for Soil and Water conservation":"4. Soil conservation practices - Koswetiya land (60?-80?)","Priority based on Soil Erosion Hazard":"4","N":7.34659,"E":80.732667,"Quantity":"4 ha","Proposed measure/s":"Live fencing/SALT and/or stone terracing/lock and spills, as applied","Uniti_Cost":"250.00 m-1","Total_Cost":"1,000,000.00","Contribution (Local Community, LA, and the project)":"Labour and other basic services by the Local community","Time frame for the implementation":"0.25 Years","photopath":"Not_Available"},"geometry":{"type":"Point","coordinates":[80.732667,7.34659]}},
{"type":"Feature","properties":{"No.":22,"GND No.":724,"GND Name":"Kandekumbura","Key Activities proposed for Soil and Water conservation":"1. Soil conservation practices - Keenapitiya land (50?-70?)","Priority based on Soil Erosion Hazard":"5","N":7.341394,"E":80.7213,"Quantity":"4 ha","Proposed measure/s":"Live fencing/SALT and/or stone terracing/lock and spills, as applied","Uniti_Cost":"250.00 m-1","Total_Cost":"1,000,000.00","Contribution (Local Community, LA, and the project)":"Labour and other basic services by the Local community","Time frame for the implementation":"0.25 Years","photopath":"https://raw.githubusercontent.com/MWS003-GIS/MWS003-GIS.github.io/main/IWWRMP/Data/EXD/200_photo/MWS_101_1/IMG_20241227_093555 keenapitiya land.jpg"},"geometry":{"type":"Point","coordinates":[80.7213,7.341394]}},
{"type":"Feature","properties":{"No.":23,"GND No.":724,"GND Name":"Kandekumbura","Key Activities proposed for Soil and Water conservation":"2. Soil conservation practices - Kudupala hinna land (50?-70?)","Priority based on Soil Erosion Hazard":"2","N":7.338917,"E":80.723146,"Quantity":"20 ha","Proposed measure/s":"Live fencing/SALT and/or stone terracing/lock and spills, as applied","Uniti_Cost":"250.00 m-1","Total_Cost":"5,000,000.00","Contribution (Local Community, LA, and the project)":"Labour and other basic services by the Local community","Time frame for the implementation":"1.5 Years","photopath":"https://raw.githubusercontent.com/MWS003-GIS/MWS003-GIS.github.io/main/IWWRMP/Data/EXD/200_photo/MWS_101_1/IMG_20241227_083709 kudupala hinna land.jpg"},"geometry":{"type":"Point","coordinates":[80.723146,7.338917]}},
{"type":"Feature","properties":{"No.":24,"GND No.":725,"GND Name":"Naranpanawa West","Key Activities proposed for Soil and Water conservation":"1. Soil conservation practices - Beerahena land (50?-70?)","Priority based on Soil Erosion Hazard":"1","N":7.35425,"E":80.72907,"Quantity":"3 ha","Proposed measure/s":"Live fencing/SALT and/or stone terracing/lock and spills, as applied","Uniti_Cost":"250.00 m-1","Total_Cost":"750,000.00","Contribution (Local Community, LA, and the project)":"Labour and other basic services by the Local community","Time frame for the implementation":"0.25 Years","photopath":"https://raw.githubusercontent.com/MWS003-GIS/MWS003-GIS.github.io/main/IWWRMP/Data/EXD/200_photo/MWS_101_1/IMG_20241219_103655 Beerahena land.jpg"},"geometry":{"type":"Point","coordinates":[80.72907,7.35425]}},
{"type":"Feature","properties":{"No.":25,"GND No.":725,"GND Name":"Naranpanawa West","Key Activities proposed for Soil and Water conservation":"2. Soil conservation practices - Dematagolla land (50?-70?)","Priority based on Soil Erosion Hazard":"3","N":7.35316,"E":80.73548,"Quantity":"4 ha","Proposed measure/s":"Live fencing/SALT and/or stone terracing/lock and spills, as applied","Uniti_Cost":"250.00 m-1","Total_Cost":"1,000,000.00","Contribution (Local Community, LA, and the project)":"Labour and other basic services by the Local community","Time frame for the implementation":"0.25 Years","photopath":"https://raw.githubusercontent.com/MWS003-GIS/MWS003-GIS.github.io/main/IWWRMP/Data/EXD/200_photo/MWS_101_1/IMG_20241219_114643 Dematagolla land.jpg"},"geometry":{"type":"Point","coordinates":[80.73548,7.35316]}}
]}