{"type":"FeatureCollection","name":"WP","crs":{"type":"name","properties":{"name":"urn:ogc:def:crs:OGC:1.3:CRS84"}},"features":[
{"type":"Feature","properties":{"No.":1,"GND No.":647,"GN Division":"Dunuhappawa","Non-point sources of pollution":"Potential to add human waste - Nearly state area","N":7.3578168,"E":80.7201908,"Point sources of pollution":"-","Add. N ":"-","Add. E ":"-","Recommended water quality improvement measures":"-","Unit Cost (Rs.)":"-","Total Cost (Rs.)":"-","Contributions (Local Community, LA, Project)":"-","Time frame for the implementation":"-","photopath":"Not_Available"},"geometry":{"type":"Point","coordinates":[80.7201908,7.3578168]}},
{"type":"Feature","properties":{"No.":2,"GND No.":649,"GN Division":"Alawathugirigama","Non-point sources of pollution":"Potential to add human waste - Medagammedda","N":7.3461438,"E":80.7137351,"Point sources of pollution":"-","Add. N ":"-","Add. E ":"-","Recommended water quality improvement measures":"-","Unit Cost (Rs.)":"-","Total Cost (Rs.)":"-","Contributions (Local Community, LA, Project)":"-","Time frame for the implementation":"-","photopath":"Not_Available"},"geometry":{"type":"Point","coordinates":[80.7137351,7.3461438]}},
{"type":"Feature","properties":{"No.":7,"GND No.":720,"GN Division":"Maluwegama","Non-point sources of pollution":"Addition of houshold wastes/garbage to the torrent - Bathing places nearly springs","N":7.3236606,"E":80.739956,"Point sources of pollution":"-","Add. N ":"-","Add. E ":"-","Recommended water quality improvement measures":"Preparing a separate place in homegardens for disposing houshold waste/Awareness programme on how to disposal household waste properly and converting them to usable products such as compost/Facilitating garbage collection","Unit Cost (Rs.)":"-","Total Cost (Rs.)":"50,000.00","Contributions (Local Community, LA, Project)":"Local/Central governments","Time frame for the implementation":"0.5 Years","photopath":"Not_Available"},"geometry":{"type":"Point","coordinates":[80.739956,7.3236606]}},
{"type":"Feature","properties":{"No.":8,"GND No.":721,"GN Division":"Wepathana","Non-point sources of pollution":"Addition of houshold wastes/garbage","N":7.3242164,"E":80.732615,"Point sources of pollution":"-","Add. N ":"-","Add. E ":"-","Recommended water quality improvement measures":"Preparing a separate place in homegardens for disposing houshold waste/Awareness programme on how to disposal household waste properly and converting them to usable products such as compost/Facilitating garbage collection","Unit Cost (Rs.)":"-","Total Cost (Rs.)":"50,000.00","Contributions (Local Community, LA, Project)":"Local/Central governments","Time frame for the implementation":"0.5 Years","photopath":"Not_Available"},"geometry":{"type":"Point","coordinates":[80.732615,7.3242164]}},
{"type":"Feature","properties":{"No.":10,"GND No.":723,"GN Division":"Naranpanawa East","Non-point sources of pollution":"Addition of houshold wastes/garbage to the torrent - Bathing Place, Huluganga","N":7.3412112,"E":80.7312282,"Point sources of pollution":"-","Add. N ":"-","Add. E ":"-","Recommended water quality improvement measures":"Preparing a separate place in homegardens for disposing houshold waste/Awareness programme on how to disposal household waste properly and converting them to usable products such as compost/Facilitating garbage collection","Unit Cost (Rs.)":"-","Total Cost (Rs.)":"50,000.00","Contributions (Local Community, LA, Project)":"Local/Central governments","Time frame for the implementation":"0.5 Years","photopath":"https://raw.githubusercontent.com/MWS003-GIS/MWS003-GIS.github.io/main/IWWRMP/Data/EXD/200_photo/MWS_101_1/IMG_20241211_102106 Hulugaga Toilet Location.jpg"},"geometry":{"type":"Point","coordinates":[80.7312282,7.3412112]}}
]}