{"type":"FeatureCollection","name":"WSP","crs":{"type":"name","properties":{"name":"urn:ogc:def:crs:OGC:1.3:CRS84"}},"features":[
{"type":"Feature","properties":{"No":1,"GND No.":647,"Name of the Tank":"Katukendagolla water project","N":7.35791,"E":80.720618,"Observation":"This is a RRM stock tank(L=1.3m, w=1.3m, H=1.3m) and currenlty used.The tank is leaking water from some places","Description":"Plaster 12mm thick in 1:3 cement and sand \nfinished smooth with gray cement floating\n\nIron door instalation\n\nMiscellaneous\n\nContigencies (10%)","Amount (Rs.)":"18,150.00","photopath":"https://raw.githubusercontent.com/MWS003-GIS/MWS003-GIS.github.io/main/IWWRMP/Data/EXD/200_photo/MWS_101_1/IMG_20241212_104450 Halgolla oya.jpg"},"geometry":{"type":"Point","coordinates":[80.720618,7.35791]}},
{"type":"Feature","properties":{"No":2,"GND No.":647,"Name of the Tank":"Dunuhappawa water spring","N":7.357503,"E":80.726812,"Observation":"Two filter tanks, (3mx3m and 0.6m L*W*H), and (1mx0.65mx0.6m  L*W*H) one store tank have been constructed. water is used for drinking. Water is leaking from the store tank.","Description":"Vegetative?cover?improving?around?structures?(5m?x?10m)?with?Areca?nut?seedling?in?1.5m?x? 1.5m?grid,?Kumbuk/?Mee/?Godapara/?Kaduru/?Aththikka/?Wal?Del/?Kekuna/?randomly?mixed? seedlings?and?plant","Amount (Rs.)":"114,400.00","photopath":"https://raw.githubusercontent.com/MWS003-GIS/MWS003-GIS.github.io/main/IWWRMP/Data/EXD/200_photo/MWS_101_1/IMG_20241212_091720 Dunuhappawala community  water supply project.jpg"},"geometry":{"type":"Point","coordinates":[80.726812,7.357503]}},
{"type":"Feature","properties":{"No":3,"GND No.":647,"Name of the Tank":"Morahela water project","N":7.360018,"E":80.726531,"Observation":"This is a concrete stock tank(L=2.2m, w=1.8m, H=1.5m) and currenlty used.The tank is leaking water from some places","Description":"Vegetative?cover?improving?around?structures?(5m?x?10m)?with?Areca?nut?seedling?in?1.5m?x? 1.5m?grid,?Kumbuk/?Mee/?Godapara/?Kaduru/?Aththikka/?Wal?Del/?Kekuna/?randomly?mixed? seedlings?and?plant","Amount (Rs.)":"35,200.00","photopath":"https://raw.githubusercontent.com/MWS003-GIS/MWS003-GIS.github.io/main/IWWRMP/Data/EXD/200_photo/MWS_101_1/IMG_20241212_103044 morahela water project.jpg"},"geometry":{"type":"Point","coordinates":[80.726531,7.360018]}},
{"type":"Feature","properties":{"No":4,"GND No.":647,"Name of the Tank":"Pitakanda water project","N":7.360829,"E":80.716114,"Observation":"At present, wells are constructed with cylinders of 1.2 m diameter, and the water is used for drinking.Currently, construction has been carried out by the Pradeshiya Sabha.","Description":"Providing barb wire fence with 07 nos of 14G barb wire rows fixed firmly between 7ft high concrete posts erected at 2.0m intervals along the fence\n\nContigencies (10%)","Amount (Rs.)":"271,700.00","photopath":"https://raw.githubusercontent.com/MWS003-GIS/MWS003-GIS.github.io/main/IWWRMP/Data/EXD/200_photo/MWS_101_1/IMG_20241212_104450 Halgolla oya.jpg"},"geometry":{"type":"Point","coordinates":[80.716114,7.360829]}},
{"type":"Feature","properties":{"No":5,"GND No.":647,"Name of the Tank":"Dunuhappawa","N":7.357503,"E":80.726812,"Observation":"Two filter tanks, (3mx3m and 0.6m L*W*H), and (1mx0.65mx0.6m  L*W*H) one store tank have been constructed. water is used for drinking","Description":"Marking reservation\n\nVegetative cover improving around structures (5m x 10m) with Areca nut seedling in 1.5m x \n1.5m grid, Kumbuk/ Mee/ Godapara/ Kaduru/ Aththikka/ Wal Del/ Kekuna/ randomly mixed \nseedlings and planting at 3.5m x 3.5 m grid interval\n\nCo","Amount (Rs.)":"70,400.00","photopath":"https://raw.githubusercontent.com/MWS003-GIS/MWS003-GIS.github.io/main/IWWRMP/Data/EXD/200_photo/MWS_101_1/IMG_20241212_093401 Dunuhappawala community  water supply project.jpg"},"geometry":{"type":"Point","coordinates":[80.726812,7.357503]}},
{"type":"Feature","properties":{"No":6,"GND No.":649,"Name of the Tank":"Palkade well","N":7.34984,"E":80.71279,"Observation":"The  well is constructed (2.4m x 1.6m x1.8 m, L*W*H).used for  bathing.located near a paddy field.  The concrete pavement is cracked.","Description":"Construction?of?1.0m?high?1:3:6?(40mm)?cement?concrete?Retaining?Wall\n\n1:3:6 (40mm) concrete manual mix (volume batching)\n\nMiscellaneous\n\nContigencies (10%)","Amount (Rs.)":"92,400.00","photopath":"https://raw.githubusercontent.com/MWS003-GIS/MWS003-GIS.github.io/main/IWWRMP/Data/EXD/200_photo/MWS_101_1/IMG_20241231_141304 palkade well.jpg"},"geometry":{"type":"Point","coordinates":[80.71279,7.34984]}},
{"type":"Feature","properties":{"No":7,"GND No.":649,"Name of the Tank":"Boogahawela well","N":7.34785,"E":80.71095,"Observation":"Currently, a motor is installed to get drinking water to the temple","Description":"Fabricating?&?fixing?security?weld?mesh?in?open type?buildings?in?GI?weld?mesh?50mm?x?50mm? SWG?10,?welded?on?40mm?x?40mm?x?5mm? angle?frame?complete?with?application?of?two? coats?enamel?","Amount (Rs.)":"43,450.00","photopath":"https://raw.githubusercontent.com/MWS003-GIS/MWS003-GIS.github.io/main/IWWRMP/Data/EXD/200_photo/MWS_101_1/IMG_20241231_131739 bogahawela well.jpg"},"geometry":{"type":"Point","coordinates":[80.71095,7.34785]}},
{"type":"Feature","properties":{"No":8,"GND No.":649,"Name of the Tank":"Galahena well","N":7.345,"E":80.71419,"Observation":"The well, which is 1.20m  in diameter has  prepared by using a ring. used for drinking and bathing","Description":"1:3:6 (40mm) concrete manual mix (volume batching)\n\nMiscellaneous\n\nContigencies (10%)","Amount (Rs.)":"13,860.00","photopath":"https://raw.githubusercontent.com/MWS003-GIS/MWS003-GIS.github.io/main/IWWRMP/Data/EXD/200_photo/MWS_101_1/IMG_20241231_152041 Galahena well.jpg"},"geometry":{"type":"Point","coordinates":[80.71419,7.345]}},
{"type":"Feature","properties":{"No":9,"GND No.":649,"Name of the Tank":"Pudalu oya gammedde well","N":7.34383,"E":80.70637,"Observation":"The  well is constructed (2.4m x 2.4m x 3.0 m, L*W*H) .used for drinking and bathing","Description":"Fabricating?&?fixing?security?weld?mesh?in?open type?buildings?in?GI?weld?mesh?50mm?x?50mm? SWG?10,?welded?on?40mm?x?40mm?x?5mm? angle?frame?complete?with?application?of?two? coats?enamel?","Amount (Rs.)":"66,000.00","photopath":"https://raw.githubusercontent.com/MWS003-GIS/MWS003-GIS.github.io/main/IWWRMP/Data/EXD/200_photo/MWS_101_1/IMG_20241231_113621 Pudaluoya gammedde well.jpg"},"geometry":{"type":"Point","coordinates":[80.70637,7.34383]}},
{"type":"Feature","properties":{"No":10,"GND No.":720,"Name of the Tank":"Galpihilla","N":7.323324,"E":80.739595,"Observation":"peella has been constructed (3.6m x 3.6m x2.1 m, L*W*H)used for drinking and bathing","Description":"Plaster 12mm thick in 1:3 cement and sand \nfinished smooth with gray cement floating\n\nMiscellaneous\n\nContigencies (10%)","Amount (Rs.)":"29,920.00","photopath":"https://raw.githubusercontent.com/MWS003-GIS/MWS003-GIS.github.io/main/IWWRMP/Data/EXD/200_photo/MWS_101_1/IMG_20241210_123123 Galpeella.jpg"},"geometry":{"type":"Point","coordinates":[80.739595,7.323324]}},
{"type":"Feature","properties":{"No":11,"GND No.":720,"Name of the Tank":"Mee gaha peella","N":7.322786,"E":80.73662,"Observation":"peella has been constructed (4.2m x 1.2m , L*H)used for drinking and bathing","Description":"12.5mm thick rough ct.plaster in 1:3\ncement sand mortar semi rough\nfinish(UR55)\n\nMiscellaneous\n\nContigencies (10%)","Amount (Rs.)":"5,500.00","photopath":"https://raw.githubusercontent.com/MWS003-GIS/MWS003-GIS.github.io/main/IWWRMP/Data/EXD/200_photo/MWS_101_1/IMG_20241210_113354 Meegaha peella.jpg"},"geometry":{"type":"Point","coordinates":[80.73662,7.322786]}},
{"type":"Feature","properties":{"No":12,"GND No.":720,"Name of the Tank":"Meegahapihilla-Personal land","N":7.322786,"E":80.73662,"Observation":"Consent has been given to plant trees on private land by the owner","Description":"Vegetative cover improving around structures (5m x 10m) with Areca nut seedling in 1.5m x \n1.5m grid, Kumbuk/ Mee/ Godapara/ Kaduru/ Aththikka/ Wal Del/ Kekuna/ randomly mixed \nseedlings and planting at 3.5m x 3.5 m grid interval","Amount (Rs.)":"48,400.00","photopath":"Not_Available"},"geometry":{"type":"Point","coordinates":[80.73662,7.322786]}},
{"type":"Feature","properties":{"No":13,"GND No.":721,"Name of the Tank":"Gomagoda peella","N":7.31887,"E":80.733936,"Observation":"Peella has been constructed (3.5m x 3.2m , L*W*H)used for drinking and bathing","Description":"Plaster 12mm thick in 1:3 cement and sand \nfinished smooth with gray cement floating\n\nEarth excavation for foundation or quarry \nmaterials and haul the surplus materials up to \n30m by Manually.\n\n Plywood form work including making, fixing & \nremoving for","Amount (Rs.)":"44,550.00","photopath":"https://raw.githubusercontent.com/MWS003-GIS/MWS003-GIS.github.io/main/IWWRMP/Data/EXD/200_photo/MWS_101_1/IMG_20241217_111029 gomagoda peella.jpg"},"geometry":{"type":"Point","coordinates":[80.733936,7.31887]}},
{"type":"Feature","properties":{"No":14,"GND No.":721,"Name of the Tank":"Polgahamula well","N":7.322246,"E":80.729046,"Observation":"The  well is constructed (1.8m x 1.6m x 3.0 m, L*W*H) .used for drinking and bathing","Description":"Plaster 12mm thick in 1:3 cement and sand \nfinished smooth with gray cement floating\n\nMiscellaneous\n\nContigencies (10%)","Amount (Rs.)":"18,920.00","photopath":"https://raw.githubusercontent.com/MWS003-GIS/MWS003-GIS.github.io/main/IWWRMP/Data/EXD/200_photo/MWS_101_1/IMG_20241217_092659 polgahamula well.jpg"},"geometry":{"type":"Point","coordinates":[80.729046,7.322246]}},
{"type":"Feature","properties":{"No":15,"GND No.":722,"Name of the Tank":"Beruwe well","N":7.33486,"E":80.73522,"Observation":"The  well is constructed (2.7m x 2.4m x 1.6 m, L*W*H) .used for drinking and bathing","Description":"Fabricating?&?fixing?security?weld?mesh?in?open type?buildings?in?GI?weld?mesh?50mm?x?50mm? SWG?10,?welded?on?40mm?x?40mm?x?5mm? angle?frame?complete?with?application?of?two? coats?enamel?","Amount (Rs.)":"2,530.00","photopath":"https://raw.githubusercontent.com/MWS003-GIS/MWS003-GIS.github.io/main/IWWRMP/Data/EXD/200_photo/MWS_101_1/IMG_20241224_101755 Beruwe well.jpg"},"geometry":{"type":"Point","coordinates":[80.73522,7.33486]}},
{"type":"Feature","properties":{"No":16,"GND No.":722,"Name of the Tank":"Karagasthanna well-03","N":7.32876,"E":80.73261,"Observation":"The 03 well is constructed (2.8m x 1.3m x1.8 L*W*H ,1.5mx1.5mx1.8mL*W*H,1.8mx1.5mx2.0mL*W*H) .used for drinking and bathing","Description":"Fabricating?&?fixing?security?weld?mesh?in?open type?buildings?in?GI?weld?mesh?50mm?x?50mm? SWG?10,?welded?on?40mm?x?40mm?x?5mm? angle?frame?complete?with?application?of?two? coats?enamel?","Amount (Rs.)":"98,450.00","photopath":"https://raw.githubusercontent.com/MWS003-GIS/MWS003-GIS.github.io/main/IWWRMP/Data/EXD/200_photo/MWS_101_1/IMG_20241224_093131 karagasthenna well.jpg"},"geometry":{"type":"Point","coordinates":[80.73261,7.32876]}},
{"type":"Feature","properties":{"No":17,"GND No.":723,"Name of the Tank":"Kadurugaspitiya well","N":7.344499,"E":80.726812,"Observation":"The  well is constructed (1.6m x 1.6m x 1.0 m, L*W*H) .used for drinking and bathing","Description":"Fabricating?&?fixing?security?weld?mesh?in?open type?buildings?in?GI?weld?mesh?50mm?x?50mm? SWG?10,?welded?on?40mm?x?40mm?x?5mm? angle?frame?complete?with?application?of?two? coats?enamel?","Amount (Rs.)":"29,370.00","photopath":"https://raw.githubusercontent.com/MWS003-GIS/MWS003-GIS.github.io/main/IWWRMP/Data/EXD/200_photo/MWS_101_1/IMG_20241211_150336 Kadurugaspitiya well.jpg"},"geometry":{"type":"Point","coordinates":[80.726812,7.344499]}},
{"type":"Feature","properties":{"No":18,"GND No.":723,"Name of the Tank":"Madugahalanda well","N":7.347088,"E":80.732682,"Observation":"The  well is constructed with four  Lengths (3m+2.3m+1.5m+2.2m) .used for drinking and bathing","Description":"Fabricating?&?fixing?security?weld?mesh?in?open type?buildings?in?GI?weld?mesh?50mm?x?50mm? SWG?10,?welded?on?40mm?x?40mm?x?5mm? angle?frame?complete?with?application?of?two? coats?enamel?","Amount (Rs.)":"91,960.00","photopath":"https://raw.githubusercontent.com/MWS003-GIS/MWS003-GIS.github.io/main/IWWRMP/Data/EXD/200_photo/MWS_101_1/IMG_20241211_111434 Madugahalanda well.jpg"},"geometry":{"type":"Point","coordinates":[80.732682,7.347088]}},
{"type":"Feature","properties":{"No":19,"GND No.":723,"Name of the Tank":"Hulu ganga","N":7.344381,"E":80.734727,"Observation":"the garbage is dumped around the river.bank erosion occurs during the rainy season when too much water flows.","Description":"Vegetative cover improving around structures (5m x 10m) with Areca nut seedling in 1.5m x \n1.5m grid, Kumbuk/ Mee/ Godapara/ Kaduru/ Aththikka/ Wal Del/ Kekuna/ randomly mixed \nseedlings and planting at 3.5m x 3.5 m grid interval\n\nReplanting?bamboo?s","Amount (Rs.)":"81,400.00","photopath":"https://raw.githubusercontent.com/MWS003-GIS/MWS003-GIS.github.io/main/IWWRMP/Data/EXD/200_photo/MWS_101_1/IMG_20241211_102626 Hulugaga Right bank.jpg"},"geometry":{"type":"Point","coordinates":[80.734727,7.344381]}},
{"type":"Feature","properties":{"No":20,"GND No.":724,"Name of the Tank":"Kudupalahinna spring","N":7.33886,"E":80.72291,"Observation":"The  well is constructed (1.6m x 1.6m x 1.6 m, L*W*H and 1.3x1.6x1.0 L*W*H ) .used for drinking and bathing","Description":"Construction of 1.0m high 1:3:6 (40mm) cement concrete Retaining Wall\n\n1:3:6 (40mm) concrete manual mix (volume batching) - For concrete pavement\n\n Earth excavation for foundation or quarry \nmaterials and haul the surplus materials up to \n30m by Manually","Amount (Rs.)":"96,800.00","photopath":"https://raw.githubusercontent.com/MWS003-GIS/MWS003-GIS.github.io/main/IWWRMP/Data/EXD/200_photo/MWS_101_1/IMG_20241227_083141kudupalahinna spring.jpg"},"geometry":{"type":"Point","coordinates":[80.72291,7.33886]}},
{"type":"Feature","properties":{"No":21,"GND No.":724,"Name of the Tank":"Kumbuke peella &  spring","N":7.33801,"E":80.71808,"Observation":"The  well is constructed. Water used for drinking and bathing","Description":"Earth excavation for foundation or quarry \nmaterials and haul the surplus materials up to \n30m by Manually.\n\n150mm x 225mm Random Rubble\nmasonry work in 1:5 cement and sand\nmortar in structures\n\nMiscellaneous\n\nContigencies (10%)","Amount (Rs.)":"40,150.00","photopath":"https://raw.githubusercontent.com/MWS003-GIS/MWS003-GIS.github.io/main/IWWRMP/Data/EXD/200_photo/MWS_101_1/IMG_20241227_094348 kumbuke peella.jpg"},"geometry":{"type":"Point","coordinates":[80.71808,7.33801]}},
{"type":"Feature","properties":{"No":22,"GND No.":725,"Name of the Tank":"Dematagolla Peella","N":7.35319,"E":80.73485,"Observation":"The  peella is constructed tank size (1.5m x 1.5m x 0.9 m, L*W*H ) .used for drinking and bathing.Water leaks because the trees are rooted","Description":"150mm x 225mm Random Rubble\nmasonry work in 1:5 cement and sand\nmortar in structures\n\n Plaster 12mm thick in 1:3 cement and sand \nfinished smooth with gray cement floating\n\nMiscellaneous\n\nContigencies (10%)","Amount (Rs.)":"19,800.00","photopath":"https://raw.githubusercontent.com/MWS003-GIS/MWS003-GIS.github.io/main/IWWRMP/Data/EXD/200_photo/MWS_101_1/IMG_20241219_113843 Dematagolla peella.jpg"},"geometry":{"type":"Point","coordinates":[80.73485,7.35319]}},
{"type":"Feature","properties":{"No":23,"GND No.":725,"Name of the Tank":"Amuthuduwe Peella","N":7.35113,"E":80.72953,"Observation":"The  peella is constructed.used for drinking and bathing","Description":"Supply and laying 110 mm dia. Pvc pipe line in plain ended  type in PN-11 rate including socket, solvent cement and etc.\n\nMiscellaneous\n\nContigencies (10%)","Amount (Rs.)":"39,600.00","photopath":"https://raw.githubusercontent.com/MWS003-GIS/MWS003-GIS.github.io/main/IWWRMP/Data/EXD/200_photo/MWS_101_1/IMG_20241219_105224 amuthuduwe peellla.jpg"},"geometry":{"type":"Point","coordinates":[80.72953,7.35113]}},
{"type":"Feature","properties":{"No":24,"GND No.":725,"Name of the Tank":"Hulu ganga","N":7.34737,"E":80.73562,"Observation":"the garbage is dumped around the river.bank erosion occurs during the rainy season when too much water flows.","Description":"Vegetative cover improving around structures (5m x 10m) with Areca nut seedling in 1.5m x \n1.5m grid, Kumbuk/ Mee/ Godapara/ Kaduru/ Aththikka/ Wal Del/ Kekuna/ randomly mixed \nseedlings and planting at 3.5m x 3.5 m grid interval\n\nReplanting?bamboo?s","Amount (Rs.)":"57,200.00","photopath":"https://raw.githubusercontent.com/MWS003-GIS/MWS003-GIS.github.io/main/IWWRMP/Data/EXD/200_photo/MWS_101_1/IMG_20241219_115807 Hulugaga RHS bank.jpg"},"geometry":{"type":"Point","coordinates":[80.73562,7.34737]}}
]}