{
  "type": "FeatureCollection",
  "name": "SR",
  "crs": {
    "type": "name",
    "properties": {
      "name": "urn:ogc:def:crs:OGC:1.3:CRS84"
    }
  },
  "features": [
    {
      "type": "Feature",
      "properties": {
        "No": 64,
        "GND No.": 95,
        "Scheme": "Construct bank of Atabewala canal",
        "N": 7.19537,
        "E": 80.556222,
        "Observation": "Damage to the canal bunds has flooded 6 acres of tea nurseries.",
        "Description": "Stream / canal  reservation protection by earthfilling of  strip   of 1.5m to 2m wide  and average Depth of 0.5m for 50m at necessary locations.\n\nCutting bench of 1.5m wide and 300m long\n[01 L/day for 100.0 Lm]\n\nEarth excavation for fill material, haul fill materials up to 1.6km by machinery\n\nForming canal bund machinery (This rate is excluding of transporting of machinery)\n\nCutting, transporting, planting & watering turf (excluding cost of turf)\n\nSupplying of NPK fertilizer\n\nMaintenance for 02 months\n[02 L/days per 100.0 Lm]\n\nMachine transport\n\nTidying up\n\nContingencies (10%)",
        "Amount (Rs.)": 85799.99662000002,
        "photopath": "https://raw.githubusercontent.com/MWS003-GIS/MWS003-GIS.github.io/main/IWWRMP/Data/EXD/200_photo/MWS_133_1/atabewela cannal (2).jpg"
      },
      "geometry": {
        "type": "Point",
        "coordinates": [
          80.556222,
          7.19537
        ]
      }
    }
  ]
}