{"type":"FeatureCollection","name":"Landslides","crs":{"type":"name","properties":{"name":"urn:ogc:def:crs:OGC:1.3:CRS84"}},"features":[
{"type":"Feature","properties":{"No.":2,"GN Division No.":"504 B","GN Division":"High forest","Landslides":"Landsliding - No. 96, 97 Line Houses","N":7.06394,"E":80.840713,"NBRO Recommendation N/A":"Needs NBRO concern","Proposed Measures":"Alternative lands should be provided and relocation of people.","photopath":"Not_Available"},"geometry":{"type":"Point","coordinates":[80.840713,7.06394]}},
{"type":"Feature","properties":{"No.":4,"GN Division No.":"504 D","GN Division":"High forest Watta","Landslides":"Falling trees in the wind - High forest No 1 - Mahaweli Block","N":7.04564,"E":80.82002,"NBRO Recommendation N/A":"Needs NBRO concern","Proposed Measures":"Improve land use planning","photopath":"Not_Available"},"geometry":{"type":"Point","coordinates":[80.82002,7.04564]}},
{"type":"Feature","properties":{"No.":5,"GN Division No.":"533 I","GN Division":"Mahakudugala","Landslides":"Collapsing banks on both sides of the canal - Kurundu Oya Catchment area","N":7.040613,"E":80.824584,"NBRO Recommendation N/A":"Needs NBRO concern","Proposed Measures":"Construction of side walls along the banks","photopath":"Not_Available"},"geometry":{"type":"Point","coordinates":[80.824584,7.040613]}}
]}