{
"type": "FeatureCollection",
"name": "SWC_OFF",
"crs": { "type": "name", "properties": { "name": "urn:ogc:def:crs:OGC:1.3:CRS84" } },
"features": [
{ "type": "Feature", "properties": { "No.": 1, "GND No.": "504 A", "GND Name": "Binganthalawa", "Key Activities proposed for Soil and Water conservation": "1. Renovation of natural drains - Kurunduoya Start", "Priority based on Soil Erosion Hazard": "5", "N": 7.056677, "E": 80.854615, "Quantity": "1 km", "Proposed measure/s": "Clearing and planting some trees along the banks (Areca nut) and other conservation practices", "Total_Cost": "100,000.00", "Contribution (Local Community, LA, and the project)": "Labor and other basic services by the Local community/ Shramadana", "Time frame for the implementation": "0.5 Years", "photopath": "https://raw.githubusercontent.com/MWS003-GIS/MWS003-GIS.github.io/main/IWWRMP/Data/EXD/200_photo/MWS_021_1/Kurunduoya_Stream.jpg" }, "geometry": { "type": "Point", "coordinates": [ 80.854615, 7.056677 ] } },
{ "type": "Feature", "properties": { "No.": 2, "GND No.": "504 A", "GND Name": "Binganthalawa", "Key Activities proposed for Soil and Water conservation": "2. Renovation of natural drains - Galpotta Pathana Stream", "Priority based on Soil Erosion Hazard": "-", "N": 7.052622, "E": 80.86358, "Quantity": "1 km", "Proposed measure/s": "Clearing and planting some trees along the banks (Areca nut) and other conservation practices", "Total_Cost": "100,000.00", "Contribution (Local Community, LA, and the project)": "Labor and other basic services by the Local community/ Shramadana", "Time frame for the implementation": "0.5 Years", "photopath": "https://raw.githubusercontent.com/MWS003-GIS/MWS003-GIS.github.io/main/IWWRMP/Data/EXD/200_photo/MWS_021_1/Galpottha_Kandura.jpg" }, "geometry": { "type": "Point", "coordinates": [ 80.86358, 7.052622 ] } },
{ "type": "Feature", "properties": { "No.": 4, "GND No.": "504 A", "GND Name": "Binganthalawa", "Key Activities proposed for Soil and Water conservation": "4. Stream bank conservation - Side walls", "Priority based on Soil Erosion Hazard": "-", "N": 7.056677, "E": 80.854615, "Quantity": "4 m x 1 m x 1000 m", "Proposed measure/s": "Side wall", "Total_Cost": "8,000,000.00", "Contribution (Local Community, LA, and the project)": "Labor and other basic services by the Local community/ Shramadana", "Time frame for the implementation": "0.5 Years", "photopath": "https://raw.githubusercontent.com/MWS003-GIS/MWS003-GIS.github.io/main/IWWRMP/Data/EXD/200_photo/MWS_021_1/Kurunduoya_Stream.jpg" }, "geometry": { "type": "Point", "coordinates": [ 80.854615, 7.056677 ] } },
{ "type": "Feature", "properties": { "No.": 6, "GND No.": "504 B", "GND Name": "High forest", "Key Activities proposed for Soil and Water conservation": "1. Renovation of natural drains - Kurundu Oya", "Priority based on Soil Erosion Hazard": "-", "N": 7.06437, "E": 80.840366, "Quantity": "2 km", "Proposed measure/s": "Clearing and planting some trees along the banks and other conservation practices", "Total_Cost": "200,000.00", "Contribution (Local Community, LA, and the project)": "Labor and other basic services by the Local community/ Shramadana", "Time frame for the implementation": "0.5 Years", "photopath": "https://raw.githubusercontent.com/MWS003-GIS/MWS003-GIS.github.io/main/IWWRMP/Data/EXD/200_photo/MWS_021_1/Kurundu_oya.jpg" }, "geometry": { "type": "Point", "coordinates": [ 80.840366, 7.06437 ] } },
{ "type": "Feature", "properties": { "No.": 7, "GND No.": "504 B", "GND Name": "High forest", "Key Activities proposed for Soil and Water conservation": "2. Renovation of natural drains - Stream near No. 14", "Priority based on Soil Erosion Hazard": "-", "N": 7.057693, "E": 80.844145, "Quantity": "2 km", "Proposed measure/s": "Clearing and planting some trees along the banks (Areca nut) and other conservation practices", "Total_Cost": "200,000.00", "Contribution (Local Community, LA, and the project)": "Labor and other basic services by the Local community/ Shramadana", "Time frame for the implementation": "0.5 Years", "photopath": "Not_Available" }, "geometry": { "type": "Point", "coordinates": [ 80.844145, 7.057693 ] } },
{ "type": "Feature", "properties": { "No.": 11, "GND No.": "504 D", "GND Name": "High forest Watta", "Key Activities proposed for Soil and Water conservation": "3. Renovation of natural drains - High forest No. 1 Spring (Canal from Mahakudugala Bridge)", "Priority based on Soil Erosion Hazard": "-", "N": 7.05441, "E": 80.82719, "Quantity": "5 km", "Proposed measure/s": "Clearing and planting some trees along the banks (Areca nut) and other conservation practices", "Total_Cost": "500,000.00", "Contribution (Local Community, LA, and the project)": "Labor and other basic services by the Local community/ Shramadana", "Time frame for the implementation": "0.5 Years", "photopath": "https://raw.githubusercontent.com/MWS003-GIS/MWS003-GIS.github.io/main/IWWRMP/Data/EXD/200_photo/MWS_021_1/No_01_spring.jpg" }, "geometry": { "type": "Point", "coordinates": [ 80.82719, 7.05441 ] } },
{ "type": "Feature", "properties": { "No.": 12, "GND No.": "504 D", "GND Name": "High forest Watta", "Key Activities proposed for Soil and Water conservation": "4. Renovation of natural drains - 3 A Kandura", "Priority based on Soil Erosion Hazard": "-", "N": 7.05224, "E": 80.82748, "Quantity": "2.5 km", "Proposed measure/s": "Clearing and planting some trees along the banks (Areca nut) and other conservation practices", "Total_Cost": "250,000.00", "Contribution (Local Community, LA, and the project)": "Labor and other basic services by the Local community/ Shramadana", "Time frame for the implementation": "0.5 Years", "photopath": "https://raw.githubusercontent.com/MWS003-GIS/MWS003-GIS.github.io/main/IWWRMP/Data/EXD/200_photo/MWS_021_1/3A_Stream.jpg" }, "geometry": { "type": "Point", "coordinates": [ 80.82748, 7.05224 ] } },
{ "type": "Feature", "properties": { "No.": 13, "GND No.": "533 I", "GND Name": "Mahakudugala", "Key Activities proposed for Soil and Water conservation": "1. Renovation of natural drains - Kalukele Ela ( Located in Reserve)", "Priority based on Soil Erosion Hazard": "-", "N": 7.042231, "E": 80.829634, "Quantity": "5 km", "Proposed measure/s": "Clearing and planting some trees along the banks (Areca nut) and other conservation practices", "Total_Cost": "500,000.00", "Contribution (Local Community, LA, and the project)": "Labor and other basic services by the Local community/ Shramadana", "Time frame for the implementation": "0.5 Years", "photopath": "https://raw.githubusercontent.com/MWS003-GIS/MWS003-GIS.github.io/main/IWWRMP/Data/EXD/200_photo/MWS_021_1/Kalukele_oya.jpg" }, "geometry": { "type": "Point", "coordinates": [ 80.829634, 7.042231 ] } }
]
}
