{"type":"FeatureCollection","name":"WP","crs":{"type":"name","properties":{"name":"urn:ogc:def:crs:OGC:1.3:CRS84"}},"features":[
{"type":"Feature","properties":{"No.":1,"GND No.":"504 A","GN Division":"Binganthalawa","Non-point sources of pollution":"There could be water pollution as caused by human waste","N":7.056918,"E":80.854227,"Point sources of pollution":"-","Add. N ":"-","Add. E ":"-","Recommended water quality improvement measures":"-","Unit Cost (Rs.)":"-","Total Cost (Rs.)":"-","Contributions (Local Community, LA, Project)":"-","Time frame for the implementation":"-","photopath":"https://raw.githubusercontent.com/MWS003-GIS/MWS003-GIS.github.io/main/IWWRMP/Data/EXD/200_photo/MWS_021_1/Waste_Lands.JPG"},"geometry":{"type":"Point","coordinates":[80.854227,7.056918]}},
{"type":"Feature","properties":{"No.":2,"GND No.":"504 B","GN Division":"High forest","Non-point sources of pollution":"There could be water pollution as caused by human waste","N":7.059834,"E":80.842565,"Point sources of pollution":"-","Add. N ":"-","Add. E ":"-","Recommended water quality improvement measures":"-","Unit Cost (Rs.)":"-","Total Cost (Rs.)":"-","Contributions (Local Community, LA, Project)":"-","Time frame for the implementation":"-","photopath":"Not_Available"},"geometry":{"type":"Point","coordinates":[80.842565,7.059834]}},
{"type":"Feature","properties":{"No.":3,"GND No.":"504 B","GN Division":"High forest","Non-point sources of pollution":"Disposal of garbage to residential area and Kurundu Oya","N":7.059834,"E":80.842565,"Point sources of pollution":"-","Add. N ":"-","Add. E ":"-","Recommended water quality improvement measures":"Preparing a separate place in home gardens for disposing household waste\nAwareness program on how to disposal household waste properly and converting them to usable products such as compost\nFacilitating garbage collection","Unit Cost (Rs.)":"-","Total Cost (Rs.)":"50,000.00","Contributions (Local Community, LA, Project)":"Local/Central governments","Time frame for the implementation":"0.5 Years","photopath":"https://raw.githubusercontent.com/MWS003-GIS/MWS003-GIS.github.io/main/IWWRMP/Data/EXD/200_photo/MWS_021_1/Dibres disposel kurunduoya.jpg"},"geometry":{"type":"Point","coordinates":[80.842565,7.059834]}},
{"type":"Feature","properties":{"No.":4,"GND No.":"504 D","GN Division":"High forest Watta","Non-point sources of pollution":"Improper disposal of domestic waste - High forest Watta","N":7.05764,"E":80.829465,"Point sources of pollution":"-","Add. N ":"-","Add. E ":"-","Recommended water quality improvement measures":"Preparing a separate place in home gardens for disposing household waste\nAwareness program on how to disposal household waste properly and converting them to usable products such as compost\nFacilitating garbage collection","Unit Cost (Rs.)":"-","Total Cost (Rs.)":"50,000.00","Contributions (Local Community, LA, Project)":"Local/Central governments","Time frame for the implementation":"0.5 Years","photopath":"Not_Available"},"geometry":{"type":"Point","coordinates":[80.829465,7.05764]}},
{"type":"Feature","properties":{"No.":5,"GND No.":"533 I","GN Division":"Mahakudugala","Non-point sources of pollution":"There could be water pollution as caused by human waste","N":7.033546,"E":80.825768,"Point sources of pollution":"-","Add. N ":"-","Add. E ":"-","Recommended water quality improvement measures":"-","Unit Cost (Rs.)":"-","Total Cost (Rs.)":"-","Contributions (Local Community, LA, Project)":"-","Time frame for the implementation":"-","photopath":"Not_Available"},"geometry":{"type":"Point","coordinates":[80.825768,7.033546]}},
{"type":"Feature","properties":{"No.":6,"GND No.":"533 I","GN Division":"Mahakudugala","Non-point sources of pollution":"Improper disposal of domestic waste - High forest Watta","N":7.033546,"E":80.825768,"Point sources of pollution":"-","Add. N ":"-","Add. E ":"-","Recommended water quality improvement measures":"Preparing a separate place in home gardens for disposing household waste\nAwareness program on how to disposal household waste properly and converting them to usable products such as compost\nFacilitating garbage collection","Unit Cost (Rs.)":"-","Total Cost (Rs.)":"50,000.00","Contributions (Local Community, LA, Project)":"Local/Central governments","Time frame for the implementation":"0.5 Years","photopath":"Not_Available"},"geometry":{"type":"Point","coordinates":[80.825768,7.033546]}}
]}