{"type":"FeatureCollection","name":"MI","crs":{"type":"name","properties":{"name":"urn:ogc:def:crs:OGC:1.3:CRS84"}},"features":[
{"type":"Feature","properties":{"No":1,"GND No.":"46A","Scheme":"Uma Ela","N":6.932304,"E":80.86451,"Observation":"Existing Earthen canal,  some places Constructed of 1.700mm x 900mm (width x height) rectangular concrete lining, Water from this canal is used to grow paddy on an area of about 300 acres.","Description":"Construction of a Concrete retaining wall\n\nConstruction of 1.8m high 1:3:6 (40mm) cement concrete Retaining Wall \n\nMiscellaneous\n\nContingencies 10%","Amount (Rs.)":"389,400","photopath":"https://raw.githubusercontent.com/MWS003-GIS/MWS003-GIS.github.io/main/IWWRMP/Data/EXD/200_photo/MWS_044/Uma Ela Erotion place.jpg"},"geometry":{"type":"Point","coordinates":[80.86451,6.932304]}},
{"type":"Feature","properties":{"No":2,"GND No.":"46A","Scheme":"Parana Boruwala Ela","N":6.928983,"E":80.86545,"Observation":"Existing is a Earthen canal. Water from this canal is used to grow paddy on an area of about 29 acres. During the rainy season when too much water flows, Bank erosion occurs. Paddy fields have submerged due to the increase in water during the rainy seaso","Description":"Construction of a Concrete retaining wall\n\nConstruction of 1.5m high 1:3:6 (40mm) cement concrete Retaining Wall \n\n\nStream / canal  reservation protection by earth filling of  strip   of 1.5m to 2.0 m wide  and average Depth of 0.5m\n\nVegetative cover imp","Amount (Rs.)":"906,400","photopath":"https://raw.githubusercontent.com/MWS003-GIS/MWS003-GIS.github.io/main/IWWRMP/Data/EXD/200_photo/MWS_044/Parana Boruwala Ela.jpg"},"geometry":{"type":"Point","coordinates":[80.86545,6.928983]}},
{"type":"Feature","properties":{"No":3,"GND No.":"46C","Scheme":"Manan arawa canal","N":6.929604,"E":80.87128,"Observation":"Existing Earthen canal,  some places Constructed of 600mm x 500mm (width x height) rectangular concrete lining, Water from this canal is used to grow paddy on an area of about 5 acres.","Description":"Canal lining and protection including EW & tree planting\n\nCanal reservation protection by concrete lining  For  150 mm thick , 600 mm  wide  and 500 mm high canal -double banking\n\nStream / canal  reservation protection by earth filling of  strip   of 1.5","Amount (Rs.)":"356,400","photopath":"https://raw.githubusercontent.com/MWS003-GIS/MWS003-GIS.github.io/main/IWWRMP/Data/EXD/200_photo/MWS_044/Mananarawa canal.jpg"},"geometry":{"type":"Point","coordinates":[80.87128,6.929604]}},
{"type":"Feature","properties":{"No":4,"GND No.":"46C","Scheme":"Pahali Arawa anicut (Located in medawala GND)","N":6.932351,"E":80.86889,"Observation":"The wall of the anicut has been broken water is being in to the canal with the help of a 225 mm PVC pipe .Water from this canal is used to grow paddy on an area of about 45 acres.","Description":"Construction of Concrete trapezoidal shape anicut of 9.0 m length and height 3.5 m. with02 nos.  450 mm x 900 mm openings\n\nClearing the site\n\nCommon excavation for foundation or quarry materials and haul the surplus up to 30m by Manually.\n\nPlywood form w","Amount (Rs.)":"1,366,200","photopath":"Not_Available"},"geometry":{"type":"Point","coordinates":[80.86889,6.932351]}},
{"type":"Feature","properties":{"No":5,"GND No.":"46C","Scheme":"Peeli Arawa anicut","N":6.93334,"E":80.87553,"Observation":"Existing is a Earthen canal. During the rainy season when too much water flows. Some places are in a very dilapidated condition. Water from this canal is used to grow paddy on an area of about 5 acres.","Description":"Construction of a Concrete retaining wall\n\nConstruction of 1.5m high 1:3:6 (40mm) cement concrete Retaining Wall \n\nStream / canal  reservation protection by earth filling of  strip   of 1.5m to 2.0 m wide  and average Depth of 0.5m\n\nVegetative cover impr","Amount (Rs.)":"850,300","photopath":"https://raw.githubusercontent.com/MWS003-GIS/MWS003-GIS.github.io/main/IWWRMP/Data/EXD/200_photo/MWS_044/Piliarawa anicut.jpg"},"geometry":{"type":"Point","coordinates":[80.87553,6.93334]}},
{"type":"Feature","properties":{"No":6,"GND No.":"47A","Scheme":"Gimbiliyagahamadiththa canal","N":6.933103,"E":80.8919,"Observation":"This is the spill canal of thr main canal (Uma ela).This does not create cultivation. Used to drain excess water on rainy days. Paddy fields in some places are flooded..","Description":"Construction of a Concrete retaining wall\n\nConstruction of 1.5m high 1:3:6 (40mm) cement concrete Retaining Wall \n\nMiscellaneous\n\nContingencies 10%","Amount (Rs.)":"1,586,200","photopath":"https://raw.githubusercontent.com/MWS003-GIS/MWS003-GIS.github.io/main/IWWRMP/Data/EXD/200_photo/MWS_044/Gimbiliyagahamadiththa canal.jpg"},"geometry":{"type":"Point","coordinates":[80.8919,6.933103]}},
{"type":"Feature","properties":{"No":7,"GND No.":"47B","Scheme":"Pahala Dangamuwa","N":6.917963,"E":80.88677,"Observation":"Existing Earthen canal,  some places Constructed of 450mm x 500mm (width x height) rectangular concrete lining, Water from this canal is used to grow paddy on an area of about 30 acres.","Description":"Canal lining, Earth work, tree planting\n\nCanals reservation protection by concrete lining  For  125mm thick , 500 mm  wide  and 400 mm high canal -double banking\n\nStream / canal  reservation protection by earth filling of  strip   of 1.5m to 2.0 m wide","Amount (Rs.)":"733,700","photopath":"https://raw.githubusercontent.com/MWS003-GIS/MWS003-GIS.github.io/main/IWWRMP/Data/EXD/200_photo/MWS_044/Pahala Ela (2).jpg"},"geometry":{"type":"Point","coordinates":[80.88677,6.917963]}},
{"type":"Feature","properties":{"No":8,"GND No.":"47B","Scheme":"Pahala Dangamuwa","N":6.913409,"E":80.88858,"Observation":"Existing Earthen canal,  some places Constructed of 450mm x 450mm (width x height) rectangular concrete lining, Water from this canal is used to grow paddy on an area of about 30 acres.","Description":"Canal lining, Earth work, tree planting\n\nCanals reservation protection by concrete lining  For  125mm thick , 500 mm  wide  and 400 mm high canal -double banking\n\nStream / canal  reservation protection by earth filling of  strip   of 1.5m to 2.0 m wide","Amount (Rs.)":"664,400","photopath":"https://raw.githubusercontent.com/MWS003-GIS/MWS003-GIS.github.io/main/IWWRMP/Data/EXD/200_photo/MWS_044/Pahala Ela (3).jpg"},"geometry":{"type":"Point","coordinates":[80.88858,6.913409]}},
{"type":"Feature","properties":{"No":9,"GND No.":"47C","Scheme":"From Rathgal Arawa to Daragala canal(Goda ela)","N":6.925267,"E":80.89646,"Observation":"Existing Earthen canal,  some places Constructed of 450mm x 450mm (width x height) rectangular concrete lining, Water from this canal is used to grow paddy on an area of about 30 acres.","Description":"Construction of a Retaining wall, Canal lining, Earth work, tree planting\n\nConstruction of 3.0m high 1:3:6 (40mm) cement concrete Retaining Wall \n\nCanals reservation protection by concrete lining  For  125mm thick , 500 mm  wide  and 400 mm high canal -d","Amount (Rs.)":"3,076,700","photopath":"https://raw.githubusercontent.com/MWS003-GIS/MWS003-GIS.github.io/main/IWWRMP/Data/EXD/200_photo/MWS_044/From Rathgal Arawa to Daragala canal(Goda ela) (2).jpg"},"geometry":{"type":"Point","coordinates":[80.89646,6.925267]}},
{"type":"Feature","properties":{"No":10,"GND No.":"47C","Scheme":"From Rathgal Arawa to Daragala canal","N":6.925404,"E":80.89632,"Observation":"During the rainy season when too much water flows, Bank erosion occurssome places Constructed of 2 m high retaining wall. Water from this canal is used to grow paddy on an area of about 10 acres.","Description":"Construction of a Retaining wall, Earth work, tree planting\n\nConstruction of 2.0m high 1:3:6 (40mm) cement concrete Retaining Wall \n\nStream / canal  reservation protection by earth filling of  strip   of 1.5m to 2.0 m wide  and average Depth of 0.5m\n\nVeg","Amount (Rs.)":"2,359,280","photopath":"https://raw.githubusercontent.com/MWS003-GIS/MWS003-GIS.github.io/main/IWWRMP/Data/EXD/200_photo/MWS_044/From Rathgal Arawa to Daragala canal(Goda ela) Erotion place.jpg"},"geometry":{"type":"Point","coordinates":[80.89632,6.925404]}},
{"type":"Feature","properties":{"No":11,"GND No.":"47D","Scheme":"Canal from daragala Ambagahawatta to Bathalakotuwa","N":6.917561,"E":80.91048,"Observation":"Existing Earthen canal,  some places Constructed of 400mm x 400mm (width x height) rectangular concrete lining, Water from this canal is used to grow paddy on an area of about 20 acres.","Description":"Canal lining, Earth work, tree planting\n\nCanals reservation protection by concrete lining  For  125mm thick , 500 mm  wide  and 400 mm high canal -double banking\n\nStream / canal  reservation protection by earth filling of  strip   of 1.5m to 2.0 m wide","Amount (Rs.)":"733,700","photopath":"https://raw.githubusercontent.com/MWS003-GIS/MWS003-GIS.github.io/main/IWWRMP/Data/EXD/200_photo/MWS_044/Ambagahawaththa Bathalakotuwa canal.jpg"},"geometry":{"type":"Point","coordinates":[80.91048,6.917561]}},
{"type":"Feature","properties":{"No":12,"GND No.":"47E","Scheme":"Elwatte Medarawa canal","N":6.92368,"E":80.87405,"Observation":"Existing Earthen canal,  Water from this canal is used to grow vegetable and paddy on an area of about 30 acres. It has been heavily eroded in some places","Description":"Construction of a Retaining wall, Earth work, tree planting\n\nConstruction of 1.5m high 1:3:6 (40mm) cement concrete Retaining Wall \n\nStream / canal  reservation protection by earth filling of  strip   of 1.5m to 2.0 m wide  and average Depth of 0.5m\n\nVeg","Amount (Rs.)":"885,500","photopath":"https://raw.githubusercontent.com/MWS003-GIS/MWS003-GIS.github.io/main/IWWRMP/Data/EXD/200_photo/MWS_044/Elwaththa Medarawa Ela.jpg"},"geometry":{"type":"Point","coordinates":[80.87405,6.92368]}},
{"type":"Feature","properties":{"No":13,"GND No.":"47E","Scheme":"Galnila canal","N":6.930034,"E":80.87985,"Observation":"About 50 m of the canal has been eroded since the beginning of place canal. There are 225mm PVC pipes placed on wooden poles to obtain water. Existing Earthen canal,  Water from this canal is used to grow vegetable and paddy on an area of about 28 acres.","Description":"Construction of 50 m long Trough (with 0.30m x 0.30m section), 10 nos of piers (3.5 m high)\n \nSite preparation removing the existing pipe line & setting out\n\nEarth excavation for foundation or quarry materials and haul the surplus materials up to 30m by","Amount (Rs.)":"1,721,500","photopath":"https://raw.githubusercontent.com/MWS003-GIS/MWS003-GIS.github.io/main/IWWRMP/Data/EXD/200_photo/MWS_044/Galnila Ela (2).jpg"},"geometry":{"type":"Point","coordinates":[80.87985,6.930034]}},
{"type":"Feature","properties":{"No":14,"GND No.":"47E","Scheme":"Ketagoda Meda canal","N":6.922465,"E":80.87702,"Observation":"Existing Earthen canal,  some places Constructed of 450mm x 450mm (width x height) rectangular concrete lining, Water from this canal is used to grow paddy on an area of about 25 acres.","Description":"Canal lining, Earth work, tree planting\n\nCanals reservation protection by concrete lining  For  125mm thick , 500 mm  wide  and 400 mm high canal -double banking\n\nStream / canal  reservation protection by earth filling of  strip   of 1.5m to 2.0 m wide","Amount (Rs.)":"760,100","photopath":"https://raw.githubusercontent.com/MWS003-GIS/MWS003-GIS.github.io/main/IWWRMP/Data/EXD/200_photo/MWS_044/Ketagoda Meda ela.jpg"},"geometry":{"type":"Point","coordinates":[80.87702,6.922465]}},
{"type":"Feature","properties":{"No":15,"GND No.":"47F","Scheme":"Thalakumbura Girilingawa  Meda canal","N":6.922996,"E":80.88152,"Observation":"Existing Earthen canal,  Water from this canal is used to grow vegetable and paddy on an area of about 13 acres.","Description":"Canal lining and protection including EW & tree planting\n\nCanal reservation protection by concrete lining  For  100 mm thick , 300 mm  wide  and 300 mm high canal -double banking\n\nStream / canal  reservation protection by earth filling of  strip   of 1.5","Amount (Rs.)":"840,400","photopath":"https://raw.githubusercontent.com/MWS003-GIS/MWS003-GIS.github.io/main/IWWRMP/Data/EXD/200_photo/MWS_044/Thalakumbura girilinga meda ela.jpg"},"geometry":{"type":"Point","coordinates":[80.88152,6.922996]}},
{"type":"Feature","properties":{"No":16,"GND No.":"47F","Scheme":"Thalakumbura Hipilingawa canal","N":6.923517,"E":80.87978,"Observation":"Existing Earthen canal,  Water from this canal is used to grow vegetable and paddy on an area of about 7.5 acres. The pipe trough is broken in one placemaking difficult to get water.","Description":"Construction of a catchpit and connecting pipes.\n\nPreparation of the foundation for the catch pit by filling earth and compaction\n\nConstruction of 1.0 m x 1.0 m x 0.75 m (LxWxH) catchpit allowing openings for the pipe and water coming in\n\nTransport of ma","Amount (Rs.)":"58,300","photopath":"https://raw.githubusercontent.com/MWS003-GIS/MWS003-GIS.github.io/main/IWWRMP/Data/EXD/200_photo/MWS_044/Thalakumbura hipiligawa ela (2).jpg"},"geometry":{"type":"Point","coordinates":[80.87978,6.923517]}},
{"type":"Feature","properties":{"No":17,"GND No.":"47F","Scheme":"Thalakumbura canal","N":6.924401,"E":80.88688,"Observation":"Existing Earthen canal,  some places Constructed of 450mm x 450mm (width x height) rectangular concrete lining, Water from this canal is used to grow paddy on an area of about 16 acres.","Description":"Canal lining and protection including EW & tree planting\n\nCanal reservation protection by concrete lining  For  100 mm thick , 300 mm  wide  and 300 mm high canal -double banking\n\nStream / canal  reservation protection by earth filling of  strip   of 1.5","Amount (Rs.)":"589,600","photopath":"https://raw.githubusercontent.com/MWS003-GIS/MWS003-GIS.github.io/main/IWWRMP/Data/EXD/200_photo/MWS_044/Thalakumbura ela.jpg"},"geometry":{"type":"Point","coordinates":[80.88688,6.924401]}},
{"type":"Feature","properties":{"No":18,"GND No.":"47F","Scheme":"Karagahauhana canal","N":6.923235,"E":80.88456,"Observation":"Existing Earthen canal,  some places Constructed of 450mm x 450mm (width x height) rectangular concrete lining, Water from this canal is used to grow paddy on an area of about 8 acres.","Description":"Canal lining and protection including EW & tree planting\n\nCanal reservation protection by concrete lining  For  100 mm thick , 300 mm  wide  and 300 mm high canal -double banking\n\nStream / canal  reservation protection by earth filling of  strip   of 1.5","Amount (Rs.)":"386,980","photopath":"https://raw.githubusercontent.com/MWS003-GIS/MWS003-GIS.github.io/main/IWWRMP/Data/EXD/200_photo/MWS_044/Karagahauhana ela.jpg"},"geometry":{"type":"Point","coordinates":[80.88456,6.923235]}},
{"type":"Feature","properties":{"No":19,"GND No.":"53A","Scheme":"Kabilladowa Hangiliella canal","N":6.920442,"E":80.95327,"Observation":"Existing Earthen canal,  some places Constructed of 600mm x 600mm (width x height) rectangular concrete lining, Water from this canal is used to grow paddy on an area of about 59 acres.","Description":"Canal lining and protection including EW & tree planting\n\nCanal reservation protection by concrete lining  For  150 mm thick , 600 mm  wide  and 500 mm high canal -double banking\n\nStream / canal  reservation protection by earth filling of  strip   of 1.5","Amount (Rs.)":"1,559,800","photopath":"https://raw.githubusercontent.com/MWS003-GIS/MWS003-GIS.github.io/main/IWWRMP/Data/EXD/200_photo/MWS_044/Kebilladova hagilella canal.jpg"},"geometry":{"type":"Point","coordinates":[80.95327,6.920442]}},
{"type":"Feature","properties":{"No":20,"GND No.":"53F","Scheme":"Kotawera Mahaela","N":6.911559,"E":80.92158,"Observation":"Existing Earthen canal,  some places Constructed of 900mm x600mm (width x height) rectangular concrete lining, Water from this canal is used to grow vegetable on an area of about 48 acres. There have a damaged concrete trough","Description":"Canal lining and protection including EW & tree planting\n\nCanal reservation protection by concrete lining  For  150 mm thick , 600 mm  wide  and 500 mm high canal -double banking\n\nStream / canal  reservation protection by earth filling of  strip   of 1.5","Amount (Rs.)":"1,917,300","photopath":"Not_Available"},"geometry":{"type":"Point","coordinates":[80.92158,6.911559]}}
]}