{"type":"FeatureCollection","name":"WP","crs":{"type":"name","properties":{"name":"urn:ogc:def:crs:OGC:1.3:CRS84"}},"features":[
{"type":"Feature","properties":{"No.":1,"GND No.":"46A","GN Division":"Medawela","Non-point sources of pollution":"Potential to add human waste - Possible risk of adding waste into the Uma Ela","N":6.9295862,"E":80.8652435,"Point sources of pollution":"-","Add. N ":"-","Add. E ":"-","Recommended water quality improvement measures":"-","Unit Cost (Rs.)":"-","Total Cost (Rs.)":"-","Contributions (Local Community, LA, Project)":"-","Time frame for the implementation":"-","photopath":"Not_Available"},"geometry":{"type":"Point","coordinates":[80.8652435,6.9295862]}},
{"type":"Feature","properties":{"No.":2,"GND No.":"46A","GN Division":"Medawela","Non-point sources of pollution":"Informal disposal of houshold wastes/garbage","N":6.9295862,"E":80.8652435,"Point sources of pollution":"-","Add. N ":"-","Add. E ":"-","Recommended water quality improvement measures":"Preparing a separate place in homegardens for disposing houshold waste/Awareness programme on how to disposal household waste properly and converting them to usable products such as compost/Facilitating garbage collection","Unit Cost (Rs.)":"-","Total Cost (Rs.)":"50,000.00","Contributions (Local Community, LA, Project)":"Local/Central governments","Time frame for the implementation":"0.5 Years","photopath":"Not_Available"},"geometry":{"type":"Point","coordinates":[80.8652435,6.9295862]}},
{"type":"Feature","properties":{"No.":4,"GND No.":"47A","GN Division":"Ambagasdowa","Non-point sources of pollution":"Potential to add human waste","N":6.9299174,"E":80.8917781,"Point sources of pollution":"-","Add. N ":"-","Add. E ":"-","Recommended water quality improvement measures":"-","Unit Cost (Rs.)":"-","Total Cost (Rs.)":"-","Contributions (Local Community, LA, Project)":"-","Time frame for the implementation":"-","photopath":"Not_Available"},"geometry":{"type":"Point","coordinates":[80.8917781,6.9299174]}},
{"type":"Feature","properties":{"No.":5,"GND No.":"47B","GN Division":"Dangamuwa","Non-point sources of pollution":"Potential to add human waste - Pahala Dangamuwa Village","N":6.918144,"E":80.8917781,"Point sources of pollution":"-","Add. N ":"-","Add. E ":"-","Recommended water quality improvement measures":"-","Unit Cost (Rs.)":"-","Total Cost (Rs.)":"-","Contributions (Local Community, LA, Project)":"-","Time frame for the implementation":"-","photopath":"Not_Available"},"geometry":{"type":"Point","coordinates":[80.8917781,6.918144]}},
{"type":"Feature","properties":{"No.":6,"GND No.":"47B","GN Division":"Dangamuwa","Non-point sources of pollution":"Potential to add human waste - Hela Dangamuwa Village","N":6.918144,"E":80.8874169,"Point sources of pollution":"-","Add. N ":"-","Add. E ":"-","Recommended water quality improvement measures":"-","Unit Cost (Rs.)":"-","Total Cost (Rs.)":"-","Contributions (Local Community, LA, Project)":"-","Time frame for the implementation":"-","photopath":"Not_Available"},"geometry":{"type":"Point","coordinates":[80.8874169,6.918144]}},
{"type":"Feature","properties":{"No.":7,"GND No.":"47B","GN Division":"Dangamuwa","Non-point sources of pollution":"Informal disposal of houshold wastes/garbage","N":6.918144,"E":80.8874169,"Point sources of pollution":"-","Add. N ":"-","Add. E ":"-","Recommended water quality improvement measures":"Preparing a separate place in homegardens for disposing houshold waste/Awareness programme on how to disposal household waste properly and converting them to usable products such as compost/Facilitating garbage collection","Unit Cost (Rs.)":"-","Total Cost (Rs.)":"50,000.00","Contributions (Local Community, LA, Project)":"Local/Central governments","Time frame for the implementation":"0.5 Years","photopath":"Not_Available"},"geometry":{"type":"Point","coordinates":[80.8874169,6.918144]}},
{"type":"Feature","properties":{"No.":8,"GND No.":"47C","GN Division":"Rathamba","Non-point sources of pollution":"Potential to add human waste - Deeyakolaarawa, New Colony, Rathamba City","N":6.9196854,"E":80.8981419,"Point sources of pollution":"-","Add. N ":"-","Add. E ":"-","Recommended water quality improvement measures":"-","Unit Cost (Rs.)":"-","Total Cost (Rs.)":"-","Contributions (Local Community, LA, Project)":"-","Time frame for the implementation":"-","photopath":"https://raw.githubusercontent.com/MWS003-GIS/MWS003-GIS.github.io/main/IWWRMP/Data/EXD/200_photo/MWS_044/Sewage accumulates in to waterways.jpg"},"geometry":{"type":"Point","coordinates":[80.8981419,6.9196854]}},
{"type":"Feature","properties":{"No.":9,"GND No.":"47C","GN Division":"Rathamba","Non-point sources of pollution":"Informal disposal of houshold wastes/garbage","N":6.9196854,"E":80.8981419,"Point sources of pollution":"-","Add. N ":"-","Add. E ":"-","Recommended water quality improvement measures":"Preparing a separate place in homegardens for disposing houshold waste/Awareness programme on how to disposal household waste properly and converting them to usable products such as compost/Facilitating garbage collection","Unit Cost (Rs.)":"-","Total Cost (Rs.)":"50,000.00","Contributions (Local Community, LA, Project)":"Local/Central governments","Time frame for the implementation":"0.5 Years","photopath":"https://raw.githubusercontent.com/MWS003-GIS/MWS003-GIS.github.io/main/IWWRMP/Data/EXD/200_photo/MWS_044/Garbage disposal to Waterways.jpg"},"geometry":{"type":"Point","coordinates":[80.8981419,6.9196854]}},
{"type":"Feature","properties":{"No.":10,"GND No.":"47D","GN Division":"Daragala","Non-point sources of pollution":"Informal disposal of houshold wastes/garbage","N":6.9209274,"E":80.9073942,"Point sources of pollution":"-","Add. N ":"-","Add. E ":"-","Recommended water quality improvement measures":"Preparing a separate place in homegardens for disposing houshold waste/Awareness programme on how to disposal household waste properly and converting them to usable products such as compost/Facilitating garbage collection","Unit Cost (Rs.)":"-","Total Cost (Rs.)":"50,000.00","Contributions (Local Community, LA, Project)":"Local/Central governments","Time frame for the implementation":"0.5 Years","photopath":"https://raw.githubusercontent.com/MWS003-GIS/MWS003-GIS.github.io/main/IWWRMP/Data/EXD/200_photo/MWS_044/Garbage disposal.jpg"},"geometry":{"type":"Point","coordinates":[80.9073942,6.9209274]}},
{"type":"Feature","properties":{"No.":11,"GND No.":"47E","GN Division":"Ketagoda","Non-point sources of pollution":"Potential to add human waste - Ketagoda Village","N":6.9240704,"E":80.8758916,"Point sources of pollution":"-","Add. N ":"-","Add. E ":"-","Recommended water quality improvement measures":"-","Unit Cost (Rs.)":"-","Total Cost (Rs.)":"-","Contributions (Local Community, LA, Project)":"-","Time frame for the implementation":"-","photopath":"Not_Available"},"geometry":{"type":"Point","coordinates":[80.8758916,6.9240704]}},
{"type":"Feature","properties":{"No.":12,"GND No.":"47E","GN Division":"Ketagoda","Non-point sources of pollution":"Potential to add human waste - Diwuldena Village","N":6.9240704,"E":80.8758916,"Point sources of pollution":"-","Add. N ":"-","Add. E ":"-","Recommended water quality improvement measures":"-","Unit Cost (Rs.)":"-","Total Cost (Rs.)":"-","Contributions (Local Community, LA, Project)":"-","Time frame for the implementation":"-","photopath":"Not_Available"},"geometry":{"type":"Point","coordinates":[80.8758916,6.9240704]}},
{"type":"Feature","properties":{"No.":13,"GND No.":"47E","GN Division":"Ketagoda","Non-point sources of pollution":"Informal disposal of houshold wastes/garbage","N":6.9240704,"E":80.8758916,"Point sources of pollution":"-","Add. N ":"-","Add. E ":"-","Recommended water quality improvement measures":"Preparing a separate place in homegardens for disposing houshold waste/Awareness programme on how to disposal household waste properly and converting them to usable products such as compost/Facilitating garbage collection","Unit Cost (Rs.)":"-","Total Cost (Rs.)":"50,000.00","Contributions (Local Community, LA, Project)":"Local/Central governments","Time frame for the implementation":"0.5 Years","photopath":"Not_Available"},"geometry":{"type":"Point","coordinates":[80.8758916,6.9240704]}},
{"type":"Feature","properties":{"No.":14,"GND No.":"47F","GN Division":"Pannalagama","Non-point sources of pollution":"Potential to add human waste - Pannalagama and Thalakumbura","N":6.9274598,"E":80.8846984,"Point sources of pollution":"-","Add. N ":"-","Add. E ":"-","Recommended water quality improvement measures":"-","Unit Cost (Rs.)":"-","Total Cost (Rs.)":"-","Contributions (Local Community, LA, Project)":"-","Time frame for the implementation":"-","photopath":"Not_Available"},"geometry":{"type":"Point","coordinates":[80.8846984,6.9274598]}},
{"type":"Feature","properties":{"No.":15,"GND No.":"47F","GN Division":"Pannalagama","Non-point sources of pollution":"Informal disposal of houshold wastes/garbage","N":6.9274598,"E":80.8846984,"Point sources of pollution":"-","Add. N ":"-","Add. E ":"-","Recommended water quality improvement measures":"Preparing a separate place in homegardens for disposing houshold waste/Awareness programme on how to disposal household waste properly and converting them to usable products such as compost/Facilitating garbage collection","Unit Cost (Rs.)":"-","Total Cost (Rs.)":"50,000.00","Contributions (Local Community, LA, Project)":"Local/Central governments","Time frame for the implementation":"0.5 Years","photopath":"Not_Available"},"geometry":{"type":"Point","coordinates":[80.8846984,6.9274598]}},
{"type":"Feature","properties":{"No.":16,"GND No.":"53A","GN Division":"Hangiliella","Non-point sources of pollution":"Potential to add human waste - Hangiliella","N":6.9196959,"E":80.9467693,"Point sources of pollution":"-","Add. N ":"-","Add. E ":"-","Recommended water quality improvement measures":"-","Unit Cost (Rs.)":"-","Total Cost (Rs.)":"-","Contributions (Local Community, LA, Project)":"-","Time frame for the implementation":"-","photopath":"Not_Available"},"geometry":{"type":"Point","coordinates":[80.9467693,6.9196959]}},
{"type":"Feature","properties":{"No.":17,"GND No.":"53A","GN Division":"Hangiliella","Non-point sources of pollution":"Potential to add human waste - Kabilladowa","N":6.9196959,"E":80.9467693,"Point sources of pollution":"-","Add. N ":"-","Add. E ":"-","Recommended water quality improvement measures":"-","Unit Cost (Rs.)":"-","Total Cost (Rs.)":"-","Contributions (Local Community, LA, Project)":"-","Time frame for the implementation":"-","photopath":"Not_Available"},"geometry":{"type":"Point","coordinates":[80.9467693,6.9196959]}},
{"type":"Feature","properties":{"No.":18,"GND No.":"53E","GN Division":"Kotawera Udagama","Non-point sources of pollution":"Informal disposal of houshold wastes/garbage","N":6.9214218,"E":80.9278514,"Point sources of pollution":"-","Add. N ":"-","Add. E ":"-","Recommended water quality improvement measures":"Preparing a separate place in homegardens for disposing houshold waste/Awareness programme on how to disposal household waste properly and converting them to usable products such as compost/Facilitating garbage collection","Unit Cost (Rs.)":"-","Total Cost (Rs.)":"50,000.00","Contributions (Local Community, LA, Project)":"Local/Central governments","Time frame for the implementation":"0.5 Years","photopath":"Not_Available"},"geometry":{"type":"Point","coordinates":[80.9278514,6.9214218]}},
{"type":"Feature","properties":{"No.":20,"GND No.":"53G","GN Division":"Downside","Non-point sources of pollution":"Potential to add human waste - Brohinwatta Estate Line Houses (Moragolla)","N":6.9194806,"E":80.9174416,"Point sources of pollution":"-","Add. N ":"-","Add. E ":"-","Recommended water quality improvement measures":"-","Unit Cost (Rs.)":"-","Total Cost (Rs.)":"-","Contributions (Local Community, LA, Project)":"-","Time frame for the implementation":"-","photopath":"Not_Available"},"geometry":{"type":"Point","coordinates":[80.9174416,6.9194806]}},
{"type":"Feature","properties":{"No.":21,"GND No.":"53G","GN Division":"Downside","Non-point sources of pollution":"Informal disposal of houshold wastes/garbage","N":6.9194806,"E":80.9174416,"Point sources of pollution":"-","Add. N ":"-","Add. E ":"-","Recommended water quality improvement measures":"Preparing a separate place in homegardens for disposing houshold waste/Awareness programme on how to disposal household waste properly and converting them to usable products such as compost/Facilitating garbage collection","Unit Cost (Rs.)":"-","Total Cost (Rs.)":"50,000.00","Contributions (Local Community, LA, Project)":"Local/Central governments","Time frame for the implementation":"0.5 Years","photopath":"Not_Available"},"geometry":{"type":"Point","coordinates":[80.9174416,6.9194806]}}
]}