{"type":"FeatureCollection","name":"Landslides","crs":{"type":"name","properties":{"name":"urn:ogc:def:crs:OGC:1.3:CRS84"}},"features":[
{"type":"Feature","properties":{"No.":24,"GN Division No.":485,"GN Division":"Angoda","Landslides":"1. Bank collapsing - Sumedha Kulathunga, 198, Angoda Medawela","N":7.353863,"E":80.55718,"NBRO Recommendation N/A":"NBRO is aware","Proposed Measures":"Planting areca nut plants. Follow recommendations of NBRO.","photopath":"https://raw.githubusercontent.com/MWS003-GIS/MWS003-GIS.github.io/main/IWWRMP/Data/EXD/200_photo/MWS_115_2/angodayaya canal (1).jpg"},"geometry":{"type":"Point","coordinates":[80.55718,7.353863]}},
{"type":"Feature","properties":{"No.":25,"GN Division No.":487,"GN Division":"Doranegama","Landslides":"Landsliding - A section of the road from Doraneegama to the end of Magarudeniya","N":7.373725,"E":80.558274,"NBRO Recommendation N/A":"NBRO is aware","Proposed Measures":"Follow recommendations of NBRO. Construct a retaining wall (50 m x 3 m)","photopath":"https://raw.githubusercontent.com/MWS003-GIS/MWS003-GIS.github.io/main/IWWRMP/Data/EXD/200_photo/MWS_115_2/diseaster road (2).jpg"},"geometry":{"type":"Point","coordinates":[80.558274,7.373725]}}
]}