{
"type": "FeatureCollection",
"name": "WSP",
"crs": { "type": "name", "properties": { "name": "urn:ogc:def:crs:OGC:1.3:CRS84" } },
"features": [
{ "type": "Feature", "properties": { "No": 23, "GND No.": "476", "Name of the Tank": "Edinburgh", "N": 6.943038, "E": 80.747444, "Observation": "The Spring is made of a cylinder with a diameter of 1.5 meters and a height of 1.2 meters.Located on public land. Used for drinking and bathing", "Description": "Construction of a Water Stock Tank (2.0m x2.0m x 1.5m)\n\nSite preparation & setting out\n\nPlywood form work including making, fixing & removing for structure ?05 uses\n\nCutting, Bending & Placing tor steel reinforcement bars\n\n1:2:4 concrete with concret", "Amount (Rs.)": 346500, "photopath": "https://raw.githubusercontent.com/MWS003-GIS/MWS003-GIS.github.io/main/IWWRMP/Data/EXD/200_photo/MWS_163/IMG_20260127_140850 Edinburgh Spring.jpg" }, "geometry": { "type": "Point", "coordinates": [ 80.747444, 6.943038 ] } },
{ "type": "Feature", "properties": { "No": 24, "GND No.": "476E", "Name of the Tank": "Blackpool reservation (community - Isira)", "N": 6.941026, "E": 80.764693, "Observation": "Anicut is constructed 7.0m long 1.3m height,150mm thick  concrete. Located on Forest land. Used for drinking and bathing", "Description": "Construction of a concrete canal (10 m long 300 mm x 300 mm)\n\nSite preparation & setting out\n\nEarth excavation for foundation or quarry materials and haul the surplus materials up to 30m by Manually.\n\nPlywood form work including making, fixing & remo", "Amount (Rs.)": 132000, "photopath": "https://raw.githubusercontent.com/MWS003-GIS/MWS003-GIS.github.io/main/IWWRMP/Data/EXD/200_photo/MWS_163/IMG_20260127_105928 Blackpool reservation (community - Isira).jpg" }, "geometry": { "type": "Point", "coordinates": [ 80.764693, 6.941026 ] } },
{ "type": "Feature", "properties": { "No": 25, "GND No.": "476E", "Name of the Tank": "Near the GN office", "N": 6.947401, "E": 80.77373, "Observation": "A Well is constructed (1.7m x 1.3m x 1.5m, L*W*H, used for drinking and bathing", "Description": "Survey and demarcate the boundaries\n\nChain link mesh fence 2.0m high (Gauge 12) with 48mm outer Dia. 2.3mm tk. GI pipe at 2.9m c/c uprights and 21mm Outer Dia. 1.8mm tk. GI vertical center bracing. 48mm Outer Dia. 2.3mm tk. GI pipe at the top and bottom", "Amount (Rs.)": 667700, "photopath": "https://raw.githubusercontent.com/MWS003-GIS/MWS003-GIS.github.io/main/IWWRMP/Data/EXD/200_photo/MWS_163/IMG_20260127_085241 Near the GN office well.jpg" }, "geometry": { "type": "Point", "coordinates": [ 80.77373, 6.947401 ] } },
{ "type": "Feature", "properties": { "No": 26, "GND No.": "476E", "Name of the Tank": "Near the Samurdhi Bank", "N": 6.947097, "E": 80.773726, "Observation": "A Well are constructed  (1.3 m Dia. & 2m Hight). A Well Located on public land. Used for drinking and bathing", "Description": "Construction of a Wall 1.2 m Long and 1.1 m High and Concrete the Pavement around the Well\n\nSite preparation & setting out\n\nEarth excavation for foundation or quarry  materials and haul the surplus materials up to 30m by Manually.\n\n150mm x 225mm Rand", "Amount (Rs.)": 38500, "photopath": "https://raw.githubusercontent.com/MWS003-GIS/MWS003-GIS.github.io/main/IWWRMP/Data/EXD/200_photo/MWS_163/IMG_20260127_084616 Near the Samurdhi Bank well.jpg" }, "geometry": { "type": "Point", "coordinates": [ 80.773726, 6.947097 ] } },
{ "type": "Feature", "properties": { "No": 27, "GND No.": "476E", "Name of the Tank": "Spring of Samagi Mawatha", "N": 6.946784, "E": 80.770248, "Observation": "The  Water tank is constructed (1.25m x 1.25m x 0.9m, L*W*H).Water leaks from the tank. A tank  Located on public land. Used for drinking and bathing", "Description": "Construction of a Water Stock Tank (2.0m x2.0m x 1.2m)\n\nSite preparation & setting out\n\nPlywood form work including making, fixing & removing for structure ?05 uses\n\nCutting, Bending & Placing tor steel reinforcement bars\n\n1:2:4 concrete with concret", "Amount (Rs.)": 289300, "photopath": "https://raw.githubusercontent.com/MWS003-GIS/MWS003-GIS.github.io/main/IWWRMP/Data/EXD/200_photo/MWS_163/IMG_20260127_091158 Spring of Samagi Mawatha.jpg" }, "geometry": { "type": "Point", "coordinates": [ 80.770248, 6.946784 ] } },
{ "type": "Feature", "properties": { "No": 28, "GND No.": "476F", "Name of the Tank": "Near Mr. Chathura's house", "N": 6.936225, "E": 80.772121, "Observation": "It is as a form of a natural spring. Used for drinking and bathing", "Description": "0.9 m Dia, 3.0 m High Well Construction \n\nSite preparation & setting out\n\nRemove loose soil and unstable material\n\nUse a pump and lower the water level temporary\n\nWet Silt removing from Tank bed and haul the surplus materials up to 1.6 km distance by", "Amount (Rs.)": 137500, "photopath": "https://raw.githubusercontent.com/MWS003-GIS/MWS003-GIS.github.io/main/IWWRMP/Data/EXD/200_photo/MWS_163/IMG_20260116_101007 Near the Mr. Chathura's house spring.jpg" }, "geometry": { "type": "Point", "coordinates": [ 80.772121, 6.936225 ] } },
{ "type": "Feature", "properties": { "No": 29, "GND No.": "476F", "Name of the Tank": "Near Mr. Meththananda's house", "N": 6.934834, "E": 80.769986, "Observation": "It is as a form of a natural spring. Used for drinking and bathing", "Description": "Construction of a Water Stock Tank (5.0m x2.0m x 1.5m)\n\nSite preparation & setting out\n\n150mm x 225mm Random Rubble masonry work in 1:5 cement and sand mortar in structures \n\nPlaster 12mm thick in 1:3 cement and sand  finished smooth with ", "Amount (Rs.)": 323400, "photopath": "https://raw.githubusercontent.com/MWS003-GIS/MWS003-GIS.github.io/main/IWWRMP/Data/EXD/200_photo/MWS_163/IMG_20260116_101420 Near the Mr. Meththananda's house spring.jpg" }, "geometry": { "type": "Point", "coordinates": [ 80.769986, 6.934834 ] } },
{ "type": "Feature", "properties": { "No": 30, "GND No.": "476F", "Name of the Tank": "Conikal Nu 01 Spring", "N": 6.917748, "E": 80.77729, "Observation": "The  Water tank is constructed (3.0m x 1.6m x 1.2m, L*W*H). One side of the tank has an Earthen wall A tank  Located on public land. Used for drinking and bathing", "Description": "Construct the RRM Earthen Wall and Concrete the Tank Bottom\n\nSite preparation & setting out\n\nRemove loose soil and unstable material\n\nUse a pump and lower the water level temporary\n\nWet Silt removing from Tank bed and haul the surplus materials up to", "Amount (Rs.)": 480700, "photopath": "https://raw.githubusercontent.com/MWS003-GIS/MWS003-GIS.github.io/main/IWWRMP/Data/EXD/200_photo/MWS_163/IMG_20260116_125010 Conikal Nu 01 Spring.jpg" }, "geometry": { "type": "Point", "coordinates": [ 80.77729, 6.917748 ] } },
{ "type": "Feature", "properties": { "No": 31, "GND No.": "476F", "Name of the Tank": "Japanwaththa Spring", "N": 6.931761, "E": 80.775084, "Observation": "Two Wells are constructed  (1.2 m Dia.). A Well Located on public land. Used for drinking and bathing", "Description": "Construction of Gabion Wall (3 m x 2.5 m)\n\nSite preparation & setting out\n\nEarth excavation for foundation or quarry materials and haul the surplus materials up to 30m by Manually.\n\nSpreading , Levelling and Compacting Manually Using Standard Cast Iron S", "Amount (Rs.)": 110000, "photopath": "https://raw.githubusercontent.com/MWS003-GIS/MWS003-GIS.github.io/main/IWWRMP/Data/EXD/200_photo/MWS_163/IMG_20260116_104402 Japan waththa spring.jpg" }, "geometry": { "type": "Point", "coordinates": [ 80.775084, 6.931761 ] } }
]
}
