{"type":"FeatureCollection","name":"WSP","crs":{"type":"name","properties":{"name":"urn:ogc:def:crs:OGC:1.3:CRS84"}},"features":[
{"type":"Feature","properties":{"No":15,"GND No.":222,"Name of the Tank":"Well at the Gallinds Watta 2nd narrow road","N":7.299391,"E":80.648751,"Observation":"people ask protective net for well","Description":"Site Clearing\nProvide a 2x2 m net for the safety with standard L iron frame painted with rust proof paint. \nTyding up site after construction\nContingencies (10%)\n","Amount (Rs.)":58200.0,"photopath":"https://raw.githubusercontent.com/MWS003-GIS/MWS003-GIS.github.io/main/IWWRMP/Data/EXD/200_photo/MWS_117/Well at the Gallinds Watta 2nd narrow road.jpg"},"geometry":{"type":"Point","coordinates":[80.648751,7.299391]}},
{"type":"Feature","properties":{"No":16,"GND No.":225,"Name of the Tank":"Well at Mr. Anil Wickramarathna's land at 1st narrow road","N":7.320092,"E":80.6366662,"Observation":"people ask a protection wall and a net","Description":"Construction of 1.0m high 1:3:6 (40mm) cement concrete Retaining Wall \nSite preparation & setting out\nEarth excavation for foundation or quarry materials and haul the surplus materials up to 30m by Manually.\nPlywood form work including making, fix","Amount (Rs.)":315810.0025,"photopath":"https://raw.githubusercontent.com/MWS003-GIS/MWS003-GIS.github.io/main/IWWRMP/Data/EXD/200_photo/MWS_117/Well at Mr. Anil Wickramarathna_s land at 1st narrow road.jpg"},"geometry":{"type":"Point","coordinates":[80.6366662,7.320092]}},
{"type":"Feature","properties":{"No":17,"GND No.":225,"Name of the Tank":"Well near the Wiharawelyaya community hall at the Watagoda Paddy field road","N":7.319957,"E":80.636081,"Observation":"people ask a protective net and access road","Description":"Site clearing\nProvide a 2x2 m net for the safety with standard L iron frame painted with rust proof paint. \nTidying up\nContingencies 10%","Amount (Rs.)":56200.0,"photopath":"https://raw.githubusercontent.com/MWS003-GIS/MWS003-GIS.github.io/main/IWWRMP/Data/EXD/200_photo/MWS_117/Well near the Wiharawelyaya community hall at the Watagoda Paddy field road.jpg"},"geometry":{"type":"Point","coordinates":[80.636081,7.319957]}},
{"type":"Feature","properties":{"No":18,"GND No.":232,"Name of the Tank":"Area near the Mahaweli River bank","N":7.295086,"E":80.618417,"Observation":"river banks erosion observed, sand accumilation","Description":"Planting Bamboo trees as directed by MASL along the banks of the river Mahaweli for 1 km at 5m intervals in two rows arranged in zig zag pattern\nSupplying of Bamboo seeldings[to be planted in 5m x 5m grid]\nGround preparation & maintenance\nContingancies ","Amount (Rs.)":457600.0002,"photopath":"https://raw.githubusercontent.com/MWS003-GIS/MWS003-GIS.github.io/main/IWWRMP/Data/EXD/200_photo/MWS_117/Area near the Mahaweli River bank.jpg"},"geometry":{"type":"Point","coordinates":[80.618417,7.295086]}},
{"type":"Feature","properties":{"No":19,"GND No.":233,"Name of the Tank":"Upper area of 1st narrow road","N":7.282987,"E":80.614105,"Observation":"canal bank damages observed. no enough depth","Description":"Arecanut planting along possible locations at 1.5 m sapcing.\nSupplying of Arecanut seedlings (with five leaves)\nGround preparation & maintenance[7.0 L/days per 100.0m x 2.0m]\nContingancies 10%","Amount (Rs.)":33000.0,"photopath":"https://raw.githubusercontent.com/MWS003-GIS/MWS003-GIS.github.io/main/IWWRMP/Data/EXD/200_photo/MWS_117/Upper area of 1st narrow road.jpg"},"geometry":{"type":"Point","coordinates":[80.614105,7.282987]}},
{"type":"Feature","properties":{"No":20,"GND No.":233,"Name of the Tank":"Area near the Mahaweli River","N":7.285707,"E":80.609974,"Observation":"river banks erosion observed, sand accumilation","Description":"Planting Bamboo trees as directed by MASL along the banks of the river Mahaweli for 1 km at 5m intervals in two rows arranged in zig zag pattern\nSupplying of Bamboo seeldings[to be planted in 5m x 5m grid]\nGround preparation & maintenance\nContingancies ","Amount (Rs.)":457600.0002,"photopath":"https://raw.githubusercontent.com/MWS003-GIS/MWS003-GIS.github.io/main/IWWRMP/Data/EXD/200_photo/MWS_117/Area near the Mahaweli River.jpg"},"geometry":{"type":"Point","coordinates":[80.609974,7.285707]}},
{"type":"Feature","properties":{"No":21,"GND No.":236,"Name of the Tank":"Hathdessa well","N":7.295534,"E":80.623652,"Observation":"damaged the well and some people are trying to close it by putiing waste in to it ,but most of the people need it to repair and use .no proper way to go there","Description":"Preliminaries\nneed to repair the walls and reclean the area well\nCleaning of the well\nContingancies 10%","Amount (Rs.)":46200.0,"photopath":"https://raw.githubusercontent.com/MWS003-GIS/MWS003-GIS.github.io/main/IWWRMP/Data/EXD/200_photo/MWS_117/Handessa Well.jpg"},"geometry":{"type":"Point","coordinates":[80.623652,7.295534]}},
{"type":"Feature","properties":{"No":22,"GND No.":238,"Name of the Tank":"Wattaranthenna Pathaha","N":7.315128,"E":80.627112,"Observation":"good outer area but there one leak and damaged pathway","Description":"Preliminaries\nRepairs to walls and floor of the well\nReconstruction of path way\nContingancies 10%","Amount (Rs.)":26400.0,"photopath":"https://raw.githubusercontent.com/MWS003-GIS/MWS003-GIS.github.io/main/IWWRMP/Data/EXD/200_photo/MWS_117/wattaramthenna pathaga.jpg"},"geometry":{"type":"Point","coordinates":[80.627112,7.315128]}},
{"type":"Feature","properties":{"No":23,"GND No.":239,"Name of the Tank":"Mr. Nadun's house","N":7.303278,"E":80.638648,"Observation":"using by many peoples ,some damages in the outer covering","Description":"Preliminaries\nRepairs to walls and floor of the well\nContingancies 10%","Amount (Rs.)":13750.0,"photopath":"https://raw.githubusercontent.com/MWS003-GIS/MWS003-GIS.github.io/main/IWWRMP/Data/EXD/200_photo/MWS_117/Nadunge well.jpg"},"geometry":{"type":"Point","coordinates":[80.638648,7.303278]}},
{"type":"Feature","properties":{"No":24,"GND No.":239,"Name of the Tank":"Well in front of the Vidyartha Primary School","N":7.307665,"E":80.636303,"Observation":"many people are using when no water avilable,highly damaged outer areas , polluted water is mixing with damaged concrete walls of well","Description":"Preliminaries\nRepairs to walls and floor of the well\nPlanting Kumbuk plants around the well including purchasing transport and establishing on ground. \nContingancies 10%","Amount (Rs.)":38000.0,"photopath":"https://raw.githubusercontent.com/MWS003-GIS/MWS003-GIS.github.io/main/IWWRMP/Data/EXD/200_photo/MWS_117/well infront of vidyartha collage.jpg"},"geometry":{"type":"Point","coordinates":[80.636303,7.307665]}},
{"type":"Feature","properties":{"No":25,"GND No.":239,"Name of the Tank":"Public well near Mrs. Sujeewani Gunawardhana's house at Dhammadassi Mawatha","N":7.303154,"E":80.638887,"Observation":"not using much only near by sujiwas family is using now ,but when no water many people are using .no cover","Description":"Site clearing\nProvide a 2x2 m net for the safety with standard L iron frame painted with rust proof paint. \nTidying up\nContingencies 10%","Amount (Rs.)":56200.0,"photopath":"https://raw.githubusercontent.com/MWS003-GIS/MWS003-GIS.github.io/main/IWWRMP/Data/EXD/200_photo/MWS_117/well near sujiwa.jpg"},"geometry":{"type":"Point","coordinates":[80.638887,7.303154]}},
{"type":"Feature","properties":{"No":26,"GND No.":270,"Name of the Tank":"Wakara reservation","N":7.27149,"E":80.654088,"Observation":null,"Description":"Preliminaries\nPlanting Kumbuk plants around the well including purchasing transport and establishing on ground. \nContingancies 10%","Amount (Rs.)":4675.0,"photopath":"https://raw.githubusercontent.com/MWS003-GIS/MWS003-GIS.github.io/main/IWWRMP/Data/EXD/200_photo/MWS_117/wakara reservation spring (1).jpg"},"geometry":{"type":"Point","coordinates":[80.654088,7.27149]}},
{"type":"Feature","properties":{"No":27,"GND No.":270,"Name of the Tank":"Ihala Dalukgolla","N":7.27149,"E":80.654088,"Observation":null,"Description":"Preliminaries\nPlanting Kumbuk plants around the well including purchasing transport and establishing on ground. \nContingancies 10%","Amount (Rs.)":4675.0,"photopath":"https://raw.githubusercontent.com/MWS003-GIS/MWS003-GIS.github.io/main/IWWRMP/Data/EXD/200_photo/MWS_117/dalukgolla temple canal and pihilla (2).jpg"},"geometry":{"type":"Point","coordinates":[80.654088,7.27149]}},
{"type":"Feature","properties":{"No":28,"GND No.":270,"Name of the Tank":"Helgahathenna Galpihilla Dalukgolla Ihala","N":7.275192,"E":80.652552,"Observation":null,"Description":"Preliminaries\nPlanting Kumbuk plants around the well including purchasing transport and establishing on ground. \nSurveying and demarcating boundaries. \nContingancies 10%","Amount (Rs.)":21450.0,"photopath":"https://raw.githubusercontent.com/MWS003-GIS/MWS003-GIS.github.io/main/IWWRMP/Data/EXD/200_photo/MWS_117/galpihilla.jpg"},"geometry":{"type":"Point","coordinates":[80.652552,7.275192]}},
{"type":"Feature","properties":{"No":29,"GND No.":271,"Name of the Tank":"Spring near 54 house","N":7.269023,"E":80.66549,"Observation":"100 families used this spring.","Description":"Construction of a well\nConstruction of Concrete water storage tank of 20 cum - size internal  3mx3mx2.5\nSite preparation & setting out\nPlywood form work including making, fixing & removing for structure -05 uses\nCutting, Bending & Placing tor steel r","Amount (Rs.)":742500.0,"photopath":"https://raw.githubusercontent.com/MWS003-GIS/MWS003-GIS.github.io/main/IWWRMP/Data/EXD/200_photo/MWS_117/ulpatha 54 house (2).jpg"},"geometry":{"type":"Point","coordinates":[80.66549,7.269023]}},
{"type":"Feature","properties":{"No":30,"GND No.":273,"Name of the Tank":"Springs at Gangawela road","N":7.268932,"E":80.665574,"Observation":"no cover,","Description":"Construction of 1.5m high 1:3:6 (40mm) cement concrete Retaining Wall for 10 m\nSite preparation & setting out\nEarth excavation for foundation or quarry materials and haul the surplus materials up to 30m by Manually.\nPlywood form work including making,","Amount (Rs.)":497199.9975,"photopath":"https://raw.githubusercontent.com/MWS003-GIS/MWS003-GIS.github.io/main/IWWRMP/Data/EXD/200_photo/MWS_117/gagawela spring (2).jpg"},"geometry":{"type":"Point","coordinates":[80.665574,7.268932]}},
{"type":"Feature","properties":{"No":31,"GND No.":275,"Name of the Tank":"Mahaweli river bank","N":7.281013,"E":80.66659,"Observation":"canal bunds are eroded.","Description":"Preliminaries\nPlanting Kumbuk plants around the well including purchasing transport and establishing on ground. Distance between plants is 3.5 m\nContingancies 10%","Amount (Rs.)":104000.0,"photopath":"https://raw.githubusercontent.com/MWS003-GIS/MWS003-GIS.github.io/main/IWWRMP/Data/EXD/200_photo/MWS_117/mahaweli river (2).jpg"},"geometry":{"type":"Point","coordinates":[80.66659,7.281013]}}
]}