{
"type": "FeatureCollection",
"name": "DWS",
"crs": { "type": "name", "properties": { "name": "urn:ogc:def:crs:OGC:1.3:CRS84" } },
"features": [
{ "type": "Feature", "properties": { "No": 1, "GND No.": 424, "Scheme": "tube well located on Kanathtgha Street.", "N": 7.317072, "E": 80.608438, "Observation": "No proper drainage. Mixed crops can be observed arround the place.", "Description": "Earth excavation for foundation or quarry materials and haul the surplus materials up to 30m by Manually.\nSawn timber form work including making, fixing & removing for concrete canals at ground level -05 uses\n1:3:6 (40mm) concrete manual mix (volume ba", "Estimated Cost": 77000, "photopath": "https://raw.githubusercontent.com/MWS003-GIS/MWS003-GIS.github.io/main/IWWRMP/Data/EXD/200_photo/MWS_112_2/tube well located on Kanathtgha Street.jpg" }, "geometry": { "type": "Point", "coordinates": [ 80.608438, 7.317072 ] } },
{ "type": "Feature", "properties": { "No": 2, "GND No.": 427, "Scheme": "The Uggalla GN area, from Boomaluwa to Elagalla", "N": 7.312223, "E": 80.603803, "Observation": "no water for 4 houses", "Description": "Supplying of 2.3mm thick,2\" thread size (59.9mm avg.outside dia.)GI Pipe\nConnecting GI pipes with necessary fittings including laying / firmly fixed to the ground For providing valves etc..\nMiscellaneous\nContingencies 10%", "Estimated Cost": 770000, "photopath": "https://raw.githubusercontent.com/MWS003-GIS/MWS003-GIS.github.io/main/IWWRMP/Data/EXD/200_photo/MWS_112_2/uggalla water line (2).jpg" }, "geometry": { "type": "Point", "coordinates": [ 80.603803, 7.312223 ] } },
{ "type": "Feature", "properties": { "No": 3, "GND No.": 428, "Scheme": "Tube well Near the Grama Niladhari office", "N": 7.308349, "E": 80.618367, "Observation": "Located in a place where many people gather. Can be get water but it's hard due to damages in the internal tunnel and the tap. Rusted tunnel. Villagers said the in the disaster period most of the nearby villagers used this. But not properly working", "Description": "Repairs to the existing Tube Well  \nContingencies 10%\n", "Estimated Cost": 55000, "photopath": "https://raw.githubusercontent.com/MWS003-GIS/MWS003-GIS.github.io/main/IWWRMP/Data/EXD/200_photo/MWS_112_2/Tube well near Prajashalawa.jpg" }, "geometry": { "type": "Point", "coordinates": [ 80.618367, 7.308349 ] } },
{ "type": "Feature", "properties": { "No": 4, "GND No.": 431, "Scheme": "Near the Rehab Center of Priyanthi School", "N": 7.305932, "E": 80.621217, "Observation": "Missing the handle of the tube well .no water coming .entering road and premises damaged .", "Description": "Repairs to the existing Tube Well  \nContingencies 10%\n", "Estimated Cost": 55000, "photopath": "https://raw.githubusercontent.com/MWS003-GIS/MWS003-GIS.github.io/main/IWWRMP/Data/EXD/200_photo/MWS_112_2/Tube well near jayanthi school.jpg" }, "geometry": { "type": "Point", "coordinates": [ 80.621217, 7.305932 ] } },
{ "type": "Feature", "properties": { "No": 5, "GND No.": 431, "Scheme": "Tube well  located at the boundary of the Mada Patha", "N": 7.306841, "E": 80.620322, "Observation": "small amount of water is coming ,rusted pipes.", "Description": "Repairs to the existing Tube Well  \nContingencies 10%\n\n", "Estimated Cost": 55000, "photopath": "https://raw.githubusercontent.com/MWS003-GIS/MWS003-GIS.github.io/main/IWWRMP/Data/EXD/200_photo/MWS_112_2/Girabewatta well.jpg" }, "geometry": { "type": "Point", "coordinates": [ 80.620322, 7.306841 ] } },
{ "type": "Feature", "properties": { "No": 6, "GND No.": 431, "Scheme": "Ange well", "N": 7.303154, "E": 80.618744, "Observation": "according to the villagers very important to be repaired. Quality water can be seen .need a entering road and clear the premises.", "Description": "Clearing the Well\nWater Pump 2\" Dia ( Without operator)\nWorkmanship\nClearing the access road\nMiscellaneous  \nContingencies 10%\n", "Estimated Cost": 121000, "photopath": "https://raw.githubusercontent.com/MWS003-GIS/MWS003-GIS.github.io/main/IWWRMP/Data/EXD/200_photo/MWS_112_2/Ange well.jpg" }, "geometry": { "type": "Point", "coordinates": [ 80.618744, 7.303154 ] } },
{ "type": "Feature", "properties": { "No": 7, "GND No.": 431, "Scheme": "Janasavi well", "N": 7.299917, "E": 80.618247, "Observation": "not highly used", "Description": "Clearing the access road\nMiscellaneous  \nContingencies 10%\n", "Estimated Cost": 49500, "photopath": "https://raw.githubusercontent.com/MWS003-GIS/MWS003-GIS.github.io/main/IWWRMP/Data/EXD/200_photo/MWS_112_2/Janasavi well.jpg" }, "geometry": { "type": "Point", "coordinates": [ 80.618247, 7.299917 ] } },
{ "type": "Feature", "properties": { "No": 8, "GND No.": 433, "Scheme": "Tube well road", "N": 7.306273, "E": 80.607139, "Observation": "Currently operating well, used to provide drinking water to 50 families in GND. , outer surface corrosion can be seen, there are some leaks in the outer concrete surface.", "Description": "Repairs to the existing Tube Well  \nContingencies 10%\n  \n", "Estimated Cost": 55000, "photopath": "https://raw.githubusercontent.com/MWS003-GIS/MWS003-GIS.github.io/main/IWWRMP/Data/EXD/200_photo/MWS_112_2/tube well  (3).jpg" }, "geometry": { "type": "Point", "coordinates": [ 80.607139, 7.306273 ] } },
{ "type": "Feature", "properties": { "No": 9, "GND No.": 433, "Scheme": "public well near to tube well (new Project)", "N": 7.306401, "E": 80.607355, "Observation": "Inner parts are damage . over 50 families are used.", "Description": "Concreting the walls  \nContingencies 10%\n", "Estimated Cost": 55000, "photopath": "https://raw.githubusercontent.com/MWS003-GIS/MWS003-GIS.github.io/main/IWWRMP/Data/EXD/200_photo/MWS_112_2/well  (1).jpg" }, "geometry": { "type": "Point", "coordinates": [ 80.607355, 7.306401 ] } },
{ "type": "Feature", "properties": { "No": 10, "GND No.": 434, "Scheme": "Tube well in the Halpallegama Manwella", "N": 7.301222, "E": 80.603964, "Observation": "Currently not opening, A total 250 families this well in drought season, government land", "Description": "Repairs to the existing Tube Well  \nContingencies 10%\n", "Estimated Cost": 55000, "photopath": "https://raw.githubusercontent.com/MWS003-GIS/MWS003-GIS.github.io/main/IWWRMP/Data/EXD/200_photo/MWS_112_2/tube well  (1).jpg" }, "geometry": { "type": "Point", "coordinates": [ 80.603964, 7.301222 ] } },
{ "type": "Feature", "properties": { "No": 11, "GND No.": 442, "Scheme": "Pannagolla Pihilla", "N": 7.311078, "E": 80.59303, "Observation": "The tank using for bath not much damaged significantly. there was a no stock tank for drinking water. and also can not reach to spring. not proper pipeline also there. about 20 families used this", "Description": "Construction of Concrete water storage tank of 20 cum - size internal t 3mx3mx2.5\nExcavation in trenches less than 300mm width in normal earth average depth of not exceeding 1.0m from ground level inclusive of back filling, compacting and disposal of su", "Estimated Cost": 808500, "photopath": "https://raw.githubusercontent.com/MWS003-GIS/MWS003-GIS.github.io/main/IWWRMP/Data/EXD/200_photo/MWS_112_2/Pangolla Pihilla_4332.jpg" }, "geometry": { "type": "Point", "coordinates": [ 80.59303, 7.311078 ] } },
{ "type": "Feature", "properties": { "No": 12, "GND No.": 442, "Scheme": "Iriyagaha mula Pihilla", "N": 7.308494, "E": 80.596175, "Observation": "There is no proper pipeline for drainage. tank wall also not enough for bathing. exist tank not damaged", "Description": "Raising tank walls by 0.60m\nScarifying existing rock or concrete surface\nSawn timber form work including making, fixing & removing for concrete canals at ground level -05 uses\nSupplying and fixing M.S. dowels spliced and dovetailed with wedge at one e", "Estimated Cost": 116000, "photopath": "https://raw.githubusercontent.com/MWS003-GIS/MWS003-GIS.github.io/main/IWWRMP/Data/EXD/200_photo/MWS_112_2/iriyagahamulla Tank_4308.jpg" }, "geometry": { "type": "Point", "coordinates": [ 80.596175, 7.308494 ] } },
{ "type": "Feature", "properties": { "No": 13, "GND No.": 442, "Scheme": "Udugulwala gal anga kotasa", "N": 7.308955, "E": 80.596993, "Observation": "No proper pipe line system for stock tank. during rainy season muddy water come to tank. Villages separate two tank used to drinking and bathing. no water board pipeline here", "Description": "Excavation in trenches less than 300mm width in normal earth average depth of not exceeding 1.0m from ground level inclusive of back filling, compacting and disposal of surplus earth (Excavation  by Machine)\nSupplying & laying 50mm Dia PVC pipe line in", "Estimated Cost": 249400, "photopath": "https://raw.githubusercontent.com/MWS003-GIS/MWS003-GIS.github.io/main/IWWRMP/Data/EXD/200_photo/MWS_112_2/ududoolwala Canal_4298.jpg" }, "geometry": { "type": "Point", "coordinates": [ 80.596993, 7.308955 ] } },
{ "type": "Feature", "properties": { "No": 14, "GND No.": 443, "Scheme": "Bogahakanda Kidawelgolla area", "N": 7.301628, "E": 80.598069, "Observation": "currently  working, 5 families use it.", "Description": "Excavation in trenches less than 300mm width in normal earth average depth of not exceeding 1.0m from ground level inclusive of back filling, compacting and disposal of surplus earth (Excavation  by Machine)\nSupplying & laying 32mm Dia PVC pipe line in", "Estimated Cost": 156600, "photopath": "https://raw.githubusercontent.com/MWS003-GIS/MWS003-GIS.github.io/main/IWWRMP/Data/EXD/200_photo/MWS_112_2/kidawalgolla water resource.jpg" }, "geometry": { "type": "Point", "coordinates": [ 80.598069, 7.301628 ] } },
{ "type": "Feature", "properties": { "No": 15, "GND No.": 446, "Scheme": "Near the Rnthilaka Kade", "N": 7.303091, "E": 80.593581, "Observation": "The tubewell is currently in use, but needs to be renovated with the necessary equipment.", "Description": "Repairs to the existing Tube Well  \nContingencies 10%", "Estimated Cost": 55000, "photopath": "https://raw.githubusercontent.com/MWS003-GIS/MWS003-GIS.github.io/main/IWWRMP/Data/EXD/200_photo/MWS_112_2/Seewalikanda tube well.jpg" }, "geometry": { "type": "Point", "coordinates": [ 80.593581, 7.303091 ] } },
{ "type": "Feature", "properties": { "No": 16, "GND No.": 450, "Scheme": "Samagi Mawatha (Kannali adda)", "N": 7.322138, "E": 80.588755, "Observation": "About 30 families used but pipes is broken", "Description": "Repair the existing pipe line  \nContingencies 10%", "Estimated Cost": 55000, "photopath": "Not_Available" }, "geometry": { "type": "Point", "coordinates": [ 80.588755, 7.322138 ] } },
{ "type": "Feature", "properties": { "No": 17, "GND No.": 450, "Scheme": "tube well in the Goluwawa road", "N": 7.323956, "E": 80.588114, "Observation": "currently in use", "Description": "Repairs to the existing Tube Well  \nContingencies 10%  \n", "Estimated Cost": 27500, "photopath": "https://raw.githubusercontent.com/MWS003-GIS/MWS003-GIS.github.io/main/IWWRMP/Data/EXD/200_photo/MWS_112_2/mapamadulla tube well.jpg" }, "geometry": { "type": "Point", "coordinates": [ 80.588114, 7.323956 ] } }
]
}
