{
"type": "FeatureCollection",
"name": "Landslides",
"crs": { "type": "name", "properties": { "name": "urn:ogc:def:crs:OGC:1.3:CRS84" } },
"features": [
{ "type": "Feature", "properties": { "No.": 1, "GN Division No.": 421, "GN Division": "Wegiriya", "Landslides": "Lansliding - Rajagiriya Hirikappetiya Waththa", "N": 7.31379, "E": 80.613738, "NBRO Recommendation N/A": "Needs NBRO concern", "Proposed Measures": "Follow recommendations of NBRO having consulted", "photopath": null }, "geometry": { "type": "Point", "coordinates": [ 80.613738, 7.31379 ] } },
{ "type": "Feature", "properties": { "No.": 2, "GN Division No.": 458, "GN Division": "Mahathenna", "Landslides": "Landsliding - Kiramanakanda", "N": 7.303884, "E": 80.586345, "NBRO Recommendation N/A": "NBRO is aware", "Proposed Measures": "Alternative lands should be provided.", "photopath": "https://raw.githubusercontent.com/MWS003-GIS/MWS003-GIS.github.io/main/IWWRMP/Data/EXD/200_photo/MWS_112_2/kiramakanda.jpg" }, "geometry": { "type": "Point", "coordinates": [ 80.586345, 7.303884 ] } },
{ "type": "Feature", "properties": { "No.": 3, "GN Division No.": 429, "GN Division": "Gohagoda", "Landslides": "1. Landsliding - Dharma Vijaya Maha Vidyalaya", "N": 7.303276, "E": 80.613283, "NBRO Recommendation N/A": "Needs NBRO concern", "Proposed Measures": "Follow recommendations of NBRO having consulted.", "photopath": "https://raw.githubusercontent.com/MWS003-GIS/MWS003-GIS.github.io/main/IWWRMP/Data/EXD/200_photo/MWS_112_2/darmavijaya maha vidyalaya.jpg" }, "geometry": { "type": "Point", "coordinates": [ 80.613283, 7.303276 ] } },
{ "type": "Feature", "properties": { "No.": 4, "GN Division No.": 429, "GN Division": "Gohagoda", "Landslides": "2. Landsliding - 482, Mr. Suranimala's land", "N": 7.306896, "E": 80.614782, "NBRO Recommendation N/A": "Needs NBRO concern", "Proposed Measures": "Follow recommendations of NBRO having consulted", "photopath": "https://raw.githubusercontent.com/MWS003-GIS/MWS003-GIS.github.io/main/IWWRMP/Data/EXD/200_photo/MWS_112_2/Suranimala_s house.jpg" }, "geometry": { "type": "Point", "coordinates": [ 80.614782, 7.306896 ] } },
{ "type": "Feature", "properties": { "No.": 5, "GN Division No.": 435, "GN Division": "Haloluwa", "Landslides": "1. Landsliding - slope area in the Katarangala Viharaya", "N": 7.295507, "E": 80.604091, "NBRO Recommendation N/A": "Needs NBRO concern", "Proposed Measures": "Slided soils should be removed and soil conservation is needed. Follow recommendations of NBRO having consulted.", "photopath": "https://raw.githubusercontent.com/MWS003-GIS/MWS003-GIS.github.io/main/IWWRMP/Data/EXD/200_photo/MWS_112_2/katarangala viharaya.jpg" }, "geometry": { "type": "Point", "coordinates": [ 80.604091, 7.295507 ] } },
{ "type": "Feature", "properties": { "No.": 6, "GN Division No.": 435, "GN Division": "Haloluwa", "Landslides": "2. Landsliding  - Ranawiru Mawatha area", "N": 7.292271, "E": 80.613619, "NBRO Recommendation N/A": "Needs NBRO concern", "Proposed Measures": "Establish a concreat wall (20 m x 3 m) and fill with soil. Follow recommendations of NBRO having consulted.", "photopath": "https://raw.githubusercontent.com/MWS003-GIS/MWS003-GIS.github.io/main/IWWRMP/Data/EXD/200_photo/MWS_112_2/Ranaviru mavatha.jpg" }, "geometry": { "type": "Point", "coordinates": [ 80.613619, 7.292271 ] } },
{ "type": "Feature", "properties": { "No.": 7, "GN Division No.": 435, "GN Division": "Haloluwa", "Landslides": "3. Soil erosion - Haloluwa Primary Vidyalaya area", "N": 7.293842, "E": 80.605749, "NBRO Recommendation N/A": "Needs NBRO concern", "Proposed Measures": "Water flows needs improvements. Establish a retaining wall (10 m x 3 m). Follow recommendations of NBRO having consulted.", "photopath": "https://raw.githubusercontent.com/MWS003-GIS/MWS003-GIS.github.io/main/IWWRMP/Data/EXD/200_photo/MWS_112_2/Haloluwa primary collage.jpg" }, "geometry": { "type": "Point", "coordinates": [ 80.605749, 7.293842 ] } },
{ "type": "Feature", "properties": { "No.": 8, "GN Division No.": 430, "GN Division": "Narangaskumbura", "Landslides": "Road erosion - Kurukovila Road", "N": 7.301658, "E": 80.614013, "NBRO Recommendation N/A": "Needs NBRO concern", "Proposed Measures": "Follow recommendations of NBRO having consulted", "photopath": null }, "geometry": { "type": "Point", "coordinates": [ 80.614013, 7.301658 ] } },
{ "type": "Feature", "properties": { "No.": 9, "GN Division No.": 449, "GN Division": "Dadahogama", "Landslides": "Risk of landsliding - Kumburu Ella, near Wijesiri Mawatha, Ranathunga Kadaya", "N": 7.322175, "E": 80.595827, "NBRO Recommendation N/A": "Needs NBRO concern", "Proposed Measures": "Some conservation measures like retaining walls are needed. Attention of the Local Government is sought.", "photopath": "https://raw.githubusercontent.com/MWS003-GIS/MWS003-GIS.github.io/main/IWWRMP/Data/EXD/200_photo/MWS_112_2/Kumburu Ella, near Wijesiri Mawatha, Ranathunga Kadaya.jpg" }, "geometry": { "type": "Point", "coordinates": [ 80.595827, 7.322175 ] } },
{ "type": "Feature", "properties": { "No.": 10, "GN Division No.": 419, "GN Division": "Uduwawala East", "Landslides": "Landsliding - Landslide near Mr. Janaka Priyantha Kumara's home", "N": 7.332889, "E": 80.610744, "NBRO Recommendation N/A": "Needs NBRO concern", "Proposed Measures": "Follow recommendations of NBRO having consulted", "photopath": "https://raw.githubusercontent.com/MWS003-GIS/MWS003-GIS.github.io/main/IWWRMP/Data/EXD/200_photo/MWS_112_2/Landslide near Mr.Janaka Priyantha Kumara_s home _1.jpg" }, "geometry": { "type": "Point", "coordinates": [ 80.610744, 7.332889 ] } },
{ "type": "Feature", "properties": { "No.": 11, "GN Division No.": 424, "GN Division": "Senarathgama South", "Landslides": "1. Erosion of the road - near the Siridhamma Mawathe Temple pathway", "N": 7.317072, "E": 80.608438, "NBRO Recommendation N/A": "NBRO is aware", "Proposed Measures": "Follow the recommendations of NBRO and the guidance of Local Government is needed.", "photopath": "https://raw.githubusercontent.com/MWS003-GIS/MWS003-GIS.github.io/main/IWWRMP/Data/EXD/200_photo/MWS_112_2/near the Siridhamma Mawathe Temple pathway & erosion the other sub road.jpg" }, "geometry": { "type": "Point", "coordinates": [ 80.608438, 7.317072 ] } },
{ "type": "Feature", "properties": { "No.": 12, "GN Division No.": 424, "GN Division": "Senarathgama South", "Landslides": "2. Erosion of the road - near the Mr. Saliya's home in the Bodhiraja Mawatha", "N": 7.320956, "E": 80.605403, "NBRO Recommendation N/A": "NBRO is aware", "Proposed Measures": "Follow the recommendations of NBRO and the guidance of Local Government is needed.", "photopath": "https://raw.githubusercontent.com/MWS003-GIS/MWS003-GIS.github.io/main/IWWRMP/Data/EXD/200_photo/MWS_112_2/Erosion of the road - near the Mr. Saliya's home.jpg" }, "geometry": { "type": "Point", "coordinates": [ 80.605403, 7.320956 ] } }
]
}
