{"type":"FeatureCollection","name":"SR","crs":{"type":"name","properties":{"name":"urn:ogc:def:crs:OGC:1.3:CRS84"}},"features":[
{"type":"Feature","properties":{"No":1,"GND No.":414,"Scheme":"Canal flowing from Dodamgaspela and connecting to the Inigala canal of Mawi Deniya","N":7.324194,"E":80.617773,"Observation":"Canal banks are eroded. No plantation in reservation area. 600mm*600mm existing u-drain.","Description":"Supply and install 600 mm * 600 mm, 100 m long U drains along the broken parts of the canal\nVegetative cover improving for narrow strips (1.5m?2.0m wide) with Arecanut seedlings at 1.5m spacing in 2 rows, Betel plants VP at 3m spacing in 1 row, Green gr","Amount (Rs.)":910800,"photopath":"https://raw.githubusercontent.com/MWS003-GIS/MWS003-GIS.github.io/main/IWWRMP/Data/EXD/200_photo/MWS_112_2/Canal flowing from Dodamgaspela and connecting to the Inigala canal of Mawi Deniya_1.jpg"},"geometry":{"type":"Point","coordinates":[80.617773,7.324194]}},
{"type":"Feature","properties":{"No":2,"GND No.":420,"Scheme":"Theboundry of Mahaweli River in the  Polwatta division","N":7.312639,"E":80.623862,"Observation":"The banks have been eroded. as well as garbage piled up.","Description":"Mark the reservation around the land\nReplanting bamboo species around the river banks\nDisplay notice boards to stop waste accumulation\nContingencies (10%)","Amount (Rs.)":418000,"photopath":"Not_Available"},"geometry":{"type":"Point","coordinates":[80.623862,7.312639]}},
{"type":"Feature","properties":{"No":3,"GND No.":422,"Scheme":"The route of canal from Inigala to Paragaha Kumbura.","N":7.322288,"E":80.620354,"Observation":"Bank erosion near paddy fields, waste deposited in the canal. The present rubble wall is damaged, water is not used for considerable cultivation of paddy or seasonal crops.","Description":"Vegetative cover improving for narrow strips (1.5m,2.0m wide) with Arecanut seedlings at 1.5m spacing in 2 rows, Betel plants VP at 3m spacing in 1 row, Green gram as a cover crop - Along the river bank 100 m length","Amount (Rs.)":105600,"photopath":"https://raw.githubusercontent.com/MWS003-GIS/MWS003-GIS.github.io/main/IWWRMP/Data/EXD/200_photo/MWS_112_2/paragahakubura canal (1).jpg"},"geometry":{"type":"Point","coordinates":[80.620354,7.322288]}},
{"type":"Feature","properties":{"No":4,"GND No.":422,"Scheme":"The canal starting from Gorakagahamula Amuna","N":7.314263,"E":80.614739,"Observation":"Bank erosion occurs in several locations. paddy field damage due to bank erosion. 15 arches of paddy land","Description":"Increase the anicut wall height by 0.5 m and at the same time increase the anicut length up to 5 m\nContingencies (10%)","Amount (Rs.)":220000,"photopath":"https://raw.githubusercontent.com/MWS003-GIS/MWS003-GIS.github.io/main/IWWRMP/Data/EXD/200_photo/MWS_112_2/gorakagahamula anicat (2).jpg"},"geometry":{"type":"Point","coordinates":[80.614739,7.314263]}},
{"type":"Feature","properties":{"No":5,"GND No.":422,"Scheme":"Nayindeniya canal route","N":7.31384,"E":80.617372,"Observation":"Bank erosion at the road end and road sinking. 4 archers of paddy land. Canal is blocked due to earth slip in several locations.","Description":"Construction of 1.5m high 1:3:6 (40mm) cement concrete Retaining Wall\nStream / canal  reservation protection by earth filling of  strip   of 1.5m to 2m wide  and average Depth of 0.5m - Along the damage parts of the canal\nContingencies (10%)","Amount (Rs.)":676995,"photopath":"https://raw.githubusercontent.com/MWS003-GIS/MWS003-GIS.github.io/main/IWWRMP/Data/EXD/200_photo/MWS_112_2/naindeniya canal (2).jpg"},"geometry":{"type":"Point","coordinates":[80.617372,7.31384]}},
{"type":"Feature","properties":{"No":6,"GND No.":423,"Scheme":"The canal boundary between Kondadeniya and Wegiriya division","N":7.31384,"E":80.613668,"Observation":"Paddy lands are flooding due to rainwater. Canal boundaries are eroded in several locations. private lands. The path of the canal has changed. 6 acers","Description":"Construction of 1.0m high 1:3:6 (40mm) cement concrete Retaining Wall\nStream / canal  reservation protection by earth filling of  strip   of 1.5m to 2m wide  and average Depth of 0.5m - Along the damage parts of the canal\nContingencies (10%)","Amount (Rs.)":1499190,"photopath":"https://raw.githubusercontent.com/MWS003-GIS/MWS003-GIS.github.io/main/IWWRMP/Data/EXD/200_photo/MWS_112_2/weegiriya retain wall (1).jpg"},"geometry":{"type":"Point","coordinates":[80.613668,7.31384]}},
{"type":"Feature","properties":{"No":7,"GND No.":426,"Scheme":"Udadeniyayaya canal","N":7.319011,"E":80.602541,"Observation":"Accumulated garbage in the canal. No canal lining for 300m Lenth towards paddy fields. Has 600mm*600mm u-drain for 300m length","Description":"Supply and install 600 mm * 600 mm, 300 m long U drains along the broken parts of the canal\nVegetative cover improving for narrow strips (1.5m?2.0m wide) with Arecanut seedlings at 1.5m spacing in 2 rows, Betel plants VP at 3m spacing in 1 row, Green gr","Amount (Rs.)":1130800,"photopath":"https://raw.githubusercontent.com/MWS003-GIS/MWS003-GIS.github.io/main/IWWRMP/Data/EXD/200_photo/MWS_112_2/Udadeniyayaya canel_1.jpg"},"geometry":{"type":"Point","coordinates":[80.602541,7.319011]}},
{"type":"Feature","properties":{"No":8,"GND No.":429,"Scheme":"The boundary of the canal to Atupolathenna field in the Kumara Atupola Abagahathenna area","N":7.305154,"E":80.618891,"Observation":"due to a big landslide the canal has been blocked,becouse of the blockage waterflow is going trough the paddy filed it has been damaged. Sand has been accumulated in the fileds.10 ac is cultivating in using this canal.","Description":"Restore the Existing Canal\nClean the canal and remove the soil\nCanals reservation protection by concrete lining  For  125mm thick , 0.5m  wide  and 0.4m high canal, 200 m long ?double banking - For the broken parts of the canal\nContingencies (10%)","Amount (Rs.)":4505600,"photopath":"https://raw.githubusercontent.com/MWS003-GIS/MWS003-GIS.github.io/main/IWWRMP/Data/EXD/200_photo/MWS_112_2/kumara atupolage abagahanga velayaye atupolathenna vel yayata maim vana ela.jpg"},"geometry":{"type":"Point","coordinates":[80.618891,7.305154]}},
{"type":"Feature","properties":{"No":9,"GND No.":429,"Scheme":"Anga kamatha canal","N":7.306473,"E":80.615672,"Observation":"canal has been damaged and blocked .","Description":"Canal reservation protection by concrete lining  For  100mm thick , 0.3m  wide  and 0.3m high canal double banking - For the broken parts of the canal","Amount (Rs.)":698500,"photopath":"https://raw.githubusercontent.com/MWS003-GIS/MWS003-GIS.github.io/main/IWWRMP/Data/EXD/200_photo/MWS_112_2/Anga kamatha ela.jpg"},"geometry":{"type":"Point","coordinates":[80.615672,7.306473]}},
{"type":"Feature","properties":{"No":10,"GND No.":429,"Scheme":"The downstream bund of the Wagale paddy felid.","N":7.305593,"E":80.615522,"Observation":"high damage in a place where tree canals meet together in paddy .highly damaged bunds and water overflow to the paddy.","Description":"Construct the damage parts of the canal in the Tee section\nContingencies (10%)","Amount (Rs.)":110000,"photopath":"https://raw.githubusercontent.com/MWS003-GIS/MWS003-GIS.github.io/main/IWWRMP/Data/EXD/200_photo/MWS_112_2/vagale paddy field e danda & canal.jpg"},"geometry":{"type":"Point","coordinates":[80.615522,7.305593]}},
{"type":"Feature","properties":{"No":11,"GND No.":429,"Scheme":"The canal in the Mr. Jinasena paddy felid","N":7.304085,"E":80.616352,"Observation":"Dammed the bunds of the cannel due to high depth and slope of the bunds","Description":"Clean the canal \nCanals reservation protection by concrete lining  For  125mm thick , 0.5m  wide  and 0.4m high canal, 200 m long ?double banking - For the broken parts of the canal\nContingencies (10%)","Amount (Rs.)":1135475,"photopath":"https://raw.githubusercontent.com/MWS003-GIS/MWS003-GIS.github.io/main/IWWRMP/Data/EXD/200_photo/MWS_112_2/canal in jinasenas field.jpg"},"geometry":{"type":"Point","coordinates":[80.616352,7.304085]}},
{"type":"Feature","properties":{"No":12,"GND No.":429,"Scheme":"The canal located in the Meda pala kumburu yaye","N":7.306435,"E":80.615784,"Observation":"Highly damaged the bund of the canal so its treated to the paddy filed to be damaged and the electric pole. Cultivating banana is also damaging the bund strength .2 ac cultivation","Description":"Construction of a 0.6 m high, 0.9 m wide and 50 m long concrete wall for the damage parts of the canal bund\nContingencies (10%)","Amount (Rs.)":110000,"photopath":"https://raw.githubusercontent.com/MWS003-GIS/MWS003-GIS.github.io/main/IWWRMP/Data/EXD/200_photo/MWS_112_2/medapela ela.jpg"},"geometry":{"type":"Point","coordinates":[80.615784,7.306435]}},
{"type":"Feature","properties":{"No":13,"GND No.":429,"Scheme":"Siyambala aththa Welyaye common cultivated plot & canal","N":7.304084,"E":80.618184,"Observation":"2.5 ac land is cultivated using this .highly damaged the bunds and the canal has beed widened to the damaged canal water is coming to the plot","Description":"Construction of a 50 m long concrete wall for the damage parts of the canal bund\nContingencies (10%)","Amount (Rs.)":11000000,"photopath":"https://raw.githubusercontent.com/MWS003-GIS/MWS003-GIS.github.io/main/IWWRMP/Data/EXD/200_photo/MWS_112_2/canal near siyabala atta wel yaye kamath.jpg"},"geometry":{"type":"Point","coordinates":[80.618184,7.304084]}},
{"type":"Feature","properties":{"No":14,"GND No.":430,"Scheme":"Aralupotha","N":7.299514,"E":80.615223,"Observation":"Canal blocked and damaged due to landslides and bank erosion. Water flooding to the paddy fields.","Description":"Construction of 1.0m high 1:3:6 (40mm) cement concrete Retaining Wall -For the damage parts of the canal","Amount (Rs.)":5280000,"photopath":"https://raw.githubusercontent.com/MWS003-GIS/MWS003-GIS.github.io/main/IWWRMP/Data/EXD/200_photo/MWS_112_2/Aralupotha ela border.jpg"},"geometry":{"type":"Point","coordinates":[80.615223,7.299514]}},
{"type":"Feature","properties":{"No":15,"GND No.":430,"Scheme":"Kurukovila","N":7.301784,"E":80.613934,"Observation":"Damaged the canal wall and road in 20 m length.","Description":"Construction of 1.0m high 1:3:6 (40mm) cement concrete Retaining Wall -For the damage parts of the canal","Amount (Rs.)":1320000,"photopath":"https://raw.githubusercontent.com/MWS003-GIS/MWS003-GIS.github.io/main/IWWRMP/Data/EXD/200_photo/MWS_112_2/Kurukovila canal.jpg"},"geometry":{"type":"Point","coordinates":[80.613934,7.301784]}},
{"type":"Feature","properties":{"No":16,"GND No.":435,"Scheme":"Mahayaya canal","N":7.294409,"E":80.606602,"Observation":"Damaged canal bunds in several places. No cultivation is done always but some people are cultivation time to time. Total 8 ac is cultivating but not continuously.","Description":"Paving available stone in the river banks and Planting trees\nDry rubble packing (with locally found rubble, size over 225mm )-Along the river banks\nReplanting bamboo species around the river bank \nMiscellaneous\nContingencies (10%)","Amount (Rs.)":544500,"photopath":"https://raw.githubusercontent.com/MWS003-GIS/MWS003-GIS.github.io/main/IWWRMP/Data/EXD/200_photo/MWS_112_2/Maha yaya ela.jpg"},"geometry":{"type":"Point","coordinates":[80.606602,7.294409]}},
{"type":"Feature","properties":{"No":17,"GND No.":437,"Scheme":"Hamatagoda through Uggalla on the right side. (Located in Gannoruwa West)","N":7.312205,"E":80.603514,"Observation":"bank erosion in several locations","Description":"Planting Trees\nVegetative cover improving for narrow strips (1.5m?2.0m wide) with Arecanut seedlings at 1.5m spacing in 2 rows, Betel plants VP at 3m spacing in 1 row, Green gram as a cover crop along the errored parts of the canal","Amount (Rs.)":686400,"photopath":"https://raw.githubusercontent.com/MWS003-GIS/MWS003-GIS.github.io/main/IWWRMP/Data/EXD/200_photo/MWS_112_2/uggalla to hamangoda canal (2).jpg"},"geometry":{"type":"Point","coordinates":[80.603514,7.312205]}},
{"type":"Feature","properties":{"No":18,"GND No.":440,"Scheme":"Gamawela Pitala Road (Located in Kulugammana)","N":7.2901383,"E":80.6014075,"Observation":"There are about 2km of canals. The canal is overgrown with weeds. The canal bank is broken in some places. Water from the broken places flows into the paddy fields.","Description":"Canal reservation protection by concrete lining  For  100mm thick , 0.3m  wide  and 0.3m high canal double banking - For the broken parts of the canal\nVegetative cover improving for narrow strips (1.5m?2.0m wide) with Arecanut seedlings at 1.5m spacing","Amount (Rs.)":1712150,"photopath":"https://raw.githubusercontent.com/MWS003-GIS/MWS003-GIS.github.io/main/IWWRMP/Data/EXD/200_photo/MWS_112_2/Pitawela Canal_4250.jpg"},"geometry":{"type":"Point","coordinates":[80.6014075,7.2901383]}},
{"type":"Feature","properties":{"No":19,"GND No.":441,"Scheme":"The Mahaweli River reservation & Mahaweli river","N":7.286191,"E":80.606889,"Observation":"Very severe damage to the river bank and lands nearby. No clearly demarcated river banks. Damage to the constructions in the reservation areas. High garbage accumulation with the flood conditions.","Description":"Planting Bamboo Trees and Clean Around the Canal\nDisplay notice boards to prevent waste dispose into the stream\nReplanting bamboo species around the river bank\nDemarcate the boundaries\nDisplay notice boards to prevent sand mining\nContingencies (10%)","Amount (Rs.)":473000,"photopath":"https://raw.githubusercontent.com/MWS003-GIS/MWS003-GIS.github.io/main/IWWRMP/Data/EXD/200_photo/MWS_112_2/Mahaveli river.jpg"},"geometry":{"type":"Point","coordinates":[80.606889,7.286191]}},
{"type":"Feature","properties":{"No":20,"GND No.":434,"Scheme":"Constructing  canal near to Mr. U.H Gunathilaka's home to Gatane yaaya","N":7.301788,"E":80.603528,"Observation":"45 arches paddy cultivation, The canal bank is eroded in several locations","Description":"Canal reservation protection by concrete lining  For  100mm thick , 0.3m  wide  and 0.3m high canal double banking - For the broken parts of the canal\nVegetative cover improving for narrow strips (1.5m,2.0m wide) with Arecanut seedlings at 1.5m spacing","Amount (Rs.)":1058750,"photopath":"https://raw.githubusercontent.com/MWS003-GIS/MWS003-GIS.github.io/main/IWWRMP/Data/EXD/200_photo/MWS_112_2/UH gunathilaka canal (1).jpg"},"geometry":{"type":"Point","coordinates":[80.603528,7.301788]}},
{"type":"Feature","properties":{"No":21,"GND No.":434,"Scheme":"Constructing the slide wall near Halpallegama gatabe paddy felid","N":7.300469,"E":80.603812,"Observation":"bank erosion in several locationses,40 families","Description":"Construction of 1.0m high 1:3:6 (40mm) cement concrete Retaining Wall -For the damage parts of the canal\nVegetative cover improving for narrow strips (1.5m?2.0m wide) with Arecanut seedlings at 1.5m spacing in 2 rows, Betel plants VP at 3m spacing in 1","Amount (Rs.)":1742400,"photopath":"https://raw.githubusercontent.com/MWS003-GIS/MWS003-GIS.github.io/main/IWWRMP/Data/EXD/200_photo/MWS_112_2/paddy field concerate wall.jpg"},"geometry":{"type":"Point","coordinates":[80.603812,7.300469]}},
{"type":"Feature","properties":{"No":22,"GND No.":442,"Scheme":"Udadulwala","N":7.31055,"E":80.594993,"Observation":"Bank erosion in several places. When rainy season water flooding to the paddy fields. already arecunt planting canal bank where some places.","Description":"Construction of 1.0m high 1:3:6 (40mm) cement concrete Retaining Wall -For the damage parts of the canal","Amount (Rs.)":1320000,"photopath":"https://raw.githubusercontent.com/MWS003-GIS/MWS003-GIS.github.io/main/IWWRMP/Data/EXD/200_photo/MWS_112_2/ududoolwala Canal_4298.jpg"},"geometry":{"type":"Point","coordinates":[80.594993,7.31055]}},
{"type":"Feature","properties":{"No":23,"GND No.":443,"Scheme":"Ambe kumbura yaye canal route","N":7.308335,"E":80.599447,"Observation":"bank erosion in both side","Description":"Construction of 1.0m high 1:3:6 (40mm) cement concrete Retaining Wall -To extend the existing wall","Amount (Rs.)":1320000,"photopath":"https://raw.githubusercontent.com/MWS003-GIS/MWS003-GIS.github.io/main/IWWRMP/Data/EXD/200_photo/MWS_112_2/arabekubura yaya canal.jpg"},"geometry":{"type":"Point","coordinates":[80.599447,7.308335]}},
{"type":"Feature","properties":{"No":24,"GND No.":443,"Scheme":"Bathala Kotuwa Kumburu Yaye Canel route","N":7.304038,"E":80.59698,"Observation":"3 archers and bank erosion in both sides.","Description":"Vegetative cover improving for narrow strips (1.5m?2.0m wide) with Arecanut seedlings at 1.5m spacing in 2 rows, Betel plants VP at 3m spacing in 1 row, Green gram as a cover crop along the errored parts of the canal","Amount (Rs.)":369600,"photopath":"https://raw.githubusercontent.com/MWS003-GIS/MWS003-GIS.github.io/main/IWWRMP/Data/EXD/200_photo/MWS_112_2/bathalekuburayaya cana.jpg"},"geometry":{"type":"Point","coordinates":[80.59698,7.304038]}},
{"type":"Feature","properties":{"No":25,"GND No.":443,"Scheme":"Galapitagamamedda canal route","N":7.29736,"E":80.605042,"Observation":"bank erosion in both side , 10 archers,but currently not cultivating","Description":"Vegetative cover improving for narrow strips (1.5m?2.0m wide) with Arecanut seedlings at 1.5m spacing in 2 rows, Betel plants VP at 3m spacing in 1 row, Green gram as a cover crop along the errored parts of the canal","Amount (Rs.)":158400,"photopath":"https://raw.githubusercontent.com/MWS003-GIS/MWS003-GIS.github.io/main/IWWRMP/Data/EXD/200_photo/MWS_112_2/galapitiyaya canal (1).jpg"},"geometry":{"type":"Point","coordinates":[80.605042,7.29736]}},
{"type":"Feature","properties":{"No":26,"GND No.":445,"Scheme":"Halmalpela canal route","N":7.301711,"E":80.58851,"Observation":"Canal banks are eroded. canal is blocked from several places. No  protective plants in reservation","Description":"Clean the area around the canal\nSupply and install 600 mm * 600 mm, 300 m long U drains along the broken parts of the canal\nContingencies (10%)","Amount (Rs.)":566500,"photopath":"https://raw.githubusercontent.com/MWS003-GIS/MWS003-GIS.github.io/main/IWWRMP/Data/EXD/200_photo/MWS_112_2/Halmalpela canel route_1.jpg"},"geometry":{"type":"Point","coordinates":[80.58851,7.301711]}},
{"type":"Feature","properties":{"No":27,"GND No.":445,"Scheme":"Galpela anicut","N":7.298732,"E":80.592581,"Observation":"Anicut and canal has two different elevations so water is not flowing expected direction and the canal has blocked from several places.","Description":"Increase the anicut wall height by 0.6 m  (3m long and 600mm wide)\nClean around the canal and Re aline the canal for 200 m length\nContingencies (10%)","Amount (Rs.)":253000,"photopath":"https://raw.githubusercontent.com/MWS003-GIS/MWS003-GIS.github.io/main/IWWRMP/Data/EXD/200_photo/MWS_112_2/Galpela anicut_1.jpg"},"geometry":{"type":"Point","coordinates":[80.592581,7.298732]}},
{"type":"Feature","properties":{"No":28,"GND No.":445,"Scheme":"Maha Canel","N":7.301431,"E":80.588491,"Observation":"Existing side planks for 500m long. several places has full and partial damages","Description":"Construction of 2.0m high 1:3:6 (40mm) cement concrete Retaining Wall -For the damage parts of the canal\nVegetative cover improving for narrow strips (1.5m?2.0m wide) with Arecanut seedlings at 1.5m spacing in 2 rows, Betel plants VP at 3m spacing in 1","Amount (Rs.)":4422550,"photopath":"https://raw.githubusercontent.com/MWS003-GIS/MWS003-GIS.github.io/main/IWWRMP/Data/EXD/200_photo/MWS_112_2/Maha Canel_1.jpg"},"geometry":{"type":"Point","coordinates":[80.588491,7.301431]}},
{"type":"Feature","properties":{"No":29,"GND No.":447,"Scheme":"Pitawela canal","N":7.321159,"E":80.587842,"Observation":"bank erosion in one side of the canal. Not cultivating trees on sides of canal. Bottom of the canal concreted. There is a stone on one side. There are about 15 acres of paddy field, but some parts are not cultivated","Description":"Canal reservation protection by concrete lining  For  100mm thick , 0.3m  wide  and 0.3m high canal double banking - For the broken parts of the canal\nVegetative cover improving for narrow strips (1.5m?2.0m wide) with Arecanut seedlings at 1.5m spacing","Amount (Rs.)":2407900,"photopath":"Not_Available"},"geometry":{"type":"Point","coordinates":[80.587842,7.321159]}},
{"type":"Feature","properties":{"No":30,"GND No.":447,"Scheme":"from Lolandeniye Meemassaradeniya canal","N":7.315426,"E":80.597078,"Observation":"Can not find exact place of the canal. because long time ago not cultivated.","Description":"Canal Renovation\nContingencies (10%)","Amount (Rs.)":110000,"photopath":"Not_Available"},"geometry":{"type":"Point","coordinates":[80.597078,7.315426]}},
{"type":"Feature","properties":{"No":31,"GND No.":447,"Scheme":"Restoration Denakumbura canal","N":7.318012,"E":80.588616,"Observation":"Bank erosion in both sides of canal bank. Water flooding to the paddy fields. Not properly maintain canal. total about 05 arces paddy field.","Description":"Canal reservation protection by concrete lining  For  100mm thick , 0.3m  wide  and 0.3m high canal double banking - For the broken parts of the canal","Amount (Rs.)":1397000,"photopath":"Not_Available"},"geometry":{"type":"Point","coordinates":[80.588616,7.318012]}},
{"type":"Feature","properties":{"No":32,"GND No.":450,"Scheme":"Kithul anga kumbura","N":7.322127,"E":80.589268,"Observation":"canal is block due to overgrown and block because of road. Not cultivate paddy field using canal.","Description":"Clean the canal\nContingencies (10%)","Amount (Rs.)":33000,"photopath":"Not_Available"},"geometry":{"type":"Point","coordinates":[80.589268,7.322127]}},
{"type":"Feature","properties":{"No":33,"GND No.":450,"Scheme":"Wenga Kumburu yaya","N":7.323523,"E":80.590402,"Observation":"canal is block due to overgrown and block because of road. Not cultivate paddy field using canal.","Description":"Clean the canal\nConstruction of a culvert across the road\n\nContingencies (10%)","Amount (Rs.)":253000,"photopath":"Not_Available"},"geometry":{"type":"Point","coordinates":[80.590402,7.323523]}},
{"type":"Feature","properties":{"No":34,"GND No.":413,"Scheme":"Near the Kottamba trees of Ranawana Medawala road","N":7.338824,"E":80.619046,"Observation":"All these matters are along the Pinga oya section relevant this GN division. Need development of canal banks with reservation protective plants, retaining walls along the pinga oya","Description":"Construction of 2.0m high 1:3:6 (40mm) cement concrete Retaining Wall -For the damage parts of the canal\nVegetative cover improving for narrow strips (1.5m?2.0m wide) with Arecanut seedlings at 1.5m spacing in 2 rows, Betel plants VP at 3m spacing in 1","Amount (Rs.)":2211275,"photopath":"https://raw.githubusercontent.com/MWS003-GIS/MWS003-GIS.github.io/main/IWWRMP/Data/EXD/200_photo/MWS_112_2/Pinga Oya_2.jpg"},"geometry":{"type":"Point","coordinates":[80.619046,7.338824]}},
{"type":"Feature","properties":{"No":35,"GND No.":413,"Scheme":"Pinga Oya","N":7.338824,"E":80.619046,"Observation":"All these matters are along the Pinga oya section relevant this GN division. Need development of canal banks with reservation protective plants, retaining walls along the pinga oya","Description":"Construction of 2.0m high 1:3:6 (40mm) cement concrete Retaining Wall -For the damage parts of the canal\nVegetative cover improving for narrow strips (1.5m?2.0m wide) with Arecanut seedlings at 1.5m spacing in 2 rows, Betel plants VP at 3m spacing in 1","Amount (Rs.)":2211275,"photopath":"https://raw.githubusercontent.com/MWS003-GIS/MWS003-GIS.github.io/main/IWWRMP/Data/EXD/200_photo/MWS_112_2/Pinga Oya_1.jpg"},"geometry":{"type":"Point","coordinates":[80.619046,7.338824]}},
{"type":"Feature","properties":{"No":36,"GND No.":413,"Scheme":"Sub field canal of Pinga Oya at Katugasthota","N":7.338824,"E":80.619046,"Observation":"All these matters are along the Pinga oya section relevant this GN division. Need development of canal banks with reservation protective plants, retaining walls along the pinga oya","Description":"Construction of 2.0m high 1:3:6 (40mm) cement concrete Retaining Wall -For the damage parts of the canal\nVegetative cover improving for narrow strips (1.5m?2.0m wide) with Arecanut seedlings at 1.5m spacing in 2 rows, Betel plants VP at 3m spacing in 1","Amount (Rs.)":2211275,"photopath":"https://raw.githubusercontent.com/MWS003-GIS/MWS003-GIS.github.io/main/IWWRMP/Data/EXD/200_photo/MWS_112_2/Katugastota Pinga Oya tributary canal.jpg"},"geometry":{"type":"Point","coordinates":[80.619046,7.338824]}},
{"type":"Feature","properties":{"No":38,"GND No.":409,"Scheme":"Improving the Pinga Oya riverbank along the entrance to Asiri Uyana.","N":7.338824,"E":80.619046,"Observation":"River Banks has eroded. About 100 families use this as their road. No protective plant in reservation area.","Description":"Construction of 3.0m high 1:3:6 (40mm) cement concrete Retaining Wall -For the damage parts of the canal","Amount (Rs.)":11715000,"photopath":"https://raw.githubusercontent.com/MWS003-GIS/MWS003-GIS.github.io/main/IWWRMP/Data/EXD/200_photo/MWS_112_2/Improving the Pinga Oya riverbank along the entrance to Asiri Uyana_1.jpg"},"geometry":{"type":"Point","coordinates":[80.619046,7.338824]}},
{"type":"Feature","properties":{"No":39,"GND No.":410,"Scheme":"Ranawana  5 acre entrance road Pingaoya iwura","N":7.327953,"E":80.623309,"Observation":"About 200m River banks has severely eroded.","Description":"Construction of 3.0m high 1:3:6 (40mm) cement concrete Retaining Wall -For the damage parts of the canal","Amount (Rs.)":23430000,"photopath":"https://raw.githubusercontent.com/MWS003-GIS/MWS003-GIS.github.io/main/IWWRMP/Data/EXD/200_photo/MWS_112_2/Pingaoya bank_2.jpg"},"geometry":{"type":"Point","coordinates":[80.623309,7.327953]}},
{"type":"Feature","properties":{"No":40,"GND No.":410,"Scheme":"Pingaoya bank","N":7.327953,"E":80.623309,"Observation":"About 200m River banks has severely eroded.","Description":"Construction of 3.0m high 1:3:6 (40mm) cement concrete Retaining Wall -For the damage parts of the canal","Amount (Rs.)":23430000,"photopath":"https://raw.githubusercontent.com/MWS003-GIS/MWS003-GIS.github.io/main/IWWRMP/Data/EXD/200_photo/MWS_112_2/Pingaoya bank_3.jpg"},"geometry":{"type":"Point","coordinates":[80.623309,7.327953]}},
{"type":"Feature","properties":{"No":41,"GND No.":421,"Scheme":"Area of Dehiaththa goda in Rajagiriya division","N":7.308992,"E":80.622515,"Observation":"river bank has been damaged in many places","Description":"Replanting bamboo species around the river bank\nVegetative cover improving around the river bank with Areca nut seedling in 1.5m x 1.5m grid, Kumbuk/ Mee/ Godapara/ Kaduru/ Aththikka/ Wal Del/ Kekuna/ randomly mixed seedlings and planting at 3.5m x 3.5","Amount (Rs.)":895400,"photopath":"Not_Available"},"geometry":{"type":"Point","coordinates":[80.622515,7.308992]}},
{"type":"Feature","properties":{"No":46,"GND No.":413,"Scheme":"Katugastota Pinga Oya tributary canal","N":7.325965,"E":80.623826,"Observation":"Canal banks are eroded. canal path is blocked in several locations.","Description":"Construction of 2.0m high 1:3:6 (40mm) cement concrete Retaining Wall -For the damage parts of the canal\nReplanting bamboo species around the river bank\nContingencies (10%)","Amount (Rs.)":7139000,"photopath":"https://raw.githubusercontent.com/MWS003-GIS/MWS003-GIS.github.io/main/IWWRMP/Data/EXD/200_photo/MWS_112_2/Katugastota Pinga Oya tributary canal.jpg"},"geometry":{"type":"Point","coordinates":[80.623826,7.325965]}}
]}