{
"type": "FeatureCollection",
"name": "SWC_OFF",
"crs": { "type": "name", "properties": { "name": "urn:ogc:def:crs:OGC:1.3:CRS84" } },
"features": [
{ "type": "Feature", "properties": { "No.": 1, "GND No.": 435, "GND Name": "Haloluwa", "Key Activities proposed for Soil and Water conservation": "1. Establishing a retaining wall - Ranawiru Mawatha area", "Priority based on Soil Erosion Hazard": 1, "N": 7.292271, "E": 80.613619, "Quantity": "23 m x 3 m", "Proposed measure/s": "Retaining Wall (Concrete)", "Total_Cost": 2447500, "Contribution (Local Community, LA, and the project)": "By the project", "Time frame for the implementation": "0.25 Years", "photopath": "https://raw.githubusercontent.com/MWS003-GIS/MWS003-GIS.github.io/main/IWWRMP/Data/EXD/200_photo/MWS_112_2/Ranaviru mavatha.jpg" }, "geometry": { "type": "Point", "coordinates": [ 80.613619, 7.292271 ] } },
{ "type": "Feature", "properties": { "No.": 2, "GND No.": 435, "GND Name": "Haloluwa", "Key Activities proposed for Soil and Water conservation": "2. Establishing a retaining wall - Haloluwa Primary Vidyalaya area", "Priority based on Soil Erosion Hazard": 3, "N": 7.293842, "E": 80.605749, "Quantity": "10 m x 3 m", "Proposed measure/s": "Retaining Wall (Concrete)", "Total_Cost": 1067000, "Contribution (Local Community, LA, and the project)": "By the project", "Time frame for the implementation": "0.25 Years", "photopath": "https://raw.githubusercontent.com/MWS003-GIS/MWS003-GIS.github.io/main/IWWRMP/Data/EXD/200_photo/MWS_112_2/Haloluwa primary collage.jpg" }, "geometry": { "type": "Point", "coordinates": [ 80.605749, 7.293842 ] } }
]
}
