{"type":"FeatureCollection","name":"SWC_ON","crs":{"type":"name","properties":{"name":"urn:ogc:def:crs:OGC:1.3:CRS84"}},"features":[
{"type":"Feature","properties":{"No.":1,"GND No.":421,"GND Name":"Wegiriya","Key Activities proposed for Soil and Water conservation":"1. Soil conservation practices (45°-55°)","Priority based on Soil Erosion Hazard":5,"N":7.313916,"E":80.614377,"Quantity":"1 ha","Proposed measure/s":"1. Establishing SALT  - 800 m/ 2. Lock and spills - 100 m/ 3. Stone terracing - 100 m/ 4. Agronomic practices should be adapted at optimum level (conservation tillage, crop rotation and diversification, cover crops, mulching, contour farming, windbreaks","Uniti_Cost":"250.00 m-1/ 400.00 m-1/ 2500.00 m-1","Total_Cost":490000,"Contribution (Local Community, LA, and the project)":"Labour and other basic services by the Local community","Time frame for the implementation":"0.25 Years","photopath":"Not_Available"},"geometry":{"type":"Point","coordinates":[80.614377,7.313916]}},
{"type":"Feature","properties":{"No.":2,"GND No.":430,"GND Name":"Narangaskumbura","Key Activities proposed for Soil and Water conservation":"1. Soil conservation practices -  Narangaskumbura (cultivated lands, common place) (30°-40°)","Priority based on Soil Erosion Hazard":1,"N":7.299136,"E":80.616345,"Quantity":"25 ha","Proposed measure/s":"1. Establishing SALT  - 10000 m/ 2. Live fencing - 10000 m/ 3. Lock and spills - 2500 m/ 4. Stone terracing - 2500 m/ 5. Agronomic practices should be adapted at optimum level (conservation tillage, crop rotation and diversification, cover crops, mulchin","Uniti_Cost":"250.00 m-1/ 120.00 m-1/ 400.00 m-1/ 2500.00 m-1","Total_Cost":10950000,"Contribution (Local Community, LA, and the project)":"Labour and other basic services by the Local community","Time frame for the implementation":"0.25 Years","photopath":"https://raw.githubusercontent.com/MWS003-GIS/MWS003-GIS.github.io/main/IWWRMP/Data/EXD/200_photo/MWS_112_2/Soil Conservation.jpg"},"geometry":{"type":"Point","coordinates":[80.616345,7.299136]}},
{"type":"Feature","properties":{"No.":3,"GND No.":435,"GND Name":"Haloluwa","Key Activities proposed for Soil and Water conservation":"1. Soil conservation practices -  Haloluwa Primary School (65°-75°)","Priority based on Soil Erosion Hazard":3,"N":7.293842,"E":80.605749,"Quantity":"2 ha","Proposed measure/s":"1. Establishing SALT  - 1000 m/ 2. Lock and spills - 500 m/ 3. Stone terracing - 500 m/ 4. Agronomic practices should be adapted at optimum level (conservation tillage, crop rotation and diversification, cover crops, mulching, contour farming, windbreaks","Uniti_Cost":"250.00 m-1/ 400.00 m-1/ 2500.00 m-1","Total_Cost":1700000,"Contribution (Local Community, LA, and the project)":"Labour and other basic services by the Local community","Time frame for the implementation":"0.25 Years","photopath":"https://raw.githubusercontent.com/MWS003-GIS/MWS003-GIS.github.io/main/IWWRMP/Data/EXD/200_photo/MWS_112_2/Haloluwa primary collage.jpg"},"geometry":{"type":"Point","coordinates":[80.605749,7.293842]}},
{"type":"Feature","properties":{"No.":4,"GND No.":437,"GND Name":"Hamangoda South","Key Activities proposed for Soil and Water conservation":"1. Soil conservation practices -  Uggalla (25°-45°)","Priority based on Soil Erosion Hazard":1,"N":7.312262,"E":80.603514,"Quantity":"1 ha","Proposed measure/s":"1. Establishing SALT  - 500 m/ 2. Lock and spills - 250 m/ 3. Stone terracing - 250 m/ 4. Agronomic practices should be adapted at optimum level (conservation tillage, crop rotation and diversification, cover crops, mulching, contour farming, windbreaks","Uniti_Cost":"250.00 m-1/ 400.00 m-1/ 2500.00 m-1","Total_Cost":850000,"Contribution (Local Community, LA, and the project)":"Labour and other basic services by the Local community","Time frame for the implementation":"0.25 Years","photopath":"https://raw.githubusercontent.com/MWS003-GIS/MWS003-GIS.github.io/main/IWWRMP/Data/EXD/200_photo/MWS_112_2/soil conservation.jpg"},"geometry":{"type":"Point","coordinates":[80.603514,7.312262]}},
{"type":"Feature","properties":{"No.":5,"GND No.":440,"GND Name":"Yatihalagala Pallegama","Key Activities proposed for Soil and Water conservation":"1. Soil conservation practices -  Yatihalagala Pallegama (25°-60°)","Priority based on Soil Erosion Hazard":5,"N":7.292804,"E":80.593717,"Quantity":"10 ha","Proposed measure/s":"1. Establishing SALT  - 5000 m/ 2. Live fencing  - 3000 m/ 3. Lock and spills - 1000 m/ 4. Stone terracing - 1000 m/ 5. Agronomic practices should be adapted at optimum level (conservation tillage, crop rotation and diversification, cover crops, mulching","Uniti_Cost":"250.00 m-1/ 120.00 m-1/ 400.00 m-1/ 2500.00 m-1","Total_Cost":4510000,"Contribution (Local Community, LA, and the project)":"Labour and other basic services by the Local community","Time frame for the implementation":"0.25 Years","photopath":"Not_Available"},"geometry":{"type":"Point","coordinates":[80.593717,7.292804]}},
{"type":"Feature","properties":{"No.":6,"GND No.":434,"GND Name":"Haloluwa Pallegama","Key Activities proposed for Soil and Water conservation":"1. Soil conservation practices -  Land in Haloluwa Pallegama (30°-45°)","Priority based on Soil Erosion Hazard":3,"N":7.300703,"E":80.60361,"Quantity":"2 ha","Proposed measure/s":"1. Establishing SALT  - 1000 m/ 2. Lock and spills - 500 m/ 3. Stone terracing - 500 m/4. Agronomic practices should be adapted at optimum level (conservation tillage, crop rotation and diversification, cover crops, mulching, contour farming, windbreaks","Uniti_Cost":"250.00 m-1","Total_Cost":1700000,"Contribution (Local Community, LA, and the project)":"Labour and other basic services by the Local community","Time frame for the implementation":"0.25 Years","photopath":"https://raw.githubusercontent.com/MWS003-GIS/MWS003-GIS.github.io/main/IWWRMP/Data/EXD/200_photo/MWS_112_2/soil consevation  (2).jpg"},"geometry":{"type":"Point","coordinates":[80.60361,7.300703]}},
{"type":"Feature","properties":{"No.":7,"GND No.":442,"GND Name":"Udadoolwala","Key Activities proposed for Soil and Water conservation":"1. Soil conservation practices -  Udadoolwala land with cermetry  (45°-55°)","Priority based on Soil Erosion Hazard":5,"N":7.310921,"E":80.592652,"Quantity":"1 ha","Proposed measure/s":"1. Establishing SALT  - 500 m/ 2. Lock and spills - 250 m/ 3. Stone terracing - 250 m/ 4. Agronomic practices should be adapted at optimum level (conservation tillage, crop rotation and diversification, cover crops, mulching, contour farming, windbreaks","Uniti_Cost":"250.00 m-1/400.00 m-1/2500.00 m-1","Total_Cost":850000,"Contribution (Local Community, LA, and the project)":"Labour and other basic services by the Local community","Time frame for the implementation":"0.25 Years","photopath":"https://raw.githubusercontent.com/MWS003-GIS/MWS003-GIS.github.io/main/IWWRMP/Data/EXD/200_photo/MWS_112_2/Cemetry _ Soil Conservation_4327.jpg"},"geometry":{"type":"Point","coordinates":[80.592652,7.310921]}},
{"type":"Feature","properties":{"No.":8,"GND No.":450,"GND Name":"Mapamadulla","Key Activities proposed for Soil and Water conservation":"1. Soil conservation practices (35°-45°)","Priority based on Soil Erosion Hazard":1,"N":7.32371,"E":80.5881,"Quantity":"1 ha","Proposed measure/s":"1. Establishing SALT  - 500 m/ 2. Lock and spills - 250 m/ 3. Stone terracing - 250 m/ 4. Agronomic practices should be adapted at optimum level (conservation tillage, crop rotation and diversification, cover crops, mulching, contour farming, windbreaks","Uniti_Cost":"250.00 m-1/ 400.00 m-1/ 2500.00 m-1","Total_Cost":850000,"Contribution (Local Community, LA, and the project)":"Labour and other basic services by the Local community","Time frame for the implementation":"0.25 Years","photopath":"Not_Available"},"geometry":{"type":"Point","coordinates":[80.5881,7.32371]}}
]}