{"type":"FeatureCollection","name":"Landslides","crs":{"type":"name","properties":{"name":"urn:ogc:def:crs:OGC:1.3:CRS84"}},"features":[
{"type":"Feature","properties":{"No.":5,"GN Division No.":1143,"GN Division":"Thundeniya","Landslides":"Landslide (The road cracked from subsidence)","N":7.16153,"E":80.597875,"NBRO Recommendation N/A":"Needs NBRO concern","Proposed Measures":"Construction of a concrete retaining wall. (L = 10 m, H=3 m)","photopath":"Not_Available"},"geometry":{"type":"Point","coordinates":[80.597875,7.16153]}},
{"type":"Feature","properties":{"No.":6,"GN Division No.":1143,"GN Division":"Thundeniya","Landslides":"Landslide  (The road cracked from subsidence)","N":7.161772,"E":80.602869,"NBRO Recommendation N/A":"Needs NBRO concern","Proposed Measures":"Construction of a concrete retaining wall. (L = 10 m, H = 3 m)","photopath":"Not_Available"},"geometry":{"type":"Point","coordinates":[80.602869,7.161772]}},
{"type":"Feature","properties":{"No.":13,"GN Division No.":1146,"GN Division":"Lagumdeniya","Landslides":"Earthen dam collapse on road","N":7.168693,"E":80.619338,"NBRO Recommendation N/A":"NBRO is aware","Proposed Measures":"Follow NBRO recommendations","photopath":"https://raw.githubusercontent.com/MWS003-GIS/MWS003-GIS.github.io/main/IWWRMP/Data/EXD/200_photo/MWS_126_2/Disaster_Landslide-Legumdeniya Junction (3).jpg"},"geometry":{"type":"Point","coordinates":[80.619338,7.168693]}},
{"type":"Feature","properties":{"No.":14,"GN Division No.":1146,"GN Division":"Lagumdeniya","Landslides":"High risk landslide","N":7.158096,"E":80.629467,"NBRO Recommendation N/A":"NBRO is aware","Proposed Measures":"Follow NBRO recommendations","photopath":"https://raw.githubusercontent.com/MWS003-GIS/MWS003-GIS.github.io/main/IWWRMP/Data/EXD/200_photo/MWS_126_2/Disaster_Landslide-Dilshan stores to cemetery (5).jpg"},"geometry":{"type":"Point","coordinates":[80.629467,7.158096]}},
{"type":"Feature","properties":{"No.":15,"GN Division No.":1146,"GN Division":"Lagumdeniya","Landslides":"Sinking","N":7.161902,"E":80.628818,"NBRO Recommendation N/A":"Needs NBRO concern","Proposed Measures":"Construction of a concrete retaining wall. (L = 25 m, H = 3 m)","photopath":"https://raw.githubusercontent.com/MWS003-GIS/MWS003-GIS.github.io/main/IWWRMP/Data/EXD/200_photo/MWS_126_2/Disaster_Road_subsidence_Udumulla.jpg"},"geometry":{"type":"Point","coordinates":[80.628818,7.161902]}},
{"type":"Feature","properties":{"No.":16,"GN Division No.":1146,"GN Division":"Lagumdeniya","Landslides":"Road erosion","N":7.164988,"E":80.622192,"NBRO Recommendation N/A":"Needs NBRO concern","Proposed Measures":"Construction of a culvert. [Head wall-LHS (L= 3 m, H = 2 m) Head wall-RHS (L = 2 m, H = 1.2 m) Hume pipe( L= 2.4 m, dia.= 600 mm)]","photopath":"https://raw.githubusercontent.com/MWS003-GIS/MWS003-GIS.github.io/main/IWWRMP/Data/EXD/200_photo/MWS_126_2/Disaster_Road_subsidence_Manelkotuwa (3).jpg"},"geometry":{"type":"Point","coordinates":[80.622192,7.164988]}},
{"type":"Feature","properties":{"No.":17,"GN Division No.":1146,"GN Division":"Lagumdeniya","Landslides":"Landslide","N":7.169993,"E":80.617105,"NBRO Recommendation N/A":"NBRO is aware","Proposed Measures":"Follow NBRO recommendations","photopath":"https://raw.githubusercontent.com/MWS003-GIS/MWS003-GIS.github.io/main/IWWRMP/Data/EXD/200_photo/MWS_126_2/Disaster_Landslide_Delgahamula deniya (7).jpg"},"geometry":{"type":"Point","coordinates":[80.617105,7.169993]}},
{"type":"Feature","properties":{"No.":11,"GN Division No.":1149,"GN Division":"Naranvita","Landslides":"Flooding","N":7.177067,"E":80.583179,"NBRO Recommendation N/A":"-","Proposed Measures":"Facilitate drainage","photopath":"Not_Available"},"geometry":{"type":"Point","coordinates":[80.583179,7.177067]}},
{"type":"Feature","properties":{"No.":10,"GN Division No.":1150,"GN Division":"Gampolawatta","Landslides":"Landslide","N":7.16408,"E":80.587176,"NBRO Recommendation N/A":"NBRO is aware","Proposed Measures":"Follow NBRO recommendations","photopath":"https://raw.githubusercontent.com/MWS003-GIS/MWS003-GIS.github.io/main/IWWRMP/Data/EXD/200_photo/MWS_126_2/Disaster_Landslide_Mr.Premarathne's_House.jpg"},"geometry":{"type":"Point","coordinates":[80.587176,7.16408]}},
{"type":"Feature","properties":{"No.":2,"GN Division No.":1151,"GN Division":"Attuwewattha","Landslides":"The bridge is a dilapidated condition","N":7.168629,"E":80.580535,"NBRO Recommendation N/A":"Needs NBRO concern","Proposed Measures":"Rehabilitation of the bridge","photopath":"Not_Available"},"geometry":{"type":"Point","coordinates":[80.580535,7.168629]}},
{"type":"Feature","properties":{"No.":9,"GN Division No.":1152,"GN Division":"Wewathenna","Landslides":"Landslide","N":7.169841,"E":80.59171,"NBRO Recommendation N/A":"Needs NBRO concern","Proposed Measures":"Taking appropriate action on the recommendations of NBRO","photopath":"Not_Available"},"geometry":{"type":"Point","coordinates":[80.59171,7.169841]}},
{"type":"Feature","properties":{"No.":1,"GN Division No.":1155,"GN Division":"Doluwa","Landslides":"Damage to the road and canal","N":7.183685,"E":80.606156,"NBRO Recommendation N/A":"Needs NBRO concern","Proposed Measures":"It would be appropriate to put up a notice board prohibiting vehicle washing here and take legal action against violators.","photopath":"https://raw.githubusercontent.com/MWS003-GIS/MWS003-GIS.github.io/main/IWWRMP/Data/EXD/200_photo/MWS_126_2/Disaster-Near_the_Doluwa_Temple (3).jpg"},"geometry":{"type":"Point","coordinates":[80.606156,7.183685]}},
{"type":"Feature","properties":{"No.":18,"GN Division No.":1156,"GN Division":"Godawela","Landslides":"Breach of canal embankment","N":7.194008,"E":80.608603,"NBRO Recommendation N/A":"Needs NBRO concern","Proposed Measures":"Taking appropriate action on the recommendations of NBRO","photopath":"https://raw.githubusercontent.com/MWS003-GIS/MWS003-GIS.github.io/main/IWWRMP/Data/EXD/200_photo/MWS_126_2/Disaster-Ambaranga_Deniya (3).jpg"},"geometry":{"type":"Point","coordinates":[80.608603,7.194008]}}
]}