{"type":"FeatureCollection","name":"WP","crs":{"type":"name","properties":{"name":"urn:ogc:def:crs:OGC:1.3:CRS84"}},"features":[
{"type":"Feature","properties":{"No.":13,"GND No.":1146,"GN Division":"Lagumdeniya","Non-point sources of pollution":"Potential to add human waste - Ibban wewa","N":7.1697945,"E":80.6212367,"Point sources of pollution":"-","Add. N ":"-","Add. E ":"-","Recommended water quality improvement measures":"-","Unit Cost (Rs.)":"-","Total Cost (Rs.)":"-","Contributions (Local Community, LA, Project)":"-","Time frame for the implementation":"-","photopath":"Not_Available"},"geometry":{"type":"Point","coordinates":[80.6212367,7.1697945]}},
{"type":"Feature","properties":{"No.":14,"GND No.":1146,"GN Division":"Lagumdeniya","Non-point sources of pollution":"Improper disposal of domestic waste","N":7.1697945,"E":80.6212367,"Point sources of pollution":"-","Add. N ":"-","Add. E ":"-","Recommended water quality improvement measures":"Preparing a separate place in homegardens for disposing houshold waste/Awareness programme on how to disposal household waste properly and converting them to usable products such as compost/Facilitating garbage collection","Unit Cost (Rs.)":"-","Total Cost (Rs.)":"50,000.00","Contributions (Local Community, LA, Project)":"Local/Central governments","Time frame for the implementation":"0.5 Years","photopath":"Not_Available"},"geometry":{"type":"Point","coordinates":[80.6212367,7.1697945]}},
{"type":"Feature","properties":{"No.":10,"GND No.":1149,"GN Division":"Naranvita","Non-point sources of pollution":"Potential to add human waste - Gurunnehela gama","N":7.1737619,"E":80.58725,"Point sources of pollution":"-","Add. N ":"-","Add. E ":"-","Recommended water quality improvement measures":"-","Unit Cost (Rs.)":"-","Total Cost (Rs.)":"-","Contributions (Local Community, LA, Project)":"-","Time frame for the implementation":"-","photopath":"Not_Available"},"geometry":{"type":"Point","coordinates":[80.58725,7.1737619]}},
{"type":"Feature","properties":{"No.":11,"GND No.":1149,"GN Division":"Naranvita","Non-point sources of pollution":"Improper disposal of domestic waste","N":7.1737619,"E":80.58725,"Point sources of pollution":"-","Add. N ":"-","Add. E ":"-","Recommended water quality improvement measures":"Preparing a separate place in homegardens for disposing houshold waste/Awareness programme on how to disposal household waste properly and converting them to usable products such as compost/Facilitating garbage collection","Unit Cost (Rs.)":"-","Total Cost (Rs.)":"50,000.00","Contributions (Local Community, LA, Project)":"Local/Central governments","Time frame for the implementation":"0.5 Years","photopath":"https://raw.githubusercontent.com/MWS003-GIS/MWS003-GIS.github.io/main/IWWRMP/Data/EXD/200_photo/MWS_126_2/Waste_Management.jpg"},"geometry":{"type":"Point","coordinates":[80.58725,7.1737619]}},
{"type":"Feature","properties":{"No.":9,"GND No.":1150,"GN Division":"Gampolawatta","Non-point sources of pollution":"Improper disposal of domestic waste","N":7.1640228,"E":80.585139,"Point sources of pollution":"-","Add. N ":"-","Add. E ":"-","Recommended water quality improvement measures":"Preparing a separate place in homegardens for disposing houshold waste/Awareness programme on how to disposal household waste properly and converting them to usable products such as compost/Facilitating garbage collection","Unit Cost (Rs.)":"-","Total Cost (Rs.)":"50,000.00","Contributions (Local Community, LA, Project)":"Local/Central governments","Time frame for the implementation":"0.5 Years","photopath":"Not_Available"},"geometry":{"type":"Point","coordinates":[80.585139,7.1640228]}},
{"type":"Feature","properties":{"No.":2,"GND No.":1151,"GN Division":"Attuwewattha","Non-point sources of pollution":"Potential to add human waste - Pihilladeniya","N":7.1687186,"E":80.5806252,"Point sources of pollution":"-","Add. N ":"-","Add. E ":"-","Recommended water quality improvement measures":"Preparing a separate place in homegardens for disposing houshold waste/Awareness programme on how to disposal household waste properly and converting them to usable products such as compost/Facilitating garbage collection","Unit Cost (Rs.)":"-","Total Cost (Rs.)":"50,000.00","Contributions (Local Community, LA, Project)":"Local/Central governments","Time frame for the implementation":"0.5 Years","photopath":"Not_Available"},"geometry":{"type":"Point","coordinates":[80.5806252,7.1687186]}},
{"type":"Feature","properties":{"No.":1,"GND No.":1155,"GN Division":"Doluwa","Non-point sources of pollution":"Improper disposal of domestic waste","N":7.1853377,"E":80.6064098,"Point sources of pollution":"-","Add. N ":"-","Add. E ":"-","Recommended water quality improvement measures":"Preparing a separate place in homegardens for disposing houshold waste/Awareness programme on how to disposal household waste properly and converting them to usable products such as compost/Facilitating garbage collection","Unit Cost (Rs.)":"-","Total Cost (Rs.)":"50,000.00","Contributions (Local Community, LA, Project)":"Local/Central governments","Time frame for the implementation":"0.5 Years","photopath":"Not_Available"},"geometry":{"type":"Point","coordinates":[80.6064098,7.1853377]}},
{"type":"Feature","properties":{"No.":15,"GND No.":1156,"GN Division":"Godawela","Non-point sources of pollution":"Potential to add human waste - Private toilets considering the four parts of the village","N":7.1920447,"E":80.6125069,"Point sources of pollution":"-","Add. N ":"-","Add. E ":"-","Recommended water quality improvement measures":"-","Unit Cost (Rs.)":"-","Total Cost (Rs.)":"-","Contributions (Local Community, LA, Project)":"-","Time frame for the implementation":"-","photopath":"Not_Available"},"geometry":{"type":"Point","coordinates":[80.6125069,7.1920447]}},
{"type":"Feature","properties":{"No.":16,"GND No.":1156,"GN Division":"Godawela","Non-point sources of pollution":"Potential to add human waste - Private toilets considering the four parts of the village","N":7.1920447,"E":80.6125069,"Point sources of pollution":"-","Add. N ":"-","Add. E ":"-","Recommended water quality improvement measures":"-","Unit Cost (Rs.)":"-","Total Cost (Rs.)":"-","Contributions (Local Community, LA, Project)":"-","Time frame for the implementation":"-","photopath":"Not_Available"},"geometry":{"type":"Point","coordinates":[80.6125069,7.1920447]}},
{"type":"Feature","properties":{"No.":17,"GND No.":1156,"GN Division":"Godawela","Non-point sources of pollution":"Potential to add human waste - Private toilets considering the four parts of the village","N":7.1920447,"E":80.6125069,"Point sources of pollution":"-","Add. N ":"-","Add. E ":"-","Recommended water quality improvement measures":"-","Unit Cost (Rs.)":"-","Total Cost (Rs.)":"-","Contributions (Local Community, LA, Project)":"-","Time frame for the implementation":"-","photopath":"Not_Available"},"geometry":{"type":"Point","coordinates":[80.6125069,7.1920447]}},
{"type":"Feature","properties":{"No.":18,"GND No.":1156,"GN Division":"Godawela","Non-point sources of pollution":"Improper disposal of domestic waste","N":7.1920447,"E":80.6125069,"Point sources of pollution":"-","Add. N ":"-","Add. E ":"-","Recommended water quality improvement measures":"Preparing a separate place in homegardens for disposing houshold waste/Awareness programme on how to disposal household waste properly and converting them to usable products such as compost/Facilitating garbage collection","Unit Cost (Rs.)":"-","Total Cost (Rs.)":"50,000.00","Contributions (Local Community, LA, Project)":"Local/Central governments","Time frame for the implementation":"0.5 Years","photopath":"Not_Available"},"geometry":{"type":"Point","coordinates":[80.6125069,7.1920447]}}
]}