{"type":"FeatureCollection","name":"WSP","crs":{"type":"name","properties":{"name":"urn:ogc:def:crs:OGC:1.3:CRS84"}},"features":[
{"type":"Feature","properties":{"No":5,"GND No.":1136,"Name of the Tank":"Nawa Gurukele Pond","N":7.184871,"E":80.620773,"Observation":"Spring water is collected here. There is a spillway built of concrete.","Description":"Removing of silt/Vegetative cover improving around structures (5m x 10m) with planting Arecanut seedling in 1.5m x 1.5m grid, and planting Kumbuk/ Mee/ Godapara/ Kaduru/ Aththikka/ Wal Del/ Kekuna/ randomly mixed seedlings in 3.5m x 3.5 m grid/Miscellane","Amount (Rs.)":"220,000.00","photopath":"Not_Available"},"geometry":{"type":"Point","coordinates":[80.620773,7.184871]}},
{"type":"Feature","properties":{"No":40,"GND No.":1143,"Name of the Tank":"Leemagasthanna","N":7.155388,"E":80.600469,"Observation":"There is big trees and it borders privet lands.  Land is being illegally acquired because there are no boundaries.","Description":"Vegetative cover improving around structures (5m x 10m) with planting Arecanut seedling in 1.5m x 1.5m grid, and planting Kumbuk/ Mee/ Godapara/ Kaduru/ Aththikka/ Wal Del/ Kekuna/ randomly mixed seedlings in 3.5m x 3.5 m grid/Contingancies 10%","Amount (Rs.)":"290,400.00","photopath":"Not_Available"},"geometry":{"type":"Point","coordinates":[80.600469,7.155388]}},
{"type":"Feature","properties":{"No":6,"GND No.":1144,"Name of the Tank":"Leemagasthanna","N":7.155388,"E":80.600469,"Observation":"Located in the Leemagasthanna water catchment area. Spring water collected in a catch pit (L=0.6m, W=0.3m, H=0.3m) and distributed through a stock tank (H=2.4m, W=2.4m, H=1.8m).  No water filtering system and boundaries.","Description":"Vegetative cover improving around structures (5m x 10m) with planting Arecanut seedling in 1.5m x 1.5m grid, and planting Kumbuk/ Mee/ Godapara/ Kaduru/ Aththikka/ Wal Del/ Kekuna/ randomly mixed seedlings in 3.5m x 3.5 m grid/Contingancies 10%","Amount (Rs.)":"290,400.00","photopath":"Not_Available"},"geometry":{"type":"Point","coordinates":[80.600469,7.155388]}},
{"type":"Feature","properties":{"No":7,"GND No.":1144,"Name of the Tank":"Koswatta reservation","N":7.163259,"E":80.61259,"Observation":"These springs are located on privet land in the gonatuwela GND. Water is consumed irregularly.","Description":"Vegetative cover improving around structures (5m x 10m) with planting Arecanut seedling in 1.5m x 1.5m grid, and planting Kumbuk/ Mee/ Godapara/ Kaduru/ Aththikka/ Wal Del/ Kekuna/ randomly mixed seedlings in 3.5m x 3.5 m grid/Contingancies 10%","Amount (Rs.)":"484,000.00","photopath":"https://raw.githubusercontent.com/MWS003-GIS/MWS003-GIS.github.io/main/IWWRMP/Data/EXD/200_photo/MWS_126_2/Water_Catchment_area_Conservation-Koswattha_Reserve (2).jpg"},"geometry":{"type":"Point","coordinates":[80.61259,7.163259]}},
{"type":"Feature","properties":{"No":8,"GND No.":1144,"Name of the Tank":"Castle Milk Watta (fallow paddy field)","N":7.16493,"E":80.613747,"Observation":"These springs are located on privet land in the gonatuwela GND. Water is consumed irregularly.","Description":"Vegetative cover improving around structures (5m x 10m) with planting Arecanut seedling in 1.5m x 1.5m grid, and planting Kumbuk/ Mee/ Godapara/ Kaduru/ Aththikka/ Wal Del/ Kekuna/ randomly mixed seedlings in 3.5m x 3.5 m grid/Contingancies 10%","Amount (Rs.)":"193,600.00","photopath":"https://raw.githubusercontent.com/MWS003-GIS/MWS003-GIS.github.io/main/IWWRMP/Data/EXD/200_photo/MWS_126_2/Drinking_Water_Sources_to_be_Conserved-Castle_Milk_Estate.jpg"},"geometry":{"type":"Point","coordinates":[80.613747,7.16493]}},
{"type":"Feature","properties":{"No":9,"GND No.":1144,"Name of the Tank":"Daskaradeniya well","N":7.160564,"E":80.60706,"Observation":"A well built with Concrete. Currently completely overgrown because it is not being used. (L=3.0m, W=1.5m, H=1.5m)","Description":"Clearing the area and removing debris/Vegetative cover improving around structures (5m x 10m) with planting Arecanut seedling in 1.5m x 1.5m grid, and planting Kumbuk/ Mee/ Godapara/ Kaduru/ Aththikka/ Wal Del/ Kekuna/ randomly mixed seedlings in 3.5m x","Amount (Rs.)":"206,800.00","photopath":"https://raw.githubusercontent.com/MWS003-GIS/MWS003-GIS.github.io/main/IWWRMP/Data/EXD/200_photo/MWS_126_2/Drinking_Water_Sources_to_be_Conserved-Daskaradeniya_Well (2).jpg"},"geometry":{"type":"Point","coordinates":[80.60706,7.160564]}},
{"type":"Feature","properties":{"No":10,"GND No.":1144,"Name of the Tank":"Well near the Kumbuk tree","N":7.162674,"E":80.606412,"Observation":"A well has been constructed using RRM (L=1.5m, W=1.5m, H=1.2m).  The well is in good condition.","Description":"Fabricating & fixing security weld mesh in open-type buildings in GI weld mesh 50mm x 50mm SWG 10, welded on 40mm x 40mm x 5mm angle frame complete with application of two coats enamel paint over two coats of anticorrosive paint and complete.All as per d","Amount (Rs.)":"27,500.00","photopath":"https://raw.githubusercontent.com/MWS003-GIS/MWS003-GIS.github.io/main/IWWRMP/Data/EXD/200_photo/MWS_126_2/Drinking_Water_Sources_to_be_Conserved-Kumbuk_gaha_yata_Well.jpg"},"geometry":{"type":"Point","coordinates":[80.606412,7.162674]}},
{"type":"Feature","properties":{"No":11,"GND No.":1144,"Name of the Tank":"Bedda Pihilla spout","N":7.167408,"E":80.606745,"Observation":"A well has been constructed using RRM (L=3.5m, W=2.4m, H=1.5m).  The well is in good condition.","Description":"Fabricating & fixing security weld mesh in open-type buildings in GI weld mesh 50mm x 50mm SWG 10, welded on 40mm x 40mm x 5mm angle frame complete with application of two coats enamel paint over two coats of anticorrosive paint and complete.All as per d","Amount (Rs.)":"198,000.00","photopath":"https://raw.githubusercontent.com/MWS003-GIS/MWS003-GIS.github.io/main/IWWRMP/Data/EXD/200_photo/MWS_126_2/Drinking_Water_Sources_to_be_Conserved-Baddepihilla_Well.jpg"},"geometry":{"type":"Point","coordinates":[80.606745,7.167408]}},
{"type":"Feature","properties":{"No":12,"GND No.":1144,"Name of the Tank":"Weda Gedara Lida","N":7.161088,"E":80.608693,"Observation":"A well has been constructed using RRM (L=1.5m, W=1.5m, H=1.8m).  Water is leaking from the well and the boundaries are not marked.","Description":"Plaster 12mm thick in 1:3 cement and sand finished smooth with gray cement floating/Fabricating & fixing security weld mesh in open-type buildings in GI weld mesh 50mm x 50mm SWG 10, welded on 40mm x 40mm x 5mm angle frame complete with application of tw","Amount (Rs.)":"60,500.00","photopath":"https://raw.githubusercontent.com/MWS003-GIS/MWS003-GIS.github.io/main/IWWRMP/Data/EXD/200_photo/MWS_126_2/Drinking_Water_Sources_to_be_Conserved-Wedagedara_Well.jpg"},"geometry":{"type":"Point","coordinates":[80.608693,7.161088]}},
{"type":"Feature","properties":{"No":41,"GND No.":1144,"Name of the Tank":"Koswatta reservation","N":7.163065,"E":80.612306,"Observation":"There is big trees and it borders privet lands.  Land is being illegally acquired because there are no boundaries.","Description":"Vegetative cover improving around structures (5m x 10m) with planting Arecanut seedling in 1.5m x 1.5m grid, and planting Kumbuk/ Mee/ Godapara/ Kaduru/ Aththikka/ Wal Del/ Kekuna/ randomly mixed seedlings in 3.5m x 3.5 m grid/Contingancies 10%","Amount (Rs.)":"968,000.00","photopath":"https://raw.githubusercontent.com/MWS003-GIS/MWS003-GIS.github.io/main/IWWRMP/Data/EXD/200_photo/MWS_126_2/Water_Catchment_area_Conservation-Koswattha_Reserve (2).jpg"},"geometry":{"type":"Point","coordinates":[80.612306,7.163065]}},
{"type":"Feature","properties":{"No":13,"GND No.":1145,"Name of the Tank":"Beragadeniya","N":7.157509,"E":80.614895,"Observation":"a group of springs is located in this area, which is located on the border of Millagahamula GND. A formal water scheme is currently in operation.","Description":"Vegetative cover improving around structures (5m x 10m) with planting Arecanut seedling in 1.5m x 1.5m grid, and planting Kumbuk/ Mee/ Godapara/ Kaduru/ Aththikka/ Wal Del/ Kekuna/ randomly mixed seedlings in 3.5m x 3.5 m grid/Contingancies 10%","Amount (Rs.)":"580,800.00","photopath":"https://raw.githubusercontent.com/MWS003-GIS/MWS003-GIS.github.io/main/IWWRMP/Data/EXD/200_photo/MWS_126_2/Drinking_Water_Sources_to_be_Conserved-Beragadeniya (5).jpg"},"geometry":{"type":"Point","coordinates":[80.614895,7.157509]}},
{"type":"Feature","properties":{"No":14,"GND No.":1145,"Name of the Tank":"Near the Mr. Sunil bandar's home","N":7.15499,"E":80.610773,"Observation":"Wells have been constructed using RRM, but one of them is severely dilapidated (L=1.5, W=1.0m, H=1.2m).","Description":"Repairing existing well using available rubble/Fabricating & fixing security weld mesh in open-type buildings in GI weld mesh 50mm x 50mm SWG 10, welded on 40mm x 40mm x 5mm angle frame complete with application of two coats enamel paint over two coats o","Amount (Rs.)":"44,000.00","photopath":"https://raw.githubusercontent.com/MWS003-GIS/MWS003-GIS.github.io/main/IWWRMP/Data/EXD/200_photo/MWS_126_2/Drinking_Water_Sources_to_be_Conserved- Near the Mr. Sunil Bandara's home (4).jpg"},"geometry":{"type":"Point","coordinates":[80.610773,7.15499]}},
{"type":"Feature","properties":{"No":15,"GND No.":1145,"Name of the Tank":"Near the Mr. Marin wickramasinghe's home","N":7.159064,"E":80.614979,"Observation":"Wells have been constructed using RRM, but one of them is severely dilapidated (L=3.6, W=3.0m, H=1.2m).","Description":"Repairing existing well using available rubble/Fabricating & fixing security weld mesh in open-type buildings in GI weld mesh 50mm x 50mm SWG 10, welded on 40mm x 40mm x 5mm angle frame complete with application of two coats enamel paint over two coats o","Amount (Rs.)":"148,500.00","photopath":"https://raw.githubusercontent.com/MWS003-GIS/MWS003-GIS.github.io/main/IWWRMP/Data/EXD/200_photo/MWS_126_2/Drinking_Water_Sources_to_be_Conserved-Near the Mr. Marin wickramasinghe's home (2).jpg"},"geometry":{"type":"Point","coordinates":[80.614979,7.159064]}},
{"type":"Feature","properties":{"No":16,"GND No.":1145,"Name of the Tank":"Near the Castle Milk Building","N":7.160578,"E":80.616643,"Observation":"A well has been constructed using RRM (L=1.8m, W=1.5m, H=1.2m).  Water is leaking from the well and the boundaries are not marked.","Description":"Plaster 12mm thick in 1:3 cement and sand finished smooth with gray cement floating/Vegetative cover improving around structures (5m x 10m) with planting Arecanut seedling in 1.5m x 1.5m grid, and planting Kumbuk/ Mee/ Godapara/ Kaduru/ Aththikka/ Wal De","Amount (Rs.)":"49,500.00","photopath":"https://raw.githubusercontent.com/MWS003-GIS/MWS003-GIS.github.io/main/IWWRMP/Data/EXD/200_photo/MWS_126_2/Drinking_Water_Sources_to_be_Conserved-Near the Castle Milk Buiding.jpg"},"geometry":{"type":"Point","coordinates":[80.616643,7.160578]}},
{"type":"Feature","properties":{"No":18,"GND No.":1145,"Name of the Tank":"Near the Mr. Nimal Jayaweera's home","N":7.159182,"E":80.618071,"Observation":"It is a grassy area. A well has been prepared by placing pre-cast concrete rings. (Dia=1.2m, H=1.8m)","Description":"Fabricating & fixing security weld mesh in open-type buildings in GI weld mesh 50mm x 50mm SWG 10, welded on 40mm x 40mm x 5mm angle frame complete with application of two coats enamel paint over two coats of anticorrosive paint and complete.All as per d","Amount (Rs.)":"44,000.00","photopath":"https://raw.githubusercontent.com/MWS003-GIS/MWS003-GIS.github.io/main/IWWRMP/Data/EXD/200_photo/MWS_126_2/Drinking_Water_Sources_to_be_Conserved-Near the Mr. Nimal jayaweera's home (2).jpg"},"geometry":{"type":"Point","coordinates":[80.618071,7.159182]}},
{"type":"Feature","properties":{"No":19,"GND No.":1145,"Name of the Tank":"Near the Mr. Priyantha Siri's home","N":7.156966,"E":80.61977,"Observation":"A pit has been built using stones and soil. There are no boundaries.","Description":"Common excavation for foundation or quarry materials and haul the surplus up to 30m by Manually./150mm x 225mm Random Rubble masonry work in 1:5 cement and sand mortar in structures/Plaster 12mm thick in 1:3 cement and sand finished smooth with gray ceme","Amount (Rs.)":"148,500.00","photopath":"https://raw.githubusercontent.com/MWS003-GIS/MWS003-GIS.github.io/main/IWWRMP/Data/EXD/200_photo/MWS_126_2/Drinking_Water_Sources_to_be_Conserved- Near the Mr. Priyanthsiri's home (2).jpg"},"geometry":{"type":"Point","coordinates":[80.61977,7.156966]}},
{"type":"Feature","properties":{"No":42,"GND No.":1145,"Name of the Tank":"Beragadeniya","N":7.157509,"E":80.614895,"Observation":"It borders privet lands.  Land is being illegally acquired because there are no boundaries.","Description":"Vegetative cover improving around structures (5m x 10m) with planting Arecanut seedling in 1.5m x 1.5m grid, and planting Kumbuk/ Mee/ Godapara/ Kaduru/ Aththikka/ Wal Del/ Kekuna/ randomly mixed seedlings in 3.5m x 3.5 m grid/Contingancies 10%","Amount (Rs.)":"580,800.00","photopath":"https://raw.githubusercontent.com/MWS003-GIS/MWS003-GIS.github.io/main/IWWRMP/Data/EXD/200_photo/MWS_126_2/Drinking_Water_Sources_to_be_Conserved-Beragadeniya (2).jpg"},"geometry":{"type":"Point","coordinates":[80.614895,7.157509]}},
{"type":"Feature","properties":{"No":43,"GND No.":1145,"Name of the Tank":"Near the Mr. Sunil bandar's home","N":7.15499,"E":80.610773,"Observation":"It borders privet lands.  Land is being illegally acquired because there are no boundaries.","Description":"Vegetative cover improving around structures (5m x 10m) with planting Arecanut seedling in 1.5m x 1.5m grid, and planting Kumbuk/ Mee/ Godapara/ Kaduru/ Aththikka/ Wal Del/ Kekuna/ randomly mixed seedlings in 3.5m x 3.5 m grid/Contingancies 10%","Amount (Rs.)":"54,450.00","photopath":"https://raw.githubusercontent.com/MWS003-GIS/MWS003-GIS.github.io/main/IWWRMP/Data/EXD/200_photo/MWS_126_2/Drinking_Water_Sources_to_be_Conserved- Near the Mr. Sunil Bandara's home (5).jpg"},"geometry":{"type":"Point","coordinates":[80.610773,7.15499]}},
{"type":"Feature","properties":{"No":44,"GND No.":1145,"Name of the Tank":"Near the Mr. Marin wickramasinghe's home","N":7.159064,"E":80.614979,"Observation":"It borders privet lands.  Land is being illegally acquired because there are no boundaries.","Description":"Vegetative cover improving around structures (5m x 10m) with planting Arecanut seedling in 1.5m x 1.5m grid, and planting Kumbuk/ Mee/ Godapara/ Kaduru/ Aththikka/ Wal Del/ Kekuna/ randomly mixed seedlings in 3.5m x 3.5 m grid/Contingancies 10%","Amount (Rs.)":"24,200.00","photopath":"https://raw.githubusercontent.com/MWS003-GIS/MWS003-GIS.github.io/main/IWWRMP/Data/EXD/200_photo/MWS_126_2/Drinking_Water_Sources_to_be_Conserved-Near the Mr. Marin wickramasinghe's home (2).jpg"},"geometry":{"type":"Point","coordinates":[80.614979,7.159064]}},
{"type":"Feature","properties":{"No":45,"GND No.":1145,"Name of the Tank":"Near the Castle Milk Building","N":7.160578,"E":80.616643,"Observation":"It borders privet lands.  Land is being illegally acquired because there are no boundaries.","Description":"Vegetative cover improving around structures (5m x 10m) with planting Arecanut seedling in 1.5m x 1.5m grid, and planting Kumbuk/ Mee/ Godapara/ Kaduru/ Aththikka/ Wal Del/ Kekuna/ randomly mixed seedlings in 3.5m x 3.5 m grid/Contingancies 10%","Amount (Rs.)":"24,200.00","photopath":"https://raw.githubusercontent.com/MWS003-GIS/MWS003-GIS.github.io/main/IWWRMP/Data/EXD/200_photo/MWS_126_2/Drinking_Water_Sources_to_be_Conserved-Near the Castle Milk Buiding (2).jpg"},"geometry":{"type":"Point","coordinates":[80.616643,7.160578]}},
{"type":"Feature","properties":{"No":46,"GND No.":1145,"Name of the Tank":"Near the Mr. Wimal Agrapala's home","N":7.157825,"E":80.617101,"Observation":"It borders privet lands.  Land is being illegally acquired because there are no boundaries.","Description":"Vegetative cover improving around structures (5m x 10m) with planting Arecanut seedling in 1.5m x 1.5m grid, and planting Kumbuk/ Mee/ Godapara/ Kaduru/ Aththikka/ Wal Del/ Kekuna/ randomly mixed seedlings in 3.5m x 3.5 m grid/Contingancies 10%","Amount (Rs.)":"24,200.00","photopath":"https://raw.githubusercontent.com/MWS003-GIS/MWS003-GIS.github.io/main/IWWRMP/Data/EXD/200_photo/MWS_126_2/Drinking_Water_Sources_to_be_Conserved- Near the Mr. Vimal agrapala's home (2).jpg"},"geometry":{"type":"Point","coordinates":[80.617101,7.157825]}},
{"type":"Feature","properties":{"No":47,"GND No.":1145,"Name of the Tank":"Near the Mr. Nimal Jayaweera's home","N":7.159182,"E":80.618071,"Observation":"It borders privet lands.  Land is being illegally acquired because there are no boundaries.","Description":"Vegetative cover improving around structures (5m x 10m) with planting Arecanut seedling in 1.5m x 1.5m grid, and planting Kumbuk/ Mee/ Godapara/ Kaduru/ Aththikka/ Wal Del/ Kekuna/ randomly mixed seedlings in 3.5m x 3.5 m grid/Contingancies 10%","Amount (Rs.)":"48,400.00","photopath":"https://raw.githubusercontent.com/MWS003-GIS/MWS003-GIS.github.io/main/IWWRMP/Data/EXD/200_photo/MWS_126_2/Water_Catchment_area_Conservation-Near the Mr. Nimal jayaweera's home (2).jpg"},"geometry":{"type":"Point","coordinates":[80.618071,7.159182]}},
{"type":"Feature","properties":{"No":48,"GND No.":1145,"Name of the Tank":"Near the Mr. Priyantha Siri's home","N":7.156966,"E":80.61977,"Observation":"It borders privet lands.  Land is being illegally acquired because there are no boundaries.","Description":"Vegetative cover improving around structures (5m x 10m) with planting Arecanut seedling in 1.5m x 1.5m grid, and planting Kumbuk/ Mee/ Godapara/ Kaduru/ Aththikka/ Wal Del/ Kekuna/ randomly mixed seedlings in 3.5m x 3.5 m grid/Contingancies 10%","Amount (Rs.)":"48,400.00","photopath":"https://raw.githubusercontent.com/MWS003-GIS/MWS003-GIS.github.io/main/IWWRMP/Data/EXD/200_photo/MWS_126_2/Water_Catchment_area_Conservation- Near the Mr. Priyanthsiri's home (2).jpg"},"geometry":{"type":"Point","coordinates":[80.61977,7.156966]}},
{"type":"Feature","properties":{"No":27,"GND No.":1146,"Name of the Tank":"Gommane forest reserve Spring","N":7.161386,"E":80.633113,"Observation":"Located in the Gommana reserve, several families currently obtain water informally. A stock tank has been constructed using brick (L=2.3m, W=2.0m, H=1.2m). Tank is very dilapidated.","Description":"Construction of Concrete water storage tank of 20 cum - size internal t 3mx3mx2.5/Fabricating & fixing security weld mesh in open-type buildings in GI weld mesh 50mm x 50mm SWG 10, welded on 40mm x 40mm x 5mm angle frame complete with application of two","Amount (Rs.)":"1,039,500.00","photopath":"https://raw.githubusercontent.com/MWS003-GIS/MWS003-GIS.github.io/main/IWWRMP/Data/EXD/200_photo/MWS_126_2/Forest_Conservation_and_Water_Catchment_area_Conservation-Gommana reserve (5).jpg"},"geometry":{"type":"Point","coordinates":[80.633113,7.161386]}},
{"type":"Feature","properties":{"No":28,"GND No.":1146,"Name of the Tank":"Madalagumdeniya Public well(near the Moragolla house)","N":7.163434,"E":80.62328,"Observation":"A well has been constructed using RRM (L=2.8m, W=2.4m, H=1.2m). Water is leaking from the well and the boundaries are not marked.","Description":"Plaster 12mm thick in 1:3 cement and sand finished smooth with gray cement floating/Vegetative cover improving around structures (5m x 10m) with planting Arecanut seedling in 1.5m x 1.5m grid, and planting Kumbuk/ Mee/ Godapara/ Kaduru/ Aththikka/ Wal De","Amount (Rs.)":"60,500.00","photopath":"https://raw.githubusercontent.com/MWS003-GIS/MWS003-GIS.github.io/main/IWWRMP/Data/EXD/200_photo/MWS_126_2/Drinking_Water_Sources_to_be_Conserved-Mallagolla_Public_Well.jpg"},"geometry":{"type":"Point","coordinates":[80.62328,7.163434]}},
{"type":"Feature","properties":{"No":29,"GND No.":1146,"Name of the Tank":"Kuraheda Public well","N":7.167326,"E":80.618003,"Observation":"A well has been constructed using RRM (L=5.5m, W=3.1m, H=1.5m). The top is covered with a concrete slab. Water is leaking from the well and the boundaries are not marked.","Description":"Construction of curtain wall (0.075mm thk) with 1:2:4 (3/4\") concrete, 1/2\" dowels at 600mm x 600mm intervals and embedded with chicken mesh/Plaster 12mm thick in 1:3 cement and sand finished smooth with gray cement floating/For concrete covering slabs/C","Amount (Rs.)":"110,000.00","photopath":"https://raw.githubusercontent.com/MWS003-GIS/MWS003-GIS.github.io/main/IWWRMP/Data/EXD/200_photo/MWS_126_2/Drinking_Water_Sources_to_be_Conserved-Kurahena Public well.jpg"},"geometry":{"type":"Point","coordinates":[80.618003,7.167326]}},
{"type":"Feature","properties":{"No":30,"GND No.":1146,"Name of the Tank":"Gedara kubura thalagahawattha well","N":7.169687,"E":80.616585,"Observation":"A well has been constructed using RRM (L=2.1m, W=1.8m, H=3.0m). The top is covered with a mesh. Water is leaking from the well and the boundaries are not marked.","Description":"Plaster 12mm thick in 1:3 cement and sand finished smooth with gray cement floating/Vegetative cover improving around structures (5m x 10m) with planting Arecanut seedling in 1.5m x 1.5m grid, and planting Kumbuk/ Mee/ Godapara/ Kaduru/ Aththikka/ Wal De","Amount (Rs.)":"93,500.00","photopath":"https://raw.githubusercontent.com/MWS003-GIS/MWS003-GIS.github.io/main/IWWRMP/Data/EXD/200_photo/MWS_126_2/Drinking_Water_Sources_to_be_Conserved-Genarakubura Thalahena public well (2).jpg"},"geometry":{"type":"Point","coordinates":[80.616585,7.169687]}},
{"type":"Feature","properties":{"No":31,"GND No.":1146,"Name of the Tank":"Mellagolla well","N":7.177179,"E":80.618716,"Observation":"A well has been constructed using stones (L=1.2m, W=1.2m, H=0.75m). Water is leaking from the well and the boundaries are not marked.","Description":"Reconstruction of existing well (re-using the rubble)/Fabricating & fixing security weld mesh in open-type buildings in GI weld mesh 50mm x 50mm SWG 10, welded on 40mm x 40mm x 5mm angle frame complete with application of two coats enamel paint over two","Amount (Rs.)":"71,500.00","photopath":"https://raw.githubusercontent.com/MWS003-GIS/MWS003-GIS.github.io/main/IWWRMP/Data/EXD/200_photo/MWS_126_2/Drinking_Water_Sources_to_be_Conserved-Mallagolla_Public_Well (2).jpg"},"geometry":{"type":"Point","coordinates":[80.618716,7.177179]}},
{"type":"Feature","properties":{"No":32,"GND No.":1146,"Name of the Tank":"Uda Lagumdeniya Olu well","N":7.162464,"E":80.627244,"Observation":"A well has been constructed using RRM (L=2.4m, W=2.1m, H=2.1m). Water is leaking from the well and the boundaries are not marked.","Description":"Plaster 12mm thick in 1:3 cement and sand finished smooth with gray cement floating/1:3:6 (40mm) concrete manual mix (volume batching)/Vegetative cover improving around structures (5m x 10m) with planting Arecanut seedling in 1.5m x 1.5m grid, and planti","Amount (Rs.)":"110,000.00","photopath":"https://raw.githubusercontent.com/MWS003-GIS/MWS003-GIS.github.io/main/IWWRMP/Data/EXD/200_photo/MWS_126_2/Drinking_Water_Sources_to_be_Conserved-Olu public well (4).jpg"},"geometry":{"type":"Point","coordinates":[80.627244,7.162464]}},
{"type":"Feature","properties":{"No":33,"GND No.":1146,"Name of the Tank":"Pussathanna public well","N":7.170889,"E":80.620605,"Observation":"A well has been constructed using RRM (L=2.4m, W=2.4m, H=2.4m). Tank is very dilapidated and the boundaries are not marked.","Description":"Reconstruction of existing well (re-using the rubble)/Fabricating & fixing security weld mesh in open-type buildings in GI weld mesh 50mm x 50mm SWG 10, welded on 40mm x 40mm x 5mm angle frame complete with application of two coats enamel paint over two","Amount (Rs.)":"170,500.00","photopath":"https://raw.githubusercontent.com/MWS003-GIS/MWS003-GIS.github.io/main/IWWRMP/Data/EXD/200_photo/MWS_126_2/Drinking_Water_Sources_to_be_Conserved-Pussathanna_Public_Well (3).jpg"},"geometry":{"type":"Point","coordinates":[80.620605,7.170889]}},
{"type":"Feature","properties":{"No":34,"GND No.":1146,"Name of the Tank":"Samarakoon hena reserve","N":7.175464,"E":80.62156,"Observation":"A well has been constructed using RRM (L=2.4m, W=2.1m, H=2.1m). The boundaries are not marked.","Description":"Plaster 12mm thick in 1:3 cement and sand finished smooth with gray cement floating/Vegetative cover improving around structures (5m x 10m) with planting Arecanut seedling in 1.5m x 1.5m grid, and planting Kumbuk/ Mee/ Godapara/ Kaduru/ Aththikka/ Wal De","Amount (Rs.)":"104,500.00","photopath":"https://raw.githubusercontent.com/MWS003-GIS/MWS003-GIS.github.io/main/IWWRMP/Data/EXD/200_photo/MWS_126_2/Forest_Conservation_and_Water_Catchment_area_Conservation-Samarakoon hena reserve (3).jpg"},"geometry":{"type":"Point","coordinates":[80.62156,7.175464]}},
{"type":"Feature","properties":{"No":35,"GND No.":1146,"Name of the Tank":"Ibban wewa reserve","N":7.172017,"E":80.627984,"Observation":"Located in the Ibban wewa reserve, several families currently obtain water informally. A tank has been constructed using RRM (L=3.0m, W=3.0m, H=1.0m).  Water is leaking from the well and the boundaries are not marked.","Description":"Plaster 12mm thick in 1:3 cement and sand finished smooth with gray cement floating/Vegetative cover improving around structures (5m x 10m) with planting Arecanut seedling in 1.5m x 1.5m grid, and planting Kumbuk/ Mee/ Godapara/ Kaduru/ Aththikka/ Wal De","Amount (Rs.)":"990,000.00","photopath":"https://raw.githubusercontent.com/MWS003-GIS/MWS003-GIS.github.io/main/IWWRMP/Data/EXD/200_photo/MWS_126_2/Forest_Conservation_and_Water_Catchment_area_Conservation-Ibbanwewa reserve (8).jpg"},"geometry":{"type":"Point","coordinates":[80.627984,7.172017]}},
{"type":"Feature","properties":{"No":36,"GND No.":1146,"Name of the Tank":"Panawalahena public well","N":7.165131,"E":80.628049,"Observation":"A well has been constructed using RRM (L=2.3m, W=2.0m, H=1.0m). The boundaries are not marked.","Description":"Plaster 12mm thick in 1:3 cement and sand finished smooth with gray cement floating/Vegetative cover improving around structures (5m x 10m) with planting Arecanut seedling in 1.5m x 1.5m grid, and planting Kumbuk/ Mee/ Godapara/ Kaduru/ Aththikka/ Wal De","Amount (Rs.)":"77,000.00","photopath":"https://raw.githubusercontent.com/MWS003-GIS/MWS003-GIS.github.io/main/IWWRMP/Data/EXD/200_photo/MWS_126_2/Drinking_Water_Sources_to_be_Conserved-Panawala hena Public Well (3).jpg"},"geometry":{"type":"Point","coordinates":[80.628049,7.165131]}},
{"type":"Feature","properties":{"No":37,"GND No.":1146,"Name of the Tank":"Atambugahamula pihilla","N":7.165068,"E":80.621497,"Observation":"Located in the kokka oya and used for bathing. Due to erosion of the kokka oya, the water flow to this 'pihilla' has stopped.","Description":"Construction of 0.6 m high Weir across stream excluding abutments and stop planks/Construction of 1.0m high 1:3:6 (40mm) cement concrete Retaining Wall /75mm tk. Stop planks (kumbuk ) with 10mm dia. 2nos. M. S. Iron hooks and applies 2 coats of hot tar./","Amount (Rs.)":"522,500.00","photopath":"https://raw.githubusercontent.com/MWS003-GIS/MWS003-GIS.github.io/main/IWWRMP/Data/EXD/200_photo/MWS_126_2/Drinking_Water_Sources_to_be_Conserved-Atabagahamula Pihilla (4).jpg"},"geometry":{"type":"Point","coordinates":[80.621497,7.165068]}},
{"type":"Feature","properties":{"No":53,"GND No.":1146,"Name of the Tank":"Gommana reserve","N":7.165131,"E":80.628049,"Observation":"There are large trees , but boundaries are not marked.  Land is being illegally acquired because there are no boundaries.","Description":"Vegetative cover improving around structures (5m x 10m) with planting Arecanut seedling in 1.5m x 1.5m grid, and planting Kumbuk/ Mee/ Godapara/ Kaduru/ Aththikka/ Wal Del/ Kekuna/ randomly mixed seedlings in 3.5m x 3.5 m grid/Contingancies 10%","Amount (Rs.)":"193,600.00","photopath":"https://raw.githubusercontent.com/MWS003-GIS/MWS003-GIS.github.io/main/IWWRMP/Data/EXD/200_photo/MWS_126_2/Forest_Conservation_and_Water_Catchment_area_Conservation-Gommana reserve (11).jpg"},"geometry":{"type":"Point","coordinates":[80.628049,7.165131]}},
{"type":"Feature","properties":{"No":54,"GND No.":1146,"Name of the Tank":"Ibban wewa reserve","N":7.172017,"E":80.627984,"Observation":"There are large trees , but boundaries are not marked.  Land is being illegally acquired because there are no boundaries.","Description":"Vegetative cover improving around structures (5m x 10m) with planting Arecanut seedling in 1.5m x 1.5m grid, and planting Kumbuk/ Mee/ Godapara/ Kaduru/ Aththikka/ Wal Del/ Kekuna/ randomly mixed seedlings in 3.5m x 3.5 m grid/Contingancies 10%","Amount (Rs.)":"1,355,200.00","photopath":"https://raw.githubusercontent.com/MWS003-GIS/MWS003-GIS.github.io/main/IWWRMP/Data/EXD/200_photo/MWS_126_2/Forest_Conservation_and_Water_Catchment_area_Conservation-Ibbanwewa reserve (5).jpg"},"geometry":{"type":"Point","coordinates":[80.627984,7.172017]}},
{"type":"Feature","properties":{"No":55,"GND No.":1146,"Name of the Tank":"Samarakoon hena reserve","N":7.175464,"E":80.62156,"Observation":"There are large trees , but boundaries are not marked.  Some parts of this reserve have been cleared and cultivated. Land is being illegally acquired because there are no boundaries.","Description":"Vegetative cover improving around structures (5m x 10m) with planting Arecanut seedling in 1.5m x 1.5m grid, and planting Kumbuk/ Mee/ Godapara/ Kaduru/ Aththikka/ Wal Del/ Kekuna/ randomly mixed seedlings in 3.5m x 3.5 m grid/Contingancies 10%","Amount (Rs.)":"193,600.00","photopath":"https://raw.githubusercontent.com/MWS003-GIS/MWS003-GIS.github.io/main/IWWRMP/Data/EXD/200_photo/MWS_126_2/Forest_Conservation_and_Water_Catchment_area_Conservation-Samarakoon hena reserve (4).jpg"},"geometry":{"type":"Point","coordinates":[80.62156,7.175464]}},
{"type":"Feature","properties":{"No":56,"GND No.":1146,"Name of the Tank":"Keppitiyawa reserve","N":7.176717,"E":80.626189,"Observation":"There are large trees , but boundaries are not marked.  Land is being illegally acquired because there are no boundaries.","Description":"Vegetative cover improving around structures (5m x 10m) with planting Arecanut seedling in 1.5m x 1.5m grid, and planting Kumbuk/ Mee/ Godapara/ Kaduru/ Aththikka/ Wal Del/ Kekuna/ randomly mixed seedlings in 3.5m x 3.5 m grid/Contingancies 10%","Amount (Rs.)":"387,200.00","photopath":"https://raw.githubusercontent.com/MWS003-GIS/MWS003-GIS.github.io/main/IWWRMP/Data/EXD/200_photo/MWS_126_2/Forest_Conservation_and_Water_Catchment_area_Conservation-Keppetiyawa reserve (3).jpg"},"geometry":{"type":"Point","coordinates":[80.626189,7.176717]}},
{"type":"Feature","properties":{"No":50,"GND No.":1149,"Name of the Tank":"Wickramabhahu Lake area","N":7.170383,"E":80.583924,"Observation":"It borders privet lands.  Land is being illegally acquired because there are no boundaries.","Description":"Vegetative cover improving around structures (5m x 10m) with planting Arecanut seedling in 1.5m x 1.5m grid, and planting Kumbuk/ Mee/ Godapara/ Kaduru/ Aththikka/ Wal Del/ Kekuna/ randomly mixed seedlings in 3.5m x 3.5 m grid/Contingancies 10%","Amount (Rs.)":"193,600.00","photopath":"https://raw.githubusercontent.com/MWS003-GIS/MWS003-GIS.github.io/main/IWWRMP/Data/EXD/200_photo/MWS_126_2/Streams_Wickramabhahu_Lake_Pita_ela_Canal.jpg"},"geometry":{"type":"Point","coordinates":[80.583924,7.170383]}},
{"type":"Feature","properties":{"No":21,"GND No.":1150,"Name of the Tank":"Spring above the  Rette Wanguwa (bend) of Gampolawatta","N":7.160807,"E":80.592148,"Observation":"There is a  tank built of concrete (L=2.1m, W=2.1m, H=3.0m). The top is covered with a concrete slab. Water is scarce during dry season. There are no boundaries.","Description":"Vegetative cover improving around structures (5m x 10m) with planting Arecanut seedling in 1.5m x 1.5m grid, and planting Kumbuk/ Mee/ Godapara/ Kaduru/ Aththikka/ Wal Del/ Kekuna/ randomly mixed seedlings in 3.5m x 3.5 m grid/Contingancies 10%","Amount (Rs.)":"96,800.00","photopath":"https://raw.githubusercontent.com/MWS003-GIS/MWS003-GIS.github.io/main/IWWRMP/Data/EXD/200_photo/MWS_126_2/Drinking_Water_Sources_to_be_Conserved-Spring above the  Rette Wanguwa (bend).jpg"},"geometry":{"type":"Point","coordinates":[80.592148,7.160807]}},
{"type":"Feature","properties":{"No":49,"GND No.":1150,"Name of the Tank":"Watershed area of Datriya lower division (belongs to Thundeniya GND yet use by Gampolawatta GND)","N":7.159561,"E":80.592717,"Observation":"This land is located on the boundary of Thundeniya GND and Gampolawattha GND and borders privet lands.  Land is being illegally acquired because there are no boundaries.","Description":"Vegetative cover improving around structures (5m x 10m) with planting Arecanut seedling in 1.5m x 1.5m grid, and planting Kumbuk/ Mee/ Godapara/ Kaduru/ Aththikka/ Wal Del/ Kekuna/ randomly mixed seedlings in 3.5m x 3.5 m grid/Contingancies 10%","Amount (Rs.)":"580,800.00","photopath":"https://raw.githubusercontent.com/MWS003-GIS/MWS003-GIS.github.io/main/IWWRMP/Data/EXD/200_photo/MWS_126_2/Water_Catchment_area_Conservation_Datriya_Division.jpg"},"geometry":{"type":"Point","coordinates":[80.592717,7.159561]}},
{"type":"Feature","properties":{"No":20,"GND No.":1152,"Name of the Tank":"Denodara well","N":7.168501,"E":80.595032,"Observation":"A well has been constructed using RRM (L=1.2m, W=1.2m, H=1.0m). There are no boundaries.","Description":"Vegetative cover improving around structures (5m x 10m) with planting Arecanut seedling in 1.5m x 1.5m grid, and planting Kumbuk/ Mee/ Godapara/ Kaduru/ Aththikka/ Wal Del/ Kekuna/ randomly mixed seedlings in 3.5m x 3.5 m grid/Contingancies 10%","Amount (Rs.)":"48,400.00","photopath":"Not_Available"},"geometry":{"type":"Point","coordinates":[80.595032,7.168501]}},
{"type":"Feature","properties":{"No":22,"GND No.":1154,"Name of the Tank":"Spring near the boundary of Lagum Deniya (19th division)","N":7.176418,"E":80.612942,"Observation":"Several families obtain water informally. There is no stock tank and boundaries.","Description":"Construction of Concrete water storage tank of 20 cum - size internal t 3mx3mx2.5/Fabricating & fixing security weld mesh in open-type buildings in GI weld mesh 50mm x 50mm SWG 10, welded on 40mm x 40mm x 5mm angle frame complete with application of two","Amount (Rs.)":"1,039,500.00","photopath":"https://raw.githubusercontent.com/MWS003-GIS/MWS003-GIS.github.io/main/IWWRMP/Data/EXD/200_photo/MWS_126_2/Drinking_Water_Sources_to_be_Conserved-Spring near the boundary of Lagum Deniya (19th division) (3).jpg"},"geometry":{"type":"Point","coordinates":[80.612942,7.176418]}},
{"type":"Feature","properties":{"No":23,"GND No.":1154,"Name of the Tank":"Spring near the Paththini Devalaya of Uda Iguruwatta","N":7.171983,"E":80.606255,"Observation":"There is a  tank built of concrete (L=1.4m, W=0.9m, H=0.9m). There are no boundaries.","Description":"Fabricating & fixing security weld mesh in open-type buildings in GI weld mesh 50mm x 50mm SWG 10, welded on 40mm x 40mm x 5mm angle frame complete with application of two coats enamel paint over two coats of anticorrosive paint and complete.All as per d","Amount (Rs.)":"66,000.00","photopath":"Not_Available"},"geometry":{"type":"Point","coordinates":[80.606255,7.171983]}},
{"type":"Feature","properties":{"No":24,"GND No.":1154,"Name of the Tank":"Spring at Mrs. N.G. Nilmini's land of 18th division","N":7.17269,"E":80.613672,"Observation":"Currently used for bathing.","Description":"Construction of Concrete water storage tank of 20 cum - size internal t 3mx3mx2.5/Fabricating & fixing security weld mesh in open-type buildings in GI weld mesh 50mm x 50mm SWG 10, welded on 40mm x 40mm x 5mm angle frame complete with application of two","Amount (Rs.)":"946,000.00","photopath":"https://raw.githubusercontent.com/MWS003-GIS/MWS003-GIS.github.io/main/IWWRMP/Data/EXD/200_photo/MWS_126_2/Drinking_Water_Sources_to_be_Conserved-Spring at Mrs. N.G. Nilmini's land of 18th division.jpg"},"geometry":{"type":"Point","coordinates":[80.613672,7.17269]}},
{"type":"Feature","properties":{"No":25,"GND No.":1154,"Name of the Tank":"Theppukulama well","N":7.168063,"E":80.605998,"Observation":"There is a  tank built of concrete. There are no boundaries.","Description":"Vegetative cover improving around structures (5m x 10m) with planting Arecanut seedling in 1.5m x 1.5m grid, and planting Kumbuk/ Mee/ Godapara/ Kaduru/ Aththikka/ Wal Del/ Kekuna/ randomly mixed seedlings in 3.5m x 3.5 m grid/Contingancies 10%","Amount (Rs.)":"193,600.00","photopath":"Not_Available"},"geometry":{"type":"Point","coordinates":[80.605998,7.168063]}},
{"type":"Feature","properties":{"No":26,"GND No.":1154,"Name of the Tank":"Spring near the Mrs. Vijaya Rangana Renuka's home","N":7.166892,"E":80.602057,"Observation":"There is a  tank built of concrete (L=1.2m, W=1.2m, H=0.9m). The top is covered with a concrete slab. Water is scarce during dry season. There are no boundaries.","Description":"Vegetative cover improving around structures (5m x 10m) with planting Arecanut seedling in 1.5m x 1.5m grid, and planting Kumbuk/ Mee/ Godapara/ Kaduru/ Aththikka/ Wal Del/ Kekuna/ randomly mixed seedlings in 3.5m x 3.5 m grid/Contingancies 10%","Amount (Rs.)":"193,600.00","photopath":"https://raw.githubusercontent.com/MWS003-GIS/MWS003-GIS.github.io/main/IWWRMP/Data/EXD/200_photo/MWS_126_2/Drinking_Water_Sources_to_be_Conserved-Near the Mrs. vijaya rangana renuka's home (2).jpg"},"geometry":{"type":"Point","coordinates":[80.602057,7.166892]}},
{"type":"Feature","properties":{"No":51,"GND No.":1154,"Name of the Tank":"Siddhartha foundation","N":7.167989,"E":80.606463,"Observation":"This is kokka oya reserve area and borders privet lands.  Land is being illegally acquired because there are no boundaries.","Description":"Vegetative cover improving around structures (5m x 10m) with planting Arecanut seedling in 1.5m x 1.5m grid, and planting Kumbuk/ Mee/ Godapara/ Kaduru/ Aththikka/ Wal Del/ Kekuna/ randomly mixed seedlings in 3.5m x 3.5 m grid/Contingancies 10%","Amount (Rs.)":"48,400.00","photopath":"Not_Available"},"geometry":{"type":"Point","coordinates":[80.606463,7.167989]}},
{"type":"Feature","properties":{"No":52,"GND No.":1154,"Name of the Tank":"Uda Iguruwatta catchment area","N":7.169269,"E":80.611116,"Observation":"It borders privet lands.  Land is being illegally acquired because there are no boundaries.","Description":"Vegetative cover improving around structures (5m x 10m) with planting Arecanut seedling in 1.5m x 1.5m grid, and planting Kumbuk/ Mee/ Godapara/ Kaduru/ Aththikka/ Wal Del/ Kekuna/ randomly mixed seedlings in 3.5m x 3.5 m grid/Contingancies 10%","Amount (Rs.)":"48,400.00","photopath":"https://raw.githubusercontent.com/MWS003-GIS/MWS003-GIS.github.io/main/IWWRMP/Data/EXD/200_photo/MWS_126_2/Drinking_Water_Sources_to_be_Conserved-Spring at Mrs. Swarna's land of Uda Iguruwatta.jpg"},"geometry":{"type":"Point","coordinates":[80.611116,7.169269]}},
{"type":"Feature","properties":{"No":1,"GND No.":1155,"Name of the Tank":"Maguraga pihilla","N":7.185057,"E":80.606026,"Observation":"A well has been constructed using RRM (L=4.0m, W=2.5m, H=1.2m).  Water is leaking from the well and the boundaries are not marked.","Description":"Construction of curtain wall (0.075mm thk) with 1:2:4 (3/4\") concrete, 1/2\" dowels at 600mm x 600mm intervals and embedded with chicken mesh/12.5mm thick rough ct.plaster in 1:3 cement sand mortar semi rough finish(UR55)/Fabricating & fixing security wel","Amount (Rs.)":"396,000.00","photopath":"https://raw.githubusercontent.com/MWS003-GIS/MWS003-GIS.github.io/main/IWWRMP/Data/EXD/200_photo/MWS_126_2/Drinking_Water_Sources_to_be_Conserved (Spring)-Maguraha_Pihilla_Well (2).jpg"},"geometry":{"type":"Point","coordinates":[80.606026,7.185057]}},
{"type":"Feature","properties":{"No":2,"GND No.":1155,"Name of the Tank":"Doluwa pathaha","N":7.184189,"E":80.606165,"Observation":"A well has been constructed using RRM and the top of the well is covered with a concrete slab. (L=5.2m, W=4.0m, H=1.8m).  Water is leaking from the well and the boundaries are not marked.","Description":"Construction of curtain wall (0.075mm thk) with 1:2:4 (3/4\") concrete, 1/2\" dowels at 600mm x 600mm intervals and embedded with chicken mesh/12.5mm thick rough ct.plaster in 1:3 cement sand mortar semi rough finish(UR55)/1:3:6 (40mm) concrete manual mix","Amount (Rs.)":"335,500.00","photopath":"https://raw.githubusercontent.com/MWS003-GIS/MWS003-GIS.github.io/main/IWWRMP/Data/EXD/200_photo/MWS_126_2/Drinking_Water_Sources_to_be_Conserved_(Springs)-Doluwa_Pathaha.jpg"},"geometry":{"type":"Point","coordinates":[80.606165,7.184189]}},
{"type":"Feature","properties":{"No":3,"GND No.":1155,"Name of the Tank":"Liyandeniya well","N":7.183263,"E":80.607117,"Observation":"A well has been constructed using RRM (L=2.4m, W=1.1m, H=1.2m).  Water is leaking from the well and the boundaries are not marked.","Description":"Construction of curtain wall (0.075mm thk) with 1:2:4 (3/4\") concrete, 1/2\" dowels at 600mm x 600mm intervals and embedded with chicken mesh/12.5mm thick rough ct.plaster in 1:3 cement sand mortar semi rough finish(UR55)/Fabricating & fixing security wel","Amount (Rs.)":"220,000.00","photopath":"https://raw.githubusercontent.com/MWS003-GIS/MWS003-GIS.github.io/main/IWWRMP/Data/EXD/200_photo/MWS_126_2/Drinking_Water_Sources_to_be_Conserved_(Springs)-Liyandeniya_Well.jpg"},"geometry":{"type":"Point","coordinates":[80.607117,7.183263]}},
{"type":"Feature","properties":{"No":38,"GND No.":1156,"Name of the Tank":"Kapuwaldeniya Water spring","N":7.192197,"E":80.613807,"Observation":"There is a  tank built of concrete (L=1.8m, W=1.8m, H=1.5m). The top is covered with a concrete slab. Water is scarce during dry season. There are no boundaries.","Description":"Vegetative cover improving around structures (5m x 10m) with planting Arecanut seedling in 1.5m x 1.5m grid, and planting Kumbuk/ Mee/ Godapara/ Kaduru/ Aththikka/ Wal Del/ Kekuna/ randomly mixed seedlings in 3.5m x 3.5 m grid/Contingancies 10%","Amount (Rs.)":"598,950.00","photopath":"https://raw.githubusercontent.com/MWS003-GIS/MWS003-GIS.github.io/main/IWWRMP/Data/EXD/200_photo/MWS_126_2/Streams - Kapuwal_Deniya_Canal (2).jpg"},"geometry":{"type":"Point","coordinates":[80.613807,7.192197]}},
{"type":"Feature","properties":{"No":39,"GND No.":1156,"Name of the Tank":"Kandegedara tank reservation","N":7.189345,"E":80.609623,"Observation":"Villagers obtain and consume water from kandegedra tank.","Description":"Vegetative cover improving around structures (5m x 10m) with planting Arecanut seedling in 1.5m x 1.5m grid, and planting Kumbuk/ Mee/ Godapara/ Kaduru/ Aththikka/ Wal Del/ Kekuna/ randomly mixed seedlings in 3.5m x 3.5 m grid/Contingancies 10%","Amount (Rs.)":"193,600.00","photopath":"https://raw.githubusercontent.com/MWS003-GIS/MWS003-GIS.github.io/main/IWWRMP/Data/EXD/200_photo/MWS_126_2/Water_Catchment_area_Conservation-Kandegedera_Tank_Reserve (2).jpg"},"geometry":{"type":"Point","coordinates":[80.609623,7.189345]}}
]}