{"type":"FeatureCollection","name":"DWS","crs":{"type":"name","properties":{"name":"urn:ogc:def:crs:OGC:1.3:CRS84"}},"features":[
{"type":"Feature","properties":{"No":1,"GND No.":"526","Scheme":"Harasbedda South - Dodamkele Reserve","N":7.05559,"E":80.87173,"Observation":"4.0m long, 4.0m wide and 2.5m high water storage tank has been constructed. This tank is currently not in use. A water project can be implemented using these tank to get water of about 50 families.","Description":"1/2\" thk 1:3 cement motar plastering to prevent leakages in liningProviding PVC pipes, pipe joints, etc.. to convey water from the springs to tank Providing PVC pipes, pipe joints, etc.. to convey water from the tanks to houses","Estimated Cost":"62,444.44","photopath":"https://raw.githubusercontent.com/MWS003-GIS/MWS003-GIS.github.io/main/IWWRMP/Data/EXD/200_photo/MWS_024/Harasbadda South Water Spring.jpg"},"geometry":{"type":"Point","coordinates":[80.87173,7.05559]}},
{"type":"Feature","properties":{"No":2,"GND No.":"526A","Scheme":"Palalpathana Reserve","N":7.039363,"E":80.861173,"Observation":"About 250 families get drinking water informally using pipes","Description":"Vegetative cover improving (1.5m-2.0m wide) with Areca nut seedlings @ 1.5m spacing in two rows, Beetle creeper VP @ 3m spacing in a single row, Green gram as a cover crop including applying of compost manure, NPK fertilizer and maintenanceConstruction o","Estimated Cost":"588,500.00","photopath":"https://raw.githubusercontent.com/MWS003-GIS/MWS003-GIS.github.io/main/IWWRMP/Data/EXD/200_photo/MWS_024/4. Palalpathana Reserve.jpg"},"geometry":{"type":"Point","coordinates":[80.861173,7.039363]}},
{"type":"Feature","properties":{"No":3,"GND No.":"526A","Scheme":"Darapanahela Reserve","N":7.039363,"E":80.86118,"Observation":"Water using for vegetables cultivation","Description":"Vegetative cover improving (1.5m-2.0m wide) with Areca nut seedlings @ 1.5m spacing in two rows, Beetle creeper VP @ 3m spacing in a single row, Green gram as a cover crop including applying of compost manure, NPK fertilizer and maintenance","Estimated Cost":"23,500.00","photopath":"https://raw.githubusercontent.com/MWS003-GIS/MWS003-GIS.github.io/main/IWWRMP/Data/EXD/200_photo/MWS_024/13. Darapanawela Gama Meda Canal.jpg"},"geometry":{"type":"Point","coordinates":[80.86118,7.039363]}},
{"type":"Feature","properties":{"No":4,"GND No.":"526B","Scheme":"St. Theresa Wewa","N":7.0561,"E":80.87982,"Observation":"A water project where water is pumped from a well constructed in St.Theresa lake to a water storage tank.","Description":"Supplying, jointing and laying of PVC distribution pipe lines to extend the existing systemSupplying & installing water metersVegetative cover improving with Areca nut seedling @ 1.5m spacing in a single row, Kumbuk/ Mee/ Godapara/ Kaduru/ Aththikka/ Wal","Estimated Cost":"300,000.00","photopath":"https://raw.githubusercontent.com/MWS003-GIS/MWS003-GIS.github.io/main/IWWRMP/Data/EXD/200_photo/MWS_024/10. St. Theresa Wewa.jpg"},"geometry":{"type":"Point","coordinates":[80.87982,7.0561]}},
{"type":"Feature","properties":{"No":5,"GND No.":"526C","Scheme":"Mini Worlds End","N":7.062702,"E":80.886154,"Observation":"For drinking water needs of tourists visiting this place","Description":"Drilling of 3 tube wells (5m deep) with supplying and fixing of 0.5 HP x 4\" Dia tube well pump including all necessary connections and constructing a protective cell for the pump and mounting the same to good working order","Estimated Cost":"345,000.00","photopath":"https://raw.githubusercontent.com/MWS003-GIS/MWS003-GIS.github.io/main/IWWRMP/Data/EXD/200_photo/MWS_024/Punche lokantaya.jpg"},"geometry":{"type":"Point","coordinates":[80.886154,7.062702]}}
]}