{"type":"FeatureCollection","name":"SWC_OFF","crs":{"type":"name","properties":{"name":"urn:ogc:def:crs:OGC:1.3:CRS84"}},"features":[
{"type":"Feature","properties":{"No.":1,"GND No.":"526","GND Name":"Harasbedda South","Key Activities proposed for Soil and Water conservation":"1. Renovation of natural drains - Kele pihilla Kandura","Priority based on Soil Erosion Hazard":"-","N":7.05168,"E":80.87504,"Quantity":"1.5 km","Proposed measure/s":"Clearing and planting some trees along the banks (Aracanut) and other conservation practices","Total_Cost":"150,000.00","Contribution (Local Community, LA, and the project)":"Labour and other basic services by the Local community/ Shramadana","Time frame for the implementation":"0.5 Years","photopath":"https://raw.githubusercontent.com/MWS003-GIS/MWS003-GIS.github.io/main/IWWRMP/Data/EXD/200_photo/MWS_024/Kele Pihilla Kandura.jpg"},"geometry":{"type":"Point","coordinates":[80.87504,7.05168]}},
{"type":"Feature","properties":{"No.":2,"GND No.":"526","GND Name":"Harasbedda South","Key Activities proposed for Soil and Water conservation":"2. Renovation of natural drains - Thewatte Kandura","Priority based on Soil Erosion Hazard":"-","N":7.04942,"E":80.87397,"Quantity":"500 m","Proposed measure/s":"Clearing and planting some trees along the banks (Aracanut) and other conservation practices","Total_Cost":"50,000.00","Contribution (Local Community, LA, and the project)":"Labour and other basic services by the Local community/ Shramadana","Time frame for the implementation":"0.25 Years","photopath":"https://raw.githubusercontent.com/MWS003-GIS/MWS003-GIS.github.io/main/IWWRMP/Data/EXD/200_photo/MWS_024/Thewatta Kandura.jpg"},"geometry":{"type":"Point","coordinates":[80.87397,7.04942]}},
{"type":"Feature","properties":{"No.":3,"GND No.":"526","GND Name":"Harasbedda South","Key Activities proposed for Soil and Water conservation":"3. Renovation of natural drains - Galdekapathana Meda Kandura","Priority based on Soil Erosion Hazard":"-","N":7.04862,"E":80.87314,"Quantity":"1.5 km","Proposed measure/s":"Clearing and planting some trees along the banks (Aracanut) and other conservation practices","Total_Cost":"150,000.00","Contribution (Local Community, LA, and the project)":"Labour and other basic services by the Local community/ Shramadana","Time frame for the implementation":"0.5 Years","photopath":"https://raw.githubusercontent.com/MWS003-GIS/MWS003-GIS.github.io/main/IWWRMP/Data/EXD/200_photo/MWS_024/Galdeka Pathana Medakandura.jpg"},"geometry":{"type":"Point","coordinates":[80.87314,7.04862]}},
{"type":"Feature","properties":{"No.":4,"GND No.":"526A","GND Name":"Palalpathana","Key Activities proposed for Soil and Water conservation":"1. Renovation of natural drains - Palalpathana - Middle of Village Canal","Priority based on Soil Erosion Hazard":"-","N":7.037787,"E":80.857833,"Quantity":"2 km","Proposed measure/s":"Clearing and planting some trees along the banks (Aracanut) and other conservation practices","Total_Cost":"200,000.00","Contribution (Local Community, LA, and the project)":"Labour and other basic services by the Local community/ Shramadana","Time frame for the implementation":"0.5 Years","photopath":"https://raw.githubusercontent.com/MWS003-GIS/MWS003-GIS.github.io/main/IWWRMP/Data/EXD/200_photo/MWS_024/5. Palalpathana Diyanilla Canal.jpg"},"geometry":{"type":"Point","coordinates":[80.857833,7.037787]}},
{"type":"Feature","properties":{"No.":5,"GND No.":"526A","GND Name":"Palalpathana","Key Activities proposed for Soil and Water conservation":"2. Renovation of natural drains - Diyanilla - Middle of Village Canal","Priority based on Soil Erosion Hazard":"-","N":7.03686,"E":80.8612,"Quantity":"2 km","Proposed measure/s":"Clearing and planting some trees along the banks (Aracanut) and other conservation practices","Total_Cost":"200,000.00","Contribution (Local Community, LA, and the project)":"Labour and other basic services by the Local community/ Shramadana","Time frame for the implementation":"0.5 Years","photopath":"https://raw.githubusercontent.com/MWS003-GIS/MWS003-GIS.github.io/main/IWWRMP/Data/EXD/200_photo/MWS_024/16. Diyanilla Gama Meda Canal.jpg"},"geometry":{"type":"Point","coordinates":[80.8612,7.03686]}},
{"type":"Feature","properties":{"No.":6,"GND No.":"526A","GND Name":"Palalpathana","Key Activities proposed for Soil and Water conservation":"3. Renovation of natural drains - Darapanahela- Middle of Village Canal","Priority based on Soil Erosion Hazard":"-","N":7.043572,"E":80.868195,"Quantity":"2 km","Proposed measure/s":"Clearing and planting some trees along the banks (Aracanut) and other conservation practices","Total_Cost":"200,000.00","Contribution (Local Community, LA, and the project)":"Labour and other basic services by the Local community/ Shramadana","Time frame for the implementation":"0.5 Years","photopath":"https://raw.githubusercontent.com/MWS003-GIS/MWS003-GIS.github.io/main/IWWRMP/Data/EXD/200_photo/MWS_024/13. Darapanawela Gama Meda Canal.jpg"},"geometry":{"type":"Point","coordinates":[80.868195,7.043572]}},
{"type":"Feature","properties":{"No.":13,"GND No.":"526C","GND Name":"Morabedda","Key Activities proposed for Soil and Water conservation":"1. Renovation of natural drains - Nelugaha Kandura","Priority based on Soil Erosion Hazard":"-","N":7.042426,"E":80.878743,"Quantity":"3 km","Proposed measure/s":"Clearing and planting some trees along the banks (Aracanut) and other conservation practices","Total_Cost":"300,000.00","Contribution (Local Community, LA, and the project)":"Labour and other basic services by the Local community/ Shramadana","Time frame for the implementation":"0.5 Years","photopath":"Not_Available"},"geometry":{"type":"Point","coordinates":[80.878743,7.042426]}}
]}