{"type":"FeatureCollection","name":"DWS","crs":{"type":"name","properties":{"name":"urn:ogc:def:crs:OGC:1.3:CRS84"}},"features":[
{"type":"Feature","properties":{"No":1,"GND No.":666,"Scheme":"Tube well Near the godaliyadda","N":7.31959,"E":80.66455,"Observation":"Currently used for drinking water","Description":"Repairs to the existing tube well\n\nContingancies 10%","Estimated Cost":"82,500.00","photopath":"Not_Available"},"geometry":{"type":"Point","coordinates":[80.66455,7.31959]}},
{"type":"Feature","properties":{"No":2,"GND No.":666,"Scheme":"Tube well Near the Bodhimalkada road","N":7.32081,"E":80.66112,"Observation":"Not currently in use","Description":"Repairs to the existing tube well\n\nContingancies 10%","Estimated Cost":"82,500.00","photopath":"https://raw.githubusercontent.com/MWS003-GIS/MWS003-GIS.github.io/main/IWWRMP/Data/EXD/200_photo/MWS_107_2/IMG_20250116_100411 Bodimalkada vihara mawathe tube well.jpg"},"geometry":{"type":"Point","coordinates":[80.66112,7.32081]}}
]}