{"type":"FeatureCollection","name":"SWC_ON","crs":{"type":"name","properties":{"name":"urn:ogc:def:crs:OGC:1.3:CRS84"}},"features":[
{"type":"Feature","properties":{"No.":1,"GND No.":666,"GND Name":"Uda Gunnepana North","Key Activities proposed for Soil and Water conservation":"1. Soil conservation practices - Bodimalkada Viharaye Land (40?-50?)","Priority based on Soil Erosion Hazard":4,"N":7.32133,"E":80.66378,"Quantity":"8 ha","Proposed measure/s":"Live fencing/SALT and/or stone terracing/lock and spills, as applied","Uniti_Cost":"250.00 m-1","Total_Cost":"2,000,000.00","Contribution (Local Community, LA, and the project)":"Labour and other basic services by the Local community","Time frame for the implementation":"0.5 Years","photopath":"https://raw.githubusercontent.com/MWS003-GIS/MWS003-GIS.github.io/main/IWWRMP/Data/EXD/200_photo/MWS_107_2/IMG_20250116_112620 Bodimalkada land.jpg"},"geometry":{"type":"Point","coordinates":[80.66378,7.32133]}},
{"type":"Feature","properties":{"No.":2,"GND No.":666,"GND Name":"Uda Gunnepana North","Key Activities proposed for Soil and Water conservation":"2. Soil conservation practices - Vidya Pradeepa School (40?-50?)","Priority based on Soil Erosion Hazard":1,"N":7.325248,"E":80.660792,"Quantity":"2 ha","Proposed measure/s":"Live fencing/SALT and/or stone terracing/lock and spills, as applied","Uniti_Cost":"250.00 m-1","Total_Cost":"500,000.00","Contribution (Local Community, LA, and the project)":"Labour and other basic services by the Local community","Time frame for the implementation":"0.25 Years","photopath":"Not_Available"},"geometry":{"type":"Point","coordinates":[80.660792,7.325248]}},
{"type":"Feature","properties":{"No.":3,"GND No.":666,"GND Name":"Uda Gunnepana North","Key Activities proposed for Soil and Water conservation":"3. Soil conservation practices - Gunnepana North (50?-60?)","Priority based on Soil Erosion Hazard":1,"N":7.32033,"E":80.65977,"Quantity":"3 ha","Proposed measure/s":"Live fencing/SALT and/or stone terracing/lock and spills, as applied","Uniti_Cost":"250.00 m-1","Total_Cost":"750,000.00","Contribution (Local Community, LA, and the project)":"Labour and other basic services by the Local community","Time frame for the implementation":"0.25 Years","photopath":"Not_Available"},"geometry":{"type":"Point","coordinates":[80.65977,7.32033]}},
{"type":"Feature","properties":{"No.":4,"GND No.":667,"GND Name":"Udagunnepana South","Key Activities proposed for Soil and Water conservation":"1. Soil conservation practices - Udagunnepana South (40?-50?)","Priority based on Soil Erosion Hazard":5,"N":7.3194,"E":80.66818,"Quantity":"3 ha","Proposed measure/s":"Live fencing/SALT and/or stone terracing/lock and spills, as applied","Uniti_Cost":"250.00 m-1","Total_Cost":"750,000.00","Contribution (Local Community, LA, and the project)":"Labour and other basic services by the Local community","Time frame for the implementation":"0.25 Years","photopath":"https://raw.githubusercontent.com/MWS003-GIS/MWS003-GIS.github.io/main/IWWRMP/Data/EXD/200_photo/MWS_107_2/IMG_20250121_ 11 1551 udagammedda land.jpg"},"geometry":{"type":"Point","coordinates":[80.66818,7.3194]}},
{"type":"Feature","properties":{"No.":5,"GND No.":667,"GND Name":"Udagunnepana South","Key Activities proposed for Soil and Water conservation":"2. Soil conservation practices - Udagunnepana South (40?-50?)","Priority based on Soil Erosion Hazard":4,"N":7.31668,"E":80.66712,"Quantity":"5 ha","Proposed measure/s":"Live fencing/SALT and/or stone terracing/lock and spills, as applied","Uniti_Cost":"250.00 m-1","Total_Cost":"1,250,000.00","Contribution (Local Community, LA, and the project)":"Labour and other basic services by the Local community","Time frame for the implementation":"0.25 Years","photopath":"Not_Available"},"geometry":{"type":"Point","coordinates":[80.66712,7.31668]}},
{"type":"Feature","properties":{"No.":6,"GND No.":668,"GND Name":"Gabadagama South","Key Activities proposed for Soil and Water conservation":"1. Soil conservation practices (50?-70?)","Priority based on Soil Erosion Hazard":5,"N":7.32816,"E":80.66192,"Quantity":"2 ha","Proposed measure/s":"Live fencing/SALT and/or stone terracing/lock and spills, as applied","Uniti_Cost":"250.00 m-1","Total_Cost":"500,000.00","Contribution (Local Community, LA, and the project)":"Labour and other basic services by the Local community","Time frame for the implementation":"0.25 Years","photopath":"https://raw.githubusercontent.com/MWS003-GIS/MWS003-GIS.github.io/main/IWWRMP/Data/EXD/200_photo/MWS_107_2/IMG_20250107_124410 land.jpg"},"geometry":{"type":"Point","coordinates":[80.66192,7.32816]}},
{"type":"Feature","properties":{"No.":7,"GND No.":668,"GND Name":"Gabadagama South","Key Activities proposed for Soil and Water conservation":"2. Soil conservation practices (50?-70?)","Priority based on Soil Erosion Hazard":1,"N":7.32889,"E":80.66206,"Quantity":"1.5 ha","Proposed measure/s":"Live fencing/SALT and/or stone terracing/lock and spills, as applied","Uniti_Cost":"250.00 m-1","Total_Cost":"375,000.00","Contribution (Local Community, LA, and the project)":"Labour and other basic services by the Local community","Time frame for the implementation":"0.25 Years","photopath":"Not_Available"},"geometry":{"type":"Point","coordinates":[80.66206,7.32889]}},
{"type":"Feature","properties":{"No.":8,"GND No.":669,"GND Name":"Gabadagama North","Key Activities proposed for Soil and Water conservation":"1. Soil conservation practices - Kudugale Waththa (50?-70?)","Priority based on Soil Erosion Hazard":1,"N":7.33057,"E":80.65481,"Quantity":"3 ha","Proposed measure/s":"Live fencing/SALT and/or stone terracing/lock and spills, as applied","Uniti_Cost":"250.00 m-1","Total_Cost":"750,000.00","Contribution (Local Community, LA, and the project)":"Labour and other basic services by the Local community","Time frame for the implementation":"0.25 Years","photopath":"https://raw.githubusercontent.com/MWS003-GIS/MWS003-GIS.github.io/main/IWWRMP/Data/EXD/200_photo/MWS_107_2/20250107_103339 kudugale waththa.jpg"},"geometry":{"type":"Point","coordinates":[80.65481,7.33057]}}
]}