{"type":"FeatureCollection","name":"Landslides","crs":{"type":"name","properties":{"name":"urn:ogc:def:crs:OGC:1.3:CRS84"}},"features":[
{"type":"Feature","properties":{"No.":3,"GN Division No.":750,"GN Division":"Dunhinna","Landslides":"Landsliding - Alugolla","N":7.356515,"E":80.759956,"NBRO Recommendation N/A":"NBRO is aware","Proposed Measures":"Follow the recommendations of NBRO","photopath":"https://raw.githubusercontent.com/MWS003-GIS/MWS003-GIS.github.io/main/IWWRMP/Data/EXD/200_photo/MWS_091/Alugolla Landslide.jpg"},"geometry":{"type":"Point","coordinates":[80.759956,7.356515]}},
{"type":"Feature","properties":{"No.":4,"GN Division No.":751,"GN Division":"Maneluwa","Landslides":"1. Landsliding, Sinking - Thiriwanaketiya paddy field","N":7.349457,"E":80.739304,"NBRO Recommendation N/A":"NBRO is aware","Proposed Measures":"Construction of 50 m long 300 mm x 300 mm (width x height) Rectangular Con. canal. Wall thickness 125 mm. Construction of 15 m long 2.2 m high concrete side wall on the downstream side of the canal.","photopath":"https://raw.githubusercontent.com/MWS003-GIS/MWS003-GIS.github.io/main/IWWRMP/Data/EXD/200_photo/MWS_091/Kiravanaketiya Welyaya Landslide 3.jpg"},"geometry":{"type":"Point","coordinates":[80.739304,7.349457]}},
{"type":"Feature","properties":{"No.":5,"GN Division No.":751,"GN Division":"Maneluwa","Landslides":"2. Soil sloughing and erosion of the road - Samagi mawatha of Maneluwa GND and all other roads","N":7.348965,"E":80.739586,"NBRO Recommendation N/A":"-","Proposed Measures":"Construction of concrete side wall about 40 m long and 2 m high","photopath":"https://raw.githubusercontent.com/MWS003-GIS/MWS003-GIS.github.io/main/IWWRMP/Data/EXD/200_photo/MWS_091/Kiravanaketiya Welyaya Landslide 2.jpg"},"geometry":{"type":"Point","coordinates":[80.739586,7.348965]}},
{"type":"Feature","properties":{"No.":8,"GN Division No.":754,"GN Division":"Weliketiya","Landslides":"1. Sinking the bridge - The road from Delgasthenna to Waradiwela","N":7.344478,"E":80.755573,"NBRO Recommendation N/A":"-","Proposed Measures":"A huge amount of money is needed to build this new bridge. Development proposals have been submitted to allocate funds from other projects. It is not appropriate to propose to allocate funds for this through this project.","photopath":"https://raw.githubusercontent.com/MWS003-GIS/MWS003-GIS.github.io/main/IWWRMP/Data/EXD/200_photo/MWS_091/DElgasthenna - Waradiwela Damaged Bridge 2.jpg"},"geometry":{"type":"Point","coordinates":[80.755573,7.344478]}},
{"type":"Feature","properties":{"No.":9,"GN Division No.":754,"GN Division":"Weliketiya","Landslides":"2. Erosion of the road - The road to Alupotha Getagahawela","N":7.338895,"E":80.761162,"NBRO Recommendation N/A":"-","Proposed Measures":"Construction of a 50 m long, 3 m high side wall","photopath":"https://raw.githubusercontent.com/MWS003-GIS/MWS003-GIS.github.io/main/IWWRMP/Data/EXD/200_photo/MWS_091/Alupotha - Getawela Road Landslide.jpg"},"geometry":{"type":"Point","coordinates":[80.761162,7.338895]}},
{"type":"Feature","properties":{"No.":10,"GN Division No.":754,"GN Division":"Weliketiya","Landslides":"3. Slope Land collapse on the road - Main road of Putuhapuwa Werapitiya","N":7.342878,"E":80.752727,"NBRO Recommendation N/A":"-","Proposed Measures":"Construction of new side wall 18 m long and 3 m high to extend the existing side wall.","photopath":"https://raw.githubusercontent.com/MWS003-GIS/MWS003-GIS.github.io/main/IWWRMP/Data/EXD/200_photo/MWS_091/Sloping Land 1.jpg"},"geometry":{"type":"Point","coordinates":[80.752727,7.342878]}},
{"type":"Feature","properties":{"No.":11,"GN Division No.":755,"GN Division":"Putuhapuwa","Landslides":"1. Landsliding - Galkanda Middle Division","N":7.339258,"E":80.750531,"NBRO Recommendation N/A":"NBRO is aware","Proposed Measures":"It is best to take appropriate action based on the NBRO's advice.","photopath":"https://raw.githubusercontent.com/MWS003-GIS/MWS003-GIS.github.io/main/IWWRMP/Data/EXD/200_photo/MWS_091/Galkanda Landslide Place.jpg"},"geometry":{"type":"Point","coordinates":[80.750531,7.339258]}},
{"type":"Feature","properties":{"No.":12,"GN Division No.":755,"GN Division":"Putuhapuwa","Landslides":"2. Slope Land collapse on the road - Galkanda Middle Division","N":7.339505,"E":80.749058,"NBRO Recommendation N/A":"NBRO is aware","Proposed Measures":"Removing the soil that has fallen onto the road and constructing a 40 m long and 3 m high side wall.","photopath":"https://raw.githubusercontent.com/MWS003-GIS/MWS003-GIS.github.io/main/IWWRMP/Data/EXD/200_photo/MWS_091/Galkanda Landslide on the Road.jpg"},"geometry":{"type":"Point","coordinates":[80.749058,7.339505]}},
{"type":"Feature","properties":{"No.":13,"GN Division No.":756,"GN Division":"Giddawa","Landslides":"1. Landslide - Near the Cemetery","N":7.344602,"E":80.73875,"NBRO Recommendation N/A":"NBRO is aware","Proposed Measures":"Follow NBRO recommendations","photopath":"https://raw.githubusercontent.com/MWS003-GIS/MWS003-GIS.github.io/main/IWWRMP/Data/EXD/200_photo/MWS_091/Landslide near the Cemetery (Road).jpg"},"geometry":{"type":"Point","coordinates":[80.73875,7.344602]}},
{"type":"Feature","properties":{"No.":14,"GN Division No.":756,"GN Division":"Giddawa","Landslides":"2. Flooding - Culvert near the Priyadarshana's house","N":7.342622,"E":80.736072,"NBRO Recommendation N/A":"NBRO is aware","Proposed Measures":"Construction of a 20 m long, 3 m high concrete side wall","photopath":"https://raw.githubusercontent.com/MWS003-GIS/MWS003-GIS.github.io/main/IWWRMP/Data/EXD/200_photo/MWS_091/New Landslide Place.jpg"},"geometry":{"type":"Point","coordinates":[80.736072,7.342622]}},
{"type":"Feature","properties":{"No.":15,"GN Division No.":756,"GN Division":"Giddawa","Landslides":"3. Flooding - Near the Danaraja's House","N":7.342109,"E":80.742311,"NBRO Recommendation N/A":"NBRO is aware","Proposed Measures":"Villagers propose construction of a drainage system with a road leading from the top of mountain to the slope. It is not possible to construct under this project as it would be very expensive.","photopath":"https://raw.githubusercontent.com/MWS003-GIS/MWS003-GIS.github.io/main/IWWRMP/Data/EXD/200_photo/MWS_091/Landslide around the Danaraja's House.jpg"},"geometry":{"type":"Point","coordinates":[80.742311,7.342109]}},
{"type":"Feature","properties":{"No.":16,"GN Division No.":757,"GN Division":"Ambalagala","Landslides":"1. Landsliding - Near the K.M. Kulasekara's house","N":7.334343,"E":80.742815,"NBRO Recommendation N/A":"Needs NBRO concern","Proposed Measures":"Follow NBRO recommendations","photopath":"https://raw.githubusercontent.com/MWS003-GIS/MWS003-GIS.github.io/main/IWWRMP/Data/EXD/200_photo/MWS_091/Landslide Kulasekara's House 1.jpg"},"geometry":{"type":"Point","coordinates":[80.742815,7.334343]}},
{"type":"Feature","properties":{"No.":17,"GN Division No.":757,"GN Division":"Ambalagala","Landslides":"2. Landsliding - Near the Mr. Wilson's house","N":7.338205,"E":80.74489,"NBRO Recommendation N/A":"Needs NBRO concern","Proposed Measures":"Construction of a 10 m long, 3 m high concrete side wall","photopath":"https://raw.githubusercontent.com/MWS003-GIS/MWS003-GIS.github.io/main/IWWRMP/Data/EXD/200_photo/MWS_091/Landslide near the Wilson's house 2.jpg"},"geometry":{"type":"Point","coordinates":[80.74489,7.338205]}},
{"type":"Feature","properties":{"No.":18,"GN Division No.":757,"GN Division":"Ambalagala","Landslides":"3. Landsliding - Near the Mr. Punchi Banda's house","N":7.338052,"E":80.743073,"NBRO Recommendation N/A":"Needs NBRO concern","Proposed Measures":"Follow NBRO recommendations","photopath":"https://raw.githubusercontent.com/MWS003-GIS/MWS003-GIS.github.io/main/IWWRMP/Data/EXD/200_photo/MWS_091/Landslide Punchibanda'd Land 1.jpg"},"geometry":{"type":"Point","coordinates":[80.743073,7.338052]}},
{"type":"Feature","properties":{"No.":19,"GN Division No.":757,"GN Division":"Ambalagala","Landslides":"4. Collapsing boulders - Near the Mr. Ajith's house","N":7.336744,"E":80.741848,"NBRO Recommendation N/A":"NBRO is aware","Proposed Measures":"Follow NBRO recommendations","photopath":"https://raw.githubusercontent.com/MWS003-GIS/MWS003-GIS.github.io/main/IWWRMP/Data/EXD/200_photo/MWS_091/Landslide Ajith's House.jpg"},"geometry":{"type":"Point","coordinates":[80.741848,7.336744]}},
{"type":"Feature","properties":{"No.":20,"GN Division No.":758,"GN Division":"Watapana","Landslides":"1. Landsliding - Near the cemetry of 'Akkra 80'","N":7.333245,"E":80.749945,"NBRO Recommendation N/A":"NBRO is aware","Proposed Measures":"Follow NBRO recommendations","photopath":"https://raw.githubusercontent.com/MWS003-GIS/MWS003-GIS.github.io/main/IWWRMP/Data/EXD/200_photo/MWS_091/Landslide near Cemetry.jpg"},"geometry":{"type":"Point","coordinates":[80.749945,7.333245]}},
{"type":"Feature","properties":{"No.":21,"GN Division No.":758,"GN Division":"Watapana","Landslides":"2. Risk of landsliding - 'Akkra 80'","N":7.332878,"E":80.748886,"NBRO Recommendation N/A":"-","Proposed Measures":"This problem can be solved by activating the old water streams after proper study. This should be accomplished by local council that is responsible for the construction the road.","photopath":"Not_Available"},"geometry":{"type":"Point","coordinates":[80.748886,7.332878]}},
{"type":"Feature","properties":{"No.":22,"GN Division No.":759,"GN Division":"Nugepathana","Landslides":"Landsliding, Bank collapsing at rainy season - Nugepathana village","N":7.327569,"E":80.762497,"NBRO Recommendation N/A":"NBRO is aware","Proposed Measures":"Follow NBRO recommendations","photopath":"https://raw.githubusercontent.com/MWS003-GIS/MWS003-GIS.github.io/main/IWWRMP/Data/EXD/200_photo/MWS_091/Nugepathana Landslide area.jpg"},"geometry":{"type":"Point","coordinates":[80.762497,7.327569]}},
{"type":"Feature","properties":{"No.":23,"GN Division No.":760,"GN Division":"Gangasirigama","Landslides":"Land embankments collapse - Kumbaloluwa - Ihalagama","N":7.327526,"E":80.748747,"NBRO Recommendation N/A":"Needs NBRO concern","Proposed Measures":"Applications of soil conservation practices and also the people should be placed in another suitable land","photopath":"https://raw.githubusercontent.com/MWS003-GIS/MWS003-GIS.github.io/main/IWWRMP/Data/EXD/200_photo/MWS_091/Kumbaloluwa - Ihalagama Landslide.jpg"},"geometry":{"type":"Point","coordinates":[80.748747,7.327526]}},
{"type":"Feature","properties":{"No.":25,"GN Division No.":774,"GN Division":"Siridigana","Landslides":"1. Slope Land collapse on the road - Himali Abesekara home near the road","N":7.321378,"E":80.77025,"NBRO Recommendation N/A":"Needs NBRO concern","Proposed Measures":"Cutting the bank to increase the slope and planting vetiver grass.","photopath":"https://raw.githubusercontent.com/MWS003-GIS/MWS003-GIS.github.io/main/IWWRMP/Data/EXD/200_photo/MWS_091/Landslide Near Himali's House.jpg"},"geometry":{"type":"Point","coordinates":[80.77025,7.321378]}},
{"type":"Feature","properties":{"No.":26,"GN Division No.":774,"GN Division":"Siridigana","Landslides":"2. Slope Land collapse on the road - E.M shanthe menike home near the Siridigana road","N":7.328535,"E":80.764336,"NBRO Recommendation N/A":"Needs NBRO concern","Proposed Measures":"Cutting the bank to increase the slope and planting vetiver grass.","photopath":"https://raw.githubusercontent.com/MWS003-GIS/MWS003-GIS.github.io/main/IWWRMP/Data/EXD/200_photo/MWS_091/Landslide Near Shanthi Menike's House.jpg"},"geometry":{"type":"Point","coordinates":[80.764336,7.328535]}},
{"type":"Feature","properties":{"No.":27,"GN Division No.":774,"GN Division":"Siridigana","Landslides":"3. Water flow in to the road - Muthumenike pemawathe  home near the road","N":7.323868,"E":80.767898,"NBRO Recommendation N/A":"Needs NBRO concern","Proposed Measures":"The 6.2 m long concrete  head wall of the pipe culvert should be raised by 600 mm.","photopath":"https://raw.githubusercontent.com/MWS003-GIS/MWS003-GIS.github.io/main/IWWRMP/Data/EXD/200_photo/MWS_091/Landslide Nandana's House.jpg"},"geometry":{"type":"Point","coordinates":[80.767898,7.323868]}},
{"type":"Feature","properties":{"No.":28,"GN Division No.":779,"GN Division":"Udabage","Landslides":"Landslide - North Balagahathenn","N":7.338455,"E":80.77105,"NBRO Recommendation N/A":"Needs NBRO concern","Proposed Measures":"Construction of stone terraces, Live fence etc.","photopath":"https://raw.githubusercontent.com/MWS003-GIS/MWS003-GIS.github.io/main/IWWRMP/Data/EXD/200_photo/MWS_091/Landslide Location 3.jpg"},"geometry":{"type":"Point","coordinates":[80.77105,7.338455]}}
]}