{"type":"FeatureCollection","name":"WP","crs":{"type":"name","properties":{"name":"urn:ogc:def:crs:OGC:1.3:CRS84"}},"features":[
{"type":"Feature","properties":{"No.":6,"GND No.":753,"GN Division":"Randiwela","Non-point sources of pollution":"Potential to add human waste","N":7.3534083,"E":80.7716011,"Point sources of pollution":"-","Add. N ":"-","Add. E ":"-","Recommended water quality improvement measures":"-","Unit Cost (Rs.)":"-","Total Cost (Rs.)":"-","Contributions (Local Community, LA, Project)":"-","Time frame for the implementation":"-","photopath":"Not_Available"},"geometry":{"type":"Point","coordinates":[80.7716011,7.3534083]}},
{"type":"Feature","properties":{"No.":7,"GND No.":753,"GN Division":"Randiwela","Non-point sources of pollution":"Informal disposal of houshold wastes/garbage","N":7.3534083,"E":80.7716011,"Point sources of pollution":"-","Add. N ":"-","Add. E ":"-","Recommended water quality improvement measures":"Preparing a separate place in homegardens for disposing houshold waste,Awareness programme on how to disposal household waste properly and converting them to usable products such as compost,Facilitating garbage collection","Unit Cost (Rs.)":"-","Total Cost (Rs.)":"50,000.00","Contributions (Local Community, LA, Project)":"Local/Central governments","Time frame for the implementation":"0.5 Years","photopath":"Not_Available"},"geometry":{"type":"Point","coordinates":[80.7716011,7.3534083]}},
{"type":"Feature","properties":{"No.":9,"GND No.":755,"GN Division":"Putuhapuwa","Non-point sources of pollution":"Informal disposal of houshold wastes/garbage","N":7.335754,"E":80.757563,"Point sources of pollution":"-","Add. N ":"-","Add. E ":"-","Recommended water quality improvement measures":"Preparing a separate place in homegardens for disposing houshold waste,Awareness programme on how to disposal household waste properly and converting them to usable products such as compost,Facilitating garbage collection","Unit Cost (Rs.)":"-","Total Cost (Rs.)":"50,000.00","Contributions (Local Community, LA, Project)":"Local/Central governments","Time frame for the implementation":"0.5 Years","photopath":"Not_Available"},"geometry":{"type":"Point","coordinates":[80.757563,7.335754]}},
{"type":"Feature","properties":{"No.":10,"GND No.":756,"GN Division":"Giddawa","Non-point sources of pollution":"Informal disposal of houshold wastes/garbage","N":7.3430385,"E":80.7396008,"Point sources of pollution":"-","Add. N ":"-","Add. E ":"-","Recommended water quality improvement measures":"Preparing a separate place in homegardens for disposing houshold waste,Awareness programme on how to disposal household waste properly and converting them to usable products such as compost,Facilitating garbage collection","Unit Cost (Rs.)":"-","Total Cost (Rs.)":"50,000.00","Contributions (Local Community, LA, Project)":"Local/Central governments","Time frame for the implementation":"0.5 Years","photopath":"Not_Available"},"geometry":{"type":"Point","coordinates":[80.7396008,7.3430385]}},
{"type":"Feature","properties":{"No.":13,"GND No.":759,"GN Division":"Nugepathana","Non-point sources of pollution":"Informal disposal of houshold wastes/garbage","N":7.3264257,"E":80.758065,"Point sources of pollution":"-","Add. N ":"-","Add. E ":"-","Recommended water quality improvement measures":"Preparing a separate place in homegardens for disposing houshold waste,Awareness programme on how to disposal household waste properly and converting them to usable products such as compost,Facilitating garbage collection","Unit Cost (Rs.)":"-","Total Cost (Rs.)":"50,000.00","Contributions (Local Community, LA, Project)":"Local/Central governments","Time frame for the implementation":"0.5 Years","photopath":"Not_Available"},"geometry":{"type":"Point","coordinates":[80.758065,7.3264257]}},
{"type":"Feature","properties":{"No.":19,"GND No.":781,"GN Division":"Bobebila","Non-point sources of pollution":"Informal disposal of houshold wastes/garbage","N":7.3462914,"E":80.7724671,"Point sources of pollution":"-","Add. N ":"-","Add. E ":"-","Recommended water quality improvement measures":"Preparing a separate place in homegardens for disposing houshold waste,Awareness programme on how to disposal household waste properly and converting them to usable products such as compost,Facilitating garbage collection","Unit Cost (Rs.)":"-","Total Cost (Rs.)":"50,000.00","Contributions (Local Community, LA, Project)":"Local/Central governments","Time frame for the implementation":"0.5 Years","photopath":"https://raw.githubusercontent.com/MWS003-GIS/MWS003-GIS.github.io/main/IWWRMP/Data/EXD/200_photo/MWS_091/Waste Dispose in Town.jpg"},"geometry":{"type":"Point","coordinates":[80.7724671,7.3462914]}}
]}