{"type":"FeatureCollection","name":"WSP","crs":{"type":"name","properties":{"name":"urn:ogc:def:crs:OGC:1.3:CRS84"}},"features":[
{"type":"Feature","properties":{"No":1,"GND No.":747,"Name of the Tank":"Near the Mr. Kumaragama's house","N":7.361903,"E":80.749795,"Observation":"A well built of rubble 1.5m long and 1.5m wide. The water from this well has been used for drinking and bathing about 20 families","Description":"Site preparation & setting out\n\nEarth excavation for foundation or quarry \nmaterials and haul the surplus materials up to \n30m by Manually - For new well\n\n150mm x 225mm Random Rubble masonry work in 1:5 cement and sand mortar in structures- For new well","Amount (Rs.)":"80,300.00","photopath":"https://raw.githubusercontent.com/MWS003-GIS/MWS003-GIS.github.io/main/IWWRMP/Data/EXD/200_photo/MWS_091/Well near the Kumaragama's House.jpg"},"geometry":{"type":"Point","coordinates":[80.749795,7.361903]}},
{"type":"Feature","properties":{"No":2,"GND No.":747,"Name of the Tank":"Pahalagama Medakumburahena spring","N":7.363154,"E":80.749468,"Observation":"A well built of rubble 1.8m long and 1.8m wide. The water from this well has been used for drinking and bathing about 12 families. The existing tank is in a dilapidated condition.","Description":"150mm x 225mm Random Rubble masonry work in 1:5 cement and sand mortar in structures- For well \n\nPlaster 12mm thick in 1:3 cement and sand \nfinished smooth with gray cement floating-For well\n\nMiscellaneous\n\nContingencies 10%)","Amount (Rs.)":"40,150.00","photopath":"https://raw.githubusercontent.com/MWS003-GIS/MWS003-GIS.github.io/main/IWWRMP/Data/EXD/200_photo/MWS_091/Pahalagama Medakumburahena Well.jpg"},"geometry":{"type":"Point","coordinates":[80.749468,7.363154]}},
{"type":"Feature","properties":{"No":3,"GND No.":750,"Name of the Tank":"Kambiadiya well","N":7.354291,"E":80.757868,"Observation":"A semicircular well with a diameter of 2.5m, Only the diameter side of the well, wich is 2.5m long, is constructed wall with bricks. About 50 families use water for bathing.","Description":"Well Cleaning and construct the damage parts of the well wall\n\nPlaster 12mm thick in 1:3 cement and sand \nfinished smooth with gray cement floating-For well walll\n\n1:3:6 (40mm) concrete manual mix (volume batching)- Pavement around the well\n\n Fabricating","Amount (Rs.)":"79,200.00","photopath":"https://raw.githubusercontent.com/MWS003-GIS/MWS003-GIS.github.io/main/IWWRMP/Data/EXD/200_photo/MWS_091/Kambiadiya Well.jpg"},"geometry":{"type":"Point","coordinates":[80.757868,7.354291]}},
{"type":"Feature","properties":{"No":4,"GND No.":750,"Name of the Tank":"Etawarapitiya well","N":7.355449,"E":80.75705,"Observation":"A well built of rubble 1.5m long and 1.5m wide. The water from this well has been used for drinking and bathing about 15 families. The existing tank is not sufficient.","Description":"Demolishing and removing collapsed\nconcrete lining 30 m away from\nreservation- Existing well\n\nExpand the Existing Well\n\nEarth excavation for foundation or quarry \nmaterials and haul the surplus materials up to \n30m by Manually\n\n150mm x 225mm Random Rubbl","Amount (Rs.)":"39,600.00","photopath":"https://raw.githubusercontent.com/MWS003-GIS/MWS003-GIS.github.io/main/IWWRMP/Data/EXD/200_photo/MWS_091/Atawarapitiya Well.jpg"},"geometry":{"type":"Point","coordinates":[80.75705,7.355449]}},
{"type":"Feature","properties":{"No":5,"GND No.":750,"Name of the Tank":"Gorakaella Well","N":7.350718,"E":80.756495,"Observation":"A 3.7m long concrete wall is constructed and transformed into a small pond, providing drinking water for about 6 families.","Description":"Fabricating & fixing security weld mesh in open\ntype buildings in GI weld mesh 50mm x 50mm \nSWG 10, welded on 40mm x 40mm x 5mm \nangle frame complete with application of two \ncoats enamel paint over two coats of \nanticorrosive paint and complete.\n All a","Amount (Rs.)":"63,800.00","photopath":"https://raw.githubusercontent.com/MWS003-GIS/MWS003-GIS.github.io/main/IWWRMP/Data/EXD/200_photo/MWS_091/Gorakaela Well.jpg"},"geometry":{"type":"Point","coordinates":[80.756495,7.350718]}},
{"type":"Feature","properties":{"No":6,"GND No.":750,"Name of the Tank":"Kambiadiya well","N":7.354291,"E":80.757868,"Observation":"There is a very small reserve area above the well","Description":"Vegetative cover improving around structures (5m x 10m) with Areca nut seedling in 1.5m x \n1.5m grid, Kumbuk/ Mee/ Godapara/ Kaduru/ Aththikka/ Wal Del/ Kekuna/ randomly mixed \nseedlings and planting at 3.5m x 3.5 m grid interval","Amount (Rs.)":"48,400.00","photopath":"https://raw.githubusercontent.com/MWS003-GIS/MWS003-GIS.github.io/main/IWWRMP/Data/EXD/200_photo/MWS_091/Kambiadiya Well.jpg"},"geometry":{"type":"Point","coordinates":[80.757868,7.354291]}},
{"type":"Feature","properties":{"No":7,"GND No.":751,"Name of the Tank":"Spring above the road leading to Handicraft houses, Maneluwa","N":7.349007,"E":80.743827,"Observation":"The tank near the spring has been constructed using concrete rings with diameter of 900mm. About 35 families use water in formally using pipes.","Description":"RCC supn pipes 36\" dia\n\nCover slab preparation\n\nSupply and laying 25 mm dia pvc pipe line in plain ended type in PN-11 rate including socket, solvent, cement and etc.\n\nMiscellaneous\n\nContingencies 10%)","Amount (Rs.)":"86,900.00","photopath":"https://raw.githubusercontent.com/MWS003-GIS/MWS003-GIS.github.io/main/IWWRMP/Data/EXD/200_photo/MWS_091/Spring above Handicraft Houses 1.jpg"},"geometry":{"type":"Point","coordinates":[80.743827,7.349007]}},
{"type":"Feature","properties":{"No":8,"GND No.":752,"Name of the Tank":"Uurakote Linda (not a drinking water source)","N":7.345827,"E":80.759304,"Observation":"A well built of rubble 2.0m long and 2.0m wide. The water from this well has been used for bathing.","Description":"150mm x 225mm Random Rubble masonry work in 1:5 cement and sand mortar in structures- For well wall riasen\n\nPlaster 12mm thick in 1:3 cement and sand \nfinished smooth with gray cement floating-Nfor well walls\n\n1:3:6 (40mm) concrete manual mix (volume bat","Amount (Rs.)":"26,950.00","photopath":"https://raw.githubusercontent.com/MWS003-GIS/MWS003-GIS.github.io/main/IWWRMP/Data/EXD/200_photo/MWS_091/Urakote Well.jpg"},"geometry":{"type":"Point","coordinates":[80.759304,7.345827]}},
{"type":"Feature","properties":{"No":9,"GND No.":752,"Name of the Tank":"Conserve the Uurakote well","N":7.345827,"E":80.759304,"Observation":"A well built of rubble 2.0m long and 2.0m wide. The water from this well has been used for bathing.","Description":"150mm x 225mm Random Rubble masonry work in 1:5 cement and sand mortar in structures- For well wall riasen\n\nPlaster 12mm thick in 1:3 cement and sand \nfinished smooth with gray cement floating-Nfor well walls\n\n1:3:6 (40mm) concrete manual mix (volume bat","Amount (Rs.)":"27,500.00","photopath":"https://raw.githubusercontent.com/MWS003-GIS/MWS003-GIS.github.io/main/IWWRMP/Data/EXD/200_photo/MWS_091/Urakote Well.jpg"},"geometry":{"type":"Point","coordinates":[80.759304,7.345827]}},
{"type":"Feature","properties":{"No":10,"GND No.":753,"Name of the Tank":"Nil Diya Dahara community water project","N":7.354694,"E":80.775614,"Observation":"A 25000liter water storage tank has been constructed and the water stored in that tank is distributed to the villages located in downstream area.Bt the new section of the Elagolla estate has not been supplied water. A new water storage tank has been cons","Description":"Supply and laying 50 mm dia pvc pipe line in plain ended type in PN-11 rate including socket, solvent, cement and etc.\n\nMiscellaneous\n\nContingencies 10%)","Amount (Rs.)":"172,700.00","photopath":"https://raw.githubusercontent.com/MWS003-GIS/MWS003-GIS.github.io/main/IWWRMP/Data/EXD/200_photo/MWS_091/Nildiyadahara WP New Tant.jpg"},"geometry":{"type":"Point","coordinates":[80.775614,7.354694]}},
{"type":"Feature","properties":{"No":11,"GND No.":753,"Name of the Tank":"Spring near the Vipulananda Tamil School","N":7.352852,"E":80.781719,"Observation":"No tank has been built. Water is obtained using a 2\" GI pipes.","Description":"Water Stock tank construction\n\nSite preparation & setting out\n\nPlywood form work including making, fixing & \nremoving for structure ?05 uses\n\nCutting, Bending & Placing tor steel \nreinforcement bars\n\n1:2:4 concrete with concrete mixer  (volume \nbatching)","Amount (Rs.)":"312,950.00","photopath":"https://raw.githubusercontent.com/MWS003-GIS/MWS003-GIS.github.io/main/IWWRMP/Data/EXD/200_photo/MWS_091/Spring Near The Vipulananda Tamil School 2.jpg"},"geometry":{"type":"Point","coordinates":[80.781719,7.352852]}},
{"type":"Feature","properties":{"No":12,"GND No.":754,"Name of the Tank":"Alupotha well","N":7.338878,"E":80.759295,"Observation":"The existing well that has been constructed is in a dilapidated condition and needs to be developed. A large number of people use this well during the dry season.","Description":"Clean arround the well and repair\n\nPlaster 12mm thick in 1:3 cement and sand \nfinished smooth with gray cement floating\n\nMiscellaneous\n\nContingencies 10%)","Amount (Rs.)":"33,550.00","photopath":"https://raw.githubusercontent.com/MWS003-GIS/MWS003-GIS.github.io/main/IWWRMP/Data/EXD/200_photo/MWS_091/Alupotha Well.jpg"},"geometry":{"type":"Point","coordinates":[80.759295,7.338878]}},
{"type":"Feature","properties":{"No":13,"GND No.":755,"Name of the Tank":"Putuhapuwa pihilla","N":7.337223,"E":80.756619,"Observation":"This spring has been newly developed formally. About 75 families use it for bathing.","Description":"Vegetative cover improving around structures (5m x 10m) with Areca nut seedling in 1.5m x \n1.5m grid, Kumbuk/ Mee/ Godapara/ Kaduru/ Aththikka/ Wal Del/ Kekuna/ randomly mixed \nseedlings and planting at 3.5m x 3.5 m grid interval","Amount (Rs.)":"72,600.00","photopath":"https://raw.githubusercontent.com/MWS003-GIS/MWS003-GIS.github.io/main/IWWRMP/Data/EXD/200_photo/MWS_091/Putuhapuwa Pihilla.jpg"},"geometry":{"type":"Point","coordinates":[80.756619,7.337223]}},
{"type":"Feature","properties":{"No":14,"GND No.":755,"Name of the Tank":"Heen pihilla","N":7.338278,"E":80.75868,"Observation":"This spring has been newly developed formally. About 20 families use it for bathing.","Description":"Vegetative cover improving around structures (5m x 10m) with Areca nut seedling in 1.5m x \n1.5m grid, Kumbuk/ Mee/ Godapara/ Kaduru/ Aththikka/ Wal Del/ Kekuna/ randomly mixed \nseedlings and planting at 3.5m x 3.5 m grid interval","Amount (Rs.)":"48,400.00","photopath":"https://raw.githubusercontent.com/MWS003-GIS/MWS003-GIS.github.io/main/IWWRMP/Data/EXD/200_photo/MWS_091/Heen Pihilla.jpg"},"geometry":{"type":"Point","coordinates":[80.75868,7.338278]}},
{"type":"Feature","properties":{"No":15,"GND No.":755,"Name of the Tank":"Putuhapuwa pihilla","N":7.337223,"E":80.756619,"Observation":"There is a very small reserve area around the spring","Description":"Vegetative cover improving around structures (5m x 10m) with Areca nut seedling in 1.5m x \n1.5m grid, Kumbuk/ Mee/ Godapara/ Kaduru/ Aththikka/ Wal Del/ Kekuna/ randomly mixed \nseedlings and planting at 3.5m x 3.5 m grid interval","Amount (Rs.)":"36,300.00","photopath":"https://raw.githubusercontent.com/MWS003-GIS/MWS003-GIS.github.io/main/IWWRMP/Data/EXD/200_photo/MWS_091/Putuhapuwa Pihilla.jpg"},"geometry":{"type":"Point","coordinates":[80.756619,7.337223]}},
{"type":"Feature","properties":{"No":16,"GND No.":757,"Name of the Tank":"'Akkra 80'","N":7.338195,"E":80.745895,"Observation":"-","Description":"Water Stock tank construction\n\nSite preparation & setting out\n\nPlywood form work including making, fixing & \nremoving for structure ?05 uses\n\nCutting, Bending & Placing tor steel \nreinforcement bars\n\n 1:2:4 concrete with concrete mixer  (volume \nbatching","Amount (Rs.)":"594,000.00","photopath":"https://raw.githubusercontent.com/MWS003-GIS/MWS003-GIS.github.io/main/IWWRMP/Data/EXD/200_photo/MWS_091/Akkara 80 - New Tube Well Location.jpg"},"geometry":{"type":"Point","coordinates":[80.745895,7.338195]}},
{"type":"Feature","properties":{"No":17,"GND No.":757,"Name of the Tank":"water tank of 'Akkra 80'","N":7.338195,"E":80.745895,"Observation":"A tank of 2.2m x 2.2m x 1.6m is constructed by using bricks  near the spring, The existing tank is in adilapidated condition.About 35 families obtain water for bathing and driking. Proposes to built a new tank.","Description":"Water Stock tank construction\n\nSite preparation & setting out\n\nPlywood form work including making, fixing & \nremoving for structure ?05 uses\n\nCutting, Bending & Placing tor steel \nreinforcement bars\n\n 1:2:4 concrete with concrete mixer  (volume \nbatching","Amount (Rs.)":"760,100.00","photopath":"https://raw.githubusercontent.com/MWS003-GIS/MWS003-GIS.github.io/main/IWWRMP/Data/EXD/200_photo/MWS_091/Akkara 80 Water Tank.jpg"},"geometry":{"type":"Point","coordinates":[80.745895,7.338195]}},
{"type":"Feature","properties":{"No":18,"GND No.":758,"Name of the Tank":"Kahatakose Well","N":7.331981,"E":80.750149,"Observation":"A well of 2.4m x 1.9m is Constructed. The well wall and surrounding basin should be minor repaired. ( plaster damaged in some places and water seeps from the wall of the well.)  Abot 50 families water is used for bathing.","Description":"Plaster 12mm thick in 1:3 cement and sand \nfinished smooth with gray cement floating-Well walls\n\n1:3:6 (40mm) concrete manual mix (volume batching)- Pavement around the well\n\n Fabricating & fixing security weld mesh in open\ntype buildings in GI weld mesh","Amount (Rs.)":"61,160.00","photopath":"https://raw.githubusercontent.com/MWS003-GIS/MWS003-GIS.github.io/main/IWWRMP/Data/EXD/200_photo/MWS_091/Kahatakose Well.jpg"},"geometry":{"type":"Point","coordinates":[80.750149,7.331981]}},
{"type":"Feature","properties":{"No":19,"GND No.":758,"Name of the Tank":"'Boundary of 'Akkra 80'","N":7.336061,"E":80.747889,"Observation":"A well of 1.5m long and 1.5m wide  is Constructed of rubble masonry.. The well wall and surrounding basin should be minor repaired. ( Plaster damaged in some places and water seeps from the wall of the well.)  Abot 30 families water is used for Drinking","Description":"Plaster 12mm thick in 1:3 cement and sand \nfinished smooth with gray cement floating-Well walls\n\n1:3:6 (40mm) concrete manual mix (volume batching)- Pavement around the well\n\n Fabricating & fixing security weld mesh in open\ntype buildings in GI weld mesh","Amount (Rs.)":"37,400.00","photopath":"https://raw.githubusercontent.com/MWS003-GIS/MWS003-GIS.github.io/main/IWWRMP/Data/EXD/200_photo/MWS_091/Akkara 80 Boundary Well.jpg"},"geometry":{"type":"Point","coordinates":[80.747889,7.336061]}},
{"type":"Feature","properties":{"No":20,"GND No.":759,"Name of the Tank":"Diganakumbura \"Dulpatha\" spring","N":7.328419,"E":80.761748,"Observation":"A very active, clean spring, A tank of 3.0m x 1.5m x 1.2m is constructed by using concrete near the spring, The existing tank is in a good condition. About 500 families obtain water for bathing and driking. Proposes to built a new tank.","Description":"Water Stock tank construction\n\nSite preparation & setting out\n\nPlywood form work including making, fixing & \nremoving for structure ?05 uses\n\nCutting, Bending & Placing tor steel \nreinforcement bars\n\n 1:2:4 concrete with concrete mixer  (volume \nbatching","Amount (Rs.)":"277,750.00","photopath":"https://raw.githubusercontent.com/MWS003-GIS/MWS003-GIS.github.io/main/IWWRMP/Data/EXD/200_photo/MWS_091/Duulpana Spring.jpg"},"geometry":{"type":"Point","coordinates":[80.761748,7.328419]}},
{"type":"Feature","properties":{"No":21,"GND No.":760,"Name of the Tank":"Well in Mr. Lasantha Piyasiri's land","N":7.326186,"E":80.750532,"Observation":"A well of 1.2m long,  1.2m wide and 1.6m depth  is Constructed of concrete. About 25 families obtain water for drinking and household needs. Water is leaking from the well walls.","Description":"Repair the well walls\n\n Fabricating & fixing security weld mesh in open\ntype buildings in GI weld mesh 50mm x 50mm \nSWG 10, welded on 40mm x 40mm x 5mm \nangle frame complete with application of two \ncoats enamel paint over two coats of \nanticorrosive pai","Amount (Rs.)":"27,500.00","photopath":"https://raw.githubusercontent.com/MWS003-GIS/MWS003-GIS.github.io/main/IWWRMP/Data/EXD/200_photo/MWS_091/Well in Lasantha Piyasiri's Land.jpg"},"geometry":{"type":"Point","coordinates":[80.750532,7.326186]}},
{"type":"Feature","properties":{"No":22,"GND No.":761,"Name of the Tank":"Madapola Well","N":7.317423,"E":80.756236,"Observation":"The well was built with a diameter of 2.1m. During the dry season, about 40 families use the well for drinking and bathing. The well is in good condition.","Description":"Plaster 12mm thick in 1:3 cement and sand \nfinished smooth with gray cement floating-Well wall\n\n1:3:6 (40mm) concrete manual mix (volume batching)- Pavement around the well\n\n Fabricating & fixing security weld mesh in open\ntype buildings in GI weld mesh","Amount (Rs.)":"47,850.00","photopath":"https://raw.githubusercontent.com/MWS003-GIS/MWS003-GIS.github.io/main/IWWRMP/Data/EXD/200_photo/MWS_091/Madapola well.jpg"},"geometry":{"type":"Point","coordinates":[80.756236,7.317423]}},
{"type":"Feature","properties":{"No":23,"GND No.":761,"Name of the Tank":"Polwatta Tube Well","N":7.318848,"E":80.760194,"Observation":"The pump in the tube well is broken","Description":"Repair the pump of the tube well\n\nContingencies 10%)","Amount (Rs.)":"22,000.00","photopath":"https://raw.githubusercontent.com/MWS003-GIS/MWS003-GIS.github.io/main/IWWRMP/Data/EXD/200_photo/MWS_091/Tube Well Polwatta.jpg"},"geometry":{"type":"Point","coordinates":[80.760194,7.318848]}},
{"type":"Feature","properties":{"No":24,"GND No.":761,"Name of the Tank":"Polwatta Well","N":7.317958,"E":80.760437,"Observation":"A well of 1.6m long,  1.5m wide and 2.5m, The well is in good condition.","Description":"Fabricating & fixing security weld mesh in open\ntype buildings in GI weld mesh 50mm x 50mm \nSWG 10, welded on 40mm x 40mm x 5mm \nangle frame complete with application of two \ncoats enamel paint over two coats of \nanticorrosive paint and complete.\n All as","Amount (Rs.)":"27,500.00","photopath":"https://raw.githubusercontent.com/MWS003-GIS/MWS003-GIS.github.io/main/IWWRMP/Data/EXD/200_photo/MWS_091/Polwatta Well.jpg"},"geometry":{"type":"Point","coordinates":[80.760437,7.317958]}},
{"type":"Feature","properties":{"No":25,"GND No.":761,"Name of the Tank":"Madapola Middle Well","N":7.318996,"E":80.758631,"Observation":"A well of 1.5m long,  1.2m wide and 1.5m depth  is rubble masonry.  About 30 families obtain water for bathing. Water is leaking from the well walls.","Description":"Well repair\n\nFabricating & fixing security weld mesh in open\ntype buildings in GI weld mesh 50mm x 50mm \nSWG 10, welded on 40mm x 40mm x 5mm \nangle frame complete with application of two \ncoats enamel paint over two coats of \nanticorrosive paint and comp","Amount (Rs.)":"31,900.00","photopath":"https://raw.githubusercontent.com/MWS003-GIS/MWS003-GIS.github.io/main/IWWRMP/Data/EXD/200_photo/MWS_091/Madapola well.jpg"},"geometry":{"type":"Point","coordinates":[80.758631,7.318996]}},
{"type":"Feature","properties":{"No":26,"GND No.":761,"Name of the Tank":"Well near Ekanayake House","N":7.319518,"E":80.756587,"Observation":"A well of 1.8m long,  1.8m wide and 1.5m depth  is Constructed of concrete. About 20 families obtain water for bathing and household needs. Water is leaking from the well walls.","Description":"1:3:6 (40mm) concrete manual mix (volume batching)- well walls\n\nFabricating & fixing security weld mesh in open\ntype buildings in GI weld mesh 50mm x 50mm \nSWG 10, welded on 40mm x 40mm x 5mm \nangle frame complete with application of two \ncoats enamel pa","Amount (Rs.)":"110,220.00","photopath":"https://raw.githubusercontent.com/MWS003-GIS/MWS003-GIS.github.io/main/IWWRMP/Data/EXD/200_photo/MWS_091/Well near the Ekanayake House.jpg"},"geometry":{"type":"Point","coordinates":[80.756587,7.319518]}},
{"type":"Feature","properties":{"No":27,"GND No.":761,"Name of the Tank":"Well in Rajagura Watte Gedara","N":7.320666,"E":80.75733,"Observation":"The well was built with a diameter of 1.2m. The well is in a good condition, About 10 families obtain water using two 1\"- water pumps","Description":"Fabricating & fixing security weld mesh in open\ntype buildings in GI weld mesh 50mm x 50mm \nSWG 10, welded on 40mm x 40mm x 5mm \nangle frame complete with application of two \ncoats enamel paint over two coats of \nanticorrosive paint and complete.\n All as","Amount (Rs.)":"13,200.00","photopath":"https://raw.githubusercontent.com/MWS003-GIS/MWS003-GIS.github.io/main/IWWRMP/Data/EXD/200_photo/MWS_091/Rajaguruwatta Well.jpg"},"geometry":{"type":"Point","coordinates":[80.75733,7.320666]}},
{"type":"Feature","properties":{"No":28,"GND No.":761,"Name of the Tank":"Tube Well near Ms. Mery's House","N":7.322878,"E":80.75781,"Observation":"The pump in the tube well is broken","Description":"Repair the pump of the tube well\n\nContingencies 10%)","Amount (Rs.)":"22,000.00","photopath":"https://raw.githubusercontent.com/MWS003-GIS/MWS003-GIS.github.io/main/IWWRMP/Data/EXD/200_photo/MWS_091/Tube well near the Mery's House.jpg"},"geometry":{"type":"Point","coordinates":[80.75781,7.322878]}},
{"type":"Feature","properties":{"No":29,"GND No.":774,"Name of the Tank":"Beligolla water tank","N":7.319284,"E":80.772071,"Observation":"A square well, 4.8m long and 2.4m wide, is constructed and divided in to equal two parts. On two sides of the well, 1.5m wide pavement has been constructed and covering wall also has been constructed. About 35 families use the water for bathing. The wall","Description":"Plaster 12mm thick in 1:3 cement and sand \nfinished smooth with gray cement floating-Well wall\n\n1:3:6 (40mm) concrete manual mix (volume batching)- Pavement around the well\n\nMarking reservations\n\nVegetative cover improving around structures (5m x 10m) wi","Amount (Rs.)":"51,700.00","photopath":"https://raw.githubusercontent.com/MWS003-GIS/MWS003-GIS.github.io/main/IWWRMP/Data/EXD/200_photo/MWS_091/Beligolla Spring & Well.jpg"},"geometry":{"type":"Point","coordinates":[80.772071,7.319284]}},
{"type":"Feature","properties":{"No":30,"GND No.":774,"Name of the Tank":"Urakote Well","N":7.316491,"E":80.774189,"Observation":"Water storage tanks are constructed and water is obtained systermatically.","Description":"Construction of 1.0m high 1:3:6 (40mm) cement concrete Retaining Wall","Amount (Rs.)":"79,200.00","photopath":"https://raw.githubusercontent.com/MWS003-GIS/MWS003-GIS.github.io/main/IWWRMP/Data/EXD/200_photo/MWS_091/Urakote Well 1.jpg"},"geometry":{"type":"Point","coordinates":[80.774189,7.316491]}},
{"type":"Feature","properties":{"No":31,"GND No.":774,"Name of the Tank":"More water tank","N":7.329358,"E":80.764305,"Observation":"`The water storage tank has been newly constructed. The spring is located in the reserve, 500m above the water tank","Description":"Vegetative cover improving around structures (5m x 10m) with Areca nut seedling in 1.5m x \n1.5m grid, Kumbuk/ Mee/ Godapara/ Kaduru/ Aththikka/ Wal Del/ Kekuna/ randomly mixed \nseedlings and planting at 3.5m x 3.5 m grid interval","Amount (Rs.)":"48,400.00","photopath":"https://raw.githubusercontent.com/MWS003-GIS/MWS003-GIS.github.io/main/IWWRMP/Data/EXD/200_photo/MWS_091/More Well and Spring.jpg"},"geometry":{"type":"Point","coordinates":[80.764305,7.329358]}},
{"type":"Feature","properties":{"No":32,"GND No.":774,"Name of the Tank":"Beligolla water tank","N":7.319284,"E":80.772071,"Observation":"-","Description":"Marking reservations\n\nVegetative cover improving around structures (5m x 10m) with Areca nut seedling in 1.5m x \n1.5m grid, Kumbuk/ Mee/ Godapara/ Kaduru/ Aththikka/ Wal Del/ Kekuna/ randomly mixed \nseedlings and planting at 3.5m x 3.5 m grid interval\n\n","Amount (Rs.)":"48,620.00","photopath":"https://raw.githubusercontent.com/MWS003-GIS/MWS003-GIS.github.io/main/IWWRMP/Data/EXD/200_photo/MWS_091/Beligolla Spring & Well.jpg"},"geometry":{"type":"Point","coordinates":[80.772071,7.319284]}},
{"type":"Feature","properties":{"No":33,"GND No.":774,"Name of the Tank":"More water tank","N":7.329358,"E":80.764305,"Observation":"-","Description":"Vegetative cover improving around structures (5m x 10m) with Areca nut seedling in 1.5m x \n1.5m grid, Kumbuk/ Mee/ Godapara/ Kaduru/ Aththikka/ Wal Del/ Kekuna/ randomly mixed \nseedlings and planting at 3.5m x 3.5 m grid interval","Amount (Rs.)":"48,400.00","photopath":"https://raw.githubusercontent.com/MWS003-GIS/MWS003-GIS.github.io/main/IWWRMP/Data/EXD/200_photo/MWS_091/More Well and Spring.jpg"},"geometry":{"type":"Point","coordinates":[80.764305,7.329358]}},
{"type":"Feature","properties":{"No":34,"GND No.":779,"Name of the Tank":"Well at Getagahawalawatta","N":7.337279,"E":80.770212,"Observation":"A well of 2.0m long,  2.0m wide and 1.5m depth  is rubble masonry.  About 10 families obtain water for bathing. Water is leaking from the well walls.","Description":"Plaster 12mm thick in 1:3 cement and sand \nfinished smooth with gray cement floating-Well wall\n\n1:3:6 (40mm) concrete manual mix (volume batching)- Pavement around the well\n\nFabricating & fixing security weld mesh in open\ntype buildings in GI weld mesh 5","Amount (Rs.)":"65,010.00","photopath":"https://raw.githubusercontent.com/MWS003-GIS/MWS003-GIS.github.io/main/IWWRMP/Data/EXD/200_photo/MWS_091/Getagahawela Common Well.jpg"},"geometry":{"type":"Point","coordinates":[80.770212,7.337279]}},
{"type":"Feature","properties":{"No":35,"GND No.":780,"Name of the Tank":"Well near the Thalgaspitiye Kadura","N":7.338726,"E":80.769967,"Observation":"A well with an eight foot diameter has been constructed 75m below the spring. Water is used informally from the spring using pipes. Request to build a new tank.","Description":"Water Stock tank construction\n\nSite preparation & setting out\n\nPlywood form work including making, fixing & \nremoving for structure ?05 uses\n\nCutting, Bending & Placing tor steel \nreinforcement bars\n\n 1:2:4 concrete with concrete mixer  (volume \nbatching","Amount (Rs.)":"196,900.00","photopath":"Not_Available"},"geometry":{"type":"Point","coordinates":[80.769967,7.338726]}},
{"type":"Feature","properties":{"No":36,"GND No.":781,"Name of the Tank":"Lunugala Estate Division","N":7.341009,"E":80.779554,"Observation":"A water storage tank 2.0m long, 2.0m wide and 1.5m high has been constructed and  a cover slab has been installed. From that tak, water is collected and distributed through a 1\" diameter pipe to water to a water storage tank located below. About 50 famil","Description":"Water Stock tank construction\n\nSite preparation & setting out\n\nPlywood form work including making, fixing & \nremoving for structure ?05 uses\n\nCutting, Bending & Placing tor steel \nreinforcement bars\n\n  1:2:4 concrete with concrete mixer  (volume \nbatchin","Amount (Rs.)":"276,650.00","photopath":"Not_Available"},"geometry":{"type":"Point","coordinates":[80.779554,7.341009]}},
{"type":"Feature","properties":{"No":37,"GND No.":781,"Name of the Tank":"Lunugala Plantation Division","N":7.341009,"E":80.779554,"Observation":"Although the spring is located in Tea Estate, there is aprotected area for the spring","Description":"Vegetative cover improving around structures (5m x 10m) with Areca nut seedling in 1.5m x \n1.5m grid, Kumbuk/ Mee/ Godapara/ Kaduru/ Aththikka/ Wal Del/ Kekuna/ randomly mixed \nseedlings and planting at 3.5m x 3.5 m grid interval","Amount (Rs.)":"48,400.00","photopath":"https://raw.githubusercontent.com/MWS003-GIS/MWS003-GIS.github.io/main/IWWRMP/Data/EXD/200_photo/MWS_091/Spring in Lunugala Division.jpg"},"geometry":{"type":"Point","coordinates":[80.779554,7.341009]}},
{"type":"Feature","properties":{"No":38,"GND No.":781,"Name of the Tank":"Heen pihilla","N":7.338278,"E":80.75868,"Observation":"There is a very small reserve area around the spring","Description":"Vegetative cover improving around structures (5m x 10m) with Areca nut seedling in 1.5m x \n1.5m grid, Kumbuk/ Mee/ Godapara/ Kaduru/ Aththikka/ Wal Del/ Kekuna/ randomly mixed \nseedlings and planting at 3.5m x 3.5 m grid interval","Amount (Rs.)":"48,400.00","photopath":"Not_Available"},"geometry":{"type":"Point","coordinates":[80.75868,7.338278]}}
]}