{"type":"FeatureCollection","name":"DWS","crs":{"type":"name","properties":{"name":"urn:ogc:def:crs:OGC:1.3:CRS84"}},"features":[
{"type":"Feature","properties":{"No":3,"GND No.":864,"Scheme":"Metiwalathenna Seva piyasa","N":7.25839,"E":80.90385,"Observation":"The water problem is exacerbated during the dry season","Description":"Drilling of tube well (5m deep) with supplying and fixing of 0.5 HP x 4\" Dia tube well pump including all necessery connections and constructing a protective cell for the pump and mounting the same to good working order in 02 suitable locations\n\nMiscella","Estimated Cost":"289,300.00","photopath":"https://raw.githubusercontent.com/MWS003-GIS/MWS003-GIS.github.io/main/IWWRMP/Data/EXD/200_photo/MWS_076/Propsed Tube well  sevapiyasa land.jpg"},"geometry":{"type":"Point","coordinates":[80.90385,7.25839]}},
{"type":"Feature","properties":{"No":4,"GND No.":864,"Scheme":"Metiwalathenna village","N":7.26233,"E":80.901071,"Observation":"The water problem is exacerbated during the dry season","Description":"Drilling of tube well (5m deep) with supplying and fixing of 0.5 HP x 4\" Dia tube well pump including all necessery connections and constructing a protective cell for the pump and mounting the same to good working order in 02 suitable locations\n\nMiscella","Estimated Cost":"289,300.00","photopath":"https://raw.githubusercontent.com/MWS003-GIS/MWS003-GIS.github.io/main/IWWRMP/Data/EXD/200_photo/MWS_076/Proposed Tube well Metiwala thanna.jpg"},"geometry":{"type":"Point","coordinates":[80.901071,7.26233]}},
{"type":"Feature","properties":{"No":5,"GND No.":864,"Scheme":"Hapukanda West","N":7.283972,"E":80.90441,"Observation":"The water problem is exacerbated during the dry season","Description":"Drilling of tube well (5m deep) with supplying and fixing of 0.5 HP x 4\" Dia tube well pump including all necessery connections and constructing a protective cell for the pump and mounting the same to good working order in 02 suitable locations\n\nMiscella","Estimated Cost":"289,300.00","photopath":"https://raw.githubusercontent.com/MWS003-GIS/MWS003-GIS.github.io/main/IWWRMP/Data/EXD/200_photo/MWS_076/Propsed Tube well Hapukanda west..jpg"},"geometry":{"type":"Point","coordinates":[80.90441,7.283972]}},
{"type":"Feature","properties":{"No":1,"GND No.":865,"Scheme":"At the temple (Main pipe)","N":7.276871,"E":80.903315,"Observation":"The  water tank is constructed (3.5m x 3.5m x 2..2m, L*W*H) and drinking water is distributed. But no water filtering system","Description":"Construction of 2.5 m  x 2.5 m x 1.5 m (L x W x h) Filter tank \n\nSite preparation & setting out\n\nPlywood form work including making, fixing & removing for structure -05 uses\n\nCutting, Bending & Placing tor steel reinforcement bars\n\n1:2:4 (20mm) concrete","Estimated Cost":"489,500.00","photopath":"https://raw.githubusercontent.com/MWS003-GIS/MWS003-GIS.github.io/main/IWWRMP/Data/EXD/200_photo/MWS_076/Temple Tube well.jpg"},"geometry":{"type":"Point","coordinates":[80.903315,7.276871]}},
{"type":"Feature","properties":{"No":2,"GND No.":866,"Scheme":"From Kalunthenna to the Udapitawala village boundary via Dewahandiya Road","N":7.306059,"E":80.903601,"Observation":"There have a 1000Lts stock tank.and Tube well.","Description":"Extension of the existing 25 mm PVC Pipe line with approval of Education Ministry and RDA\n\nExcavation in trenches lessthan 300mm width in normal earth average depth of not exceeding 1.0m from ground level inclusive of back filling, compacting and disposa","Estimated Cost":"1,709,400.00","photopath":"https://raw.githubusercontent.com/MWS003-GIS/MWS003-GIS.github.io/main/IWWRMP/Data/EXD/200_photo/MWS_076/New water project Tube wlell at Dharmapala school.jpg"},"geometry":{"type":"Point","coordinates":[80.903601,7.306059]}},
{"type":"Feature","properties":{"No":6,"GND No.":867,"Scheme":"Near the community hall of Pitawala Kabarangahathenna area","N":7.280501,"E":80.915992,"Observation":"Drinking water problem","Description":"Drilling of tube well (5m deep) with supplying and fixing of 0.5 HP x 4\" Dia tube well pump including all necessery connections and constructing a protective cell for the pump and mounting the same to good working order in 02 suitable locations\n\nMiscella","Estimated Cost":"145,200.00","photopath":"https://raw.githubusercontent.com/MWS003-GIS/MWS003-GIS.github.io/main/IWWRMP/Data/EXD/200_photo/MWS_076/Proposed Tube well Near the seva piyasa.jpg"},"geometry":{"type":"Point","coordinates":[80.915992,7.280501]}}
]}