{"type":"FeatureCollection","name":"WP","crs":{"type":"name","properties":{"name":"urn:ogc:def:crs:OGC:1.3:CRS84"}},"features":[
{"type":"Feature","properties":{"No.":1,"GND No.":864,"GN Division":"Hapukanda West","Non-point sources of pollution":"Potential to add human waste - Oyee Kade","N":7.2693317,"E":80.9006142,"Point sources of pollution":"-","Add. N ":"-","Add. E ":"-","Recommended water quality improvement measures":"-","Unit Cost (Rs.)":"-","Total Cost (Rs.)":"-","Contributions (Local Community, LA, Project)":"-","Time frame for the implementation":"-","photopath":"Not_Available"},"geometry":{"type":"Point","coordinates":[80.9006142,7.2693317]}},
{"type":"Feature","properties":{"No.":3,"GND No.":866,"GN Division":"Udapitawala","Non-point sources of pollution":"Potential to add human waste - Oyee Kade","N":7.3106891,"E":80.91083,"Point sources of pollution":"-","Add. N ":"-","Add. E ":"-","Recommended water quality improvement measures":"-","Unit Cost (Rs.)":"-","Total Cost (Rs.)":"-","Contributions (Local Community, LA, Project)":"-","Time frame for the implementation":"-","photopath":"Not_Available"},"geometry":{"type":"Point","coordinates":[80.91083,7.3106891]}},
{"type":"Feature","properties":{"No.":5,"GND No.":868,"GN Division":"Pitawala Udagammedda","Non-point sources of pollution":"Potential to add human waste - Rangala and Podawagolla","N":7.2925277,"E":80.9120469,"Point sources of pollution":"-","Add. N ":"-","Add. E ":"-","Recommended water quality improvement measures":"-","Unit Cost (Rs.)":"-","Total Cost (Rs.)":"-","Contributions (Local Community, LA, Project)":"-","Time frame for the implementation":"-","photopath":"Not_Available"},"geometry":{"type":"Point","coordinates":[80.9120469,7.2925277]}},
{"type":"Feature","properties":{"No.":6,"GND No.":868,"GN Division":"Pitawala Udagammedda","Non-point sources of pollution":"Informal disposal of houshold wastes/garbage","N":7.2925277,"E":80.9120469,"Point sources of pollution":"-","Add. N ":"-","Add. E ":"-","Recommended water quality improvement measures":"Preparing a separate place in homegardens for disposing houshold waste,Awareness programme on how to disposal household waste properly and converting them to usable products such as compost,Facilitating garbage collection","Unit Cost (Rs.)":"-","Total Cost (Rs.)":"50,000.00","Contributions (Local Community, LA, Project)":"Local/Central governments","Time frame for the implementation":"0.5 Years","photopath":"Not_Available"},"geometry":{"type":"Point","coordinates":[80.9120469,7.2925277]}}
]}