{"type":"FeatureCollection","name":"MI","crs":{"type":"name","properties":{"name":"urn:ogc:def:crs:OGC:1.3:CRS84"}},"features":[
{"type":"Feature","properties":{"No":1,"GND No.":977,"Scheme":"Palle Kumbura Canal","N":7.20645,"E":80.67726,"Observation":"-","Description":"-","Estimated Cost":"89,550","photopath":"https://raw.githubusercontent.com/MWS003-GIS/MWS003-GIS.github.io/main/IWWRMP/Data/EXD/200_photo/MWS_001/Palugama/pg40.jpg"},"geometry":{"type":"Point","coordinates":[80.67726,7.20645]}},
{"type":"Feature","properties":{"No":3,"GND No.":980,"Scheme":"Kapukotuwa Yaya Anicut","N":7.20469,"E":80.66943,"Observation":"-","Description":"Height of anicut is insufficient and anicut planks are dilapidated. Recommend raising the anicut by concrete capping of 300mm x300mm on the existing weir and concreting the top and end of wing walls (grade 20 concrete =2.3 m3, dowels =60 nos) and providing anicut planks of 2 Sq.m.","Estimated Cost":"148,500","photopath":"https://raw.githubusercontent.com/MWS003-GIS/MWS003-GIS.github.io/main/IWWRMP/Data/EXD/200_photo/MWS_001/Perawatte_East/pn11.jpg"},"geometry":{"type":"Point","coordinates":[80.66943,7.20469]}},
{"type":"Feature","properties":{"No":4,"GND No.":980,"Scheme":"Kapukotuwa Yaya Ela","N":7.20469,"E":80.66943,"Observation":"-","Description":"Seepages towards the field side. (L- 500m). Recommend 1. Earth filling to narrow tracks to form channel bund of 1 - 1.5m wide and length about 200 m.\n2. Protection by turfing sods with vetiver grass rows. or 3. Cultivate edible varieties such as Mukunuwenna, Gotukola, and Thampala along the incline surface. 4. to provide canals reservation protection by\" L \"shape concrete lining of 125mm thick 0.4m wide and 0.5m high and 100m long -single banking.","Estimated Cost":"800,600","photopath":"https://raw.githubusercontent.com/MWS003-GIS/MWS003-GIS.github.io/main/IWWRMP/Data/EXD/200_photo/MWS_001/Perawatte_East/pn12.jpg"},"geometry":{"type":"Point","coordinates":[80.66943,7.20469]}},
{"type":"Feature","properties":{"No":5,"GND No.":976,"Scheme":"Galaha Mahapihilla Ela","N":7.19713,"E":80.67348,"Observation":"-","Description":"Seepages towards the field side. (L- 200m). Recommend 1. Earth filling to narrow tracks to form channel bund of 1 - 1.5m wide and length about 150 m.\n2. Protection by turfing sods with vetiver grass rows. or 3. Cultivate edible varieties such as Mukunuwenna, Gotukola, and Thampala along the incline surface.","Estimated Cost":"134,500","photopath":"https://raw.githubusercontent.com/MWS003-GIS/MWS003-GIS.github.io/main/IWWRMP/Data/EXD/200_photo/MWS_001/Uda_Delthota/ud13.jpg"},"geometry":{"type":"Point","coordinates":[80.67348,7.19713]}},
{"type":"Feature","properties":{"No":6,"GND No.":976,"Scheme":"Ibbanwala Canal","N":7.20143,"E":80.67034,"Observation":"-","Description":"Seepages towards the field side. (L- 200m). Recommend 1. Earth filling to narrow tracks to form channel bund of 1 - 1.5m wide and length about 150 m.\n2. Protection by turfing sods with vetiver grass rows. or 3. plant areca nut seedlings rows in both embankments. ","Estimated Cost":"181,000","photopath":"https://raw.githubusercontent.com/MWS003-GIS/MWS003-GIS.github.io/main/IWWRMP/Data/EXD/200_photo/MWS_001/Uda_Delthota/ud20.jpg"},"geometry":{"type":"Point","coordinates":[80.67034,7.20143]}},
{"type":"Feature","properties":{"No":7,"GND No.":976,"Scheme":"Uda Deltota Canal","N":7.19873,"E":80.67425,"Observation":"-","Description":"Seepages towards the field side. (L- 250m). Recommend 1. Earth filling to narrow tracks to form channel bund of 1 - 1.5m wide and length about 200 m.\n2. Protection by turfing sods with vetiver grass rows. or 3. Cultivate edible varieties such as Mukunuwenna, Gotukola, and Thampala along the incline surface. 3. protection by concrete lining For 100mm thick 0.4m wide and 0.3m high and 100m long canal -single banking","Estimated Cost":"674,500","photopath":"https://raw.githubusercontent.com/MWS003-GIS/MWS003-GIS.github.io/main/IWWRMP/Data/EXD/200_photo/MWS_001/Uda_Delthota/ud27.jpg"},"geometry":{"type":"Point","coordinates":[80.67425,7.19873]}}
]}