{"type":"FeatureCollection","name":"MI","crs":{"type":"name","properties":{"name":"urn:ogc:def:crs:OGC:1.3:CRS84"}},"features":[
{"type":"Feature","properties":{"No":1,"GND No.":"529A","Scheme":"From Stafford to Church","N":7.03874,"E":80.89359,"Observation":"Development of canal","Description":"Canals reservation protection by concrete lining  For  125mm thick , 0.5m  wide  and 0.4m high canal -double banking.Stream / canal  reservation protection by earth filling of  strip   of 1.5m to 2m wide  and average Depth of 0.5m, Turfing to new sloping","Amount (Rs.)":"1,580,000.00","photopath":"https://raw.githubusercontent.com/MWS003-GIS/MWS003-GIS.github.io/main/IWWRMP/Data/EXD/200_photo/MWS_023/Canal from Staford to Church.jpg"},"geometry":{"type":"Point","coordinates":[80.89359,7.03874]}}
]}