{"type":"FeatureCollection","name":"SWC_OFF","crs":{"type":"name","properties":{"name":"urn:ogc:def:crs:OGC:1.3:CRS84"}},"features":[
{"type":"Feature","properties":{"No.":3,"GND No.":"529A","GND Name":"Pandithaya Kumbura","Key Activities proposed for Soil and Water conservation":"1. Renovation of natural drains - Torrent From Staford to Kotambe paddy field","Priority based on Soil Erosion Hazard":"-","N":7.03874,"E":80.89359,"Quantity":"8 km","Proposed measure/s":"Clearing and planting some trees along the banks (Areca nut) and other conservation practices","Total_Cost":"800,000.00","Contribution (Local Community, LA, and the project)":"Labour and other basic services by the Local community/ Shramadana","Time frame for the implementation":"0.5 Years","photopath":"Not_Available"},"geometry":{"type":"Point","coordinates":[80.89359,7.03874]}},
{"type":"Feature","properties":{"No.":4,"GND No.":"529A","GND Name":"Pandithaya Kumbura","Key Activities proposed for Soil and Water conservation":"2. Renovation of natural drains - Garunda Kandura 1","Priority based on Soil Erosion Hazard":"-","N":7.03629,"E":80.89324,"Quantity":"4 km","Proposed measure/s":"Clearing and planting some trees along the banks (Areca nut) and other conservation practices","Total_Cost":"400,000.00","Contribution (Local Community, LA, and the project)":"Labour and other basic services by the Local community/ Shramadana","Time frame for the implementation":"0.5 Years","photopath":"https://raw.githubusercontent.com/MWS003-GIS/MWS003-GIS.github.io/main/IWWRMP/Data/EXD/200_photo/MWS_023/Garunda Kandura.jpg"},"geometry":{"type":"Point","coordinates":[80.89324,7.03629]}},
{"type":"Feature","properties":{"No.":5,"GND No.":"529A","GND Name":"Pandithaya Kumbura","Key Activities proposed for Soil and Water conservation":"3. Renovation of natural drains - Garunda Kandura 2","Priority based on Soil Erosion Hazard":"-","N":7.03677,"E":80.89351,"Quantity":"2 km","Proposed measure/s":"Clearing and planting some trees along the banks (Areca nut, Bamboo, Epala) and other conservation practices","Total_Cost":"200,000.00","Contribution (Local Community, LA, and the project)":"Labour and other basic services by the Local community/ Shramadana","Time frame for the implementation":"0.5 Years","photopath":"https://raw.githubusercontent.com/MWS003-GIS/MWS003-GIS.github.io/main/IWWRMP/Data/EXD/200_photo/MWS_023/Garunda Kandura 2.jpg"},"geometry":{"type":"Point","coordinates":[80.89351,7.03677]}},
{"type":"Feature","properties":{"No.":6,"GND No.":"529A","GND Name":"Pandithaya Kumbura","Key Activities proposed for Soil and Water conservation":"4. Renovation of natural drains - Polwatte Kandura","Priority based on Soil Erosion Hazard":"-","N":7.03017,"E":80.88679,"Quantity":"3 km","Proposed measure/s":"Clearing and planting some trees along the banks (Areca nut) and other conservation practices","Total_Cost":"300,000.00","Contribution (Local Community, LA, and the project)":"Labour and other basic services by the Local community/ Shramadana","Time frame for the implementation":"0.5 Years","photopath":"https://raw.githubusercontent.com/MWS003-GIS/MWS003-GIS.github.io/main/IWWRMP/Data/EXD/200_photo/MWS_023/Polwaththe kandura.jpg"},"geometry":{"type":"Point","coordinates":[80.88679,7.03017]}},
{"type":"Feature","properties":{"No.":14,"GND No.":"533","GND Name":"Ragala","Key Activities proposed for Soil and Water conservation":"1. Renovation of natural drains - Herathpura Canal","Priority based on Soil Erosion Hazard":"-","N":7.007704,"E":80.858265,"Quantity":"2 km","Proposed measure/s":"Clearing and planting some trees along the banks (Areca nut) and other conservation practices. Marking a reservation in both sides.","Total_Cost":"200,000.00","Contribution (Local Community, LA, and the project)":"Labour and other basic services by the Local community/ Shramadana","Time frame for the implementation":"0.25 Years","photopath":"https://raw.githubusercontent.com/MWS003-GIS/MWS003-GIS.github.io/main/IWWRMP/Data/EXD/200_photo/MWS_023/Herathpura kandura.jpg"},"geometry":{"type":"Point","coordinates":[80.858265,7.007704]}},
{"type":"Feature","properties":{"No.":15,"GND No.":"533","GND Name":"Ragala","Key Activities proposed for Soil and Water conservation":"2. Renovation of natural drains - Stream of Staford Division","Priority based on Soil Erosion Hazard":"-","N":7.017615,"E":80.862903,"Quantity":"2.5 km","Proposed measure/s":"Clearing and planting some trees along the banks (Areca nut) and other conservation practices. Marking a reservation in both sides.","Total_Cost":"250,000.00","Contribution (Local Community, LA, and the project)":"Labour and other basic services by the Local community/ Shramadana","Time frame for the implementation":"0.25 Years","photopath":"https://raw.githubusercontent.com/MWS003-GIS/MWS003-GIS.github.io/main/IWWRMP/Data/EXD/200_photo/MWS_023/Stafford kolani kandura.jpg"},"geometry":{"type":"Point","coordinates":[80.862903,7.017615]}},
{"type":"Feature","properties":{"No.":16,"GND No.":"533","GND Name":"Ragala","Key Activities proposed for Soil and Water conservation":"3. Establishing a side/retaining wall - Stream of Staford Division","Priority based on Soil Erosion Hazard":"-","N":7.017615,"E":80.862903,"Quantity":"350 m x 3 m x 0.5 m","Proposed measure/s":"Retaining wall","Total_Cost":"1,050,000.00","Contribution (Local Community, LA, and the project)":"Labour and other basic services by the Local community/ Shramadana","Time frame for the implementation":"0.25 Years","photopath":"Not_Available"},"geometry":{"type":"Point","coordinates":[80.862903,7.017615]}},
{"type":"Feature","properties":{"No.":18,"GND No.":"533A","GND Name":"Samagipura","Key Activities proposed for Soil and Water conservation":"1. Renovation of natural drains - Samagipura Middle of Village ( Diyagala)","Priority based on Soil Erosion Hazard":"-","N":6.989786,"E":80.860777,"Quantity":"4 km","Proposed measure/s":"Clearing and planting some trees along the banks (Areca nut) and other conservation practices","Total_Cost":"400,000.00","Contribution (Local Community, LA, and the project)":"Labour and other basic services by the Local community/ Shramadana","Time frame for the implementation":"0.5 Years","photopath":"Not_Available"},"geometry":{"type":"Point","coordinates":[80.860777,6.989786]}},
{"type":"Feature","properties":{"No.":19,"GND No.":"533A","GND Name":"Samagipura","Key Activities proposed for Soil and Water conservation":"2. Renovation of natural drains - Samagipura East of Village ( Diyagala)","Priority based on Soil Erosion Hazard":"-","N":6.987388,"E":80.86137,"Quantity":"2 km","Proposed measure/s":"Clearing and planting some trees along the banks (Areca nut) and other conservation practices","Total_Cost":"200,000.00","Contribution (Local Community, LA, and the project)":"Labour and other basic services by the Local community/ Shramadana","Time frame for the implementation":"0.5 Years","photopath":"https://raw.githubusercontent.com/MWS003-GIS/MWS003-GIS.github.io/main/IWWRMP/Data/EXD/200_photo/MWS_023/Samagipura nagenahira diya agala.jpg"},"geometry":{"type":"Point","coordinates":[80.86137,6.987388]}},
{"type":"Feature","properties":{"No.":20,"GND No.":"533A","GND Name":"Samagipura","Key Activities proposed for Soil and Water conservation":"3. Renovation of natural drains - Madawattagama Ela","Priority based on Soil Erosion Hazard":"-","N":6.98894,"E":80.858332,"Quantity":"5 km","Proposed measure/s":"Clearing and planting some trees along the banks (Areca nut) and other conservation practices","Total_Cost":"500,000.00","Contribution (Local Community, LA, and the project)":"Labour and other basic services by the Local community/ Shramadana","Time frame for the implementation":"0.5 Years","photopath":"https://raw.githubusercontent.com/MWS003-GIS/MWS003-GIS.github.io/main/IWWRMP/Data/EXD/200_photo/MWS_023/Madawththa gama ela.jpg"},"geometry":{"type":"Point","coordinates":[80.858332,6.98894]}},
{"type":"Feature","properties":{"No.":22,"GND No.":"533B","GND Name":"Senarathpura","Key Activities proposed for Soil and Water conservation":"1. Renovation of natural drains - Halgran oya","Priority based on Soil Erosion Hazard":"-","N":7.005713,"E":80.868487,"Quantity":"3 km","Proposed measure/s":"Clearing and planting some trees along the banks and other conservation practices","Total_Cost":"300,000.00","Contribution (Local Community, LA, and the project)":"Labour and other basic services by the Local community/ Shramadana","Time frame for the implementation":"0.5 Years","photopath":"https://raw.githubusercontent.com/MWS003-GIS/MWS003-GIS.github.io/main/IWWRMP/Data/EXD/200_photo/MWS_023/Halgran oya.JPG"},"geometry":{"type":"Point","coordinates":[80.868487,7.005713]}},
{"type":"Feature","properties":{"No.":23,"GND No.":"533B","GND Name":"Senarathpura","Key Activities proposed for Soil and Water conservation":"2. Renovation of natural drains - Viramul Ela","Priority based on Soil Erosion Hazard":"-","N":7.017871,"E":80.881021,"Quantity":"11 km","Proposed measure/s":"Clearing and planting some trees along the banks (Areca nut) and other conservation practices","Total_Cost":"1,100,000.00","Contribution (Local Community, LA, and the project)":"Labour and other basic services by the Local community/ Shramadana","Time frame for the implementation":"0.5 Years","photopath":"Not_Available"},"geometry":{"type":"Point","coordinates":[80.881021,7.017871]}},
{"type":"Feature","properties":{"No.":27,"GND No.":"533C","GND Name":"Rathnayakapura","Key Activities proposed for Soil and Water conservation":"1. Renovation of natural drains - Diyanilla Kandura","Priority based on Soil Erosion Hazard":"-","N":7.036104,"E":80.854573,"Quantity":"2 km","Proposed measure/s":"Clearing and planting some trees along the banks (Areca nut) and other conservation practices","Total_Cost":"200,000.00","Contribution (Local Community, LA, and the project)":"Labour and other basic services by the Local community/ Shramadana","Time frame for the implementation":"0.5 Years","photopath":"https://raw.githubusercontent.com/MWS003-GIS/MWS003-GIS.github.io/main/IWWRMP/Data/EXD/200_photo/MWS_023/Diyanilla kandura (2).jpg"},"geometry":{"type":"Point","coordinates":[80.854573,7.036104]}},
{"type":"Feature","properties":{"No.":28,"GND No.":"533C","GND Name":"Rathnayakapura","Key Activities proposed for Soil and Water conservation":"2. Renovation of natural drains - Canal near the Veterinarian Office","Priority based on Soil Erosion Hazard":"-","N":7.021278,"E":80.853436,"Quantity":"2 km","Proposed measure/s":"Clearing and planting some trees along the banks (Areca nut) and other conservation practices","Total_Cost":"200,000.00","Contribution (Local Community, LA, and the project)":"Labour and other basic services by the Local community/ Shramadana","Time frame for the implementation":"0.5 Years","photopath":"Not_Available"},"geometry":{"type":"Point","coordinates":[80.853436,7.021278]}},
{"type":"Feature","properties":{"No.":29,"GND No.":"533C","GND Name":"Rathnayakapura","Key Activities proposed for Soil and Water conservation":"3. Renovation of natural drains - Stream No. 1","Priority based on Soil Erosion Hazard":"-","N":7.030495,"E":80.852901,"Quantity":"500 m","Proposed measure/s":"Clearing and planting some trees along the banks (Areca nut) and other conservation practices","Total_Cost":"500,000.00","Contribution (Local Community, LA, and the project)":"Labour and other basic services by the Local community/ Shramadana","Time frame for the implementation":"0.5 Years","photopath":"https://raw.githubusercontent.com/MWS003-GIS/MWS003-GIS.github.io/main/IWWRMP/Data/EXD/200_photo/MWS_023/Canal No 1.jpg"},"geometry":{"type":"Point","coordinates":[80.852901,7.030495]}},
{"type":"Feature","properties":{"No.":30,"GND No.":"533C","GND Name":"Rathnayakapura","Key Activities proposed for Soil and Water conservation":"4. Renovation of natural drains - Stream No. 2","Priority based on Soil Erosion Hazard":"-","N":7.032103,"E":80.854935,"Quantity":"700 m","Proposed measure/s":"Clearing and planting some trees along the banks (Areca nut) and other conservation practices","Total_Cost":"700,000.00","Contribution (Local Community, LA, and the project)":"Labour and other basic services by the Local community/ Shramadana","Time frame for the implementation":"0.5 Years","photopath":"https://raw.githubusercontent.com/MWS003-GIS/MWS003-GIS.github.io/main/IWWRMP/Data/EXD/200_photo/MWS_023/Canal No 2.jpg"},"geometry":{"type":"Point","coordinates":[80.854935,7.032103]}},
{"type":"Feature","properties":{"No.":31,"GND No.":"533C","GND Name":"Rathnayakapura","Key Activities proposed for Soil and Water conservation":"5. Renovation of natural drains - Stream No. 3","Priority based on Soil Erosion Hazard":"-","N":7.027976,"E":80.857236,"Quantity":"800 m","Proposed measure/s":"Clearing and planting some trees along the banks (Areca nut) and other conservation practices","Total_Cost":"800,000.00","Contribution (Local Community, LA, and the project)":"Labour and other basic services by the Local community/ Shramadana","Time frame for the implementation":"0.5 Years","photopath":"https://raw.githubusercontent.com/MWS003-GIS/MWS003-GIS.github.io/main/IWWRMP/Data/EXD/200_photo/MWS_023/Canal No 3.jpg"},"geometry":{"type":"Point","coordinates":[80.857236,7.027976]}},
{"type":"Feature","properties":{"No.":32,"GND No.":"533M","GND Name":"St. Leonard","Key Activities proposed for Soil and Water conservation":"1. Renovation of natural drains - Halgran Oya","Priority based on Soil Erosion Hazard":"-","N":7.006061,"E":80.865692,"Quantity":"2 km","Proposed measure/s":"Clearing and planting some trees along the banks and other conservation practices","Total_Cost":"200,000.00","Contribution (Local Community, LA, and the project)":"Labour and other basic services by the Local community","Time frame for the implementation":"0.5 Years","photopath":"Not_Available"},"geometry":{"type":"Point","coordinates":[80.865692,7.006061]}},
{"type":"Feature","properties":{"No.":33,"GND No.":"533M","GND Name":"St. Leonard","Key Activities proposed for Soil and Water conservation":"2. Renovation of natural drains - Kithul Pagamuwa Stream","Priority based on Soil Erosion Hazard":"-","N":7.017575,"E":80.863036,"Quantity":"1 km","Proposed measure/s":"Clearing and planting some trees along the banks (Areca nut) and other conservation practices","Total_Cost":"100,000.00","Contribution (Local Community, LA, and the project)":"Labour and other basic services by the Local community/ Shramadana","Time frame for the implementation":"0.5 Years","photopath":"https://raw.githubusercontent.com/MWS003-GIS/MWS003-GIS.github.io/main/IWWRMP/Data/EXD/200_photo/MWS_023/Kithulpagamuwa_Canal.jpg"},"geometry":{"type":"Point","coordinates":[80.863036,7.017575]}}
]}