{"type":"FeatureCollection","name":"WP","crs":{"type":"name","properties":{"name":"urn:ogc:def:crs:OGC:1.3:CRS84"}},"features":[
{"type":"Feature","properties":{"No.":4,"GND No.":"533A","GN Division":"Samagipura","Non-point sources of pollution":"Potential to adding human waste - Medawatta Market Street","N":6.98962,"E":80.856629,"Point sources of pollution":"-","Add. N ":"-","Add. E ":"-","Recommended water quality improvement measures":"-","Unit Cost (Rs.)":"-","Total Cost (Rs.)":"-","Contributions (Local Community, LA, Project)":"-","Time frame for the implementation":"-","photopath":"Not_Available"},"geometry":{"type":"Point","coordinates":[80.856629,6.98962]}},
{"type":"Feature","properties":{"No.":5,"GND No.":"533B","GN Division":"Senarathpura","Non-point sources of pollution":"Improper disposal of domestic waste - Medawatta Village","N":7.017446,"E":80.884477,"Point sources of pollution":"-","Add. N ":"-","Add. E ":"-","Recommended water quality improvement measures":"Preparing a separate place in home gardens for disposing household waste\nAwareness program on how to disposal household waste properly and converting them to usable products such as compost\nFacilitating garbage collection","Unit Cost (Rs.)":"-","Total Cost (Rs.)":"50,000.00","Contributions (Local Community, LA, Project)":"Local/Central governments","Time frame for the implementation":"0.5 Years","photopath":"Not_Available"},"geometry":{"type":"Point","coordinates":[80.884477,7.017446]}},
{"type":"Feature","properties":{"No.":6,"GND No.":"533C","GN Division":"Rathnayakapura","Non-point sources of pollution":"Improper disposal of domestic waste - Halgran Oya","N":7.025796,"E":80.856623,"Point sources of pollution":"-","Add. N ":"-","Add. E ":"-","Recommended water quality improvement measures":"Preparing a separate place in home gardens for disposing household waste\nAwareness program on how to disposal household waste properly and converting them to usable products such as compost\nFacilitating garbage collection","Unit Cost (Rs.)":"-","Total Cost (Rs.)":"50,000.00","Contributions (Local Community, LA, Project)":"Local/Central governments","Time frame for the implementation":"0.5 Years","photopath":"Not_Available"},"geometry":{"type":"Point","coordinates":[80.856623,7.025796]}},
{"type":"Feature","properties":{"No.":7,"GND No.":"533M","GN Division":"St. Leonard","Non-point sources of pollution":"Potential to adding human waste - Medawatta Market Street","N":7.004372,"E":80.86458,"Point sources of pollution":"-","Add. N ":"-","Add. E ":"-","Recommended water quality improvement measures":"-","Unit Cost (Rs.)":"-","Total Cost (Rs.)":"-","Contributions (Local Community, LA, Project)":"-","Time frame for the implementation":null,"photopath":"Not_Available"},"geometry":{"type":"Point","coordinates":[80.86458,7.004372]}}
]}