{"type":"FeatureCollection","name":"MI","crs":{"type":"name","properties":{"name":"urn:ogc:def:crs:OGC:1.3:CRS84"}},"features":[
{"type":"Feature","properties":{"No":14,"GND No.":543,"Scheme":"Gedarawela anicut and canal","N":7.378943,"E":80.604491,"Observation":"there are old tempoty home made anicut gates so cant hold more water","Description":"Provide and replace the new anicut gates of 12.0' x 4.0' two gates\nSite preparation and setting out\nProvide two sluice gate using Kumbuk stop planks - supplying and preparing 75 mm thick, size 3.65 m x 1.22. m with all necessary preservation and includin","Amount (Rs.)":594000,"photopath":"https://raw.githubusercontent.com/MWS003-GIS/MWS003-GIS.github.io/main/IWWRMP/Data/EXD/200_photo/MWS_110_3/GEdara wela amuna.jpg"},"geometry":{"type":"Point","coordinates":[80.604491,7.378943]}},
{"type":"Feature","properties":{"No":15,"GND No.":543,"Scheme":"Banagamwela canal","N":7.377058,"E":80.600398,"Observation":"about 20 ac is cultivated from this canal has damage in several locations","Description":"Site preparation and setting out\nConcrete canal of 1.5' x 1.5' for 60m\nPlywood formwork ( smooth finished ) for slab including making , fixing and removing for structure for each of 5uses including fixing and removing same once\nCutting , bending and plac","Amount (Rs.)":4060000,"photopath":"https://raw.githubusercontent.com/MWS003-GIS/MWS003-GIS.github.io/main/IWWRMP/Data/EXD/200_photo/MWS_110_3/Banaganwila ela.jpg"},"geometry":{"type":"Point","coordinates":[80.600398,7.377058]}},
{"type":"Feature","properties":{"No":16,"GND No.":544,"Scheme":"Amunewela anicut","N":7.365671,"E":80.606788,"Observation":"Side wall beside the anicut has been damaged. No protective plant in reservation.","Description":"Repair sidewalls ( 2m height, 300mm top width, 50m long)\nSite preparation and setting out\nEarth excavation for foundation or quarry materials and haul the surplus materials upto 30m by manually for 300m long\nPlywood Formwork including making , fixing an","Amount (Rs.)":2848000,"photopath":"https://raw.githubusercontent.com/MWS003-GIS/MWS003-GIS.github.io/main/IWWRMP/Data/EXD/200_photo/MWS_110_3/Amunewela anicut.jpg"},"geometry":{"type":"Point","coordinates":[80.606788,7.365671]}},
{"type":"Feature","properties":{"No":17,"GND No.":550,"Scheme":"Road from Ehelagashinna to Kahatadeniya","N":7.367182,"E":80.594644,"Observation":"Canal banks are severly eroded. Need to re align the canal banks.","Description":"Construction of 600mm x 600mm u-drains for 200m long\nSite preparation and setting out\nforming channel bund for planting aricunut trees( 0.7m height in 1:1.5 slopes with 0.6 bund top width ) for 200m ( Manual )\nPlywood Formwork including making , fixing a","Amount (Rs.)":4959000,"photopath":"https://raw.githubusercontent.com/MWS003-GIS/MWS003-GIS.github.io/main/IWWRMP/Data/EXD/200_photo/MWS_110_3/Road from Ehelagashinna to Kahatadeniya.jpg"},"geometry":{"type":"Point","coordinates":[80.594644,7.367182]}},
{"type":"Feature","properties":{"No":18,"GND No.":552,"Scheme":"Diwanawatta GND_meegaha anga","N":7.360103,"E":80.600207,"Observation":"Canal is filled with sand since it has damaged in several places.","Description":"Construction of 300mm*300mm u-drains for 100m long necessary places. \nSite preparation and setting out\nPlywood formwork ( smooth finished ) for structure including making , fixing and removing for structure for each of 5 uses including fixing and removin","Amount (Rs.)":1327000,"photopath":"https://raw.githubusercontent.com/MWS003-GIS/MWS003-GIS.github.io/main/IWWRMP/Data/EXD/200_photo/MWS_110_3/Diwanawatta GND_meegaha anga.jpg"},"geometry":{"type":"Point","coordinates":[80.600207,7.360103]}},
{"type":"Feature","properties":{"No":19,"GND No.":553,"Scheme":"Polkumbura Yaya","N":7.356368,"E":80.610757,"Observation":"Canal banks are severly eroded. Need to re align the canal banks.","Description":"Need to remove debris and filled soil in canal for 100m\nSite preparation and setting out\nRemove debris or quarry materials and haul the surplus materials upto 30m by manually and remake the canal \nTidying upsite\nContingencies 10%\n\n","Amount (Rs.)":120000,"photopath":"https://raw.githubusercontent.com/MWS003-GIS/MWS003-GIS.github.io/main/IWWRMP/Data/EXD/200_photo/MWS_110_3/Polkumbura Yaya.jpg"},"geometry":{"type":"Point","coordinates":[80.610757,7.356368]}},
{"type":"Feature","properties":{"No":20,"GND No.":553,"Scheme":"Naranwathura Yaya","N":7.351848,"E":80.608358,"Observation":"Canal is damaged from several places therefore water flows through paddyfields causing sand accumulation.","Description":"Construction of 300mm x 300mm u-drains for 50m long for necessary places\nSite preparation and setting out\nPlywood formwork ( smooth finished ) for structure including making , fixing and removing for structure for each of 5 uses including fixing and remo","Amount (Rs.)":660000,"photopath":"https://raw.githubusercontent.com/MWS003-GIS/MWS003-GIS.github.io/main/IWWRMP/Data/EXD/200_photo/MWS_110_3/Naranwathura Yaya.jpg"},"geometry":{"type":"Point","coordinates":[80.608358,7.351848]}},
{"type":"Feature","properties":{"No":21,"GND No.":557,"Scheme":"canal flows to Walaw Welyaya","N":7.362136,"E":80.610052,"Observation":"Canal has filled with debris and sediments.","Description":"Remove the  debris and filled soil in canal for 300m. \nSite preparation and setting out \nRemove debris or quarry materials and haul the surplus materials upto 30m by manually and remake the canal \nTidying upsite\nContingencies 10%","Amount (Rs.)":346500,"photopath":"https://raw.githubusercontent.com/MWS003-GIS/MWS003-GIS.github.io/main/IWWRMP/Data/EXD/200_photo/MWS_110_3/canal flows to Walaw Welyaya.jpg"},"geometry":{"type":"Point","coordinates":[80.610052,7.362136]}},
{"type":"Feature","properties":{"No":22,"GND No.":558,"Scheme":"Gedara Welyaya","N":7.356673,"E":80.615779,"Observation":"Canal is damaged from several places therefore water flows through paddyfields causing sand accumulation.","Description":"?Construction of 300mm*300mm u-drains for 50m long necessary places.\nSite preparation and setting out\nPlywood formwork ( smooth finished ) for structure including making , fixing and removing for structure for each of 5 uses including fixing and removing","Amount (Rs.)":660000,"photopath":"https://raw.githubusercontent.com/MWS003-GIS/MWS003-GIS.github.io/main/IWWRMP/Data/EXD/200_photo/MWS_110_3/Gedara Welyaya.jpg"},"geometry":{"type":"Point","coordinates":[80.615779,7.356673]}}
]}