{"type":"FeatureCollection","name":"SR","crs":{"type":"name","properties":{"name":"urn:ogc:def:crs:OGC:1.3:CRS84"}},"features":[
{"type":"Feature","properties":{"No":17,"GND No.":543,"Scheme":"Canal from watapuluwadeniya to Gedarawela","N":7.377571,"E":80.603015,"Observation":"eroded canal banks near anicut","Description":"Site preparation and setting out\nConstruction of 8.0' concrete wall for 20 m\nEarth excavation in foundation and spoil to waste upto 30m by manually for concrete wall\nPlywood formwork ( smooth finished ) for structure including making , fixing and removin","Amount (Rs.)":4127000,"photopath":"https://raw.githubusercontent.com/MWS003-GIS/MWS003-GIS.github.io/main/IWWRMP/Data/EXD/200_photo/MWS_110_3/GEdara wela canal.jpg"},"geometry":{"type":"Point","coordinates":[80.603015,7.377571]}},
{"type":"Feature","properties":{"No":18,"GND No.":544,"Scheme":"Bamunupola Bridge of Hadiragama Kahawatta road","N":7.368792,"E":80.601739,"Observation":"Bridge construction is temporary paused due to lack of funds. The suports for bridge is already completed.","Description":"Construction of 7m long, 3m wide, 0.2m thickness concrete span slab to complete the bridge\nPlywood formwork ( smooth finished ) for slab including making , fixing and removing for structure for each of 5 uses including fixing and removing same once\nCutti","Amount (Rs.)":495000,"photopath":"https://raw.githubusercontent.com/MWS003-GIS/MWS003-GIS.github.io/main/IWWRMP/Data/EXD/200_photo/MWS_110_3/Bamunupola Bridge of Hadiragama Kahawatta road.jpg"},"geometry":{"type":"Point","coordinates":[80.601739,7.368792]}},
{"type":"Feature","properties":{"No":19,"GND No.":545,"Scheme":"Canal of Kiralagama Maha Wel Yaya","N":7.374778,"E":80.595681,"Observation":"Canal has no protection in reservation area.","Description":"Provide 300mm x 300mm u-drains for 150m long for necessary places. \nSite preparation and setting out\nEarth excavation for foundation or quarry materials and haul the surplus materials upto 30m by manually for 300m long\nPlywood Formwork including making ,","Amount (Rs.)":1969000,"photopath":"https://raw.githubusercontent.com/MWS003-GIS/MWS003-GIS.github.io/main/IWWRMP/Data/EXD/200_photo/MWS_110_3/Canal of Kiralagama Maha Wel Yaya.jpg"},"geometry":{"type":"Point","coordinates":[80.595681,7.374778]}},
{"type":"Feature","properties":{"No":20,"GND No.":545,"Scheme":"Canal bank near the Kasawatta road","N":7.373207,"E":80.597681,"Observation":"Cnal banks are severely eroded. No protective plants in reservation.","Description":"Provide 600mm*600mm u-drains for 150m long for necessary places. \nSite preparation and setting out\nforming channel bund for planting aricunut trees( 0.7m height in 1:1.5 slopes with 0.6 bund top width ) for 200m ( Manual )\nPlywood formwork ( smooth finis","Amount (Rs.)":3724000,"photopath":"https://raw.githubusercontent.com/MWS003-GIS/MWS003-GIS.github.io/main/IWWRMP/Data/EXD/200_photo/MWS_110_3/Canal bank near the Kasawatta road.jpg"},"geometry":{"type":"Point","coordinates":[80.597681,7.373207]}},
{"type":"Feature","properties":{"No":21,"GND No.":550,"Scheme":"Wekada Hadirama","N":7.36691,"E":80.59969,"Observation":"Canal has fillled with soil. Need to re dig it for 600mm for  depth, 200m long and re align the canal banks.","Description":"Redig the canal for 600mm for  depth, 200m long and realign the canal banks. \nSite preparation and setting out\nExcavation of the canal for 600mm depth and remove the soil and debris  or quarry materials and haul the surplus materials upto 30m by manually","Amount (Rs.)":437000,"photopath":"https://raw.githubusercontent.com/MWS003-GIS/MWS003-GIS.github.io/main/IWWRMP/Data/EXD/200_photo/MWS_110_3/Wekada Hadirama.jpg"},"geometry":{"type":"Point","coordinates":[80.59969,7.36691]}},
{"type":"Feature","properties":{"No":22,"GND No.":552,"Scheme":"Main canal of Diwanawatta Mahawel Yaya","N":7.360243,"E":80.602982,"Observation":"Canal banks are severly eroded so the access road is damaged. No protective plants in reservation area.","Description":"Construction of 1m height, 50m retaining wall for necessary places in reservation area. \nSite preparation and setting out\nEarth excavation for foundation or quarry materials and haul the surplus materials upto 30m by manually\nPlywood formwork ( smooth fi","Amount (Rs.)":1161000,"photopath":"https://raw.githubusercontent.com/MWS003-GIS/MWS003-GIS.github.io/main/IWWRMP/Data/EXD/200_photo/MWS_110_3/Main canal of Diwanawatta Mahawel Yaya.jpg"},"geometry":{"type":"Point","coordinates":[80.602982,7.360243]}},
{"type":"Feature","properties":{"No":23,"GND No.":554,"Scheme":"Piga Oya flows near the church","N":7.362521,"E":80.608394,"Observation":"Piga Oya flows near the church","Description":"Remove accumilated sand. Provide 3m height, 50m long sidewalls for necessary places. \nSite preparation and setting out inluding removing of accumilated sand\nEarth excavation for foundation or quarry materials and haul the surplus materials upto 30m by ma","Amount (Rs.)":5098000,"photopath":"https://raw.githubusercontent.com/MWS003-GIS/MWS003-GIS.github.io/main/IWWRMP/Data/EXD/200_photo/MWS_110_3/Piga Oya flows near the church.jpg"},"geometry":{"type":"Point","coordinates":[80.608394,7.362521]}},
{"type":"Feature","properties":{"No":24,"GND No.":554,"Scheme":"Oya flows under the Mullegama North bridge","N":7.359184,"E":80.603643,"Observation":"Canal is blocked by debris causing overflow water towards paddy fields.","Description":"Clear the area and provide side wallls 25m long, 1m height \nSite preparation and setting out\nEarth excavation for foundation or quarry materials and haul the surplus materials upto 30m by manually\nPlywood formwork ( smooth finished ) for structure includ","Amount (Rs.)":595000,"photopath":"https://raw.githubusercontent.com/MWS003-GIS/MWS003-GIS.github.io/main/IWWRMP/Data/EXD/200_photo/MWS_110_3/Oya flows under the Mullegama North bridge.jpg"},"geometry":{"type":"Point","coordinates":[80.603643,7.359184]}},
{"type":"Feature","properties":{"No":25,"GND No.":557,"Scheme":"Piga Oya from near the church to Welekade bridge","N":7.357764,"E":80.61731,"Observation":"River banks are erroded. No protective plants in reservation area. Sand accumulation can be seen all along the river causing changes of the river path","Description":"Remove accumilated sand. Provide 3m height, 80m long sidewalls for necessary places.\nSite preparation and setting out inluding removing of accumilated sand\nEarth excavation for foundation or quarry materials and haul the surplus materials upto 30m by man","Amount (Rs.)":8155000,"photopath":"https://raw.githubusercontent.com/MWS003-GIS/MWS003-GIS.github.io/main/IWWRMP/Data/EXD/200_photo/MWS_110_3/Pinga oya_all along the GND.jpg"},"geometry":{"type":"Point","coordinates":[80.61731,7.357764]}},
{"type":"Feature","properties":{"No":26,"GND No.":558,"Scheme":"Welekade bridge to Ambathenna","N":7.357281,"E":80.609697,"Observation":"River banks are erroded. No protective plants in reservation area. Sand accumulation can be seen all along the river causing changes of the river path","Description":"Remove accumilated sand. Provide 2m height, 30m long sidewalls for necessary places.\nSite preparation and setting out inluding removing of accumilated sand\nPlywood formwork ( smooth finished ) for structure including making , fixing and removing for stru","Amount (Rs.)":1729000,"photopath":"https://raw.githubusercontent.com/MWS003-GIS/MWS003-GIS.github.io/main/IWWRMP/Data/EXD/200_photo/MWS_110_3/Welekade bridge to Ambathenna_pinga oya all along the GND.jpg"},"geometry":{"type":"Point","coordinates":[80.609697,7.357281]}}
]}