{"type":"FeatureCollection","name":"WSP","crs":{"type":"name","properties":{"name":"urn:ogc:def:crs:OGC:1.3:CRS84"}},"features":[
{"type":"Feature","properties":{"No":8,"GND No.":545,"Name of the Tank":"Gadadessa spring","N":7.373014,"E":80.598714,"Observation":"No protective net for the well","Description":"Cover the top of the well using Net\nContigencies 10%","Amount (Rs.)":11000,"photopath":"https://raw.githubusercontent.com/MWS003-GIS/MWS003-GIS.github.io/main/IWWRMP/Data/EXD/200_photo/MWS_110_3/Gadadessa spring.jpg"},"geometry":{"type":"Point","coordinates":[80.598714,7.373014]}}
]}