{"type":"FeatureCollection","name":"SR","crs":{"type":"name","properties":{"name":"urn:ogc:def:crs:OGC:1.3:CRS84"}},"features":[
{"type":"Feature","properties":{"No":1,"GND No.":404,"Scheme":"Piga oya","N":7.343435,"E":80.567007,"Observation":"damaged canal bunds in several locations, there are some existing stones and has damaged.","Description":"Dry rubble packing (with locally found rubble, size over 225mm )-Along the river banks\nMiscellaneous\nContingencies (10%)","Amount (Rs.)":180400,"photopath":"https://raw.githubusercontent.com/MWS003-GIS/MWS003-GIS.github.io/main/IWWRMP/Data/EXD/200_photo/MWS_113_2/pigaoya - Idamegama.jpg"},"geometry":{"type":"Point","coordinates":[80.567007,7.343435]}},
{"type":"Feature","properties":{"No":2,"GND No.":405,"Scheme":"Part of piga oya","N":7.34719,"E":80.571802,"Observation":"severe damage to the bund in several places","Description":"Repair the Damaged Bund Using Gabion Boxes\nSupplying of boulder and selected rubble (locally )\nSupplyning of 1.5m x 1.0m x 1.0m Gabion box\nPlacing and aligning boulders in stable positions\nMiscellaneous\nContingencies (10%)","Amount (Rs.)":616000,"photopath":"https://raw.githubusercontent.com/MWS003-GIS/MWS003-GIS.github.io/main/IWWRMP/Data/EXD/200_photo/MWS_113_2/piga oya henegama.jpg"},"geometry":{"type":"Point","coordinates":[80.571802,7.34719]}}
]}