{
"type": "FeatureCollection",
"name": "SWC_ON",
"crs": { "type": "name", "properties": { "name": "urn:ogc:def:crs:OGC:1.3:CRS84" } },
"features": [
{ "type": "Feature", "properties": { "No.": 1, "GND No.": 404, "GND Name": "Idamegama", "Key Activities proposed for Soil and Water conservation": "1. Soil conservation practices (25°-35°) - Idamegama School", "Priority based on Soil Erosion Hazard": 4, "N": 7.344125, "E": 80.560889, "Quantity": "1 ha", "Proposed measure/s": "1. Establishing SALT  - 500 m/ 2. Lock and spills - 250 m/ 3. Stone terracing - 250 m/ 4. Agronomic practices should be adapted at optimum level (conservation tillage, crop rotation and diversification, cover crops, mulching, contour farming, windbreaks", "Uniti_Cost": "250.00 m-1/ 400.00 m-1/ 2500.00 m-1", "Total_Cost": 850000, "Contribution (Local Community, LA, and the project)": "Labour and other basic services by the Local community", "Time frame for the implementation": "0.25 Years", "photopath": "https://raw.githubusercontent.com/MWS003-GIS/MWS003-GIS.github.io/main/IWWRMP/Data/EXD/200_photo/MWS_113_2/idamegama school.jpg" }, "geometry": { "type": "Point", "coordinates": [ 80.560889, 7.344125 ] } }
]
}
