{"type":"FeatureCollection","name":"WSP","crs":{"type":"name","properties":{"name":"urn:ogc:def:crs:OGC:1.3:CRS84"}},"features":[
{"type":"Feature","properties":{"No":1,"GND No.":404,"Name of the Tank":"Piga oya under Idamegama part","N":7.343393,"E":80.567053,"Observation":"Damaged bunds leading to soil sloughing into the water. This lack of a buffer zone allows pesticides and fertilizers to run directly into the stream. Both local dumping and upstream waste being washed down.","Description":"Clean the stream\nDry rubble packing (with locally found rubble, size over 225mm )-Along the river banks\nContingencies (10%)","Amount (Rs.)":179124,"photopath":"https://raw.githubusercontent.com/MWS003-GIS/MWS003-GIS.github.io/main/IWWRMP/Data/EXD/200_photo/MWS_113_2/piga oya - idamegama.jpg"},"geometry":{"type":"Point","coordinates":[80.567053,7.343393]}}
]}