{"type":"FeatureCollection","name":"DWS","crs":{"type":"name","properties":{"name":"urn:ogc:def:crs:OGC:1.3:CRS84"}},"features":[
{"type":"Feature","properties":{"No":1,"GND No.":"46","Scheme":"Perawella","N":6.947193,"E":80.84463,"Observation":"An 8000m3 water tank is being constructed and water is being distributed..  But no fitersystem with water tank","Description":"Construction of Concrete water storage tank of 6 cum - size internal  2mx2mx1.75m\n\nSite preparation & setting out\n\nPlywood form work including making, fixing & removing for structure -05 uses\n\nCutting, Bending & Placing tor steel reinforcement bars\n\n1:2:","Estimated Cost":"431,200","photopath":"https://raw.githubusercontent.com/MWS003-GIS/MWS003-GIS.github.io/main/IWWRMP/Data/EXD/200_photo/MWS_042_1/'Sawbhagya' community society.jpg"},"geometry":{"type":"Point","coordinates":[80.84463,6.947193]}},
{"type":"Feature","properties":{"No":2,"GND No.":"46","Scheme":"Perawella","N":6.940015,"E":80.85364,"Observation":"There are ditribute water from the source through pipes","Description":"Construction of Concrete water storage tank of 6 cum - size internal  2mx2mx1.75m\n\nSite preparation & setting out\n\nPlywood form work including making, fixing & removing for structure -05 uses\n\nCutting, Bending & Placing tor steel reinforcement bars\n\n1:2:","Estimated Cost":"431,200","photopath":"https://raw.githubusercontent.com/MWS003-GIS/MWS003-GIS.github.io/main/IWWRMP/Data/EXD/200_photo/MWS_042_1/'Sawbhagya' community society.jpg"},"geometry":{"type":"Point","coordinates":[80.85364,6.940015]}},
{"type":"Feature","properties":{"No":3,"GND No.":"46B","Scheme":"Kabilladowa","N":6.930255,"E":80.82674,"Observation":"The   Existing water tank is .constructed (0.9m x 0.9m x 0.6m, L*W*H) and drinking water is distributed. But  no fitersystem with water tank","Description":"Construction of Filter tank and Connecting arrangement\n\nConstruction of 1.0 m x 1.0 m x 1.5 m (LxWxH) filter tank with necessary parts\n\nProviding the filter media\n\nConnecting the Storage tank with the filtering tank with necessary pipes and fittings\n\nMis","Estimated Cost":"634,700","photopath":"Not_Available"},"geometry":{"type":"Point","coordinates":[80.82674,6.930255]}}
]}