{"type":"FeatureCollection","name":"Landslide","crs":{"type":"name","properties":{"name":"urn:ogc:def:crs:OGC:1.3:CRS84"}},"features":[
{"type":"Feature","properties":{"No.":2,"GN Division No.":"46B","GN Division":"Galahagama","Landslides":"Bank collapsing, Risk of landsliding - Aluthgama, Elagawa, Napalabokka, Aluthwatta, Kabilladowa","N":6.925226,"E":80.842488,"NBRO Recommendation N/A":"NBRO is aware","Proposed Measures":"Follow NBRO recommendations. It is appropriate to provide a land from another area.","photopath":"Not_Available"},"geometry":{"type":"Point","coordinates":[80.842488,6.925226]}},
{"type":"Feature","properties":{"No.":3,"GN Division No.":"46D","GN Division":"Medagodagama","Landslides":"Landsliding, Bank collapsing - Dunkalahena","N":6.93104,"E":80.855121,"NBRO Recommendation N/A":"NBRO is aware","Proposed Measures":"Follow NBRO recommendations. It is appropriate to provide a land from another area.","photopath":"Not_Available"},"geometry":{"type":"Point","coordinates":[80.855121,6.93104]}},
{"type":"Feature","properties":{"No.":4,"GN Division No.":"46E","GN Division":"Thelhawadigama","Landslides":"Landsliding - Renahinna","N":6.921514,"E":80.856499,"NBRO Recommendation N/A":"NBRO is aware","Proposed Measures":"Follow NBRO recommendations. It is appropriate to provide a land from another area.","photopath":"https://raw.githubusercontent.com/MWS003-GIS/MWS003-GIS.github.io/main/IWWRMP/Data/EXD/200_photo/MWS_042_1/Landslide area.jpg"},"geometry":{"type":"Point","coordinates":[80.856499,6.921514]}}
]}