{"type":"FeatureCollection","name":"Landslides","crs":{"type":"name","properties":{"name":"urn:ogc:def:crs:OGC:1.3:CRS84"}},"features":[
{"type":"Feature","properties":{"No.":1,"GN Division No.":"533N","GN Division":"Ragala Watta","Landslides":"Flood - Ragala Middle Division","N":7.009985,"E":80.853105,"NBRO Recommendation N/A":"Needs NBRO concern","Proposed Measures":"Removal of risky house and providing suitable land","photopath":"Not_Available"},"geometry":{"type":"Point","coordinates":[80.853105,7.009985]}},
{"type":"Feature","properties":{"No.":2,"GN Division No.":"533J","GN Division":"Ekangapura","Landslides":"Landslide - Goat fall lower line settlement","N":7.003826,"E":80.84208,"NBRO Recommendation N/A":"Needs NBRO concern","Proposed Measures":"Soil conservation practices need to be introduced to lands above.","photopath":"https://raw.githubusercontent.com/MWS003-GIS/MWS003-GIS.github.io/main/IWWRMP/Data/EXD/200_photo/MWS_022_1/Disaster_Landslide_Goatfell (2).JPG"},"geometry":{"type":"Point","coordinates":[80.84208,7.003826]}},
{"type":"Feature","properties":{"No.":3,"GN Division No.":"533J","GN Division":"Ekangapura","Landslides":"Landslide - Ekangapura River side (near the school)","N":7.003126,"E":80.83894,"NBRO Recommendation N/A":"Needs NBRO concern","Proposed Measures":"Soil conservation practices need to be introduced to lands above.","photopath":"https://raw.githubusercontent.com/MWS003-GIS/MWS003-GIS.github.io/main/IWWRMP/Data/EXD/200_photo/MWS_022_1/Disaster_Landslide.JPG"},"geometry":{"type":"Point","coordinates":[80.83894,7.003126]}},
{"type":"Feature","properties":{"No.":4,"GN Division No.":"533O","GN Division":"Brookside","Landslides":"Landslide - Field No. 5 Glendon","N":7.02881,"E":80.84172,"NBRO Recommendation N/A":"NBRO is aware","Proposed Measures":"House with risk should be removed under the guidance of NBRO and alternative lands should be provided.","photopath":"https://raw.githubusercontent.com/MWS003-GIS/MWS003-GIS.github.io/main/IWWRMP/Data/EXD/200_photo/MWS_022_1/No-05 Glender house.jpg"},"geometry":{"type":"Point","coordinates":[80.84172,7.02881]}}
]}