{"type":"FeatureCollection","name":"SR","crs":{"type":"name","properties":{"name":"urn:ogc:def:crs:OGC:1.3:CRS84"}},"features":[
{"type":"Feature","properties":{"No":1,"GND No.":"533J","Scheme":"Puu Paniya Kandura","N":6.995167,"E":80.839196,"Observation":"During the rainy season when too much water flows, Bank erosion occurs","Description":"Vegetative cover improving (1.5m-2.0m wide) with Areca nut seedlings @ 1.5m spacing in two rows, Beetle creeper VP @ 3m spacing in a single row, Green gram as a cover crop including applying of compost manure, NPK fertilizer and maintenanceVegetative cov","Amount (Rs.)":240450.0,"photopath":"https://raw.githubusercontent.com/MWS003-GIS/MWS003-GIS.github.io/main/IWWRMP/Data/EXD/200_photo/MWS_022_1/Koopaniya_Kandura.JPG"},"geometry":{"type":"Point","coordinates":[80.839196,6.995167]}},
{"type":"Feature","properties":{"No":2,"GND No.":"533J","Scheme":"Goat fell estate Line 5 Stream","N":7.003418,"E":80.841753,"Observation":"During the rainy season when too much water flows, Bank erosion occurs","Description":"Vegetative cover improving (1.5m-2.0m wide) with Areca nut seedlings @ 1.5m spacing in two rows, Beetle creeper VP @ 3m spacing in a single row, Green gram as a cover crop including applying of compost manure, NPK fertilizer and maintenanceVegetative cov","Amount (Rs.)":172175.0,"photopath":"https://raw.githubusercontent.com/MWS003-GIS/MWS003-GIS.github.io/main/IWWRMP/Data/EXD/200_photo/MWS_022_1/Goatfell_Estate_Line_5_Water_Spring.JPG"},"geometry":{"type":"Point","coordinates":[80.841753,7.003418]}},
{"type":"Feature","properties":{"No":3,"GND No.":"533N","Scheme":"Halgranoya Main River M.D","N":7.01024,"E":80.854277,"Observation":"Tea is cultivated right up to banks of the streams that flow through the tea estates. Stream reservation should be marked. During the rainy season when too much water flows, Bank erosion occurs","Description":"Vegetative cover improving with Areca nut seedling @ 1.5m spacing in a single row, Kumbuk/ Mee/ Godapara/ Kaduru/ Aththikka/ Wal Del/ Kekuna/ randomly mixed seedlings and dense planting at 500mm grid interval, applying of compost manure, NPK fertilizer,","Amount (Rs.)":341562.5,"photopath":"https://raw.githubusercontent.com/MWS003-GIS/MWS003-GIS.github.io/main/IWWRMP/Data/EXD/200_photo/MWS_022_1/Halgranoya main rever.jpg"},"geometry":{"type":"Point","coordinates":[80.854277,7.01024]}},
{"type":"Feature","properties":{"No":4,"GND No.":"533N","Scheme":"Halgranoya River Sub/M.D","N":7.009317,"E":80.846247,"Observation":"Tea is cultivated right up to banks of the streams that flow through the tea estates. Stream reservation should be marked. During the rainy season when too much water flows, Bank erosion occurs","Description":"Vegetative cover improving (1.5m-2.0m wide) with Areca nut seedlings @ 1.5m spacing in two rows, Beetle creeper VP @ 3m spacing in a single row, Green gram as a cover crop including applying of compost manure, NPK fertilizer and maintenanceVegetative cov","Amount (Rs.)":233925.0,"photopath":"https://raw.githubusercontent.com/MWS003-GIS/MWS003-GIS.github.io/main/IWWRMP/Data/EXD/200_photo/MWS_022_1/Sub halgran oya Md.jpg"},"geometry":{"type":"Point","coordinates":[80.846247,7.009317]}},
{"type":"Feature","properties":{"No":5,"GND No.":"533N","Scheme":"Sub Halgranoya U.D 1","N":7.000133,"E":80.849143,"Observation":"Tea is cultivated right up to banks of the streams that flow through the tea estates. Stream reservation should be marked. During the rainy season when too much water flows, Bank erosion occurs","Description":"Vegetative cover improving (1.5m-2.0m wide) with Areca nut seedlings @ 1.5m spacing in two rows, Beetle creeper VP @ 3m spacing in a single row, Green gram as a cover crop including applying of compost manure, NPK fertilizer and maintenanceVegetative cov","Amount (Rs.)":387450.0,"photopath":"https://raw.githubusercontent.com/MWS003-GIS/MWS003-GIS.github.io/main/IWWRMP/Data/EXD/200_photo/MWS_022_1/Hulgranoya sub UD.jpg"},"geometry":{"type":"Point","coordinates":[80.849143,7.000133]}},
{"type":"Feature","properties":{"No":6,"GND No.":"533N","Scheme":"Sub Halgranoya U.D 2","N":6.998582,"E":80.845865,"Observation":"Tea is cultivated right up to banks of the streams that flow through the tea estates. Stream reservation should be marked. During the rainy season when too much water flows, Bank erosion occurs","Description":"Vegetative cover improving (1.5m-2.0m wide) with Areca nut seedlings @ 1.5m spacing in two rows, Beetle creeper VP @ 3m spacing in a single row, Green gram as a cover crop including applying of compost manure, NPK fertilizer and maintenanceVegetative cov","Amount (Rs.)":387450.0,"photopath":"https://raw.githubusercontent.com/MWS003-GIS/MWS003-GIS.github.io/main/IWWRMP/Data/EXD/200_photo/MWS_022_1/Hulgranoya sub ud 2.jpg"},"geometry":{"type":"Point","coordinates":[80.845865,6.998582]}},
{"type":"Feature","properties":{"No":7,"GND No.":"533N","Scheme":"Sub Halgranoya L.D","N":7.017072,"E":80.85817,"Observation":"Tea is cultivated right up to banks of the streams that flow through the tea estates. Stream reservation should be marked. During the rainy season when too much water flows, Bank erosion occurs","Description":"Vegetative cover improving (1.5m-2.0m wide) with Areca nut seedlings @ 1.5m spacing in two rows, Beetle creeper VP @ 3m spacing in a single row, Green gram as a cover crop including applying of compost manure, NPK fertilizer and maintenanceVegetative cov","Amount (Rs.)":233925.0,"photopath":"https://raw.githubusercontent.com/MWS003-GIS/MWS003-GIS.github.io/main/IWWRMP/Data/EXD/200_photo/MWS_022_1/Sub Halgranoya LD.jpg"},"geometry":{"type":"Point","coordinates":[80.85817,7.017072]}},
{"type":"Feature","properties":{"No":8,"GND No.":"533O","Scheme":"Concodia River","N":7.01421,"E":80.82972,"Observation":"During the rainy season when too much water flows, Bank erosion occurs","Description":"Vegetative cover improving (1.5m-2.0m wide) with Areca nut seedlings @ 1.5m spacing in two rows, Beetle creeper VP @ 3m spacing in a single row, Green gram as a cover crop including applying of compost manure, NPK fertilizer and maintenanceVegetative cov","Amount (Rs.)":172175.0,"photopath":"https://raw.githubusercontent.com/MWS003-GIS/MWS003-GIS.github.io/main/IWWRMP/Data/EXD/200_photo/MWS_022_1/cocodia river.jpg"},"geometry":{"type":"Point","coordinates":[80.82972,7.01421]}},
{"type":"Feature","properties":{"No":9,"GND No.":"533O","Scheme":"Mahakudagala Stream","N":7.03112,"E":80.84456,"Observation":"During the rainy season when too much water flows, Bank erosion occurs","Description":"Vegetative cover improving (1.5m-2.0m wide) with Areca nut seedlings @ 1.5m spacing in two rows, Beetle creeper VP @ 3m spacing in a single row, Green gram as a cover crop including applying of compost manure, NPK fertilizer and maintenanceVegetative cov","Amount (Rs.)":172175.0,"photopath":"Not_Available"},"geometry":{"type":"Point","coordinates":[80.84456,7.03112]}},
{"type":"Feature","properties":{"No":10,"GND No.":"533O","Scheme":"No. 07 Bungalow Road Stream","N":7.03009,"E":80.84906,"Observation":"During the rainy season when too much water flows, Bank erosion occurs","Description":"Vegetative cover improving (1.5m-2.0m wide) with Areca nut seedlings @ 1.5m spacing in two rows, Beetle creeper VP @ 3m spacing in a single row, Green gram as a cover crop including applying of compost manure, NPK fertilizer and maintenanceVegetative cov","Amount (Rs.)":126287.5,"photopath":"Not_Available"},"geometry":{"type":"Point","coordinates":[80.84906,7.03009]}},
{"type":"Feature","properties":{"No":11,"GND No.":"533O","Scheme":"No. 05 Main Road Stream","N":7.03019,"E":80.839,"Observation":"During the rainy season when too much water flows, Bank erosion occurs","Description":"Vegetative cover improving (1.5m-2.0m wide) with Areca nut seedlings @ 1.5m spacing in two rows, Beetle creeper VP @ 3m spacing in a single row, Green gram as a cover crop including applying of compost manure, NPK fertilizer and maintenanceVegetative cov","Amount (Rs.)":126287.5,"photopath":"Not_Available"},"geometry":{"type":"Point","coordinates":[80.839,7.03019]}},
{"type":"Feature","properties":{"No":12,"GND No.":"533O","Scheme":"Silver Kandy Stream","N":7.02591,"E":80.84417,"Observation":"During the rainy season when too much water flows, Bank erosion occurs","Description":"Vegetative cover improving (1.5m-2.0m wide) with Areca nut seedlings @ 1.5m spacing in two rows, Beetle creeper VP @ 3m spacing in a single row, Green gram as a cover crop including applying of compost manure, NPK fertilizer and maintenanceVegetative cov","Amount (Rs.)":172175.0,"photopath":"https://raw.githubusercontent.com/MWS003-GIS/MWS003-GIS.github.io/main/IWWRMP/Data/EXD/200_photo/MWS_022_1/Silver kandy water spring.jpg"},"geometry":{"type":"Point","coordinates":[80.84417,7.02591]}},
{"type":"Feature","properties":{"No":13,"GND No.":"533O","Scheme":"No. 06 Division Stream","N":7.019,"E":80.83507,"Observation":"During the rainy season when too much water flows, Bank erosion occurs","Description":"Vegetative cover improving (1.5m-2.0m wide) with Areca nut seedlings @ 1.5m spacing in two rows, Beetle creeper VP @ 3m spacing in a single row, Green gram as a cover crop including applying of compost manure, NPK fertilizer and maintenanceVegetative cov","Amount (Rs.)":172175.0,"photopath":"Not_Available"},"geometry":{"type":"Point","coordinates":[80.83507,7.019]}}
]}