{"type":"FeatureCollection","name":"SED_PPL_MWS_098","crs":{"type":"name","properties":{"name":"urn:ogc:def:crs:OGC:1.3:CRS84"}},"features":[{"type":"Feature","properties":{"GND_N":"Gomaraya","GND_NO":"738","GND_C":"030","PROVINCE_N":"CENTRAL","PROVINCE_C":"2","DISTRICT_N":"KANDY","DISTRICT_C":"1","DSD_N":"PANVILA","DSD_C":"15","Admin_Code":"2115030","GND_NO_Cen":"738","GND_NAME_C":"Gomaraya","GND_NO_Gaz":"738","GND_NAME_G":"ගෝමරය","shape_1":"Polygon","Area__Ha_":376.570107416,"MWS_ID":"098","Alt_MWS":null,"Area":3.76570107416,"Total_Pop":1265.0,"Density":335.926823475},"geometry":{"type":"MultiPolygon","coordinates":[[[[80.76444078685975,7.398639768540547],[80.76448055798717,7.398577103320367],[80.76451081646117,7.398510635257003],[80.76452727092123,7.398480770234454],[80.76455176734393,7.39843630547742],[80.76460938401226,7.398355915504058],[80.76468430367986,7.398254756884394],[80.76472652048982,7.398197756249072],[80.76475492999477,7.398165606358835],[80.76478069422348,7.398136446018778],[80.76483006873968,7.398067631764779],[80.76488655861036,7.39797848175714],[80.76489212461347,7.397969698420117],[80.76491278241323,7.397902056297965],[80.76494459170401,7.397833736233391],[80.76496115949199,7.397798153298774],[80.76498034453063,7.397756949292322],[80.76504813308236,7.39768295473816],[80.76522712658226,7.397969942908271],[80.76535595152116,7.398137430859914],[80.76552971973308,7.398295947385092],[80.7656705305384,7.398394646229422],[80.76585328671462,7.398535218788693],[80.76595814576969,7.398627934741445],[80.76609595955195,7.398789440729892],[80.76622478725405,7.398900103029537],[80.76632964768416,7.398938986735899],[80.7664045491322,7.398950951412238],[80.7664764552696,7.398941980528249],[80.76665621863131,7.39888515906818],[80.7669678111526,7.398762543352135],[80.76718952163378,7.39861599957793],[80.767456174087,7.3984216018621],[80.76755504345218,7.398343844747701],[80.76763593649966,7.398349827381345],[80.76771083774565,7.398415626710487],[80.76777674804842,7.398529277868203],[80.76782917670786,7.398654892666506],[80.76792302787943,7.398649289585125],[80.76797629407349,7.398655257166566],[80.76799906182228,7.398653861351003],[80.76802195186617,7.398652457397841],[80.76810311990452,7.398634463304222],[80.76810962244409,7.398630974629271],[80.76815991973822,7.398603990294975],[80.76820901913743,7.398593592629659],[80.76824081570399,7.398602002306218],[80.76831899389634,7.398605802687313],[80.76838747892393,7.398617923359486],[80.76845523904665,7.398641164202775],[80.76853278303143,7.398650300817776],[80.76862690495237,7.398650575552082],[80.76867329455695,7.398656041044153],[80.76868370411296,7.398657268359709],[80.76875219501873,7.398697602275556],[80.76877338447157,7.398710082898738],[80.76881757416353,7.398740428383093],[80.76883027368476,7.398749149679555],[80.76888634877187,7.398772754694024],[80.76894477862432,7.398775196374686],[80.76895691311692,7.398769258932372],[80.76896787900189,7.398763893893255],[80.76898237759228,7.398774528716819],[80.76900782644749,7.398793193011941],[80.76901618230156,7.398797689335606],[80.76909388704188,7.398839495552361],[80.76919217445501,7.39888561741159],[80.76927569516428,7.398919712711503],[80.76933503067785,7.398938071868529],[80.76939518266724,7.398939519689888],[80.76942344566768,7.39893092926505],[80.76944120223881,7.398916823342085],[80.76946412034846,7.398917094985817],[80.76948921451893,7.398910041820391],[80.7695661120907,7.398897869287477],[80.76960915465452,7.398891053314042],[80.76967573766159,7.398885178161628],[80.76971967357207,7.398868811863732],[80.76975627379625,7.398837976631022],[80.7698077195331,7.398759413488709],[80.7698079106801,7.398759122306452],[80.76983255244241,7.39871436065067],[80.76984828708446,7.398697631303494],[80.76986867716403,7.398675951877296],[80.76993410604244,7.398606387625446],[80.76995026189283,7.398591232669393],[80.77001826338956,7.398527445119147],[80.77005220576622,7.398490917246622],[80.77009128007693,7.398448863257271],[80.77012056433315,7.398414251528972],[80.7701459079028,7.398384297800706],[80.77016293964375,7.398310234845614],[80.77016560036199,7.398301390814443],[80.7701780686836,7.39825995679954],[80.77020434195245,7.398210402347094],[80.77027346225681,7.398137065349044],[80.77029463763151,7.398120081046483],[80.77039240759925,7.398041663146515],[80.7704212776365,7.398020424201948],[80.77051778556083,7.397949426955008],[80.77054867662605,7.397927906790684],[80.77055411276653,7.397935141272583],[80.77054885682074,7.398003506393267],[80.77048018721176,7.398115095391016],[80.7704575549511,7.398149085071631],[80.77040262258177,7.398231582860372],[80.7704002844362,7.398235094231739],[80.7703500956911,7.398354369111281],[80.77034918662672,7.398455740384059],[80.77038487859966,7.398527997257177],[80.77046970362228,7.398576641656726],[80.77047981327189,7.398582438361466],[80.77057520360995,7.398568424738653],[80.77069324140093,7.39853668526575],[80.77071878751097,7.398534243973888],[80.77076979008787,7.398526105899599],[80.77079923148486,7.398526559320505],[80.7708150844996,7.398530448917102],[80.77086481664068,7.398552968442824],[80.77088528920666,7.398596554212655],[80.77092369930992,7.398564451979487],[80.77103078419964,7.398437189116997],[80.77106012998547,7.398402313271634],[80.7711181086211,7.398331508055504],[80.7711397517082,7.39828909657092],[80.77116250000066,7.398244516583186],[80.7711984644577,7.398186098221612],[80.77123060222995,7.39814532182988],[80.77124022652956,7.398133107540318],[80.77130049043322,7.398082147220619],[80.77134087350959,7.398048014816265],[80.77137362889869,7.398023020289553],[80.77142702512118,7.397982273960909],[80.77151045819991,7.397910746434439],[80.77151965759603,7.39790123237822],[80.77158338571117,7.397835327571401],[80.7716302233976,7.397781945344161],[80.7716785956648,7.397726813304554],[80.77173483297761,7.397657962183306],[80.7717441836669,7.39764651291878],[80.77179002203503,7.39760147917505],[80.77184591659358,7.397561963575141],[80.77185568392484,7.39755660659134],[80.7719240534253,7.397519109507286],[80.77205687259739,7.39744626750749],[80.77207230174764,7.397437807914779],[80.77216017233572,7.397390243391704],[80.77217455788491,7.397383424188527],[80.77227005871556,7.397338157544671],[80.77234352558413,7.397299363673933],[80.77238527534757,7.397281550210236],[80.772410925628,7.397270608388399],[80.77251093611471,7.397201972773715],[80.77258041813312,7.39714084529613],[80.77263984568769,7.397081160085442],[80.77271290675594,7.397028653322437],[80.77276504262213,7.396991185818655],[80.772797351247,7.396966738284969],[80.77282156935135,7.396948413710741],[80.7729362146404,7.396833801618375],[80.77293682521216,7.396833191219526],[80.77294196343588,7.396828051208896],[80.77299387293944,7.396770359877839],[80.7731128164187,7.396675951675164],[80.77316621955423,7.396636987514023],[80.77329834360542,7.396540581752488],[80.77333911861093,7.396510246329401],[80.77336556153102,7.396490574330917],[80.77345778188024,7.396438849792044],[80.77346663874695,7.396434416962954],[80.77367854763264,7.396328347322085],[80.7736971735858,7.396319024083742],[80.77374322890364,7.396295970994523],[80.77482945880178,7.396091514294543],[80.77522854238677,7.395781652017383],[80.77625961936474,7.394889083321951],[80.77752200237882,7.395022329653361],[80.77899662519367,7.395432143677232],[80.78084311036463,7.3951948364541],[80.78452477676295,7.395661453284506],[80.78476927155448,7.395590910490894],[80.78541702231682,7.395581609674222],[80.78565468564712,7.395553736001395],[80.78571608057575,7.395534745285256],[80.78578982804042,7.395511932720463],[80.78604978262626,7.395454151303688],[80.78632006341961,7.395361255476073],[80.78644122440281,7.395324096803307],[80.78651112444958,7.395259071411353],[80.78654050688552,7.395225447000031],[80.78868816351017,7.394419708802155],[80.78879765120963,7.394459674977995],[80.78880149501568,7.394432854190922],[80.7888368888695,7.394342700665182],[80.7888919449574,7.394256466730011],[80.78904138809278,7.394193748277456],[80.78928521960536,7.394107507967329],[80.78958803868952,7.393942872775677],[80.78982687509561,7.393802209640593],[80.78990159635441,7.393735571198666],[80.79007463327133,7.393570940510243],[80.79022800810957,7.393469023681628],[80.79046003929882,7.393363184167304],[80.79070386587712,7.393175033717202],[80.79082184646312,7.393116233113912],[80.79093982663527,7.393018238239666],[80.79099488215168,7.392904566626354],[80.79169562645471,7.392977654913714],[80.79177696979936,7.392900439216495],[80.79202486975636,7.392699677415508],[80.79207522361686,7.392641765974695],[80.79211476875092,7.392564339177769],[80.79218367582216,7.39242942578533],[80.79226114211927,7.392309743228044],[80.79238121787142,7.392209363252176],[80.79268722403272,7.392116697391415],[80.79279567963113,7.392031756871114],[80.79289065801834,7.391958925423581],[80.79293713624195,7.391873989878062],[80.79304558752352,7.39167709313686],[80.79313854921024,7.391553548475223],[80.79326249835117,7.391484052727951],[80.79349878359479,7.391472462305648],[80.79369633557766,7.391511059295979],[80.7937699345969,7.391518778256478],[80.793812542426,7.391518777493027],[80.79386289744225,7.391499470485364],[80.79391325138538,7.391453141130441],[80.79400233665524,7.39126396674908],[80.79406043774854,7.391221496629639],[80.79415727618196,7.391233074161669],[80.79425742859858,7.39127429906903],[80.79603639259349,7.388954894588656],[80.79666820692607,7.388105001655659],[80.79769876137078,7.388030884864091],[80.7982917341912,7.3878451179272],[80.79833728594141,7.38728162625945],[80.7983646706018,7.387288125029799],[80.79833021218872,7.387229854426685],[80.7980890222762,7.387093706431821],[80.79801389221831,7.387051295620404],[80.79743700395771,7.386930835905287],[80.79590119959339,7.386626129033395],[80.7938669656275,7.38685652930364],[80.79069011107465,7.388128227701909],[80.78867103262161,7.389305172655267],[80.78742427393202,7.389737701270436],[80.78578152401847,7.390112393111488],[80.78480530584567,7.390417246507202],[80.78410746916681,7.390244090862949],[80.78321593895315,7.390154850932663],[80.7819280467925,7.389650141971321],[80.78041082222232,7.389266205459681],[80.77889391620612,7.388846013936854],[80.7782417381742,7.388858587003381],[80.77779418197976,7.388723396481145],[80.77733258159131,7.387841624800606],[80.77670849817396,7.387286794978739],[80.77614662012148,7.387092175773958],[80.7754604073213,7.386768724266541],[80.77475366727721,7.386825496211795],[80.77472480836546,7.38678382135632],[80.77469926309692,7.38674692665083],[80.77471666141857,7.386671779226595],[80.77492133185683,7.386331799480195],[80.77501245411747,7.386180432278458],[80.77521052677115,7.385812265281472],[80.77538452015665,7.385540578114631],[80.77541931999714,7.385436528301052],[80.77539612273229,7.384974081797759],[80.77540246021323,7.384939338529482],[80.77541932211096,7.384846908955792],[80.77552371755291,7.38465615027263],[80.77566295315334,7.384504694389782],[80.77581552565903,7.384338730761334],[80.77607071665554,7.384072824598685],[80.77615191347913,7.383887845142228],[80.77613451377107,7.383795355838259],[80.77610457698052,7.383702112339127],[80.77608811664271,7.383650841119016],[80.77611131482891,7.383564133036248],[80.77617580565536,7.383510407575975],[80.77649990096843,7.383240420062243],[80.77663329483883,7.383113247092453],[80.77663329477205,7.383014584122605],[80.7766332947293,7.382951391495775],[80.77661009567693,7.382887804608108],[80.7765323884685,7.382801892337814],[80.77651132637156,7.382778604760309],[80.77628513564642,7.382651433700108],[80.7761517419156,7.382530039253274],[80.77613025048251,7.382491097284317],[80.77608794339586,7.382414428725403],[80.77608794346887,7.382281475522142],[80.77622713831926,7.381951982262279],[80.77624129866764,7.381881413243386],[80.7762561365919,7.381807466655632],[80.77622133819845,7.38166295284343],[80.7761749412686,7.38150687752124],[80.7760700098534,7.381389984668639],[80.77597654845238,7.381231077019494],[80.7758940814057,7.381132446522761],[80.77580062268187,7.381105047875563],[80.77576500723076,7.381102090763782],[80.77566867603002,7.381094089365782],[80.77545976241888,7.381181760192546],[80.77545718979184,7.381182635551984],[80.77521786477743,7.381263954386652],[80.77495275839115,7.381269400258033],[80.7749385953376,7.381276977361484],[80.77486051147537,7.381318748634234],[80.7748037359256,7.381385177572332],[80.77476814566587,7.381426820561244],[80.77473406455954,7.381466695642059],[80.77462963128661,7.381708216261595],[80.77456365757142,7.382009590050273],[80.77453067076735,7.382250690417581],[80.77445370107952,7.382464392053044],[80.7743746669468,7.382660555630076],[80.7741697415132,7.382981512282409],[80.7741355897865,7.382979015337845],[80.77406742936458,7.38299271065197],[80.77403332378803,7.382999565087268],[80.77393756192416,7.383004202749392],[80.77385108417702,7.383011856289948],[80.77382381066427,7.383002795031148],[80.77377375013745,7.383022528426461],[80.77373323368059,7.383049634646349],[80.77370398231677,7.383102159050728],[80.77365625781077,7.383150223325125],[80.77361712262208,7.383201361369246],[80.77357754717377,7.383253076351808],[80.77353572803636,7.383283913695647],[80.77350292396942,7.383318804174432],[80.77346239823025,7.383373871388126],[80.77342905153293,7.383410106554986],[80.77339402188657,7.383424879003911],[80.77336426612037,7.383443572538714],[80.77326768120619,7.383378822957004],[80.77324177376308,7.383363178353386],[80.77321586723518,7.383346448585836],[80.77319503165653,7.383336499309042],[80.77317220405777,7.38333197763799],[80.77314973965824,7.383334508619898],[80.77312455666478,7.38335268491061],[80.77307563909704,7.383394825031276],[80.77302092488462,7.383443203883276],[80.77299175423647,7.383468524122859],[80.77295633595377,7.383483805656532],[80.77286312298065,7.38349872502148],[80.77277788161663,7.38350631867978],[80.77270550162743,7.383514457720516],[80.77266926731546,7.383509935914742],[80.77262017075108,7.383501253305723],[80.7725584819145,7.383484612727255],[80.77251880540244,7.38347321818477],[80.7724776803673,7.383468424126749],[80.7724336556186,7.383470594069562],[80.77240061258598,7.383473651225095],[80.7723740491652,7.383476107979119],[80.77227413278364,7.383495006994923],[80.77220256980205,7.383510649859795],[80.77211732821381,7.383540489221802],[80.7720612535699,7.383558575633936],[80.77201451110663,7.383573856080148],[80.77197990709692,7.383594474734736],[80.77194684299616,7.383619973919733],[80.77191069882639,7.38366003414291],[80.77181168428652,7.383800923405915],[80.77178795049466,7.383828143559967],[80.7717548862716,7.38386277618079],[80.77174247589821,7.383872386975218],[80.7717213682977,7.383888729303748],[80.77166991603687,7.383921914844794],[80.7716201823047,7.383943708001305],[80.7715661937197,7.383967852292098],[80.77150785514941,7.383995795502096],[80.77145792936302,7.384017197979914],[80.77145006012238,7.384020570940459],[80.77140277488942,7.384043990938724],[80.77136201084474,7.384075640152783],[80.77132450696786,7.384108738091445],[80.77128374277729,7.384152233654437],[80.77124524240999,7.384188133102656],[80.77121808344077,7.384220993318467],[80.77118971059792,7.38425532120076],[80.77114921893202,7.384308493689937],[80.7711123480401,7.384356602126521],[80.77107393911398,7.38439413020859],[80.77102203378486,7.384429939048943],[80.77096659223007,7.384443955067185],[80.77093007057776,7.38444969332738],[80.77091251405925,7.384452453948656],[80.77086667663619,7.384449920440261],[80.77083669378176,7.384431562742027],[80.77082375375474,7.384416081836914],[80.77080245366604,7.384390597439395],[80.77076313912787,7.384333534591072],[80.77073859161929,7.384301522898125],[80.77071322867221,7.38428280262422],[80.77067726528047,7.38426959936125],[80.77063179207393,7.384263901680673],[80.77058776633058,7.38426616096731],[80.77055379658263,7.384265255322837],[80.77050415547134,7.384262901684084],[80.77044781200465,7.384252682332831],[80.77041148617087,7.384247618665917],[80.77037878459267,7.384249426835217],[80.77034046654089,7.384261633495463],[80.77031963241792,7.38427962792086],[80.77029345171304,7.384311820718609],[80.7702880264091,7.384319648283254],[80.77026437302375,7.38435377993689],[80.77019570683704,7.384430644667798],[80.7701264971405,7.384505337246966],[80.77003989432768,7.384619910192068],[80.76942132500002,7.384933953368315],[80.76939436776134,7.384973004326462],[80.76930605273436,7.385078430085802],[80.76923738308568,7.385184596762976],[80.76914684266393,7.385322089905924],[80.76908674094764,7.38540618359032],[80.76898447717484,7.385518375044544],[80.76895237510138,7.385579477293082],[80.7688677552911,7.385605491749264],[80.76882637101582,7.385601036464297],[80.76875436568157,7.38571320214757],[80.76862834472887,7.385869127869056],[80.7685340520888,7.38599537401562],[80.76817077800435,7.385603650153331],[80.7677233896737,7.385547343531826],[80.76669867408437,7.385458783304341],[80.7661457444035,7.385228241861162],[80.76535795203134,7.384833926745346],[80.76484807589428,7.384598553060584],[80.76428948936137,7.384433899321596],[80.76425979792835,7.384435389713956],[80.76420125932498,7.384438325300605],[80.7641714555459,7.384440502049235],[80.76401447049153,7.384451972434932],[80.76398698569642,7.384454776820785],[80.76393910267329,7.384459658725327],[80.76382025347488,7.384469691354884],[80.76380740564139,7.384470106973673],[80.76363917266674,7.384475562399393],[80.76361634509145,7.384471581917039],[80.76357413167736,7.384450690433209],[80.76352811584955,7.38441641697573],[80.7635096377212,7.384398329501749],[80.7635028711596,7.384390819079498],[80.76347394796115,7.384358719144665],[80.76344324068555,7.384310609394176],[80.76342609063582,7.384258539190772],[80.76342557886991,7.38425698287228],[80.76339885658773,7.38420534736024],[80.7633904349521,7.384169174132533],[80.76335927546099,7.384128389208902],[80.76331343927612,7.384086155163651],[80.76330470961034,7.384082536796829],[80.76326588311697,7.384066439087211],[80.76318173099294,7.384020770271105],[80.76312719965547,7.38397292927812],[80.76307692498084,7.383954931274883],[80.76299422913064,7.383922235582923],[80.76299175163412,7.383921256149875],[80.76299088020755,7.383920912489074],[80.76296764965927,7.38397393192483],[80.76293458441636,7.384049393126839],[80.76286755280869,7.38419229614554],[80.76252859965048,7.385076223788166],[80.7624044263048,7.385440011560361],[80.76229896430863,7.386003639751578],[80.76217762073225,7.386870712226242],[80.76217097068414,7.38755660508189],[80.76223850470674,7.389506416656215],[80.7622735042847,7.389867981115569],[80.76228604142642,7.389871841974436],[80.76230452186601,7.389879710885126],[80.76233486802074,7.389897075335706],[80.76235352756626,7.389913172491611],[80.7623649409369,7.389932704862423],[80.76237680608608,7.389960286436916],[80.76238867169191,7.39000224640888],[80.76239555607974,7.390038781318757],[80.76240406855868,7.390067719240343],[80.76240850722714,7.390100002046806],[80.76241538986858,7.390134547492347],[80.76241608565729,7.390160982062559],[80.76241629466573,7.390168910986758],[80.76241747066398,7.390192241104036],[80.76241511558317,7.390215211199097],[80.76241121882333,7.390234472704634],[80.76239717583577,7.390268292247145],[80.76237126680184,7.39030274533369],[80.76234798519246,7.390324538276719],[80.76232669451517,7.390351847521545],[80.76232090308932,7.390357628540761],[80.76230350525732,7.390374996917692],[80.76227668862259,7.390406374439865],[80.76226147020549,7.390427263330356],[80.76225259228286,7.390438929447032],[80.76223474485718,7.390464970964885],[80.76221898068455,7.390498973116006],[80.76220729378358,7.390534874429155],[80.7622042758929,7.390548339386344],[80.76219669266051,7.390582168169475],[80.7621911652763,7.390631181147782],[80.76218880914047,7.390658399650655],[80.76218382426617,7.390710758562249],[80.76218427630535,7.390738974598782],[80.76218427532162,7.390769900813162],[80.76218581312654,7.390809961427913],[80.7621903409389,7.390858884294103],[80.76219849064529,7.390901206776664],[80.76220446861647,7.39092625431473],[80.7622077013498,7.390936655695294],[80.76221425196053,7.390957725228077],[80.7622226740672,7.390980061746596],[80.76223653408164,7.391004118418557],[80.76225782127855,7.391030703751899],[80.76227013982468,7.391044451334726],[80.76228075264244,7.391057195088596],[80.7621949410618,7.391625326247675],[80.7615410224073,7.39399283364509],[80.76128546902721,7.393968652214632],[80.76101882374229,7.393980606148505],[80.76091695727123,7.394040419477411],[80.76086003266865,7.394040416602763],[80.7608300729116,7.39402845255725],[80.7607731492525,7.394001533134989],[80.76068626581024,7.393989567091142],[80.76064132541792,7.393980593032689],[80.76054545362959,7.393974608600183],[80.76044359008895,7.393950678068844],[80.76032374963224,7.393944691830204],[80.7602338686962,7.393956652506223],[80.76021167971285,7.393966560137493],[80.76020884797768,7.393990280769928],[80.76020362036695,7.394034077715048],[80.76019419181767,7.3941130509351],[80.76018838517085,7.394161684967975],[80.7601802861852,7.39424791344685],[80.75997153661599,7.396470353437141],[80.75977338290966,7.396456768038479],[80.75975281822714,7.396461740932731],[80.75972709118939,7.396483351876759],[80.75970978663358,7.39649239424701],[80.7596567915657,7.396513372063222],[80.75964229789436,7.396524403999125],[80.75964075323583,7.396527712780448],[80.75963106310805,7.396548458902148],[80.75962934180919,7.396575676503459],[80.7596379445799,7.396611035013081],[80.75965660570348,7.396638255185395],[80.75967653372494,7.39665299604393],[80.75976123270824,7.396688086999911],[80.75978025569844,7.396704366036972],[80.75983188699435,7.396768213442106],[80.7598340917874,7.396771790035959],[80.75988795795048,7.396859277765937],[80.75993020386402,7.396910408526058],[80.7599528146759,7.396937775327721],[80.7600741088687,7.397045754263717],[80.76010164692302,7.397070081880086],[80.76011188281477,7.397087172645606],[80.76010544928047,7.397110051238394],[80.76010415381887,7.39711125752939],[80.7600813509763,7.397132477037047],[80.76005154892188,7.397137991284798],[80.76001966176159,7.397136816336442],[80.75999755743894,7.397131025285286],[80.75991376430231,7.397094217139617],[80.75991295444598,7.397094051622631],[80.75988993967138,7.397089333938434],[80.75980949734596,7.397079019216322],[80.75977942268054,7.397082907501763],[80.75975251637335,7.397098369152968],[80.75972660698234,7.397126221578125],[80.75971709367053,7.397142227359521],[80.75971174819642,7.397162121792269],[80.75971467640596,7.397176071655506],[80.75971654944557,7.397184998989219],[80.75972769122852,7.397201640359375],[80.75974734776806,7.397209507609002],[80.75983213818016,7.397224975212838],[80.7598990427085,7.39724215488885],[80.75993287181988,7.397250841949355],[80.76002816887676,7.397286747114757],[80.7600857826832,7.397302937117247],[80.76015308972322,7.397312526063436],[80.76028027593823,7.397320672084779],[80.760346133628,7.397328542776929],[80.76038019175876,7.397342394277247],[80.76038526646298,7.397344458978914],[80.7601428296925,7.397435684313192],[80.76013607892948,7.397438225155145],[80.75973892068063,7.397587671688966],[80.75970257744784,7.397610201909841],[80.7598759656229,7.397574490243058],[80.75993289070213,7.397573839434129],[80.76008087833316,7.39757214928574],[80.76026875751813,7.397598292211973],[80.76044603862522,7.397627870122816],[80.76058527278049,7.39767453882285],[80.76064116574894,7.397682861270172],[80.76067984628065,7.397681776563289],[80.76070892635553,7.39767671439915],[80.76074235482325,7.397667854319129],[80.76084907463725,7.397644143635808],[80.76085921340797,7.397641906745895],[80.76102644168336,7.397626268101106],[80.7611975636667,7.397604301224237],[80.76134911946377,7.397606480281756],[80.76152159949434,7.39763452029123],[80.76157948209084,7.397716090198894],[80.7616131769709,7.397813757675277],[80.76164007793568,7.397904459995396],[80.76169478886358,7.398019940181717],[80.76174669466741,7.398068503772709],[80.76178773131556,7.398071398877329],[80.76190884831749,7.398079815526621],[80.7619764142558,7.398100031556077],[80.76202643059187,7.398114998447304],[80.76211312094617,7.398185808020371],[80.76216919147001,7.398282300573851],[80.7622261655376,7.39842490980731],[80.76227734390503,7.398534331892895],[80.76228640280668,7.398562727242275],[80.76229527646868,7.398633716085783],[80.76230025774171,7.398669166665895],[80.76231448837729,7.398697381316955],[80.76233857357373,7.398745128282621],[80.76235136818617,7.398779465912066],[80.76235949786128,7.398801285150817],[80.76237090961685,7.398821814054075],[80.7623891185125,7.398834475747465],[80.76240503567826,7.398841692569888],[80.76240986309722,7.398843882034283],[80.76243540893354,7.398852201499486],[80.76245715032655,7.398851117014742],[80.76249755444545,7.398834390502803],[80.76254873823315,7.398801928571943],[80.76260100866145,7.398753730015733],[80.7626375192211,7.398708607403029],[80.76264496054421,7.398697394294142],[80.76268535240881,7.398636536047835],[80.76270537301646,7.398621886977312],[80.76272611897168,7.398616010555882],[80.76274721979313,7.398618047685845],[80.76280203228727,7.398623339515208],[80.76285511674,7.398645496506701],[80.76290539048101,7.39868908625469],[80.76291207660122,7.398697404220166],[80.76294470461742,7.398738008333425],[80.7629851969422,7.398799682902112],[80.76300775015571,7.398854124328841],[80.76304778648874,7.398957759366596],[80.76307177037809,7.399033868797806],[80.76308582846633,7.399078484732883],[80.76309099155408,7.399094852741219],[80.76314235293445,7.399182753261528],[80.76315275508969,7.399189058358244],[80.76323203269395,7.399237104417468],[80.7633320398347,7.399346438284171],[80.76345885286625,7.3996254234556],[80.76355713669312,7.399781958133876],[80.76363467560645,7.399940304419186],[80.7636556063404,7.39996873263179],[80.76369600032743,7.400023594123618],[80.76370125125696,7.400010314607097],[80.76371360307998,7.399979077675367],[80.76371403069182,7.399977995238745],[80.76373021199392,7.399937075155998],[80.76374030254418,7.399911553344039],[80.7637485922654,7.399883008401592],[80.7637610522125,7.399840112314068],[80.7637625506639,7.399836361314306],[80.76376590270155,7.399827967683596],[80.7637915756813,7.399763703326194],[80.7637958409211,7.399753029977206],[80.76382099969032,7.399676524075916],[80.76384258893324,7.399610876019453],[80.76385590854134,7.399536182003926],[80.76386563213578,7.399480271130944],[80.76388386794636,7.399375399810473],[80.76389478025435,7.399312638886727],[80.76391274935636,7.39925317162469],[80.76391715964041,7.399238576323254],[80.76394905076191,7.399168405231441],[80.76399108702364,7.399095249319072],[80.7640284090605,7.399053290765962],[80.76407624192592,7.399018928630259],[80.76412443678981,7.39899731805312],[80.7641949146255,7.398979776529623],[80.76424566957571,7.398956302243814],[80.76426294874207,7.398948309591733],[80.76430489333644,7.398912320433714],[80.76436124065991,7.398843052462874],[80.76439557809049,7.398787802376459],[80.76441824128254,7.398733637137242],[80.76443027498588,7.398704877961086],[80.76443147277058,7.398697462721578],[80.76444078685975,7.398639768540547]]]]}}]}