{"type":"FeatureCollection","name":"SED_PPL_MWS_156","crs":{"type":"name","properties":{"name":"urn:ogc:def:crs:OGC:1.3:CRS84"}},"features":[{"type":"Feature","properties":{"GND_N":"Kuduoya","GND_NO":"475A","GND_C":"110","PROVINCE_N":"CENTRAL","PROVINCE_C":"2","DISTRICT_N":"NUWARA ELIYA","DISTRICT_C":"3","DSD_N":"THALAWAKELE","DSD_C":"12","Admin_Code":"2312110","GND_NO_Cen":"475A","GND_NAME_C":"Kuduoya","GND_NO_Gaz":"475A","GND_NAME_G":"කුඩාඔය","shape_1":"Polygon","Area__Ha_":783.190900086,"MWS_ID":"156","Alt_MWS":null,"Area":7.83190900086,"Tot_Pop":6780.0,"PopDensity":865.689322904},"geometry":{"type":"MultiPolygon","coordinates":[[[[80.59570451949065,6.947347819187575],[80.59577693626551,6.946698325285581],[80.59583324991345,6.946398355626435],[80.59587662385906,6.9461673088195],[80.59598038401502,6.945820466667558],[80.59597745351196,6.94558594139244],[80.59597984138573,6.9455300321196],[80.59598284014787,6.945459831284175],[80.59598929605927,6.945308716366587],[80.59596973229982,6.945070620846635],[80.59571232341582,6.944094426761529],[80.59575914933606,6.944039762489676],[80.5957569490288,6.943990725164721],[80.59575143747551,6.94386793968085],[80.59577494382275,6.943782038706471],[80.59586095331397,6.94368838986319],[80.59596249592083,6.943649429948929],[80.59607976437465,6.943532336839318],[80.59607977923588,6.943493339159235],[80.59602508334984,6.943422950870276],[80.59601734457343,6.943321494618366],[80.59609559526345,6.943180932330366],[80.59636917504058,6.942907763147962],[80.59653335494245,6.942509643755397],[80.59658818346954,6.942228479504767],[80.59671326440834,6.942017709360738],[80.59678381129783,6.941682008166957],[80.59688541471324,6.941479000755439],[80.59705743123858,6.941299474283964],[80.5972371868726,6.941213632307291],[80.5974246962419,6.941190247010333],[80.59756538017518,6.941221527921346],[80.59762408582755,6.941163051717487],[80.59767487405259,6.941096659761964],[80.59765151946112,6.940784380029861],[80.59769059099662,6.940667257893533],[80.59787830109555,6.940487737019124],[80.5981674174865,6.940253571154624],[80.59812849019607,6.939988056764059],[80.59809805656072,6.939930573365442],[80.59810034637418,6.939324448707536],[80.5980779932947,6.938911447600044],[80.5980933907926,6.938689806588436],[80.59848842591244,6.938302428670509],[80.59841273263267,6.938143873769694],[80.59840190091924,6.938119936995967],[80.59826001278225,6.937741247745154],[80.59805882684813,6.937315688095476],[80.59802952474986,6.937243397854527],[80.5979657433162,6.937156215034994],[80.59774670700004,6.936973716780469],[80.59753687876751,6.936532915040225],[80.59751555732153,6.936488123489349],[80.59750199345412,6.936459717442385],[80.59736406530632,6.936247434319437],[80.59710639185631,6.935974062811218],[80.59691175043622,6.935835603619093],[80.59675482179074,6.935723971585239],[80.59664935099647,6.935680977553644],[80.5965439540727,6.935450620216056],[80.59654170142132,6.935422487012358],[80.5965283323482,6.93525547838969],[80.59655183718358,6.935169578235285],[80.596661331981,6.935036797489764],[80.59666139507056,6.934872890331969],[80.59657304202734,6.934782081663999],[80.59637629969967,6.934579869936467],[80.59633334980927,6.934482356672985],[80.59633345543179,6.934478275537281],[80.59634913884764,6.93386545038668],[80.59628680527928,6.93342810517248],[80.59616412853035,6.93323379624707],[80.59616038171013,6.933205922010845],[80.59643559810137,6.933023202794111],[80.59681533158252,6.932771094144321],[80.59780732497696,6.93197740519668],[80.59787353372721,6.93212465359719],[80.59793602244746,6.932155904021374],[80.59795178598483,6.931968547500527],[80.5979309821923,6.931878467125784],[80.5980315340946,6.931798016307234],[80.5983064139559,6.931673550039368],[80.59864760094482,6.931231418715919],[80.59902919413022,6.93088046900669],[80.5993392906355,6.930511512704761],[80.59946467931998,6.930407532392291],[80.59947813759851,6.930401088732125],[80.59965839798363,6.930157858752418],[80.59997299797577,6.929863041299521],[80.60034193851601,6.929492947726678],[80.60049492643422,6.929339479629561],[80.60121902490779,6.928593579089184],[80.60131998674487,6.928455851025045],[80.60165828067376,6.928097759798789],[80.60195405927445,6.927948655500447],[80.60212602493975,6.927886263862595],[80.602290227872,6.927776957921806],[80.60240352819692,6.927671589657691],[80.60245564393264,6.927636514052359],[80.60238951771407,6.927212696585427],[80.60239166028593,6.926804236799273],[80.60238282397451,6.926415423772272],[80.6023409166405,6.926276818361167],[80.60246258206827,6.926269922302777],[80.60255649010068,6.92621541376042],[80.60279870726953,6.92621550325065],[80.60286587796476,6.926172075406141],[80.60293151257768,6.926129642642863],[80.60304874351762,6.926098456691553],[80.6032206618634,6.926160975089757],[80.6033691378825,6.926145343835317],[80.60354104955478,6.926171712983225],[80.60375456462518,6.926260407287982],[80.60379788790509,6.926192097425965],[80.60409102462572,6.925729890296794],[80.6041307266808,6.92566769588177],[80.60417772143929,6.925598848339842],[80.60421280622306,6.925552111528471],[80.60476722367704,6.92495907890848],[80.60534001843791,6.924288076634933],[80.6053593955368,6.924264636498108],[80.60536274802978,6.924260579133433],[80.60542187938154,6.924192498164388],[80.60567533909294,6.923942380355072],[80.60569277736789,6.923927573919178],[80.6057249968294,6.923905935256609],[80.60574543780255,6.923928650885896],[80.60601881676659,6.924162882823563],[80.60607351945421,6.924217584636573],[80.60631567036192,6.924397264085703],[80.60652656977,6.924584843200728],[80.60644067600204,6.924366080063702],[80.60628455309315,6.924030297653201],[80.60606634841044,6.923517404287436],[80.60635830139232,6.923223837537756],[80.60691987503624,6.922595760713361],[80.60721697194984,6.922283285072704],[80.6072605487864,6.922237452643616],[80.60791970558277,6.921563916727741],[80.6085547565677,6.92111262610996],[80.60853941872807,6.921084305637964],[80.60749877674473,6.919162796977612],[80.60748670472412,6.919170748866237],[80.60656732360884,6.918314361837671],[80.6065417498824,6.918304673802844],[80.60648200034777,6.918282032785472],[80.60591403519786,6.917710489526372],[80.60581385227792,6.917609673849234],[80.60579214130858,6.917601307462858],[80.60578061943029,6.91759686675217],[80.60500126699313,6.917053861834044],[80.60496296327543,6.917012558743345],[80.6040577377424,6.916036457769636],[80.60367784688835,6.915746085011363],[80.60352099580496,6.915626195240184],[80.60342532841743,6.915553069983211],[80.60300024536402,6.915212352334875],[80.60279376760094,6.915046853121129],[80.60248110726714,6.914759641939958],[80.60235959523551,6.914578170810674],[80.60233744975025,6.914575701159564],[80.60199500808612,6.914309948150049],[80.60190426006031,6.914136731933403],[80.60178775409875,6.914143450766101],[80.60181078381913,6.913822899809195],[80.60192821715366,6.913237256847289],[80.60184225176666,6.913229452719889],[80.60174282374747,6.91326598770219],[80.60154528089669,6.91333856885058],[80.6013735813254,6.913080917493904],[80.60137317560599,6.91307684882457],[80.60135019467774,6.912846633935844],[80.60138149633535,6.912706053163625],[80.60126431284203,6.91261232738027],[80.60115486495853,6.912635743252534],[80.60109754025157,6.912670754458344],[80.60101428803192,6.912721600632447],[80.60086188162737,6.912670819517787],[80.60091630918204,6.912639599976],[80.60072032866884,6.912483732923054],[80.60051512294946,6.912696025010451],[80.60050372333237,6.91274068498964],[80.60043846977938,6.912978034000984],[80.60042272643683,6.912988626768793],[80.60040941139093,6.913022644944288],[80.60027762664691,6.913252184057862],[80.60026576094934,6.913260235317281],[80.60024542512467,6.913280470009819],[80.6000323437239,6.913481719962002],[80.60000598742565,6.913514033175765],[80.5998625552781,6.913854857546389],[80.59975354696476,6.91418952087721],[80.59967270900681,6.914276017661565],[80.59948976950932,6.914471758593607],[80.59905644057103,6.91452971045125],[80.59903988512063,6.914528992583072],[80.59890114105609,6.914429665895724],[80.59889010691022,6.914394190873825],[80.59875614320228,6.914141194543459],[80.59870796614709,6.914050207752667],[80.59867738991261,6.914024787755836],[80.59860711193504,6.914032532291638],[80.59852114155962,6.914040272759437],[80.59845575529633,6.91409965737444],[80.59843514392337,6.914118377153263],[80.59823959747743,6.914485260173153],[80.5980442660513,6.914657006187864],[80.5979729800819,6.914656979459314],[80.59792704848006,6.914656962231692],[80.5978867631868,6.914619643165879],[80.5977161597914,6.9144616077255],[80.59763018927504,6.914469488199035],[80.59761273891885,6.914483025587393],[80.59756917865117,6.914368948705099],[80.5975382336946,6.91430147326786],[80.5975212801586,6.914264506582478],[80.59705774457026,6.913692015624124],[80.59678423169544,6.913942618779356],[80.59638843358289,6.913578972950354],[80.59602003162492,6.913087273341121],[80.59603690750578,6.913078076510619],[80.59610705397454,6.913039810722295],[80.59619305467673,6.912954075225839],[80.59627116984369,6.912782284701238],[80.59644316138548,6.912633984920169],[80.59648141962946,6.912436326687565],[80.59656061251259,6.912290471402827],[80.59653704033126,6.912282609412054],[80.59629929407312,6.912302346640698],[80.5962557973906,6.912305958296079],[80.59614970790646,6.912204337180532],[80.59606823438303,6.91212629547011],[80.5960370506621,6.911954461743293],[80.59569114712923,6.911949683257479],[80.59545889088709,6.911946473319881],[80.59509170993215,6.911891650489802],[80.59495883977193,6.911782233654887],[80.594929953109,6.911712495335292],[80.59471257959405,6.911578579027344],[80.59470171216546,6.911567208527726],[80.59467853424447,6.911548441446907],[80.59455779572865,6.911403475035923],[80.59437965595768,6.911275401885171],[80.59428166745475,6.91119172509763],[80.59426014362253,6.911173345677259],[80.59414496404844,6.911069108983954],[80.59412221173854,6.911052049388923],[80.5934638175909,6.910969942639119],[80.59298120004159,6.911013781754066],[80.59256727031713,6.911084357696182],[80.59252011654384,6.911320566767487],[80.59241404273456,6.911550529556053],[80.59240950765756,6.911715466028884],[80.59246037116141,6.912041954673071],[80.59242539105593,6.912287906102588],[80.59241033083185,6.912310065069551],[80.59242696133603,6.912320037062115],[80.59253634697004,6.912460671554194],[80.59223763026509,6.912564160845731],[80.59215339737325,6.912593343984951],[80.59207976502704,6.912654584699207],[80.59217033769437,6.912663169172996],[80.59208004890499,6.912932949584713],[80.59188707395731,6.91391876651991],[80.59085269060877,6.914191569017606],[80.59063748928304,6.914549991173314],[80.59059986489876,6.91461265462223],[80.59015666052628,6.914947176811375],[80.58947760790737,6.915317609490439],[80.58935960948244,6.915277951366155],[80.58933146902362,6.915387710684786],[80.58937830571871,6.915661002503625],[80.58937028303205,6.915926501060503],[80.58916693522696,6.916340286638987],[80.58913958639198,6.916484683354865],[80.58896382811773,6.916496342203423],[80.588877840884,6.916543078622569],[80.58862770752376,6.916550892711696],[80.5882370703466,6.916449142991726],[80.58812773434697,6.916542782322287],[80.58787768555571,6.916339777438463],[80.58771370660826,6.91623811797355],[80.58735433768214,6.916089611443663],[80.58718245315025,6.915956863708813],[80.58672394666621,6.915898526380767],[80.58662764403198,6.91588627428594],[80.58637496491924,6.91612839800049],[80.5860503871656,6.91643941522571],[80.58604925284787,6.916440500854942],[80.58584198515416,6.916748875418207],[80.58582244318907,6.916823049505887],[80.58581462008532,6.91694018328093],[80.58582233619381,6.917080707075231],[80.58582214583375,6.917081513648496],[80.58578325309703,6.917229127590412],[80.58534537189348,6.917876951902294],[80.58534438877214,6.91788009581262],[80.58519436594764,6.917879227968175],[80.58487661162695,6.917457750554076],[80.58457251808525,6.917282209776922],[80.58423095108117,6.91724388174814],[80.58417988266439,6.91725773693038],[80.5838412032525,6.917297818468097],[80.58381413404923,6.917322017843749],[80.58363425989167,6.91771235335656],[80.58348177960923,6.917848927271986],[80.58360267700375,6.918188659801202],[80.58363903055303,6.918415090716669],[80.58365345048279,6.918504909556831],[80.58385250950522,6.918922811977752],[80.5838747753834,6.918954416870997],[80.58398369273446,6.919109012990654],[80.58409458269549,6.919266407836057],[80.58411405727198,6.919364053747964],[80.58413355987506,6.919383561388499],[80.58414139497962,6.91958661141089],[80.58425426333004,6.919607523209825],[80.5842708330979,6.919693974324553],[80.58371738121079,6.920450619866044],[80.58371897558803,6.920453170681642],[80.58371116365183,6.920539077478471],[80.58366434694173,6.920578058007075],[80.58362738725225,6.920582626996921],[80.58349311742681,6.920782943502082],[80.5833874721185,6.92091999031089],[80.58340627025183,6.920991817764626],[80.5834529093362,6.921390016696399],[80.58338262866921,6.92140567351471],[80.5832497958986,6.92155398424825],[80.58310514858437,6.921549969072742],[80.58296846306973,6.921463538698971],[80.5821055636689,6.922582909041495],[80.58208860600885,6.922604721427112],[80.58196687099175,6.922761297231715],[80.58195989734514,6.922763827365762],[80.58182715251614,6.922693405560512],[80.58163972904104,6.922521651787413],[80.58153028764532,6.922521606025267],[80.5815926600125,6.922826130801683],[80.58160039957353,6.922919815602813],[80.58156132158187,6.923044708120559],[80.58148308476191,6.923154042110158],[80.58131900537899,6.923294567763551],[80.58113139900694,6.923224123241623],[80.58070947305556,6.92320840723194],[80.58047901351465,6.923165356409144],[80.58010802902169,6.922716153899765],[80.57996357658563,6.922579458534434],[80.57988926700365,6.922762975752692],[80.57992044315351,6.922942580197602],[80.58010783111672,6.923192474678324],[80.58036562895849,6.923465853358092],[80.58048272608558,6.923762630947313],[80.58045124336186,6.924324847844701],[80.58027514540997,6.924805049693333],[80.58016182111092,6.924965095605566],[80.580091475217,6.925136885499987],[80.58002088288472,6.925558493208618],[80.58031776607416,6.925691296931419],[80.58045066611724,6.925722578666456],[80.58058344381824,6.925714860823979],[80.5805909394393,6.925710703159872],[80.58060163762212,6.925722044966699],[80.58060465744818,6.925728617868645],[80.5808049406024,6.926026786119165],[80.58083414784663,6.926057741091221],[80.58109375802789,6.926290352716562],[80.58110559280401,6.926315011018763],[80.58136693897544,6.926538780820969],[80.58156715513037,6.926565809761092],[80.58175942027576,6.926513718642921],[80.58191628201206,6.926467736974385],[80.58192998067351,6.926469005910698],[80.58195958147506,6.926471745442012],[80.58211998393192,6.926561352733209],[80.58228472693192,6.926689972994063],[80.58229198137374,6.926713484533599],[80.58241480201372,6.926856526817369],[80.5826318684423,6.927107726534217],[80.58270819190207,6.927277126837223],[80.58271970139072,6.927320780106957],[80.58272359119663,6.927335534689435],[80.58283442019382,6.927501659143144],[80.58284483076531,6.927517263725274],[80.58286565399268,6.927565547262926],[80.58284492403392,6.927570341633005],[80.58281741086685,6.927769419906737],[80.58303456279774,6.927976684238035],[80.58316116217641,6.928097516087612],[80.58318454496937,6.928316114833335],[80.58309851038841,6.928472357222649],[80.58309845313825,6.928612808180239],[80.58315310497682,6.928784651188205],[80.58323112573497,6.928862820273923],[80.58329968694102,6.928881114417997],[80.58337803896084,6.928892570484322],[80.58355506897067,6.928918452465157],[80.58354797232099,6.929058561446831],[80.58353294792587,6.929355158928082],[80.58338976060715,6.929822543903711],[80.58354273655274,6.930116826767175],[80.58363055217525,6.930285760442175],[80.58380090025426,6.930416920891051],[80.58383209781091,6.930541842058727],[80.58403519949704,6.930768424562957],[80.58415233049679,6.930987064846004],[80.58397252809533,6.931190037848646],[80.58375373484817,6.931307085936166],[80.58356948292578,6.931455505073521],[80.58351143677926,6.931502263513075],[80.58327698260184,6.931533395087877],[80.58273783165512,6.931509720222206],[80.58249546218859,6.931533076498255],[80.58212795194008,6.931655243869855],[80.58253652320248,6.932094770493329],[80.58261134529248,6.932175263368955],[80.58260463982873,6.932181119687509],[80.58251081110814,6.932376356413954],[80.58248726965549,6.932548166624411],[80.58251844234466,6.932735542549621],[80.58240470585912,6.932931223271206],[80.58239167388184,6.932965539406093],[80.5823706494874,6.933041262658898],[80.5823460651272,6.933129813969557],[80.58234523767518,6.933132788827076],[80.58233846203889,6.933135380535875],[80.58224478082026,6.933203977908556],[80.5818853369364,6.933211602406253],[80.58172900254245,6.933422355791857],[80.5817132674152,6.933516030924867],[80.58174443840959,6.933711320544814],[80.58188500999569,6.934008105572397],[80.581869218063,6.934242373600589],[80.58183242055804,6.934334194392816],[80.58174409199435,6.934554594839387],[80.58161900975459,6.934757589302192],[80.58139223063932,6.935030767406192],[80.58125914242756,6.935788218232759],[80.58111055615664,6.936069201817531],[80.58104017807338,6.936311218087313],[80.58060218500135,6.937169995332504],[80.5804534261436,6.937518311152883],[80.58039879330593,6.93764623100671],[80.58025021054786,6.937911670009174],[80.58011738500295,6.938028752730644],[80.58001021597957,6.938057253959112],[80.57999909365513,6.938070778803282],[80.57998836289168,6.938181019344746],[80.5798757019725,6.938293504670152],[80.57946708989878,6.93919266960153],[80.57944420016933,6.939243040358393],[80.57936740042854,6.939412037486953],[80.57900991099878,6.940618170990488],[80.5790122958904,6.940630548430163],[80.57914723976944,6.941330892087364],[80.57920675209279,6.941639754671958],[80.5792903419556,6.942940709824366],[80.57923213295956,6.943825689183345],[80.57921536958287,6.944080542387885],[80.57915858558889,6.944943851294394],[80.57917199439851,6.944953500482914],[80.57918317398679,6.944961543585455],[80.5792095437736,6.944980519838522],[80.57956449901752,6.945690135407505],[80.57956428602131,6.946202028712047],[80.57956421223695,6.946377170830615],[80.57956408481083,6.946683387841842],[80.57953649894883,6.94677883578416],[80.57951422125595,6.946855923831053],[80.57950540660825,6.946886421780275],[80.5794974194081,6.946914058823149],[80.57943504435482,6.947129883640809],[80.57941274578441,6.947207039495762],[80.58042830771657,6.947519496171292],[80.58078331676182,6.947628719492607],[80.58247035309594,6.947757267902831],[80.58335312300717,6.947520170049502],[80.58417071399883,6.94751803379275],[80.58423938725926,6.947478832499963],[80.58432636346166,6.947447639993182],[80.58459106768017,6.947463289712474],[80.58475664072509,6.947463357637794],[80.58534914074242,6.947463597901725],[80.58605237147444,6.947409337304934],[80.58613833327038,6.947440599630903],[80.5864822379355,6.947425053218811],[80.58689647521051,6.947269083801696],[80.58729496167878,6.947253559534354],[80.58740439227358,6.947292742849669],[80.5875684209793,6.94730058085457],[80.58767736553452,6.947271959311124],[80.5881568567039,6.947441433286621],[80.59127875035838,6.947102715557429],[80.59258796790924,6.947472339611021],[80.59283213497325,6.947764481873081],[80.59344593570523,6.948498888276509],[80.59349188641765,6.948553865759542],[80.59341316381776,6.948653693405854],[80.59338744348706,6.948677955275961],[80.5932724144593,6.948786460234031],[80.59320986129886,6.948919116201493],[80.59319411784185,6.949036247813585],[80.5932332482572,6.949145628068115],[80.59323714356984,6.949219853923346],[80.59337602075883,6.949224693256165],[80.59361546573571,6.949231963292255],[80.59388361113062,6.949325381160619],[80.59419952596905,6.949428350550043],[80.59469749024296,6.949656325243677],[80.59509014772298,6.949754096552625],[80.59544262564545,6.949725519399035],[80.59549131196457,6.949630587655456],[80.59550704112019,6.949544683752027],[80.59566733795616,6.949322198496976],[80.59578069566965,6.949084152819522],[80.59583559287157,6.948631310932377],[80.59580440002338,6.948482932609203],[80.59562613440637,6.948050837178843],[80.59563245484338,6.947994146279242],[80.59570451949065,6.947347819187575]]]]}},{"type":"Feature","properties":{"GND_N":"Yulefield","GND_NO":"475Y","GND_C":"125","PROVINCE_N":"CENTRAL","PROVINCE_C":"2","DISTRICT_N":"NUWARA ELIYA","DISTRICT_C":"3","DSD_N":"THALAWAKELE","DSD_C":"12","Admin_Code":"2312125","GND_NO_Cen":"475Y","GND_NAME_C":"Yulefield","GND_NO_Gaz":"475Y","GND_NAME_G":"ඉයුෆිල්","shape_1":"Polygon","Area__Ha_":727.587695044,"MWS_ID":"156","Alt_MWS":"155","Area":7.27587695044,"Tot_Pop":4355.0,"PopDensity":598.553278136},"geometry":{"type":"MultiPolygon","coordinates":[[[[80.61053592169425,6.920694557853882],[80.61050216179702,6.920573066502823],[80.61048919191495,6.920356243916773],[80.6104856549643,6.920347128074588],[80.61040247667083,6.920128488619854],[80.6103022901461,6.919963935814534],[80.61030239891788,6.919963424913604],[80.61033791877377,6.91987554859316],[80.61022426114766,6.919807262810877],[80.61009933538409,6.919604171094782],[80.60995093730764,6.91940898480475],[80.60990798412494,6.919319103294514],[80.60998225886523,6.919198034059725],[80.6101190550949,6.919014676548025],[80.61025587131167,6.918768723101211],[80.61038096528968,6.918487720530117],[80.61042032486627,6.91793327416065],[80.61037343125648,6.917792665472418],[80.61026390440793,6.917398005991807],[80.61021738503698,6.917230380954384],[80.61016667043036,6.917093726391018],[80.60994409727623,6.916738422059719],[80.60980352192551,6.916410415123348],[80.60978505123798,6.916237717605793],[80.60978012734857,6.916191675304229],[80.60980364063258,6.916074546481092],[80.60989744388468,6.915910672809145],[80.61003809940392,6.916004403820596],[80.61010836750715,6.916020112862912],[80.61024128797342,6.915996702240384],[80.61036630936397,6.915918608401642],[80.61021387501948,6.915799464780813],[80.6101514480155,6.915750668638062],[80.61005375183822,6.915723364808878],[80.60986630785858,6.915582705085061],[80.6101086135442,6.915317287855466],[80.61022588053133,6.915176736502148],[80.6101399164372,6.915161163067292],[80.609827434117,6.915153142788363],[80.6097180133871,6.915098561495882],[80.60971335733383,6.915093898111166],[80.60961652736162,6.914996932260085],[80.60956963518024,6.914848550884784],[80.60957747978243,6.914653420147432],[80.60962446332721,6.914544068540336],[80.60974950633454,6.914403520024445],[80.610054246748,6.91430994577415],[80.61016372740693,6.914192846969582],[80.61023420103571,6.914028964150815],[80.61030449531522,6.913966393688384],[80.61042972504748,6.913966436484949],[80.61053101031521,6.913966471805955],[80.61067171985789,6.913904066904342],[80.61074991219137,6.913904093229815],[80.61099988292482,6.913951091634842],[80.61103039991117,6.913964072860489],[80.61136717443065,6.914107355828447],[80.61144523012244,6.91409183859343],[80.61153899720743,6.914029418060839],[80.6115413744067,6.914019142226668],[80.61156250364427,6.913927830716745],[80.61155561906442,6.913917013604989],[80.6115078141135,6.913841901655035],[80.61148976732261,6.913825567957592],[80.61134384700732,6.913693479848682],[80.61132358345098,6.913608552030307],[80.61130473676937,6.913529559734777],[80.61138296157696,6.913435905962694],[80.61146892989699,6.913435934865076],[80.61155883878196,6.913486692778002],[80.61175014051682,6.91350625880145],[80.6118361340768,6.913436062910761],[80.61182846440543,6.91312364676968],[80.61186752100537,6.913029976651555],[80.61190273582444,6.913010491751779],[80.61203951424206,6.912865989366404],[80.61203955292407,6.912756765065363],[80.61198484001841,6.912733289085305],[80.6117583589502,6.912639530771584],[80.61171144018648,6.912569146916238],[80.61171146092485,6.912506692077094],[80.6121179601131,6.912132106206547],[80.61246974138894,6.911749588350045],[80.61288399392483,6.911437318235484],[80.61288675696859,6.911389084718596],[80.61289940691263,6.911168150827542],[80.61289964088884,6.911164050734084],[80.61282488971047,6.911042522810145],[80.61277471886646,6.910960958768837],[80.61270431468847,6.910929708490675],[80.61240752735267,6.910929606328855],[80.61236017005399,6.910916075895277],[80.61235016437972,6.910913216613427],[80.61229809922409,6.91089834073592],[80.6122924718921,6.91089194979542],[80.61212623002577,6.910703147001526],[80.61206379712024,6.910523533499104],[80.61207160014524,6.91044539686417],[80.61204263333941,6.910351705940506],[80.61206423949479,6.910204560205295],[80.61207340079001,6.910142170007862],[80.61211981647278,6.910033809046201],[80.61225164043749,6.90990230350577],[80.61246079740584,6.909801771201328],[80.6127088832503,6.909569560097236],[80.6127630534259,6.909523091391167],[80.61309616908567,6.909546378902699],[80.61321741364699,6.909687773393808],[80.61323567039643,6.909709061852291],[80.61350656626502,6.910165976784019],[80.61363062706334,6.910241778393443],[80.61364609259564,6.910251228370168],[80.61402560119961,6.910235814571116],[80.61439751271587,6.910104250092403],[80.61469205830966,6.910042459674086],[80.6148624250319,6.910081234051786],[80.6151258086907,6.91018192955622],[80.61531175293658,6.910151046780633],[80.61562945218888,6.910189870721609],[80.61580212704449,6.910168409875626],[80.61581769285557,6.910165087239329],[80.61590053456091,6.910104759233804],[80.61606328301632,6.910089411747401],[80.61617947658083,6.910190057074367],[80.61626671692925,6.910353145691327],[80.61633384895072,6.910511036749699],[80.61631727511872,6.910790909237701],[80.61613468036438,6.910954331172092],[80.6160954607358,6.911110452861788],[80.61610315882812,6.911121510732999],[80.61618699046409,6.911126185341417],[80.61646745998375,6.911116640551205],[80.61653733979158,6.911018148607196],[80.61661343395897,6.911007694930493],[80.6166259396827,6.911011414064101],[80.61677933096091,6.911054267772828],[80.61680120191639,6.911065609820097],[80.61681487940291,6.911069682929774],[80.61694053383506,6.911120653481658],[80.61695764750927,6.911121485760999],[80.61714561268883,6.911139309483596],[80.61716886613814,6.911137878494878],[80.61727103344576,6.91113159148649],[80.61734498551596,6.911159423963215],[80.61743114525211,6.911227217766727],[80.61768170446909,6.911298490153611],[80.61782240804492,6.911251623785524],[80.61827558196543,6.911236234772983],[80.61853756947629,6.911267114653156],[80.6185412523804,6.911267549947038],[80.61876774199041,6.911337849780399],[80.6188536910696,6.911400332205651],[80.61890837742969,6.9115018047663],[80.61904104645137,6.911806488753894],[80.61906721951567,6.911820578533038],[80.61914269146652,6.911861206423399],[80.61928927014618,6.911887388704613],[80.61936141573166,6.911900276431763],[80.61938487303651,6.911939282858289],[80.61933783368228,6.912235996469232],[80.61952537647093,6.912501561385538],[80.61960732593829,6.912685134974673],[80.61956422971554,6.913024805877079],[80.61957193015667,6.913251171703053],[80.61957522504709,6.913256530869218],[80.61963439470216,6.913352786009024],[80.61979073537016,6.913477746325524],[80.61993127856981,6.913493335067787],[80.61998218640531,6.913473853820811],[80.61998540423443,6.913474165963864],[80.62004202662186,6.913479671068363],[80.62010321695239,6.913485620782269],[80.62032211745006,6.913423237772498],[80.62043141671124,6.913423272710212],[80.62043363224198,6.913425232187882],[80.62063454087468,6.913602932159067],[80.6206032791511,6.913649831577211],[80.62060321256922,6.913852880642507],[80.62064217793132,6.914032485399169],[80.62089216325022,6.914469747640134],[80.62110303965012,6.914735318671077],[80.62112955420805,6.914779523122895],[80.62122019268257,6.914930631569918],[80.62142195473186,6.915102646957361],[80.62148580174832,6.915157081433075],[80.62149355326484,6.915235221496345],[80.62125905305655,6.915438193245842],[80.6210744502147,6.915509911376367],[80.6210076143222,6.915571291786162],[80.62099602901397,6.915586160403356],[80.62091616267192,6.915767263629262],[80.62091953426295,6.915798270153815],[80.62106968764063,6.915921936674519],[80.62123089545234,6.916021691180569],[80.62127657397026,6.916057381398033],[80.62159192036437,6.916162866953392],[80.62175919260287,6.916147871722231],[80.62184485340985,6.916268606936419],[80.62196968274704,6.916444546244974],[80.62205808345692,6.916569142841824],[80.62252790934292,6.916772414702562],[80.62255666238848,6.916784854750809],[80.62268595339684,6.916896697308559],[80.62269814399298,6.916898900548517],[80.62271191191427,6.917133128607328],[80.62289162701411,6.917133186655409],[80.62309479581846,6.91718793626565],[80.62329797659473,6.917211316834534],[80.62345026318904,6.917199778822672],[80.62361049247441,6.917117734595254],[80.62395436861763,6.917117844958856],[80.62401205612134,6.917099477772546],[80.62413791950357,6.917059405284366],[80.62431375131155,6.917266324149651],[80.62431425865016,6.917267358850968],[80.62465932931363,6.917480228742662],[80.62467637622606,6.917481199993208],[80.62531677068176,6.917786594740043],[80.62540280888895,6.91778293064705],[80.62560058297649,6.917840717800186],[80.62592330168843,6.917539767349457],[80.62654225470911,6.917033117306724],[80.62696836202674,6.91663206812865],[80.62703314957818,6.916619187488846],[80.62721291112597,6.916470879777559],[80.62723863338057,6.916412148806462],[80.62726767097674,6.916345847022796],[80.6272442756719,6.916103791867029],[80.62732249200471,6.91602582081295],[80.62743971901627,6.915994487673173],[80.62771733594785,6.916035059936783],[80.62781468535306,6.916049287242196],[80.627892877817,6.916041540864312],[80.62798665810614,6.915940117465039],[80.62801873459863,6.915812162016905],[80.62803610974555,6.915799309850219],[80.62832693752249,6.915524279042048],[80.62853375812507,6.915301605439076],[80.62871995244016,6.915139866396718],[80.62889807828743,6.915152831707116],[80.6289007035892,6.915178772872304],[80.62894455448611,6.915223742810822],[80.6290380153191,6.915231966702382],[80.62951840042851,6.915445516170347],[80.62966304156083,6.915509814393688],[80.62981744273355,6.915517490828141],[80.62996409720492,6.915432758936785],[80.6299795852368,6.915185911208901],[80.6300646105377,6.915031779246446],[80.63021839156433,6.914989859862689],[80.63023444190635,6.91498548518466],[80.6303424573772,6.915024093844847],[80.63041963300863,6.915108897320244],[80.63051372232916,6.915171621629244],[80.63069741801291,6.915294083666531],[80.6307362632961,6.915355784500227],[80.63082856961341,6.915502400849666],[80.63105219288369,6.916181272701649],[80.63106747974668,6.916590057894683],[80.63118326796621,6.916644070179652],[80.63132989394184,6.916644114028692],[80.63159990967327,6.916813897865821],[80.63172419380588,6.916828488879285],[80.63175063121686,6.916808761997512],[80.63182506135385,6.916853443456616],[80.6320130714053,6.916807767427567],[80.632327782052,6.916519149509244],[80.63313518367761,6.91579297850502],[80.63310565121309,6.915855651488951],[80.63367483333936,6.916188371038315],[80.6336819633962,6.916194171663689],[80.63368813355106,6.916199190670344],[80.63380433817353,6.916241426421797],[80.63425311507278,6.916413375730626],[80.63424757847946,6.91643820392888],[80.63439442740317,6.916969578808087],[80.63442761872174,6.916999768516091],[80.63477205642779,6.917092506832232],[80.63522310719459,6.917439627700521],[80.63530839170687,6.917505260366366],[80.635443421368,6.917516886536233],[80.63546274162883,6.917511384063963],[80.63603730410621,6.917683428671822],[80.63753979093268,6.918062280767137],[80.63756965670797,6.917814525390731],[80.63759668514972,6.917741198530646],[80.6376045546376,6.917424971724476],[80.63770490915708,6.917070197316765],[80.6379476549317,6.916543126688899],[80.63801391470128,6.916399255431468],[80.63830732942425,6.915851804251445],[80.63840775477144,6.915736107833599],[80.63880120586447,6.915921325777751],[80.639160175099,6.91604874210662],[80.63931213000905,6.916011507236122],[80.63936464805201,6.915998637650363],[80.63985888329282,6.915312345471357],[80.64002860147343,6.915165866611797],[80.64010579570015,6.91518892172065],[80.64022930322372,6.915443579599413],[80.6403411028803,6.915571699204442],[80.64065563492932,6.915051858656546],[80.64075394026895,6.914729914201516],[80.64080735050656,6.914554996331887],[80.6406404466975,6.914177388684365],[80.64060014988088,6.914086219204084],[80.64053562332855,6.913989408898473],[80.64043040682424,6.913831549100315],[80.64031467430553,6.913584806270053],[80.64027607929803,6.913561622075868],[80.64017592967781,6.913214420258081],[80.64018466443156,6.913080590911925],[80.6401990799323,6.912859765074069],[80.64002167777014,6.912682241819687],[80.63997402321336,6.912600529343841],[80.63996772876874,6.912461018379961],[80.63996775072663,6.912381397695577],[80.64000516437982,6.912285878966836],[80.64010670297195,6.912026634623499],[80.64010674681137,6.911880106155433],[80.64005402872876,6.911692970440744],[80.64002199435019,6.911579255910558],[80.64001664794506,6.911428240477194],[80.64000670737735,6.911147439597005],[80.64006840769244,6.91096235329077],[80.64014564283626,6.910846650715293],[80.64026925670585,6.910723190588921],[80.64078665280242,6.910360762766893],[80.64088865450219,6.910302399992697],[80.64091161498656,6.910220489765075],[80.64088561643035,6.910154071038574],[80.64083736998718,6.910015813261563],[80.64071023782657,6.90983277285879],[80.64056166781178,6.909524150861072],[80.64054690438252,6.909481599377012],[80.64051635247483,6.909332412504505],[80.6404324688119,6.90908882398592],[80.64044976652703,6.908927040054937],[80.64038059030362,6.908551869273833],[80.64038293491895,6.908507718411269],[80.64038641773737,6.908442083079524],[80.64036826214515,6.908423644267348],[80.64001395380076,6.908063856614487],[80.64010346918127,6.908020644984213],[80.64020176203243,6.907934056602586],[80.6402191962545,6.907883423381348],[80.6400749238036,6.907770128881142],[80.63991117960785,6.907573993197923],[80.63989983446253,6.907565115869597],[80.63970448011051,6.907380369985095],[80.63969156545497,6.90739487516012],[80.63920238912935,6.907060753417706],[80.63918235854551,6.907055198748239],[80.63897694209547,6.906857564039342],[80.63887909154114,6.906763419763726],[80.63884917835702,6.906754754988382],[80.63847914596343,6.906466299726953],[80.63844754259179,6.906435205534462],[80.63790533291076,6.905901716475396],[80.63779430880292,6.905817540067857],[80.63763716896007,6.905970239997318],[80.63736569320382,6.905975952972994],[80.63727903794943,6.905912484311276],[80.63721544513518,6.905791231010382],[80.63712889817566,6.905358120440265],[80.63699609436175,6.905479317209684],[80.6369440583172,6.905490888101067],[80.63692086396307,6.905514055369179],[80.63681694572395,6.905490851766625],[80.63627980433805,6.904976927305339],[80.63626825221029,6.904832516935867],[80.63643308086145,6.904610086821946],[80.63637841638862,6.904562351686586],[80.63599634996959,6.904261899735013],[80.6359886791352,6.9042584411693],[80.63586970936217,6.904221388719321],[80.63582336216116,6.904206953879455],[80.63535594321498,6.903625684489779],[80.63507103971757,6.903461417446123],[80.63505340057918,6.903451246770769],[80.63468242270659,6.903613091820888],[80.63466007218058,6.90360736354952],[80.63418781737042,6.903553617528368],[80.63417550339516,6.903550369158255],[80.63392543384391,6.90358918102346],[80.63389871974816,6.903592833713431],[80.63360830584459,6.903479933051546],[80.63359100165303,6.903481495048046],[80.63356278524189,6.903476657529248],[80.63344734466114,6.903401644068296],[80.6334434150515,6.903388194772512],[80.63343592232779,6.903174563615673],[80.63343275773688,6.903150859580278],[80.63342114182974,6.903140371428493],[80.63339472442787,6.903108357867881],[80.63338505956231,6.903103719431319],[80.6332143622584,6.903083719803008],[80.63285778046878,6.902960094385318],[80.63273969786725,6.902681009697305],[80.63261969734289,6.902403761071144],[80.63259518019295,6.902357281661531],[80.63250676921969,6.902188036225477],[80.63250904455712,6.902150816981848],[80.63240383976674,6.901962574867193],[80.63224694970039,6.901695673963151],[80.63208102969554,6.901536320844652],[80.63189138923066,6.901225720481755],[80.63159855961058,6.900894828355747],[80.63127867857158,6.900645907885536],[80.630779072597,6.900083842874295],[80.63035597986816,6.899823571805483],[80.62984374095585,6.899886666215404],[80.62947038386048,6.900146659416447],[80.62913939966516,6.900134022514596],[80.62884563214608,6.899929639850133],[80.62840794464853,6.899698115355644],[80.62809639132377,6.899614449576417],[80.62729928864265,6.89956733733608],[80.62726746976703,6.899632923003703],[80.626954664419,6.899580627792829],[80.62671493182177,6.899281233216894],[80.62649009287794,6.89912406712955],[80.62628176884292,6.89902053672621],[80.62622983401074,6.898985265526568],[80.62614381156205,6.898926843886223],[80.62598536766576,6.898717546461211],[80.62591659278188,6.898690465749954],[80.62586868778445,6.898671603732024],[80.62586110557834,6.898665972861822],[80.6257071189842,6.898715434725946],[80.62570393737369,6.898709633423805],[80.6258674344834,6.898448389586544],[80.62583634900317,6.898386349876295],[80.62561166991244,6.898409592189474],[80.625545767934,6.898457478498628],[80.62548182372151,6.898406795646822],[80.62527799279408,6.898207167965872],[80.62519353687482,6.89809211101869],[80.62501403797454,6.897938357958968],[80.62483247626298,6.897800890042559],[80.62460450025341,6.897669894862649],[80.62436900350613,6.897582166086708],[80.62423689183707,6.897624203675316],[80.62423295199278,6.897572943859045],[80.62414006349394,6.897557511860485],[80.62403923239681,6.897619369374119],[80.62383788468539,6.897642479048717],[80.62382011349077,6.897630738026432],[80.62381455948352,6.897627069239291],[80.62350008701982,6.897747365792748],[80.62340741110584,6.897782816984447],[80.6234000931806,6.897785616213649],[80.62326447719684,6.897851417883905],[80.6232612480169,6.89785295509179],[80.62310185339943,6.897928797859174],[80.62300881533876,6.897936538741871],[80.62298563476881,6.897913217060349],[80.62283888137742,6.897955937731657],[80.62261374259825,6.898021474345843],[80.6224431998526,6.898098851538412],[80.62229600885358,6.898106575696303],[80.62212564915086,6.898060033232367],[80.62199782561834,6.898079349686954],[80.62193972757967,6.8980367998895],[80.62161504630285,6.897928524601008],[80.62153215195714,6.89792020056629],[80.62147992874421,6.897902226558958],[80.62116588919044,6.897699903547701],[80.6211166517799,6.897633226619922],[80.62085345965785,6.897395271749167],[80.62086252987123,6.897369100128222],[80.62086594562288,6.897317205146398],[80.62041386188527,6.897166615138643],[80.62038915586811,6.897159725196648],[80.62031733144698,6.897120623400676],[80.62001088134652,6.896943239600904],[80.6200562778387,6.896939163351854],[80.61883195481695,6.896735214702247],[80.61753319526193,6.896650151422709],[80.6174946399338,6.896643010744101],[80.61630627808712,6.896559162852632],[80.61627017532503,6.896556617737852],[80.6161524436268,6.896561859409506],[80.61466478998824,6.896814077864644],[80.6145226122223,6.896889032834412],[80.61442381669538,6.896941118737208],[80.61377076776627,6.897285402639689],[80.61368588794676,6.89735771819567],[80.61328362696761,6.897700438340046],[80.6127712891314,6.898136938796869],[80.61234984092081,6.898496003398816],[80.61127876883813,6.899552813406824],[80.61117056796763,6.899651210876543],[80.61107762706972,6.899372536734019],[80.61113202066066,6.899086141963535],[80.61089957120684,6.89909368924763],[80.61086085294609,6.899031787933738],[80.61090738825703,6.898977687016994],[80.61114762696529,6.898931282095574],[80.6111940408676,6.898830550879206],[80.61110117946605,6.898729914274311],[80.61097719423361,6.898691154727875],[80.61084558872007,6.898605905157881],[80.61072937215293,6.898590463359398],[80.61072360546854,6.898555924565773],[80.61072161069902,6.898543974221114],[80.6106285975275,6.898482049497689],[80.61050474729356,6.898458694021747],[80.61043503101726,6.898489753865698],[80.61028551378094,6.898677632537334],[80.61015597616186,6.898745128148403],[80.61004750388044,6.898822522497948],[80.60999331305979,6.898930879705126],[80.60999329052594,6.898992769375545],[80.60994554444997,6.89905953383962],[80.60987701072811,6.899155364844195],[80.60966770868862,6.899279069238509],[80.60962355657895,6.899351667772155],[80.60954759778782,6.899476565411756],[80.60952045845532,6.899549943079759],[80.60952042403827,6.899550030786507],[80.60945069582309,6.899619666848053],[80.60935617600276,6.899681398617291],[80.60924916562371,6.899751287452295],[80.60923603168459,6.899777536085394],[80.6091562074762,6.89993706584837],[80.60909370867746,6.90001114911025],[80.60903215497247,6.900084114054487],[80.60889981644347,6.900392447028354],[80.60889262832073,6.900409194268577],[80.60881511949326,6.900486600103143],[80.60875361889454,6.900490691312892],[80.60869889347835,6.900494330931023],[80.6086522787967,6.900523449825304],[80.60863694904434,6.900533024768273],[80.60842761143846,6.900757476762018],[80.60834248329805,6.900788390685928],[80.60832031005168,6.900784239285797],[80.60821849137933,6.90076517291828],[80.60805572218037,6.900842548534023],[80.6079705520009,6.900989612889126],[80.60792390108168,6.901028815738799],[80.60782331798862,6.901113338363596],[80.60779548169634,6.901107007339976],[80.6076528148289,6.901074560590454],[80.60753564992271,6.90115469676942],[80.6075055897859,6.901175255719273],[80.60743588486163,6.90117523011028],[80.60724221920071,6.901059014527139],[80.60718791007,6.901052185741282],[80.60711822455846,6.901043428005794],[80.60706214153524,6.901108613879897],[80.60700162986289,6.901178948259632],[80.60692839987722,6.901264070930514],[80.60673079095162,6.901500111524765],[80.60661457117425,6.901484525829573],[80.60654491037614,6.901360722590806],[80.60649840384762,6.901329620110895],[80.60640550054055,6.901352901187221],[80.60625048091585,6.901499940300014],[80.60611862723312,6.90171664628488],[80.60601791842156,6.901824987280903],[80.60585773262511,6.901824929988422],[80.60583856289453,6.901840557867998],[80.60572349585821,6.901948801420154],[80.60563043550714,6.902018426730329],[80.60558402471399,6.902111386561351],[80.60558391639377,6.902413202367533],[80.60544428257116,6.902637677057103],[80.60536673297297,6.902823458363332],[80.60525045254744,6.902978281822631],[80.6049947096505,6.903272376003284],[80.60465365167583,6.903721301777468],[80.60442889554038,6.903953518051986],[80.6041809003957,6.904325045794891],[80.60391738960351,6.904588191717789],[80.60369260368579,6.904897838842699],[80.60364608945011,6.904890050278076],[80.6034759470631,6.904963926408213],[80.60332775649023,6.905148436445881],[80.60329853604689,6.905222708229968],[80.60303983068403,6.905757873902986],[80.60301182350949,6.905763006559528],[80.6028375418966,6.905692304185554],[80.6025592956386,6.905579425366408],[80.60253891182892,6.905566242030369],[80.6024256755483,6.905590477074799],[80.60235959232182,6.905521319719779],[80.60230953153888,6.905615334103691],[80.60225900981754,6.905710213744211],[80.60206142316115,6.905876592742909],[80.6023209625522,6.906035366330931],[80.6023828534925,6.906143765893718],[80.60238282038553,6.906236740505043],[80.60249122106966,6.906360697728496],[80.60252216001498,6.906430371263158],[80.60251450158378,6.906500029802165],[80.60245240429582,6.906569667558085],[80.60235172388818,6.906592803896891],[80.60224323537278,6.90670128225912],[80.60220343779196,6.906711861776842],[80.60201076317487,6.906763085927509],[80.60197822674542,6.906795576063608],[80.60185220949808,6.906831058695975],[80.60182119400231,6.906837017627889],[80.60178660048076,6.906842932743102],[80.60146387761732,6.907053617792205],[80.6014562897396,6.90705893781358],[80.6012451185842,6.90729640974136],[80.60123364395092,6.907324190653234],[80.60122276497762,6.907346445504222],[80.60109789266889,6.907658226053254],[80.60109509737553,6.907668047712612],[80.60102508814363,6.907754543343228],[80.60101256241585,6.907763940006951],[80.60098743754759,6.907770771909073],[80.60095744778607,6.907777740378092],[80.60078199613004,6.907801465568204],[80.60076964201804,6.90780190774462],[80.60074496003763,6.907802789393217],[80.60073016442315,6.907803318386778],[80.60069616331405,6.907807398780521],[80.60067456156833,6.907811021641529],[80.6005279319092,6.907858238859308],[80.6002009842894,6.908086731970779],[80.5999352214478,6.908861842728461],[80.59970290266276,6.909284039875405],[80.59969936899115,6.909315571179605],[80.59964993926326,6.909610677457299],[80.59965005188745,6.909638775519811],[80.59965017782658,6.909670004331255],[80.59934174428953,6.910333082031977],[80.59933044161684,6.910355432533114],[80.59885576637681,6.910538233336768],[80.59856118169108,6.910749619495199],[80.59838338844338,6.910771624693509],[80.59838019029361,6.910772019588141],[80.59837435190217,6.910776374401556],[80.59817069062031,6.910928330973978],[80.59800237098626,6.911053915460404],[80.5974268966631,6.911374032733796],[80.59720919570564,6.911761522751439],[80.59680300336042,6.912027479217173],[80.59678391491036,6.912036876904108],[80.59668116409146,6.912132711023674],[80.59667617358028,6.91214186262934],[80.59658547007753,6.912244688928277],[80.59656061251259,6.912290471402827],[80.59648141962946,6.912436326687565],[80.59644316138548,6.912633984920169],[80.59627116984369,6.912782284701238],[80.59619305467673,6.912954075225839],[80.59610705397454,6.913039810722295],[80.59603690750578,6.913078076510619],[80.59602003162492,6.913087273341121],[80.59638843358289,6.913578972950354],[80.59678423169544,6.913942618779356],[80.59705774457026,6.913692015624124],[80.5975212801586,6.914264506582478],[80.5975382336946,6.91430147326786],[80.59756917865117,6.914368948705099],[80.59761273891885,6.914483025587393],[80.59763018927504,6.914469488199035],[80.5977161597914,6.9144616077255],[80.5978867631868,6.914619643165879],[80.59792704848006,6.914656962231692],[80.5979729800819,6.914656979459314],[80.5980442660513,6.914657006187864],[80.59823959747743,6.914485260173153],[80.59843514392337,6.914118377153263],[80.59845575529633,6.91409965737444],[80.59852114155962,6.914040272759437],[80.59860711193504,6.914032532291638],[80.59867738991261,6.914024787755836],[80.59870796614709,6.914050207752667],[80.59875614320228,6.914141194543459],[80.59889010691022,6.914394190873825],[80.59890114105609,6.914429665895724],[80.59903988512063,6.914528992583072],[80.59905644057103,6.91452971045125],[80.59948976950932,6.914471758593607],[80.59967270900681,6.914276017661565],[80.59975354696476,6.91418952087721],[80.5998625552781,6.913854857546389],[80.60000598742565,6.913514033175765],[80.6000323437239,6.913481719962002],[80.60024542512467,6.913280470009819],[80.60026576094934,6.913260235317281],[80.60027762664691,6.913252184057862],[80.60040941139093,6.913022644944288],[80.60042272643683,6.912988626768793],[80.60043846977938,6.912978034000984],[80.60050372333237,6.91274068498964],[80.60051512294946,6.912696025010451],[80.60072032866884,6.912483732923054],[80.60091630918204,6.912639599976],[80.60086188162737,6.912670819517787],[80.60101428803192,6.912721600632447],[80.60109754025157,6.912670754458344],[80.60115486495853,6.912635743252534],[80.60126431284203,6.91261232738027],[80.60138149633535,6.912706053163625],[80.60135019467774,6.912846633935844],[80.60137317560599,6.91307684882457],[80.6013735813254,6.913080917493904],[80.60154528089669,6.91333856885058],[80.60174282374747,6.91326598770219],[80.60184225176666,6.913229452719889],[80.60192821715366,6.913237256847289],[80.60181078381913,6.913822899809195],[80.60178775409875,6.914143450766101],[80.60190426006031,6.914136731933403],[80.60199500808612,6.914309948150049],[80.60233744975025,6.914575701159564],[80.60235959523551,6.914578170810674],[80.60248110726714,6.914759641939958],[80.60279376760094,6.915046853121129],[80.60300024536402,6.915212352334875],[80.60342532841743,6.915553069983211],[80.60352099580496,6.915626195240184],[80.60367784688835,6.915746085011363],[80.6040577377424,6.916036457769636],[80.60496296327543,6.917012558743345],[80.60500126699313,6.917053861834044],[80.60578061943029,6.91759686675217],[80.60579214130858,6.917601307462858],[80.60581385227792,6.917609673849234],[80.60591403519786,6.917710489526372],[80.60648200034777,6.918282032785472],[80.6065417498824,6.918304673802844],[80.60656732360884,6.918314361837671],[80.60748670472412,6.919170748866237],[80.60749877674473,6.919162796977612],[80.60853941872807,6.921084305637964],[80.6085547565677,6.92111262610996],[80.60858205743465,6.92107023596353],[80.60887816175244,6.920620823632677],[80.60931132384677,6.920934200612923],[80.60974714323203,6.921286813724081],[80.60976278166348,6.921299466074681],[80.60986275510061,6.921380352444231],[80.61027991991534,6.921673329714101],[80.61035357353887,6.92153590565645],[80.61037889685728,6.921488657629069],[80.610329109655,6.921126102413043],[80.6102670365715,6.920813917852799],[80.61043643575434,6.92081121343711],[80.61053093250571,6.920700408850373],[80.61053592169425,6.920694557853882]]]]}}]}