{"type":"FeatureCollection","name":"SED_PPL_MWS_148","crs":{"type":"name","properties":{"name":"urn:ogc:def:crs:OGC:1.3:CRS84"}},"features":[{"type":"Feature","properties":{"GND_N":"Elbedda","GND_NO":"475J","GND_C":"345","PROVINCE_N":"CENTRAL","PROVINCE_C":"2","DISTRICT_N":"NUWARA ELIYA","DISTRICT_C":"3","DSD_N":"THALAWAKELE","DSD_C":"12","Admin_Code":"2312345","GND_NO_Cen":"475J","GND_NAME_C":"Elbedda","GND_NO_Gaz":"475J","GND_NAME_G":"ඇලබැද්ද","shape_1":"Polygon","Area__Ha_":1093.46347994,"MWS_ID":"148","Alt_MWS":null,"Area":10.9346347994,"Tot_Pop":4261.0,"PopDensity":389.679223693},"geometry":{"type":"MultiPolygon","coordinates":[[[[80.6856337206533,6.871147031479536],[80.68570480193443,6.871096087380927],[80.68565848515206,6.870896724632823],[80.68567013732623,6.870585020032046],[80.68575670752004,6.870354150618025],[80.68580299034174,6.870088515068448],[80.68587242831146,6.869984673270716],[80.6859647650875,6.869915312131024],[80.68606308983706,6.869574797747544],[80.68619887462204,6.869265940739514],[80.68639245164015,6.869135981950626],[80.68661203550167,6.869055199523308],[80.68672175157201,6.869037980130427],[80.68701698978236,6.869063002803252],[80.68706261874244,6.869066870971702],[80.68721857035476,6.869032280855381],[80.6872422606225,6.86902023157557],[80.68753628625532,6.868870692585442],[80.68776734422406,6.868662881757947],[80.68794069981068,6.868553265811678],[80.68805621310347,6.868535907013459],[80.68819207258498,6.868573517487695],[80.68839703761137,6.868790028944384],[80.68866861048063,6.868922899208783],[80.68875511660148,6.869026771839299],[80.68876669346689,6.869119182927306],[80.68884553909572,6.869179178281496],[80.68892625603968,6.869159743816646],[80.68901480014262,6.869084661554337],[80.6890313205481,6.868987437382192],[80.68902989514707,6.868889947677618],[80.68899705909966,6.868801055945161],[80.68899544361825,6.868694055458784],[80.68901642404154,6.868586742588607],[80.6890677792686,6.868558616727114],[80.68918164194072,6.868522217776604],[80.68918684482347,6.868522155422911],[80.68920306025436,6.868519037567062],[80.68925782331708,6.86852454039568],[80.68939650251616,6.868611182436518],[80.68948896991968,6.868605407071898],[80.68960449169103,6.868536190504425],[80.68969117458344,6.868449588530764],[80.68969684574512,6.868357179683422],[80.68959858510357,6.868111504799946],[80.68950055519187,6.867866409606853],[80.68943711579354,6.867641305278443],[80.68942555354457,6.867468069584],[80.68948340904159,6.867300639589083],[80.68962494502696,6.867240047725995],[80.68988562707953,6.866825897701615],[80.69021396216867,6.866526178068765],[80.69022076047213,6.866519971127582],[80.69082169588668,6.866474899115719],[80.69181201701544,6.866204492355797],[80.69294925877982,6.86585775190424],[80.69338620320977,6.8657082848151],[80.69390988891298,6.865801091864818],[80.69449640038175,6.866001582138724],[80.6951158350013,6.866181137731906],[80.69550485772753,6.866255974789465],[80.6957472588408,6.866256015724466],[80.69595377090843,6.866112490373505],[80.69616628094278,6.865894193020172],[80.69662420008856,6.865568265329272],[80.6970553271558,6.86534051041295],[80.69759057951605,6.865111393178194],[80.69793501809767,6.86485780388325],[80.69845837565218,6.864782358696429],[80.69888186142255,6.86490700775464],[80.69900749894902,6.865222864215694],[80.69914392212905,6.865456173198933],[80.69927678225898,6.86552079756372],[80.69942801540847,6.865522593491303],[80.69981549068267,6.865255295730041],[80.70029183587232,6.864973455836707],[80.70056255196427,6.864537607678957],[80.70083034218177,6.864142026527343],[80.700945449296,6.86402290574666],[80.70119085243958,6.863954153548103],[80.70131054832329,6.863999035749174],[80.7014930345898,6.864378904774797],[80.70154050701055,6.864598292498138],[80.70166036885647,6.864549461595677],[80.70199122212395,6.864407789698079],[80.70201541141807,6.864406410752585],[80.70254247161107,6.864376364950191],[80.7026146617301,6.864334039368523],[80.70261544140976,6.864330071325323],[80.70265278628973,6.864140270817292],[80.70254649659539,6.863947377977628],[80.70253251123815,6.863930908120363],[80.70236937775783,6.86373879141084],[80.70231426282074,6.863589145672726],[80.70203068582194,6.863384498888937],[80.701944035827,6.863274271204308],[80.70187323738439,6.863061744581158],[80.70187326039188,6.862920020191415],[80.70187596168329,6.86290615012584],[80.70191670832635,6.862696962442249],[80.70192844077495,6.862636721973017],[80.70192845140991,6.862568475527364],[80.70193246618581,6.862533521404692],[80.70193262131565,6.86253093597302],[80.70193619956262,6.862428844937369],[80.70193650346764,6.862423807008311],[80.70193207975723,6.862371335764484],[80.70194105095541,6.862239357734107],[80.70194137387995,6.86223420315045],[80.70195183279696,6.862147570755556],[80.70195438614041,6.862072710494877],[80.70195455301467,6.862070241722487],[80.70193578929137,6.862018963759922],[80.7019656744113,6.86194199887322],[80.701997866729,6.861894876960791],[80.702068613842,6.861790935266619],[80.70206881065327,6.861787963695905],[80.70210171505133,6.861688480752532],[80.70212384752142,6.861564812761806],[80.70211393746465,6.861496953631138],[80.70217182648419,6.861412536942881],[80.70217692161609,6.861400809584176],[80.70220295665824,6.861340890548169],[80.70223270472194,6.861295274839261],[80.70228197558993,6.861219726388755],[80.70238440902722,6.861150050685348],[80.70248154518625,6.861053407265567],[80.70250036456515,6.860961384578026],[80.70249762786426,6.860958671190014],[80.70243098863502,6.860801279059037],[80.70241903798852,6.860658469425861],[80.70254123540546,6.860572105673207],[80.70259032017265,6.860446965959211],[80.70259040418293,6.860442006671323],[80.70258578105694,6.860409038002188],[80.70257659536284,6.860343539269057],[80.7025716157692,6.860333783581432],[80.70247259450937,6.86020547668071],[80.70239611241138,6.860090437837606],[80.7023866409362,6.860076801912825],[80.70238201503523,6.860067711858751],[80.70237341194499,6.860049873684497],[80.70213453644419,6.860154673801563],[80.70201167510274,6.860170056225887],[80.70185814382957,6.860131597756736],[80.7017353022589,6.860008788888582],[80.70176599194922,6.859947469804218],[80.70178155410318,6.859953516717686],[80.70166040855659,6.859811388163163],[80.70165689930268,6.859807642818489],[80.70164259578075,6.859616385561972],[80.7016454837549,6.85959480618124],[80.70164596297118,6.859591218811382],[80.70165632542106,6.859496502665407],[80.70162960766834,6.859420776912433],[80.70168880443511,6.859281445533978],[80.7017355339369,6.859168403551607],[80.70177507462436,6.858979488744106],[80.70170131384258,6.858718795611862],[80.7017032731902,6.858704695731123],[80.70170076248401,6.858697661523887],[80.70169734773334,6.858668231644587],[80.70170483644488,6.858642834933553],[80.70182771084428,6.858535466772966],[80.70234984847453,6.85838972592274],[80.70261083652251,6.858382133746632],[80.70270302155842,6.85835134583945],[80.70286421297384,6.858228581800253],[80.70291809506124,6.858113570275224],[80.7028796495983,6.858044467848229],[80.70277220693798,6.858013790301162],[80.70258019888156,6.858113518289855],[80.70241124321282,6.858159556555671],[80.7018584539748,6.858136439531344],[80.70178933316929,6.858044300067138],[80.70178934273731,6.857982975288229],[80.70198138195039,6.857683731601275],[80.70198904168377,6.857530140045637],[80.70184317814032,6.857269275644237],[80.70175006632904,6.857180816643466],[80.7016896636776,6.857123431613549],[80.70149768941731,6.857008240745198],[80.70134855792693,6.856852080786856],[80.70130135219803,6.856766162802395],[80.70127047807698,6.85619954329214],[80.70122542952892,6.856102089201948],[80.70122383938912,6.856098648007294],[80.70108403192125,6.855997737169475],[80.70102198111206,6.855904611183542],[80.7010317317429,6.855816870880237],[80.70106856137576,6.85548552135032],[80.70103762490898,6.85532259745342],[80.70086672916229,6.855128423454704],[80.70064153716758,6.854973240599849],[80.70048375004777,6.854948920101975],[80.70048224696822,6.854944292448152],[80.70037979000283,6.854798584500127],[80.70028209861908,6.854659656989265],[80.70015125583089,6.854473576450927],[80.69988329793678,6.854234103622638],[80.69942935517226,6.853619561280988],[80.69920657172904,6.853326291788411],[80.6991855608722,6.853298631522327],[80.6989930608119,6.853158085999703],[80.69889673752127,6.853029224434782],[80.69876223945433,6.852803414249164],[80.69874596520582,6.852787897063127],[80.69855837482461,6.852604037850226],[80.69855308065523,6.852598985447252],[80.69834139262723,6.852491596226887],[80.69889691692792,6.851887752102421],[80.69938873627949,6.851267398620302],[80.69975037875972,6.850743439915665],[80.70009314350071,6.850246832754847],[80.69870707162211,6.846213217313274],[80.69851133171761,6.845760915903443],[80.69832119474908,6.845674882128706],[80.69783964698054,6.845603576357012],[80.69818157603514,6.845310163380561],[80.69828209449004,6.84523122247806],[80.69592640708726,6.839787849701158],[80.69431856484317,6.836390350770565],[80.69241025581513,6.833639096025369],[80.687589723928,6.831164334652507],[80.6873931686517,6.831167939103057],[80.68398808931033,6.830317218066289],[80.68392074895652,6.830358234233248],[80.68391335494495,6.830363914669641],[80.68383015189639,6.830401078071164],[80.68374195936691,6.830431645272352],[80.68366409287401,6.830444261837888],[80.68356772738935,6.830456626130857],[80.68349518879783,6.830447468515302],[80.68345514792891,6.830419604929985],[80.68345261558063,6.830418996735735],[80.6833469137858,6.830393657069036],[80.68328003077576,6.830376105689686],[80.68318690608838,6.830323772587461],[80.68310213605875,6.830392839153419],[80.68303130294532,6.830490959771452],[80.68301870980818,6.830498048118814],[80.68293762457176,6.830559370752233],[80.68293008787198,6.830563607846816],[80.68288175048383,6.830594884389563],[80.68259930064245,6.830871419121589],[80.68248870219016,6.830961554867501],[80.68225978889869,6.83114811614124],[80.68222014189104,6.831178869810028],[80.6821965928187,6.831199617588721],[80.68205967007471,6.831320258105814],[80.68189684435414,6.831477904696856],[80.68171369603215,6.831710437787373],[80.68160165366835,6.831821102061181],[80.68136988859543,6.831971456880873],[80.68111218332797,6.83216768362569],[80.68103043655474,6.8322088728663],[80.68099163612636,6.832244825547956],[80.68060322694288,6.83255518590565],[80.68035086294655,6.832628894795328],[80.68034381201316,6.832619787764505],[80.6803273180421,6.832637098624624],[80.6801838923581,6.832687076253541],[80.67999753584331,6.832826784757025],[80.67993001601967,6.832906528826307],[80.67982671900822,6.833028527395511],[80.67979235791509,6.83306130217614],[80.67964643399542,6.833200878492613],[80.67957812246524,6.833226341306812],[80.67950967442141,6.833309526977984],[80.67944010447434,6.833446242868113],[80.67938071032427,6.833651298629514],[80.67937357622613,6.833664227189909],[80.67918020240351,6.833907278090631],[80.6789769349405,6.834135233764447],[80.67862352008379,6.834395981202495],[80.67839470312751,6.834693678178997],[80.67797001613224,6.835094653777218],[80.6776787487643,6.835619391200443],[80.67669742618216,6.837270994486873],[80.67650231389821,6.837319705058525],[80.67642527455298,6.837351362915597],[80.67657097489278,6.837483814905161],[80.67539818318298,6.838552465786367],[80.67257054946192,6.841446865943225],[80.67224909055021,6.841494428772479],[80.66966244798202,6.842794535026743],[80.66750047286153,6.843534665482228],[80.66745432079543,6.843670327671886],[80.6665995869131,6.846117750672366],[80.66529344272985,6.847391883173306],[80.66531384324347,6.847462870796868],[80.6655455214428,6.847593329327448],[80.66555493806943,6.847599861607574],[80.66572127687267,6.847768509824435],[80.66596134469539,6.848115016998814],[80.66611679380541,6.848349385036014],[80.66613138394091,6.848368625114084],[80.66652333888175,6.84852253377147],[80.66654297390583,6.848535395004948],[80.66657441960452,6.848543423534608],[80.66689631221381,6.84869964447641],[80.66691945946697,6.848705712329505],[80.6669661475436,6.848717951214772],[80.66698307268177,6.848730821759936],[80.66722416249911,6.84897018183048],[80.66722964621579,6.848975625284565],[80.66737543224032,6.849021762549737],[80.66751523405742,6.849114910466007],[80.66755395139846,6.849200264584994],[80.66755590757069,6.84926014286241],[80.66755788172756,6.849320513998913],[80.66763944174073,6.849386517211696],[80.66767038581814,6.849464240703309],[80.66772481470213,6.849464253940504],[80.667761339131,6.849416642456232],[80.66800337497696,6.849601026847361],[80.66803436441926,6.849606500471498],[80.66860754043074,6.850226039132275],[80.66893133616544,6.850784260763734],[80.66908884224088,6.851055765171521],[80.66917644657114,6.851466944427366],[80.66927735048124,6.851645428468617],[80.66965007056915,6.852056837631843],[80.66964999882836,6.852382816526925],[80.66945727101033,6.852650959121046],[80.66943249123864,6.852685433557758],[80.66935483085767,6.852879564068841],[80.66935475893939,6.853205401875597],[80.66942454883055,6.853430508451384],[80.66966276590486,6.853929173561873],[80.66967297654975,6.853950547660139],[80.67001442072686,6.854509466073817],[80.67020085834756,6.85469574062417],[80.6703871703259,6.85480444239577],[80.67073664616215,6.854851148171068],[80.67077478479897,6.854861483021203],[80.67092111115907,6.85521232859842],[80.67107827501042,6.855615627144251],[80.67120559014198,6.855943752806527],[80.67122670866812,6.856022202788892],[80.67119612466504,6.856067839883204],[80.67115832057476,6.856086921805078],[80.6716370956035,6.856093092886591],[80.67178470686534,6.856046636686822],[80.67190897448809,6.856054435533211],[80.67168372043704,6.856232848745478],[80.67123323888471,6.856450068447719],[80.6709537086083,6.856566438384087],[80.67038674753074,6.856713830699511],[80.67037212015694,6.856726005052902],[80.67046561548096,6.856955816460491],[80.67060327934682,6.857294756615052],[80.67064349831223,6.85734220166109],[80.67069130024038,6.857448769278776],[80.67076219906932,6.857611416227756],[80.67077401644984,6.857638525860373],[80.67083533985699,6.857828521881272],[80.67087214123953,6.857925756270487],[80.67091376313634,6.858020782461384],[80.67092444766877,6.858109582822395],[80.6709712542234,6.858245811925998],[80.67105841604047,6.858361825660544],[80.67114340768359,6.858520975021972],[80.67125155603763,6.858662319750017],[80.67127101328437,6.858716672817232],[80.67131306471488,6.858834148839443],[80.67134989025102,6.858941668944568],[80.67141752319783,6.859107927839935],[80.67146231103303,6.859261935404692],[80.67153684395846,6.859528813276212],[80.6716241181897,6.859752955704991],[80.67169886684479,6.85996508689913],[80.6718133824107,6.860253906865687],[80.67191238989504,6.860465413913414],[80.67191227597623,6.860469145117463],[80.671973647212,6.860638511619689],[80.6719735369007,6.860642298892424],[80.67202553494475,6.860787138155469],[80.67206704732695,6.860925946923947],[80.67210826575064,6.861056047916581],[80.67211203709208,6.861056053259406],[80.67218455140369,6.861209198638633],[80.67218835912523,6.861216659211849],[80.6722527442771,6.861287535818002],[80.67231305166214,6.86129882581289],[80.67242613070515,6.861310228544024],[80.67243743839992,6.861310252702529],[80.6725581601494,6.861340288789132],[80.67264496427244,6.861332624490942],[80.6726557524802,6.861408270574691],[80.6727076236432,6.861434324447503],[80.67280208843596,6.861391688065637],[80.67287685963971,6.861365206721955],[80.6728814026218,6.861357702743151],[80.6730197205478,6.861304734883097],[80.67303847879464,6.861295663165365],[80.67315775630128,6.861200689960963],[80.67315807666716,6.861200435011471],[80.6733562621692,6.861070515897242],[80.67351921203972,6.860963691823131],[80.67355411895836,6.861029687633502],[80.67362030606238,6.861415249206924],[80.67361317737874,6.861417139516719],[80.67349196712534,6.861449285613642],[80.67344701223244,6.861529407845029],[80.67345753499094,6.861565164250831],[80.67346304772954,6.861583902064894],[80.6735664568926,6.861599607922665],[80.67367827228567,6.861588555795415],[80.67388016587083,6.861580829132609],[80.6740820476674,6.861619729179393],[80.6742140838943,6.861674015735615],[80.67450299553217,6.861882216754411],[80.67471875275726,6.861961246024848],[80.67519013582324,6.862018714213682],[80.67521963074294,6.862112685743308],[80.67530506626268,6.861910926229813],[80.67530538708803,6.861908494577992],[80.67530756399091,6.861891978516166],[80.67531140664985,6.861862825822282],[80.67531681990178,6.861821768976296],[80.6751926064013,6.861542250531619],[80.67516931336462,6.86137932491695],[80.67523154601913,6.861255136790738],[80.67527123133385,6.86121548978527],[80.67530140302857,6.861185348800843],[80.67547720637387,6.861070872595681],[80.67551779491235,6.861047267512815],[80.6758139711275,6.860875020451718],[80.67609448347987,6.860806831069093],[80.67626443933624,6.86072759745517],[80.67661393866264,6.860681040888985],[80.67715739051529,6.860743326803883],[80.6774835184683,6.860921855742929],[80.67764666762693,6.860945203720272],[80.67767777605805,6.860921896732638],[80.67768072109334,6.860931608845574],[80.67772375401469,6.860905347182448],[80.6777281451836,6.860905266698309],[80.67782178991273,6.86085262464483],[80.67795123350254,6.860834695974488],[80.67807819880423,6.860794479762847],[80.67812133357059,6.860765601882959],[80.67822763219701,6.860709092754976],[80.67823130121847,6.860705039434869],[80.67832334220348,6.860631737733613],[80.67838527310515,6.860549429142925],[80.6783687795014,6.860445062569998],[80.6783673171622,6.860432456936341],[80.67834949288287,6.860405972047367],[80.67835339850622,6.860386507331408],[80.67840786361184,6.860215827836122],[80.6784935603258,6.86014437594666],[80.67850105089092,6.8601381313307],[80.678594225179,6.860114978038697],[80.67870293407064,6.86016925860021],[80.67875767859913,6.860251365860615],[80.67892031032942,6.860495282687771],[80.67902868239938,6.860742411431116],[80.67911433390886,6.860937732393491],[80.67917653035101,6.860999776943245],[80.67937062586779,6.861085300897381],[80.67957252075557,6.861069801002873],[80.67966802918104,6.861022097462611],[80.67974332610873,6.860984490188316],[80.67987540915229,6.860813684206897],[80.67987543198414,6.860705023676434],[80.6798721408832,6.860701660746429],[80.67974150829686,6.860568075183149],[80.67953378651303,6.8603556605872],[80.67951048732773,6.860216051271153],[80.67955715167571,6.860169432998086],[80.67966588577866,6.860099651314509],[80.67971866032894,6.860093796543088],[80.67980571426563,6.860084136966571],[80.6802637437556,6.860293777564747],[80.68031943989513,6.860324591735424],[80.68037245909355,6.860317113684682],[80.68079179794098,6.86029388327781],[80.68082289440518,6.860324975531268],[80.68101727599277,6.860305564142912],[80.68105589406481,6.860301705859291],[80.68138608401098,6.860120768850529],[80.68141701631518,6.860103817152252],[80.68145969421784,6.860200899087741],[80.68156839693224,6.860301808525946],[80.68222847264906,6.860433913637245],[80.68235272817225,6.860519283386441],[80.68236826822816,6.860581317458582],[80.68228998336744,6.860602774286309],[80.68213003389498,6.860646613262832],[80.6819720995643,6.860689900042639],[80.68180128331142,6.860837383748771],[80.68175079103702,6.860942076096633],[80.68173136059364,6.861248695065846],[80.68175932172704,6.861440870684492],[80.6817855768764,6.861621313298339],[80.68173126777333,6.861722191362374],[80.68166904723398,6.861784210976197],[80.68151241081884,6.861850833865333],[80.68124967715131,6.861962588391465],[80.6810944149761,6.862102303183222],[80.68096082048326,6.862270795936922],[80.6809467748104,6.862288508790521],[80.68092926503961,6.86236708267887],[80.68090801041501,6.86246244816091],[80.6809000778511,6.862498046993873],[80.68090783386177,6.862598936429757],[80.68090939978805,6.86260519283658],[80.68093891189207,6.86272314663116],[80.68107091878616,6.862948263922328],[80.6810751129376,6.863019709753624],[80.68107866773707,6.863080239395602],[80.68104754695688,6.863165577610969],[80.68081450245954,6.863406165588761],[80.68072127857307,6.86366995464705],[80.68072465651099,6.863732368859568],[80.68073283044428,6.863883461768351],[80.68073281492222,6.863961035342714],[80.68079438027014,6.864172981647902],[80.68083764884175,6.864321936511452],[80.68083086553278,6.864415642727699],[80.6808142852211,6.864492764449373],[80.6807740004929,6.864671053271219],[80.68075994584262,6.864733247864911],[80.68051739234205,6.865154413141008],[80.68047352757749,6.865226062758937],[80.68040269603014,6.865341754638298],[80.68040677502479,6.865522127734262],[80.68040844142246,6.865595813963453],[80.680541157196,6.865803552279237],[80.68051764593436,6.865915576679051],[80.68046601060576,6.86616158960406],[80.68052382016201,6.866242425794495],[80.68053380394232,6.866248202789423],[80.68063351871615,6.866305892218224],[80.68073056440349,6.866398865894092],[80.68077218825069,6.8664387421151],[80.68086462902075,6.866559995677808],[80.68099150780692,6.866964140392843],[80.68105511026147,6.867068149093569],[80.68106093206428,6.867072509985691],[80.68112437660618,6.867120020280912],[80.68118220043299,6.867125825777546],[80.68124568387599,6.867114392415392],[80.68130351829919,6.867062405450846],[80.68136704309154,6.866842980034286],[80.68136875406681,6.866811551598156],[80.68137867752415,6.866629334672463],[80.68142493113629,6.866525488904992],[80.68159439774159,6.866432627029094],[80.68160408061493,6.866427320582483],[80.68169642782492,6.866300308878783],[80.68172833106638,6.866294260761992],[80.68181773832131,6.866277302526756],[80.6819390362676,6.866317737887226],[80.68201644476765,6.866395133210222],[80.68223941388402,6.866618059747613],[80.68248156905139,6.866700624838034],[80.6824913084277,6.866697853196764],[80.68249359995056,6.866704727391554],[80.68255123838732,6.866935622740328],[80.6826321319356,6.86754181590568],[80.68262631418354,6.867645813502227],[80.68267817424358,6.867790091820553],[80.68283705237792,6.867966180675873],[80.68302850909708,6.867945847346792],[80.68313452666756,6.867934587526777],[80.68339169826275,6.867949050667514],[80.6832962194979,6.868182884108125],[80.68317488560768,6.868332920807858],[80.68307672750929,6.868529167378999],[80.68307668240983,6.868760052299733],[80.683088097156,6.868944876955857],[80.6830476545524,6.868979486474915],[80.6830245947912,6.868982642575836],[80.68305176399468,6.869838077722431],[80.68305192897708,6.870239372021771],[80.6830555231085,6.870572405216532],[80.68305651140815,6.87066397062481],[80.68305667938378,6.870679532213544],[80.68306918171126,6.871184258811951],[80.68311317607967,6.871172638733497],[80.68315509551283,6.871161568977848],[80.68326232814485,6.871140825762774],[80.68327401766132,6.871137552588904],[80.68338879323119,6.871116285403892],[80.68339471190711,6.871116083987252],[80.68350941983331,6.871121545775942],[80.68391956127245,6.871167829751481],[80.68439331947671,6.871260331000897],[80.68453186499852,6.871312215929845],[80.68451335764333,6.871356671507741],[80.68465638276857,6.871401024267781],[80.68485164154463,6.871463728428704],[80.68503930778606,6.871530989742059],[80.6851325670501,6.871560932440654],[80.68523996140613,6.871451458643454],[80.68527445816694,6.871422175165628],[80.68537768586746,6.871344604083957],[80.68550700640782,6.871268885468331],[80.68557832130953,6.871212462152306],[80.6856337206533,6.871147031479536]]]]}},{"type":"Feature","properties":{"GND_N":"Albion","GND_NO":"476K","GND_C":"340","PROVINCE_N":"CENTRAL","PROVINCE_C":"2","DISTRICT_N":"NUWARA ELIYA","DISTRICT_C":"3","DSD_N":"THALAWAKELE","DSD_C":"12","Admin_Code":"2312340","GND_NO_Cen":"476K","GND_NAME_C":"Albion","GND_NO_Gaz":"476K","GND_NAME_G":"ඇල්බිඔ","shape_1":"Polygon","Area__Ha_":756.167975064,"MWS_ID":"148","Alt_MWS":null,"Area":7.56167975064,"Tot_Pop":26293.0,"PopDensity":3477.13747038},"geometry":{"type":"MultiPolygon","coordinates":[[[[80.66358504577846,6.876468120018377],[80.66522269034527,6.876410534087385],[80.66993019792464,6.876436286613983],[80.67081081168331,6.876450150779966],[80.67117313607959,6.876476316719381],[80.6715516416527,6.876414177230266],[80.67221398634067,6.876462051210004],[80.67226618580031,6.876463001271262],[80.67287561505707,6.876474087706312],[80.67311949016971,6.876484919068248],[80.67343422018826,6.876304254901611],[80.67345430644573,6.873613625093457],[80.67450381454243,6.87320045148109],[80.67520170273069,6.872678843725875],[80.67532826095507,6.872615585225427],[80.67534269725343,6.872614412659825],[80.67542157122497,6.872586318513276],[80.67545469936422,6.872605312626771],[80.67546200246551,6.872609499364947],[80.67571620839668,6.872615206774807],[80.67572038280478,6.872613718237535],[80.67587796147586,6.872557588551563],[80.67594146581676,6.872459399897996],[80.67594545430809,6.872455604397399],[80.67666959290311,6.871766756683821],[80.67676194967969,6.871605128591312],[80.67677357216624,6.871472308892435],[80.67668112878808,6.871368433803913],[80.67659307225644,6.871355097501158],[80.67653786082568,6.871346734572128],[80.67649055031606,6.871339568799653],[80.67642473788955,6.871364602019224],[80.67604558173387,6.871508817839399],[80.67604020372112,6.871511074799797],[80.67603767450032,6.871511826663904],[80.67600528361946,6.87152414666172],[80.67598674078448,6.871526984144458],[80.67550094413815,6.871601293023197],[80.67521379521828,6.871645214895778],[80.67510408761555,6.871622160428263],[80.67502902425446,6.871564352998988],[80.67501745122239,6.871466146735377],[80.67509834197182,6.871373894219388],[80.67522546245294,6.871298891443046],[80.67568159459543,6.871145288457194],[80.67573956804158,6.871125766429335],[80.67603424104874,6.870975625195676],[80.67640982087211,6.870658203152893],[80.67650232529941,6.870473542984301],[80.67652730997935,6.870452161918364],[80.67654276759177,6.870438933123203],[80.67656583254067,6.87034652719849],[80.67654866091475,6.86997123135871],[80.6765746961448,6.869876000953061],[80.67667000873578,6.869774991011082],[80.67679717248662,6.869480547113115],[80.67682081361315,6.86945814748502],[80.6768814459157,6.869400699553371],[80.67690690794917,6.869376573046737],[80.67708024852519,6.869347784744948],[80.67729964671928,6.869480651479106],[80.67751921368169,6.86948069782304],[80.67759254296743,6.869444028293781],[80.67763473589766,6.869422930157326],[80.67781970986594,6.86919787560069],[80.67782378115956,6.869196026199062],[80.67794682489085,6.869140112055278],[80.67812329784954,6.869212783402697],[80.67814318925335,6.869220975210872],[80.67819398378097,6.869216738046546],[80.67828174651578,6.869209417492326],[80.67832797316817,6.869232599292219],[80.67852444276693,6.869498142737712],[80.67876119395905,6.869815833855297],[80.6788477991449,6.870115972132138],[80.67883916921214,6.870135548919866],[80.67879963790094,6.870225224168959],[80.67878414601854,6.870260368344136],[80.67859352766399,6.870427770747124],[80.67858771111243,6.870525831403687],[80.6786223355008,6.870595216175007],[80.67859927867502,6.870658656806206],[80.67850100363805,6.870716427325596],[80.67848636416436,6.870715880831709],[80.67848030681876,6.870721623837813],[80.67831593377988,6.870768142784715],[80.6783093154147,6.870778336740959],[80.67822793448127,6.870903686046083],[80.67822997890347,6.870915128837864],[80.67821137666424,6.871149899378715],[80.67826936770047,6.871312942248601],[80.67835665444578,6.871382610945846],[80.67833332251574,6.871414981752888],[80.67822356080323,6.871645842293034],[80.67821192509825,6.871853692625106],[80.67828697614752,6.87196915001219],[80.67846607946045,6.872113596820256],[80.67855268310534,6.87243111526647],[80.67898977873492,6.872540479935504],[80.67937504407953,6.872580599792785],[80.67974699487961,6.87252076477825],[80.67982140453461,6.872244118219673],[80.67993401440349,6.871805695442716],[80.67993369315187,6.871796878249225],[80.67994574934617,6.871774819773255],[80.6800943123579,6.871390389443273],[80.68010207319267,6.871381831608852],[80.68034422471901,6.871429536217166],[80.6803701589731,6.8714461592273],[80.68066548594177,6.871661343732129],[80.68067787704459,6.871661110185116],[80.68071089434841,6.871660484673471],[80.68107489937782,6.871670117861791],[80.68109115071252,6.87167377184501],[80.68111970638208,6.871681239992433],[80.68113481499581,6.871688890844946],[80.68110620830713,6.871733043135171],[80.68110619908785,6.871779246697828],[80.68116387310519,6.871831257546117],[80.68140803679738,6.871827226725314],[80.68151054524523,6.871825533391819],[80.68162604946836,6.871854380626065],[80.68196851639831,6.872093066125839],[80.68200730756485,6.872120102129865],[80.68204889134321,6.872127663226347],[80.68239422098316,6.872397267721901],[80.6825559707316,6.872356887205573],[80.68269467110746,6.872339534267076],[80.68304664101258,6.872387387443106],[80.6830525108318,6.872331694175173],[80.68306918171126,6.871184258811951],[80.68305667938378,6.870679532213544],[80.68305651140815,6.87066397062481],[80.6830555231085,6.870572405216532],[80.68305192897708,6.870239372021771],[80.68305176399468,6.869838077722431],[80.6830245947912,6.868982642575836],[80.6830476545524,6.868979486474915],[80.683088097156,6.868944876955857],[80.68307668240983,6.868760052299733],[80.68307672750929,6.868529167378999],[80.68317488560768,6.868332920807858],[80.6832962194979,6.868182884108125],[80.68339169826275,6.867949050667514],[80.68313452666756,6.867934587526777],[80.68302850909708,6.867945847346792],[80.68283705237792,6.867966180675873],[80.68267817424358,6.867790091820553],[80.68262631418354,6.867645813502227],[80.6826321319356,6.86754181590568],[80.68255123838732,6.866935622740328],[80.68249359995056,6.866704727391554],[80.6824913084277,6.866697853196764],[80.68248156905139,6.866700624838034],[80.68223941388402,6.866618059747613],[80.68201644476765,6.866395133210222],[80.6819390362676,6.866317737887226],[80.68181773832131,6.866277302526756],[80.68172833106638,6.866294260761992],[80.68169642782492,6.866300308878783],[80.68160408061493,6.866427320582483],[80.68159439774159,6.866432627029094],[80.68142493113629,6.866525488904992],[80.68137867752415,6.866629334672463],[80.68136875406681,6.866811551598156],[80.68136704309154,6.866842980034286],[80.68130351829919,6.867062405450846],[80.68124568387599,6.867114392415392],[80.68118220043299,6.867125825777546],[80.68112437660618,6.867120020280912],[80.68106093206428,6.867072509985691],[80.68105511026147,6.867068149093569],[80.68099150780692,6.866964140392843],[80.68086462902075,6.866559995677808],[80.68077218825069,6.8664387421151],[80.68073056440349,6.866398865894092],[80.68063351871615,6.866305892218224],[80.68053380394232,6.866248202789423],[80.68052382016201,6.866242425794495],[80.68046601060576,6.86616158960406],[80.68051764593436,6.865915576679051],[80.680541157196,6.865803552279237],[80.68040844142246,6.865595813963453],[80.68040677502479,6.865522127734262],[80.68040269603014,6.865341754638298],[80.68047352757749,6.865226062758937],[80.68051739234205,6.865154413141008],[80.68075994584262,6.864733247864911],[80.6807740004929,6.864671053271219],[80.6808142852211,6.864492764449373],[80.68083086553278,6.864415642727699],[80.68083764884175,6.864321936511452],[80.68079438027014,6.864172981647902],[80.68073281492222,6.863961035342714],[80.68073283044428,6.863883461768351],[80.68072465651099,6.863732368859568],[80.68072127857307,6.86366995464705],[80.68081450245954,6.863406165588761],[80.68104754695688,6.863165577610969],[80.68107866773707,6.863080239395602],[80.6810751129376,6.863019709753624],[80.68107091878616,6.862948263922328],[80.68093891189207,6.86272314663116],[80.68090939978805,6.86260519283658],[80.68090783386177,6.862598936429757],[80.6809000778511,6.862498046993873],[80.68090801041501,6.86246244816091],[80.68092926503961,6.86236708267887],[80.6809467748104,6.862288508790521],[80.68096082048326,6.862270795936922],[80.6810944149761,6.862102303183222],[80.68124967715131,6.861962588391465],[80.68151241081884,6.861850833865333],[80.68166904723398,6.861784210976197],[80.68173126777333,6.861722191362374],[80.6817855768764,6.861621313298339],[80.68175932172704,6.861440870684492],[80.68173136059364,6.861248695065846],[80.68175079103702,6.860942076096633],[80.68180128331142,6.860837383748771],[80.6819720995643,6.860689900042639],[80.68213003389498,6.860646613262832],[80.68228998336744,6.860602774286309],[80.68236826822816,6.860581317458582],[80.68235272817225,6.860519283386441],[80.68222847264906,6.860433913637245],[80.68156839693224,6.860301808525946],[80.68145969421784,6.860200899087741],[80.68141701631518,6.860103817152252],[80.68138608401098,6.860120768850529],[80.68105589406481,6.860301705859291],[80.68101727599277,6.860305564142912],[80.68082289440518,6.860324975531268],[80.68079179794098,6.86029388327781],[80.68037245909355,6.860317113684682],[80.68031943989513,6.860324591735424],[80.6802637437556,6.860293777564747],[80.67980571426563,6.860084136966571],[80.67971866032894,6.860093796543088],[80.67966588577866,6.860099651314509],[80.67955715167571,6.860169432998086],[80.67951048732773,6.860216051271153],[80.67953378651303,6.8603556605872],[80.67974150829686,6.860568075183149],[80.6798721408832,6.860701660746429],[80.67987543198414,6.860705023676434],[80.67987540915229,6.860813684206897],[80.67974332610873,6.860984490188316],[80.67966802918104,6.861022097462611],[80.67957252075557,6.861069801002873],[80.67937062586779,6.861085300897381],[80.67917653035101,6.860999776943245],[80.67911433390886,6.860937732393491],[80.67902868239938,6.860742411431116],[80.67892031032942,6.860495282687771],[80.67875767859913,6.860251365860615],[80.67870293407064,6.86016925860021],[80.678594225179,6.860114978038697],[80.67850105089092,6.8601381313307],[80.6784935603258,6.86014437594666],[80.67840786361184,6.860215827836122],[80.67835339850622,6.860386507331408],[80.67834949288287,6.860405972047367],[80.6783673171622,6.860432456936341],[80.6783687795014,6.860445062569998],[80.67838527310515,6.860549429142925],[80.67832334220348,6.860631737733613],[80.67823130121847,6.860705039434869],[80.67822763219701,6.860709092754976],[80.67812133357059,6.860765601882959],[80.67807819880423,6.860794479762847],[80.67795123350254,6.860834695974488],[80.67782178991273,6.86085262464483],[80.6777281451836,6.860905266698309],[80.67772375401469,6.860905347182448],[80.67768072109334,6.860931608845574],[80.67767777605805,6.860921896732638],[80.67764666762693,6.860945203720272],[80.6774835184683,6.860921855742929],[80.67715739051529,6.860743326803883],[80.67661393866264,6.860681040888985],[80.67626443933624,6.86072759745517],[80.67609448347987,6.860806831069093],[80.6758139711275,6.860875020451718],[80.67551779491235,6.861047267512815],[80.67547720637387,6.861070872595681],[80.67530140302857,6.861185348800843],[80.67527123133385,6.86121548978527],[80.67523154601913,6.861255136790738],[80.67516931336462,6.86137932491695],[80.6751926064013,6.861542250531619],[80.67531681990178,6.861821768976296],[80.67531140664985,6.861862825822282],[80.67530756399091,6.861891978516166],[80.67530538708803,6.861908494577992],[80.67530506626268,6.861910926229813],[80.67521963074294,6.862112685743308],[80.67519013582324,6.862018714213682],[80.67471875275726,6.861961246024848],[80.67450299553217,6.861882216754411],[80.6742140838943,6.861674015735615],[80.6740820476674,6.861619729179393],[80.67388016587083,6.861580829132609],[80.67367827228567,6.861588555795415],[80.6735664568926,6.861599607922665],[80.67346304772954,6.861583902064894],[80.67345753499094,6.861565164250831],[80.67344701223244,6.861529407845029],[80.67349196712534,6.861449285613642],[80.67361317737874,6.861417139516719],[80.67362030606238,6.861415249206924],[80.67355411895836,6.861029687633502],[80.67351921203972,6.860963691823131],[80.6733562621692,6.861070515897242],[80.67315807666716,6.861200435011471],[80.67315775630128,6.861200689960963],[80.67303847879464,6.861295663165365],[80.6730197205478,6.861304734883097],[80.6728814026218,6.861357702743151],[80.67287685963971,6.861365206721955],[80.67280208843596,6.861391688065637],[80.6727076236432,6.861434324447503],[80.6726557524802,6.861408270574691],[80.67264496427244,6.861332624490942],[80.6725581601494,6.861340288789132],[80.67243743839992,6.861310252702529],[80.67242613070515,6.861310228544024],[80.67231305166214,6.86129882581289],[80.6722527442771,6.861287535818002],[80.67218835912523,6.861216659211849],[80.67218455140369,6.861209198638633],[80.67211203709208,6.861056053259406],[80.67210826575064,6.861056047916581],[80.67206704732695,6.860925946923947],[80.67202553494475,6.860787138155469],[80.6719735369007,6.860642298892424],[80.671973647212,6.860638511619689],[80.67191227597623,6.860469145117463],[80.67191238989504,6.860465413913414],[80.6718133824107,6.860253906865687],[80.67169886684479,6.85996508689913],[80.6716241181897,6.859752955704991],[80.67153684395846,6.859528813276212],[80.67146231103303,6.859261935404692],[80.67141752319783,6.859107927839935],[80.67134989025102,6.858941668944568],[80.67131306471488,6.858834148839443],[80.67127101328437,6.858716672817232],[80.67125155603763,6.858662319750017],[80.67114340768359,6.858520975021972],[80.67105841604047,6.858361825660544],[80.6709712542234,6.858245811925998],[80.67092444766877,6.858109582822395],[80.67091376313634,6.858020782461384],[80.67087214123953,6.857925756270487],[80.67083533985699,6.857828521881272],[80.67077401644984,6.857638525860373],[80.67076219906932,6.857611416227756],[80.67069130024038,6.857448769278776],[80.67064349831223,6.85734220166109],[80.67060327934682,6.857294756615052],[80.67046561548096,6.856955816460491],[80.67037212015694,6.856726005052902],[80.67038674753074,6.856713830699511],[80.6709537086083,6.856566438384087],[80.67123323888471,6.856450068447719],[80.67168372043704,6.856232848745478],[80.67190897448809,6.856054435533211],[80.67178470686534,6.856046636686822],[80.6716370956035,6.856093092886591],[80.67115832057476,6.856086921805078],[80.67119612466504,6.856067839883204],[80.67122670866812,6.856022202788892],[80.67120559014198,6.855943752806527],[80.67107827501042,6.855615627144251],[80.67092111115907,6.85521232859842],[80.67077478479897,6.854861483021203],[80.67073664616215,6.854851148171068],[80.6703871703259,6.85480444239577],[80.67020085834756,6.85469574062417],[80.67001442072686,6.854509466073817],[80.66967297654975,6.853950547660139],[80.66966276590486,6.853929173561873],[80.66942454883055,6.853430508451384],[80.66935475893939,6.853205401875597],[80.66935483085767,6.852879564068841],[80.66943249123864,6.852685433557758],[80.66945727101033,6.852650959121046],[80.66964999882836,6.852382816526925],[80.66965007056915,6.852056837631843],[80.66927735048124,6.851645428468617],[80.66917644657114,6.851466944427366],[80.66908884224088,6.851055765171521],[80.66893133616544,6.850784260763734],[80.66860754043074,6.850226039132275],[80.66803436441926,6.849606500471498],[80.66800337497696,6.849601026847361],[80.667761339131,6.849416642456232],[80.66772481470213,6.849464253940504],[80.66767038581814,6.849464240703309],[80.66763944174073,6.849386517211696],[80.66755788172756,6.849320513998913],[80.66755590757069,6.84926014286241],[80.66755395139846,6.849200264584994],[80.66751523405742,6.849114910466007],[80.66737543224032,6.849021762549737],[80.66722964621579,6.848975625284565],[80.66722416249911,6.84897018183048],[80.66698307268177,6.848730821759936],[80.6669661475436,6.848717951214772],[80.66691945946697,6.848705712329505],[80.66689631221381,6.84869964447641],[80.66657441960452,6.848543423534608],[80.66654297390583,6.848535395004948],[80.66652333888175,6.84852253377147],[80.66613138394091,6.848368625114084],[80.66611679380541,6.848349385036014],[80.66596134469539,6.848115016998814],[80.66572127687267,6.847768509824435],[80.66555493806943,6.847599861607574],[80.6655455214428,6.847593329327448],[80.66531384324347,6.847462870796868],[80.66529344272985,6.847391883173306],[80.66426908988714,6.848426205747352],[80.66414552167141,6.848454575258482],[80.66366128153008,6.849220532209688],[80.66346711323486,6.848785188774048],[80.66340132736741,6.848754055589576],[80.6632691219353,6.848570628979749],[80.66323659948686,6.848570621310827],[80.66277837033462,6.848694716128647],[80.66179212944488,6.848686708938756],[80.66162136253857,6.848624497843401],[80.66135746294661,6.848407114491985],[80.66112449619817,6.848321712360945],[80.66085264146713,6.848275159440147],[80.66056535738834,6.848306036053034],[80.66029361100532,6.848391455866684],[80.66006061910562,6.848406801836134],[80.65982650715985,6.848481184222115],[80.6597188863301,6.848515377580503],[80.65893453408798,6.8485074153912],[80.65878707171477,6.848530693576468],[80.65864723073983,6.848608374835272],[80.65852900240247,6.84860341364162],[80.65852731585612,6.848603343594617],[80.65846089814697,6.848600558244129],[80.6582046098179,6.848491832860883],[80.65811753249191,6.848449282085819],[80.65805533594425,6.848416344939668],[80.65805704934556,6.848344281817409],[80.65806109121208,6.848006715094797],[80.65799055377197,6.847957230423625],[80.65790650267581,6.847898265119957],[80.65772340325613,6.847769813505635],[80.65749755425685,6.847646074502945],[80.65745753957378,6.847633501758201],[80.65704004283485,6.847560094741352],[80.6568303770153,6.847583357761431],[80.65651196902107,6.847699710582747],[80.6562867242107,6.847823855537644],[80.65620131163348,6.84790918036442],[80.65551544167013,6.848740497878023],[80.65551382277498,6.848748434696232],[80.6555099134072,6.848747198408841],[80.65508272911929,6.849088613779075],[80.65452351595545,6.849391559786897],[80.65448858094581,6.849410485585841],[80.65422063136856,6.849577294502074],[80.65384396334524,6.849736301965372],[80.65368386805757,6.849774698306453],[80.65314891270539,6.849902998281415],[80.65278401580244,6.8499106761468],[80.65240344059077,6.849871863066411],[80.65228708314332,6.849895005302867],[80.6521550209286,6.849949372358895],[80.65151034758651,6.850476960335272],[80.65125017054977,6.850643768679137],[80.65109878485333,6.850538883111195],[80.650687281252,6.850368084908082],[80.65045434523296,6.850166248135936],[80.65023880286864,6.850131808328462],[80.64972444744915,6.850049623784586],[80.64932843281981,6.849583794752159],[80.64908785355743,6.849420812161657],[80.64876173689228,6.849273209102048],[80.64860890550696,6.849157700224101],[80.64860257944879,6.84915291829962],[80.64851505735568,6.849142252032864],[80.6484433933463,6.849133518895024],[80.64839291492885,6.849160634153735],[80.64822124342115,6.849127498329322],[80.64817153213723,6.849117902865951],[80.64790762693801,6.848946998844013],[80.64758150171114,6.848830482827136],[80.64752534343187,6.848791624458806],[80.64760821840513,6.848933393566306],[80.64776692264167,6.849025108034373],[80.64778903393453,6.849057085318186],[80.64784538891512,6.849071187022518],[80.64839668893106,6.849319740460996],[80.64840445747099,6.849350827656788],[80.6483655683573,6.849389533969793],[80.64800844659236,6.84940498111861],[80.64791511727924,6.849482529682047],[80.64791506319612,6.849684306243899],[80.64779867967236,6.849800707273127],[80.647798650294,6.849910210563704],[80.64779864635047,6.849924909392491],[80.64782959584177,6.849963774540963],[80.6479460899788,6.849971577472628],[80.6480703668495,6.849940525602228],[80.6483887854173,6.849800865056082],[80.64854416892692,6.849762189795584],[80.64863046387406,6.84981145666566],[80.64865287081788,6.849824247918877],[80.64872133119918,6.849961311435891],[80.64872140084316,6.849961410929724],[80.64872142796243,6.849961504986302],[80.64873165051598,6.849998878763389],[80.648736507627,6.850076695051897],[80.64873818792839,6.850103621650734],[80.6487365983656,6.850109700072233],[80.6489311549535,6.850227134444346],[80.6489986358301,6.850267865793004],[80.65095979571154,6.851451615796673],[80.65137955153388,6.85276951069771],[80.65150959932205,6.853177816472014],[80.65168434318369,6.853726452764159],[80.65368314466836,6.855576918445897],[80.65473574502799,6.856551394295682],[80.6531359189101,6.857480105463389],[80.65362142903788,6.859622172290324],[80.65414526177257,6.860823608415311],[80.65565431992214,6.863370423108409],[80.6556559819024,6.863489530678894],[80.65539086130627,6.865598799398058],[80.65308960023198,6.867049800998229],[80.65189621592917,6.867383020780207],[80.65178347429801,6.86738948988791],[80.65156956781908,6.867401599068185],[80.65145580979882,6.867419380879769],[80.6503064923705,6.867937042457767],[80.65023788325315,6.867971896773227],[80.64985784867196,6.869119140874542],[80.64928266180203,6.870765521971268],[80.64944899912246,6.871989816491462],[80.64973930104831,6.872587679706328],[80.65013866725617,6.873317182657677],[80.65028727835309,6.873655009790424],[80.65035644298527,6.873705814632321],[80.65050005363703,6.873636908008399],[80.65069065190292,6.87359089389285],[80.65094944083486,6.873583253419939],[80.65127414719888,6.873573666778422],[80.65158239926457,6.873440914471828],[80.65160926292106,6.873429345281317],[80.65165545278188,6.873596798511382],[80.65164380757128,6.873793202022752],[80.65167263991434,6.873827827817049],[80.65177670592651,6.873798889576449],[80.65180551897105,6.873914480032126],[80.65197305854488,6.873914522746964],[80.65200191679503,6.873856737875477],[80.65200186277332,6.873855702415032],[80.65199629090458,6.873747088514897],[80.65203673521717,6.873712479854782],[80.65214645201188,6.873700923128772],[80.65231893271873,6.873729652940633],[80.65232083744122,6.873729650721821],[80.65240645154938,6.873718229660581],[80.65245835156095,6.87367217885987],[80.65246998595003,6.873516185764379],[80.6524589463524,6.873451306079665],[80.6524393508247,6.87333614488699],[80.65242382276253,6.873244877787479],[80.65248747130873,6.873146689645732],[80.65255944181176,6.873118181509921],[80.65285143039196,6.873002517619859],[80.65312869279786,6.872962177807951],[80.65321111400134,6.872899762071701],[80.65322400526598,6.872889998734812],[80.65337414871227,6.872907416601023],[80.65339898728017,6.87294135036611],[80.6535157656813,6.873100893404056],[80.65362492925378,6.873195681523603],[80.65369188988065,6.873253824785924],[80.65391427527783,6.873303054195715],[80.65400768292442,6.87337941809796],[80.65404135187843,6.873406942460494],[80.65414525694152,6.873447381288823],[80.6542665687801,6.873441617400649],[80.65443603585076,6.873358952435251],[80.65445946728417,6.873347523282278],[80.65456607294321,6.873308015384542],[80.65461401232666,6.873403257928161],[80.65463628492387,6.873447505652076],[80.6548730034718,6.873834444857472],[80.65493656758096,6.874059550800956],[80.65496534767284,6.874307824722557],[80.65513288151995,6.874331040439817],[80.65520513587506,6.874310852629486],[80.65537756325702,6.874105308166235],[80.65538432186429,6.87409725148012],[80.6553876082639,6.874104553792357],[80.65545059429412,6.874244502412155],[80.65545053142486,6.874492768106688],[80.65549673464811,6.874602428602643],[80.65556897207446,6.874645683310145],[80.65570469271155,6.874677509864267],[80.65591958407875,6.874468369495352],[80.65593591171685,6.874452478374304],[80.65604563006298,6.874435125873912],[80.65610345189043,6.874458171648558],[80.65611703804302,6.87448085360622],[80.65613807437735,6.874515972743214],[80.6562611354208,6.8746330715343],[80.65627878807805,6.874651913861567],[80.65630568539137,6.87467546368771],[80.65637483710103,6.874741264009058],[80.65654816049863,6.87479316481768],[80.65668092760272,6.874764373778519],[80.65670896127736,6.874738042473012],[80.65687749723122,6.874579741792596],[80.65699300488724,6.874591217535445],[80.65702762930225,6.874649016759252],[80.65702573995735,6.874685224361643],[80.65701015602694,6.874983893898346],[80.6570967954391,6.875099357414432],[80.65719504613304,6.875145587252573],[80.65732214839544,6.875151411999301],[80.65748387466903,6.87522068971274],[80.6576051856582,6.875209131911275],[80.65761105564917,6.875204808006488],[80.65784784627523,6.875030306764948],[80.65805582365908,6.875018773042378],[80.65814250713578,6.874961003005803],[80.65822340886353,6.874839788038276],[80.65832732976342,6.874822572847985],[80.658426881953,6.874878809059124],[80.65846021319136,6.874897637089179],[80.65866234507362,6.875088159343386],[80.65878362162687,6.875120664234508],[80.65898581168449,6.875174855579871],[80.65902021477552,6.875202869919038],[80.6591418677513,6.875301923734781],[80.65927461787147,6.875342366726188],[80.6593483987531,6.875399536926849],[80.65950573843838,6.875521450653969],[80.65963280414346,6.875677336767628],[80.65970207356561,6.875711972866635],[80.65975065482095,6.875707342847458],[80.65982338463546,6.875700413600374],[80.65988122047561,6.875660017248088],[80.65994488423215,6.875628173560017],[80.65997355640351,6.875613833503585],[80.65999385423667,6.8756174738135],[80.66013529303613,6.875642840953242],[80.66025660367862,6.875625490310062],[80.66030864193573,6.875596676838645],[80.66053959816321,6.875862236757698],[80.66061306678932,6.87590949986251],[80.66062045744125,6.875914253855175],[80.66075335322955,6.875937318154279],[80.66088046034001,6.875931695980824],[80.66104490982211,6.875837475682477],[80.66123297935304,6.875729722438928],[80.66145820169106,6.875741222624611],[80.66157369860976,6.875799042773687],[80.66171236826784,6.875920311041308],[80.66194331248991,6.876243660876139],[80.66197792242059,6.876364903236069],[80.6619616686228,6.876511187610317],[80.66196143375795,6.876513297333169],[80.66201842789349,6.876522444609022],[80.66358504577846,6.876468120018377]]]]}}]}