{"type":"FeatureCollection","name":"SED_PPL_MWS_157","crs":{"type":"name","properties":{"name":"urn:ogc:def:crs:OGC:1.3:CRS84"}},"features":[{"type":"Feature","properties":{"GND_N":"Mount Vernon","GND_NO":"475Q","GND_C":"010","PROVINCE_N":"CENTRAL","PROVINCE_C":"2","DISTRICT_N":"NUWARA ELIYA","DISTRICT_C":"3","DSD_N":"THALAWAKELE","DSD_C":"12","Admin_Code":"2312010","GND_NO_Cen":"475Q","GND_NAME_C":"Mount Vernon","GND_NO_Gaz":"475Q","GND_NAME_G":"මවුන්ට්","shape_1":"Polygon","Area__Ha_":334.708145851,"MWS_ID":"157","Alt_MWS":null,"Area":3.34708145851,"Tot_Pop":3080.0,"PopDensity":920.204673289},"geometry":{"type":"MultiPolygon","coordinates":[[[[80.62736546047498,6.970276943139686],[80.62727175063628,6.969290985402068],[80.62738814743571,6.968435011552011],[80.6274534278629,6.967978856501423],[80.62770258635778,6.967586536222028],[80.62799002797914,6.96728993516638],[80.6282345304074,6.96672980740276],[80.62834000783101,6.966356583294472],[80.62853167756722,6.966026455082818],[80.62859444507656,6.965980272336538],[80.62880472130405,6.96582555541768],[80.62914003169983,6.965595964789436],[80.62924065094539,6.965442863845099],[80.62935575175932,6.964926082341517],[80.62940994443065,6.964593577782424],[80.62921436311147,6.963744376136488],[80.62915309392169,6.963123216889981],[80.62931044318096,6.96278733789118],[80.62980166046925,6.962397953773839],[80.63057607689015,6.962304177987229],[80.6317164995086,6.962238600275196],[80.63165865071004,6.962095940285522],[80.6316535167745,6.962083282811445],[80.63096919022043,6.960395674314098],[80.63066054102651,6.959807188771769],[80.63062131234867,6.959771120693211],[80.62943920816569,6.958599771307656],[80.62893178872477,6.958165488291695],[80.62931858640566,6.957694150849282],[80.62947673688898,6.95729274428387],[80.6294781255143,6.957213144104141],[80.62947851812841,6.957193305340713],[80.62931406679006,6.956566812787042],[80.62917049628217,6.95644837053411],[80.62905751007797,6.95641906444565],[80.62897114850821,6.956111281594744],[80.62888853721002,6.955899767055101],[80.62881606119268,6.955783857245822],[80.62867331046607,6.955542666854395],[80.62855998638507,6.955419730371914],[80.62841067987361,6.955222278718077],[80.62832404364688,6.955125736663509],[80.62826161538085,6.954894158845475],[80.62819847398576,6.954812699074454],[80.6281281072287,6.954721919861962],[80.62793370028818,6.954540819330756],[80.62781002026257,6.954479447070102],[80.62771083870767,6.954481790641807],[80.62763912527815,6.954483485393102],[80.62754645752675,6.954553305618087],[80.62740164390479,6.954832964988173],[80.62700670698008,6.955602179151361],[80.6269526363428,6.955733284274585],[80.62693871712368,6.955745189718299],[80.62681186466872,6.955712984906418],[80.62680963491663,6.955712368362058],[80.62675814972708,6.955698128090424],[80.62660022984508,6.955709463442261],[80.62649434993274,6.955561040687668],[80.62651062468424,6.955484228722922],[80.62657545687739,6.955490108325691],[80.62664544297986,6.95537366091694],[80.62671623130947,6.955255878979957],[80.62672047638257,6.955245496966751],[80.62682958654956,6.954978685002855],[80.62695463388714,6.954846044179654],[80.62694045356199,6.954822316777068],[80.62691958242715,6.954787393636013],[80.62691964172043,6.954600032031157],[80.62696649390647,6.954451682028734],[80.6270317886174,6.954333885639827],[80.62708155818379,6.954143548244761],[80.62693048544719,6.95408836167659],[80.62682727123992,6.954042172765015],[80.6267074537575,6.953998910370948],[80.6265884017794,6.954007502576389],[80.62649757433427,6.954050138534233],[80.62620985318578,6.95408186202703],[80.62598127737078,6.954118075995043],[80.62574292558101,6.954143079550631],[80.62543065275342,6.954210415756175],[80.62501196608005,6.954272639075843],[80.62474735232588,6.95434090524243],[80.62459157917657,6.954415335650585],[80.6243816781911,6.954456407391657],[80.62411772177113,6.954534398426703],[80.6239759228168,6.954622504574518],[80.62383520972634,6.954652061998651],[80.62364631827519,6.954693399723443],[80.62345669621212,6.954713112229705],[80.62320072472001,6.954765010388663],[80.62299160302683,6.954749294339384],[80.62278886838342,6.954696216652881],[80.62260627049103,6.954634013645337],[80.62235388214647,6.954576892711621],[80.62211765497594,6.954507551469053],[80.62191880082598,6.954458440104277],[80.62170096034939,6.954465203742119],[80.62156833533375,6.954461340526522],[80.62128957477863,6.954405727840284],[80.62105608421187,6.954318318739911],[80.62085966380253,6.954151092331138],[80.62070476336301,6.954003409111977],[80.6205371502212,6.953743748366398],[80.62045773567844,6.953714108569327],[80.620359222896,6.953525206114837],[80.62016921391621,6.953290197643801],[80.62003572257734,6.953039252028918],[80.61989679366981,6.952833341315582],[80.6197974742851,6.952720111628152],[80.61952129045221,6.952446957465261],[80.619377782624,6.952377204302538],[80.61915095225967,6.952325706875632],[80.61896869420386,6.952274525307689],[80.61876409539872,6.952250049718405],[80.61856027702275,6.95221927935921],[80.61829557162477,6.952178258051397],[80.6180777808526,6.952161310710448],[80.61794161532112,6.951817184739648],[80.61780888916444,6.951653233951561],[80.6177751858293,6.951629324303759],[80.61777933318956,6.951616641760452],[80.61750891221206,6.951422176516111],[80.61737991811782,6.951342873534114],[80.61711080177648,6.951083355645539],[80.61694562867122,6.951017223486689],[80.61665974122019,6.950800703530238],[80.61651468949276,6.950656032762917],[80.61615667694772,6.950355816326318],[80.61617610466678,6.950286179735992],[80.61612139965816,6.9502314781469],[80.61610980939669,6.950228585838016],[80.61593376920099,6.950184644275926],[80.6157307496476,6.950067438490604],[80.61562910757625,6.949981493081762],[80.61549243269582,6.949790126891973],[80.61535578900158,6.949512852485014],[80.61528496073414,6.94902792793827],[80.61526225393587,6.948872452049666],[80.61513732216926,6.948661590897979],[80.61506691403855,6.948622567390622],[80.61490289316342,6.948599056238026],[80.6148259328594,6.948610420744649],[80.61448091787895,6.948661365983216],[80.61406667619426,6.948848729495241],[80.61394945546799,6.948833005744511],[80.61384836024715,6.948790222235625],[80.61374628507531,6.948747025096609],[80.6136993544333,6.948881724886435],[80.61368372144861,6.948926594373367],[80.61341016489018,6.94915300333517],[80.6132955436237,6.94919658172251],[80.61326603332229,6.949220544964641],[80.6132585578352,6.949210641940704],[80.61286066860796,6.948683545456296],[80.61257695084613,6.948219418583273],[80.61244254935089,6.948022546851146],[80.61221067523776,6.947682895967806],[80.61203550734764,6.947598852309351],[80.61197665426782,6.947750818409698],[80.61182916781434,6.94785563886037],[80.61178833607285,6.947978269769613],[80.61172940999231,6.94809781066603],[80.61166179942418,6.948222874805677],[80.61160141625645,6.948334567525367],[80.61140286597715,6.948447268353327],[80.61134951788164,6.948484588954095],[80.61130825316384,6.948496363227679],[80.61115975398288,6.948566537869193],[80.61103005787702,6.948667768706793],[80.61090967939808,6.948761724831845],[80.61065949359408,6.948870863275998],[80.61054868314089,6.948878214542593],[80.61030780976783,6.948894195277306],[80.61012029877529,6.948909813010508],[80.60999606456446,6.948965780863601],[80.6098780341631,6.949018952912896],[80.60961998591354,6.949172743134474],[80.60939347427338,6.94930773909435],[80.60922924144731,6.94947950198767],[80.60922797451467,6.949497232454443],[80.60922142521667,6.949588863527564],[80.60906859171263,6.949642688654018],[80.60895569079956,6.949682452184373],[80.6089909445779,6.949770613707487],[80.60890303149402,6.94995614181906],[80.60887180927749,6.950415048261462],[80.60886971059182,6.950514604511238],[80.60892432193694,6.95054780859436],[80.608985149854,6.950631789469515],[80.60900223752006,6.950692133247809],[80.60900682084943,6.950772761825269],[80.60897789991475,6.95078503039267],[80.60888438139621,6.950806157385239],[80.60883279855868,6.950856062766629],[80.60868748882173,6.95086386166914],[80.60853570684459,6.950784087943497],[80.60836510394373,6.951291430652295],[80.60832695804315,6.951322171067206],[80.60831819497977,6.951380502628715],[80.60827517175089,6.951478124473319],[80.60826401512615,6.95168095031202],[80.60825154497573,6.951907664981019],[80.60825881050819,6.952611750317027],[80.60814924684355,6.952863977375224],[80.60808384823632,6.952989143915993],[80.6079762939848,6.953161302658977],[80.60790187011902,6.953305506317401],[80.60788393861462,6.953340250056231],[80.60787236061721,6.953500824295754],[80.60786719371512,6.953572488538063],[80.6079284543636,6.953610916622873],[80.60834788289438,6.953665076901753],[80.60867532551335,6.953730131057221],[80.60880492878664,6.95379391402666],[80.60888402705818,6.953822604309856],[80.60896636752045,6.953908769487861],[80.60900080803698,6.95401980265722],[80.60901224804961,6.954171021790634],[80.60905240171653,6.954379678719143],[80.60927809024417,6.954572992586796],[80.60961573467651,6.954836014281954],[80.61011410239585,6.955269833325207],[80.61040871978051,6.955566947404155],[80.61043693182188,6.955615429508283],[80.61045970803788,6.955654572648291],[80.61047899788984,6.955673867556003],[80.61067880020059,6.955873748778019],[80.61071793994553,6.955912903064221],[80.6107674465793,6.955962429856827],[80.61110617176705,6.955808672753636],[80.61132183025248,6.955777944367016],[80.61138333214761,6.955808769519274],[80.6114355838696,6.955793144896764],[80.61146026518165,6.955785764342349],[80.61166048268869,6.955831898127407],[80.61205297304076,6.956001311639608],[80.6122787994115,6.956121493076552],[80.61253013617821,6.956255250690062],[80.61275775055032,6.956408356837115],[80.61295327172763,6.956539972488719],[80.61349200410123,6.957047846443871],[80.61376083531519,6.957232417500067],[80.61413073565703,6.957486377757825],[80.61442305479657,6.957817259365191],[80.61448144603892,6.957981762578718],[80.61450767699499,6.958055659554177],[80.61465764143591,6.958259607769935],[80.61499239853622,6.958548112858887],[80.61521234280828,6.958768037813723],[80.61524411342253,6.959011918091526],[80.61521551418684,6.9590404756665],[80.61523850802244,6.959201987904187],[80.61528124130749,6.959296928455098],[80.6153769847626,6.959509642487517],[80.61538452158256,6.959801994844253],[80.61536146206637,6.959832789780485],[80.61536143486342,6.959912526874979],[80.61536131948178,6.960248069434855],[80.61537232187305,6.960266429880137],[80.61538435630541,6.960286510684476],[80.61537444940078,6.96040488309451],[80.61534573551715,6.960747980502743],[80.61534912797511,6.960942949332024],[80.61534399588719,6.961021679084782],[80.61535167805216,6.961089614773928],[80.61539117890436,6.961438873903384],[80.61542067689729,6.96169970476408],[80.6154171766628,6.961717129727882],[80.61537241900425,6.961697944805639],[80.61540727419523,6.961795880461868],[80.61549151441135,6.962032581123093],[80.61549144888357,6.962224749004863],[80.61545674816844,6.962390197948253],[80.6154497345887,6.962386513187944],[80.61544810082871,6.962503821313856],[80.6154750400342,6.962630400262319],[80.61547073536737,6.963257706919626],[80.61550035940779,6.963600468762316],[80.61551687070576,6.963791527255163],[80.6155442994316,6.964245113979761],[80.6155383358751,6.964362870972013],[80.6155296944059,6.964533507787601],[80.61551420589582,6.964819702899992],[80.61549586418944,6.96508090176468],[80.61549389900324,6.965299529236627],[80.61549336935897,6.965358486788094],[80.61550078128862,6.96561658628655],[80.6155003219005,6.965803867086045],[80.615488879977,6.965866445414375],[80.61548030147836,6.965918670309212],[80.6155373345946,6.965969309679426],[80.61553180704213,6.96599209744307],[80.61580889622321,6.966152562975444],[80.61581351549394,6.966155237701452],[80.61588780432982,6.966385700538164],[80.61589036286641,6.966393637677323],[80.61578255649398,6.966539702184797],[80.6155130845261,6.966785754198249],[80.61549761317171,6.966955025865161],[80.61551300315055,6.967024268185447],[80.6157822944872,6.967308936050589],[80.61587076741911,6.967458883489322],[80.61586760627668,6.967556834209534],[80.61586705106309,6.967574041328557],[80.61587365853508,6.967587852466087],[80.61591227508642,6.967668560339852],[80.6159918641643,6.967834905395484],[80.61603606790527,6.967901206704544],[80.61623790298884,6.968024274714134],[80.61635163320491,6.968093622695062],[80.6164363076801,6.968185919559446],[80.61650555028525,6.968332046870549],[80.61650755755625,6.968383034644044],[80.61651312084614,6.968524356560477],[80.61655154047531,6.968655214013784],[80.61666701373233,6.968832160633522],[80.61703639265481,6.969216759528451],[80.61745916041345,6.969603798777761],[80.61749032571095,6.969632331366297],[80.61766261857773,6.969828544312159],[80.61793277752474,6.970136212527735],[80.61804432700634,6.970209301435498],[80.61806616347731,6.970210190466916],[80.61817551151498,6.970303427650553],[80.6189095759693,6.970278418301596],[80.61938382351357,6.970302803782564],[80.6197816565281,6.970358204061051],[80.61981450344028,6.970291812903789],[80.62009948023346,6.969655902472749],[80.62003830192687,6.969594607626054],[80.62000750095318,6.969517730632418],[80.62002292739147,6.969479302346151],[80.62013832382388,6.969463939160693],[80.62041554487641,6.969302525558453],[80.62071577547003,6.969264191254228],[80.6211852404793,6.969333583814748],[80.62179331469073,6.969326011641103],[80.62201276811578,6.96938387281662],[80.62206280864709,6.969441540181003],[80.62248685390463,6.969555123155139],[80.62249379583973,6.969556982881818],[80.62249899889981,6.969556983673605],[80.62256308640598,6.969557003656062],[80.62274777104656,6.969557064702355],[80.62295143444254,6.969626265846917],[80.62315569968379,6.969695670571035],[80.6235373860064,6.969714518159187],[80.62360251872461,6.969717734189945],[80.62362518050887,6.969718852927437],[80.62402552345131,6.969703721988062],[80.6242025714537,6.969703779097881],[80.62461461541726,6.969641464254311],[80.62471068984554,6.969626935655262],[80.62526491132874,6.969542474001542],[80.62557394572747,6.969643429320155],[80.62564201826946,6.969665667379681],[80.6257882133644,6.969742721926105],[80.6259191237658,6.969858064792894],[80.62600365097364,6.969973532114266],[80.62669621324872,6.970658207798157],[80.62700418227372,6.970742942058518],[80.62707470209031,6.970740049763858],[80.6271888689266,6.970735370765668],[80.62740938566408,6.970726330346821],[80.62736546047498,6.970276943139686]]]]}},{"type":"Feature","properties":{"GND_N":"Stonycliff","GND_NO":"475M","GND_C":"105","PROVINCE_N":"CENTRAL","PROVINCE_C":"2","DISTRICT_N":"NUWARA ELIYA","DISTRICT_C":"3","DSD_N":"THALAWAKELE","DSD_C":"12","Admin_Code":"2312105","GND_NO_Cen":"475M","GND_NAME_C":"Stonycliff","GND_NO_Gaz":"475M","GND_NAME_G":"ස්ටෝනික","shape_1":"Polygon","Area__Ha_":640.378093157,"MWS_ID":"157","Alt_MWS":null,"Area":6.40378093157,"Tot_Pop":0.0,"PopDensity":0.0},"geometry":{"type":"MultiPolygon","coordinates":[[[[80.6107674465793,6.955962429856827],[80.61071793994553,6.955912903064221],[80.61067880020059,6.955873748778019],[80.61047899788984,6.955673867556003],[80.61045970803788,6.955654572648291],[80.61043693182188,6.955615429508283],[80.61040871978051,6.955566947404155],[80.61011410239585,6.955269833325207],[80.60961573467651,6.954836014281954],[80.60927809024417,6.954572992586796],[80.60905240171653,6.954379678719143],[80.60901224804961,6.954171021790634],[80.60900080803698,6.95401980265722],[80.60896636752045,6.953908769487861],[80.60888402705818,6.953822604309856],[80.60880492878664,6.95379391402666],[80.60867532551335,6.953730131057221],[80.60834788289438,6.953665076901753],[80.6079284543636,6.953610916622873],[80.60786719371512,6.953572488538063],[80.60787236061721,6.953500824295754],[80.60788393861462,6.953340250056231],[80.60790187011902,6.953305506317401],[80.6079762939848,6.953161302658977],[80.60808384823632,6.952989143915993],[80.60814924684355,6.952863977375224],[80.60825881050819,6.952611750317027],[80.60825154497573,6.951907664981019],[80.60826401512615,6.95168095031202],[80.60827517175089,6.951478124473319],[80.60831819497977,6.951380502628715],[80.60832695804315,6.951322171067206],[80.60836510394373,6.951291430652295],[80.60853570684459,6.950784087943497],[80.60868748882173,6.95086386166914],[80.60883279855868,6.950856062766629],[80.60888438139621,6.950806157385239],[80.60897789991475,6.95078503039267],[80.60900682084943,6.950772761825269],[80.60900223752006,6.950692133247809],[80.608985149854,6.950631789469515],[80.60892432193694,6.95054780859436],[80.60886971059182,6.950514604511238],[80.60887180927749,6.950415048261462],[80.60890303149402,6.94995614181906],[80.6089909445779,6.949770613707487],[80.60895569079956,6.949682452184373],[80.60906859171263,6.949642688654018],[80.60922142521667,6.949588863527564],[80.60922797451467,6.949497232454443],[80.60922924144731,6.94947950198767],[80.60939347427338,6.94930773909435],[80.60961998591354,6.949172743134474],[80.6098780341631,6.949018952912896],[80.60999606456446,6.948965780863601],[80.61012029877529,6.948909813010508],[80.61030780976783,6.948894195277306],[80.61054868314089,6.948878214542593],[80.61065949359408,6.948870863275998],[80.61090967939808,6.948761724831845],[80.61103005787702,6.948667768706793],[80.61115975398288,6.948566537869193],[80.61130825316384,6.948496363227679],[80.61134951788164,6.948484588954095],[80.61140286597715,6.948447268353327],[80.61160141625645,6.948334567525367],[80.61166179942418,6.948222874805677],[80.61172940999231,6.94809781066603],[80.61178833607285,6.947978269769613],[80.61182916781434,6.94785563886037],[80.61197665426782,6.947750818409698],[80.61203550734764,6.947598852309351],[80.61201491581126,6.947588973652048],[80.61210420829089,6.947108979389052],[80.61192273336015,6.946921912048877],[80.61182727863952,6.946743945729098],[80.61148038574734,6.946702144252525],[80.61148082890833,6.946700368330786],[80.61141834730029,6.946645805481729],[80.6111761550803,6.946544125710553],[80.61113893739554,6.946546289414262],[80.6110432315447,6.946551851917331],[80.61096897905378,6.946594780984417],[80.61083230793997,6.946403413489153],[80.61069170540277,6.946130092778794],[80.61066279178345,6.946070768596372],[80.61038719575691,6.945505300243662],[80.61019983794087,6.945091369038278],[80.61019572319256,6.9450906812191],[80.61011693692903,6.944909427798272],[80.60982490505647,6.944490008481289],[80.60974076390895,6.944209428502677],[80.60936470983054,6.943670364601193],[80.60933725275487,6.943682498977377],[80.6089223197287,6.944160416286283],[80.60881733371616,6.943795437139686],[80.6085363732753,6.943243932092971],[80.60833388569303,6.942837598295913],[80.608031475897,6.942478327496665],[80.60770719084788,6.942130415972847],[80.60744009138958,6.94181009901712],[80.6070619445932,6.94157055100302],[80.60688607432415,6.941427513112064],[80.60669739725905,6.941328758529984],[80.60665207246613,6.94130503566442],[80.60655033045576,6.941245166074154],[80.6053421365637,6.940698265411792],[80.60525103815158,6.940513768412154],[80.60515334816606,6.940513734037483],[80.60496590722641,6.940349760885375],[80.60482529091688,6.940131118832879],[80.60472379983479,6.940029487652807],[80.60464956958461,6.940009961912744],[80.60462223560441,6.939740493974841],[80.60444263212986,6.939412472459925],[80.60431372992589,6.939252333784546],[80.60429147097466,6.939197828025418],[80.6042005672072,6.938975206759158],[80.60406787127317,6.938748653697338],[80.60377483703033,6.938494773521792],[80.60368731852488,6.939000805743989],[80.60367692101846,6.939060924478651],[80.60353639467365,6.938982734969828],[80.60338006265702,6.938818629666545],[80.60318493706835,6.938404693849272],[80.60317800101907,6.938395633690018],[80.60304109601067,6.938509581690786],[80.60283354994893,6.938722992987016],[80.6025515589637,6.938994021591656],[80.6024664080666,6.939049857173385],[80.6024813532168,6.939076031740202],[80.60242786540681,6.939319786663804],[80.60242654101297,6.939325827910315],[80.60242887492836,6.939414556594679],[80.60231141701794,6.939465679657777],[80.60217776098742,6.939511543570145],[80.6020874197051,6.93953103363392],[80.60201358587999,6.939494721725874],[80.60194240325693,6.939560181550665],[80.60190533458427,6.939640723434811],[80.60187153213094,6.939671730825102],[80.60176790552488,6.939753054841634],[80.6016705328457,6.939783841657015],[80.6015627588041,6.939793709606958],[80.60150389724238,6.939761537671558],[80.60147055288448,6.939689109591196],[80.6013485099332,6.939635661098252],[80.60120028091666,6.939603184827684],[80.60115513127613,6.939535344477903],[80.60109480770625,6.939397058664899],[80.6011049838184,6.93926119263662],[80.60114289657064,6.939118080632057],[80.60107326671299,6.938978573262454],[80.60106322558183,6.93886968272406],[80.60107317391498,6.938737944809644],[80.6011091540491,6.938642509413905],[80.60121208074133,6.938549572959569],[80.60122333926905,6.9385381357183],[80.60134198669547,6.938453844872414],[80.60148080531724,6.938420437326613],[80.60149152795123,6.938409373363356],[80.60158414037066,6.938346198567489],[80.6009844145176,6.93818858278704],[80.60031902126474,6.938050518502805],[80.6001589857566,6.938000589670853],[80.59977564900802,6.937880992402208],[80.59964032484008,6.937843309798004],[80.59962558793653,6.937839205947185],[80.59956485504208,6.937834281010935],[80.59953447081236,6.937828548076231],[80.5994535870697,6.937835080522368],[80.5994135981929,6.937832146470048],[80.59940726826919,6.937833546701063],[80.5993876208137,6.937841965779971],[80.59920953281605,6.937807112067102],[80.59916946214913,6.937819612820605],[80.59904525148633,6.937858361520448],[80.59911783047379,6.938146209668172],[80.59897558426033,6.938168547321762],[80.59896040629422,6.938071147770836],[80.59888537973758,6.937956366580982],[80.59876311180156,6.938060783704492],[80.59850637096923,6.938284831998077],[80.59848842591244,6.938302428670509],[80.5980933907926,6.938689806588436],[80.5980779932947,6.938911447600044],[80.59810034637418,6.939324448707536],[80.59809805656072,6.939930573365442],[80.59812849019607,6.939988056764059],[80.5981674174865,6.940253571154624],[80.59787830109555,6.940487737019124],[80.59769059099662,6.940667257893533],[80.59765151946112,6.940784380029861],[80.59767487405259,6.941096659761964],[80.59762408582755,6.941163051717487],[80.59756538017518,6.941221527921346],[80.5974246962419,6.941190247010333],[80.5972371868726,6.941213632307291],[80.59705743123858,6.941299474283964],[80.59688541471324,6.941479000755439],[80.59678381129783,6.941682008166957],[80.59671326440834,6.942017709360738],[80.59658818346954,6.942228479504767],[80.59653335494245,6.942509643755397],[80.59636917504058,6.942907763147962],[80.59609559526345,6.943180932330366],[80.59601734457343,6.943321494618366],[80.59602508334984,6.943422950870276],[80.59607977923588,6.943493339159235],[80.59607976437465,6.943532336839318],[80.59596249592083,6.943649429948929],[80.59586095331397,6.94368838986319],[80.59577494382275,6.943782038706471],[80.59575143747551,6.94386793968085],[80.5957569490288,6.943990725164721],[80.59575914933606,6.944039762489676],[80.59571232341582,6.944094426761529],[80.59596973229982,6.945070620846635],[80.59598929605927,6.945308716366587],[80.59598284014787,6.945459831284175],[80.59597984138573,6.9455300321196],[80.59597745351196,6.94558594139244],[80.59598038401502,6.945820466667558],[80.59587662385906,6.9461673088195],[80.59583324991345,6.946398355626435],[80.59577693626551,6.946698325285581],[80.59570451949065,6.947347819187575],[80.59563245484338,6.947994146279242],[80.59562613440637,6.948050837178843],[80.59580440002338,6.948482932609203],[80.59583559287157,6.948631310932377],[80.59578069566965,6.949084152819522],[80.59566733795616,6.949322198496976],[80.59550704112019,6.949544683752027],[80.59549131196457,6.949630587655456],[80.59544262564545,6.949725519399035],[80.59509014772298,6.949754096552625],[80.59469749024296,6.949656325243677],[80.59419952596905,6.949428350550043],[80.59388361113062,6.949325381160619],[80.59361546573571,6.949231963292255],[80.59337602075883,6.949224693256165],[80.59323714356984,6.949219853923346],[80.5932332482572,6.949145628068115],[80.59319411784185,6.949036247813585],[80.59320986129886,6.948919116201493],[80.5932724144593,6.948786460234031],[80.59338744348706,6.948677955275961],[80.59341316381776,6.948653693405854],[80.59349188641765,6.948553865759542],[80.59344593570523,6.948498888276509],[80.59283213497325,6.947764481873081],[80.59258796790924,6.947472339611021],[80.59127875035838,6.947102715557429],[80.5881568567039,6.947441433286621],[80.58767736553452,6.947271959311124],[80.5875684209793,6.94730058085457],[80.58740439227358,6.947292742849669],[80.58729496167878,6.947253559534354],[80.58689647521051,6.947269083801696],[80.5864822379355,6.947425053218811],[80.58613833327038,6.947440599630903],[80.58605237147444,6.947409337304934],[80.58534914074242,6.947463597901725],[80.58475664072509,6.947463357637794],[80.58459106768017,6.947463289712474],[80.58432636346166,6.947447639993182],[80.58423938725926,6.947478832499963],[80.58417071399883,6.94751803379275],[80.58335312300717,6.947520170049502],[80.58247035309594,6.947757267902831],[80.58078331676182,6.947628719492607],[80.58042830771657,6.947519496171292],[80.57941274578441,6.947207039495762],[80.57938603896764,6.947299448391256],[80.57917953385983,6.948013976803355],[80.57898716011279,6.948679602055045],[80.57880511226148,6.949309505673193],[80.57875768156583,6.949473620687135],[80.57862867058704,6.949837196919542],[80.5785811320185,6.949971172886593],[80.57848812879057,6.950233269331342],[80.57845656411779,6.950322220738712],[80.57821231326582,6.951010569169564],[80.57805854878823,6.951391307758408],[80.5779437287408,6.951675614820939],[80.57790579055855,6.951769555321573],[80.57774539315173,6.952166714246115],[80.57752476993667,6.952713001711835],[80.57729539504305,6.952960152822079],[80.57718342148868,6.953080801758438],[80.5769324049841,6.953351269439387],[80.57637541423627,6.954059973846116],[80.5761583546803,6.954336152607009],[80.57607936295419,6.954436658965303],[80.57574821506385,6.954858002094981],[80.57574109931082,6.954882824296595],[80.5757324762933,6.954912912581697],[80.57529733690671,6.956431207875673],[80.57513151696055,6.957009787719449],[80.57510048131479,6.957330651187993],[80.57507633144397,6.957580308314659],[80.5750721890507,6.957623124893201],[80.57502937968091,6.958065712073378],[80.5750125718838,6.95823947870606],[80.5751166752563,6.958815650302944],[80.57513524759304,6.958918445191579],[80.57513762398885,6.958931591303802],[80.5751560443376,6.959359158557102],[80.57516775165257,6.959630883511645],[80.57532691465661,6.960294789641535],[80.57555577658233,6.961249425920295],[80.57558831428149,6.961339858423927],[80.57584696749558,6.962058739134315],[80.57639744063584,6.962544483766164],[80.57736888816162,6.963354083434954],[80.57850249053894,6.963710602143669],[80.5785443931526,6.963710619688056],[80.57979821080947,6.963711142936994],[80.58034695047459,6.963711370893895],[80.58087925944372,6.963711591416834],[80.58096435796266,6.963711626615578],[80.58187046899155,6.963595930892247],[80.58222775148826,6.963550308694691],[80.58334367154698,6.963441986861915],[80.58355591622922,6.963421382814913],[80.58380070885703,6.963468076498796],[80.58423611648564,6.963551130478334],[80.5849163040061,6.963713244367623],[80.58537994708664,6.963753719179775],[80.585661313847,6.963778282758073],[80.58630911049104,6.963940379781031],[80.5868920675568,6.964231920550016],[80.58694242308435,6.964277243250256],[80.58704047343241,6.964151312528831],[80.58744494206047,6.963683362653779],[80.58771215474248,6.963374209416662],[80.58918849399872,6.961666139409346],[80.59254802617446,6.960112972435313],[80.59422645208541,6.958590204062256],[80.5967969811464,6.959050007586373],[80.59847918737813,6.958929745697447],[80.59915032004949,6.958881762496879],[80.59933085890759,6.95879506385197],[80.60028277213901,6.958337930119306],[80.60158472382659,6.957712694245653],[80.6017456273509,6.95785895156238],[80.60183795172367,6.957897419029849],[80.60189946749897,6.957889670049766],[80.60196879217578,6.957797428378561],[80.60193139653498,6.957637009022863],[80.60191500105209,6.957566667172657],[80.60190745831879,6.957312891933014],[80.60208060307714,6.957147634357316],[80.60223069452435,6.957374475548253],[80.6027385426226,6.95762080595673],[80.6027565436349,6.957632325399191],[80.60307646666666,6.95763050932589],[80.60322147582524,6.957653517575991],[80.60327744733108,6.957628774307799],[80.60333895740783,6.957636426524659],[80.60346375295302,6.957691958225015],[80.60379403219922,6.957744362752798],[80.60382999824549,6.957744679727601],[80.60387502888335,6.957745075968938],[80.60448794706461,6.957704916975564],[80.60474554222233,6.957662252719105],[80.60476335698384,6.957663455593399],[80.60478021998524,6.957673753721848],[80.60497856466833,6.957698629207166],[80.60510156447296,6.95776776977048],[80.60515541575299,6.957837025438119],[80.60515541002533,6.957857810212124],[80.60538511751206,6.957916742536111],[80.60552343994206,6.957874156794771],[80.60545563723987,6.95780647325049],[80.60542498895948,6.957706422322278],[80.60542501402851,6.957637185260161],[80.60550962500731,6.957498742601449],[80.60550967321113,6.95736804106228],[80.60537129554503,6.957198715928767],[80.60518652023694,6.957075575418052],[80.60511726412089,6.956983283079982],[80.6052866725562,6.95697571469183],[80.60581776568749,6.957075803501795],[80.60607002290214,6.957300871724911],[80.60610247076313,6.957329821491593],[80.6062717085973,6.957406748275384],[80.60642569376192,6.957429835641705],[80.60655667798143,6.957420325896223],[80.60674132637354,6.957406916970626],[80.60691130774391,6.957432345763375],[80.60692526096172,6.95742304264817],[80.60692217727849,6.957433971095485],[80.60694903289571,6.957468597900263],[80.60703372846983,6.957491661143629],[80.60757271208118,6.957276514715279],[80.60774203190687,6.957246153963899],[80.60796529213795,6.95720612172294],[80.6082577368567,6.957153686877329],[80.6084425850909,6.957076743788236],[80.60868883760972,6.956907695291872],[80.60904301369256,6.95665404819051],[80.60928938886804,6.956538693129519],[80.60978970836794,6.956485033930572],[80.61007848895919,6.9564120840696],[80.6103054833794,6.956316080332414],[80.6107674465793,6.955962429856827]]]]}},{"type":"Feature","properties":{"GND_N":"Bogahawatta","GND_NO":"475P","GND_C":"005","PROVINCE_N":"CENTRAL","PROVINCE_C":"2","DISTRICT_N":"NUWARA ELIYA","DISTRICT_C":"3","DSD_N":"THALAWAKELE","DSD_C":"12","Admin_Code":"2312005","GND_NO_Cen":"475P","GND_NAME_C":"Bogahawatta","GND_NO_Gaz":"475P","GND_NAME_G":"බෝගහවත්","shape_1":"Polygon","Area__Ha_":767.776410169,"MWS_ID":"157","Alt_MWS":null,"Area":7.67776410169,"Tot_Pop":5408.0,"PopDensity":704.371732235},"geometry":{"type":"MultiPolygon","coordinates":[[[[80.61983051818521,6.985023992026679],[80.61989461123157,6.984961979149167],[80.61987928402526,6.984700570164152],[80.61969849690513,6.984442779502321],[80.61956388834756,6.98396203542787],[80.61949139920505,6.983768695052329],[80.61946768934254,6.983621840929139],[80.61899631972994,6.982889765813643],[80.61891648088584,6.982904866516106],[80.61879623535403,6.982882579274105],[80.61846504894457,6.982867496568648],[80.61833765695488,6.982888657324157],[80.61825209728786,6.982933083822166],[80.61816340061559,6.982921119809232],[80.6180478720665,6.98280005025047],[80.61797038787049,6.982759637518658],[80.61787084937944,6.982707721709026],[80.61774183106091,6.982718002852439],[80.61767837723144,6.982723058308552],[80.61761576070636,6.982746523170376],[80.61755518806497,6.982769222758187],[80.6175064790837,6.982759453305539],[80.61747826385829,6.982753794538667],[80.61745395446013,6.982781538850958],[80.61734627787304,6.982830852778497],[80.6171673744521,6.982878017481185],[80.61706173138928,6.982930302702848],[80.61697405971839,6.982727412688341],[80.61688671693778,6.982625147659487],[80.616877802897,6.982614711565212],[80.61681971161278,6.982454186915002],[80.61675979229197,6.982383921275761],[80.6167114107411,6.982340249099755],[80.61673174042555,6.982299690244278],[80.61666248533737,6.982184366669469],[80.61657781713954,6.982068896785447],[80.61646231111283,6.981976586771504],[80.61606216165474,6.981807316867309],[80.61604134685594,6.981794661138523],[80.61597428489976,6.981753884478406],[80.61566967489557,6.981568671133471],[80.61552350236394,6.981414747624642],[80.61528550121717,6.981077096565879],[80.61511953339675,6.980841638594074],[80.6151074445245,6.980817875401597],[80.6150957011537,6.980794789658632],[80.61500803200545,6.980622447034597],[80.61493883036893,6.980353248681705],[80.6149542628737,6.980299419215901],[80.61490426961643,6.980103278869427],[80.61491574118278,6.980053261542033],[80.61530081685778,6.979637973757158],[80.61540100354395,6.979445841121066],[80.61547573801239,6.979248869829894],[80.61548564553337,6.979222757508705],[80.6154893647781,6.979091932483111],[80.61549351824317,6.978945814739849],[80.61554745661789,6.978768927492583],[80.6156013661033,6.978684448525549],[80.61570816565084,6.978585232779746],[80.61593252277464,6.978376811290671],[80.61650228218868,6.977961728133068],[80.61684103103764,6.977777304782189],[80.61731057234923,6.977646622626188],[80.61775701078571,6.977669802292938],[80.61793409016506,6.977585366268833],[80.61809579861986,6.977370080610958],[80.61813834409321,6.977012325335896],[80.61827299669127,6.97693168752889],[80.61872728117378,6.976747161335671],[80.61881965270807,6.976662696640718],[80.61883508905318,6.976601093537869],[80.6187628826832,6.976497173579533],[80.61864271641075,6.9763242247825],[80.61835036757635,6.976039550781402],[80.61826574988567,6.975770205694299],[80.61845828803447,6.975554930212394],[80.61854286685696,6.975516525138499],[80.61862836103164,6.975501356726898],[80.61910487750562,6.975416814098936],[80.61945901105544,6.975316892202433],[80.61977465942886,6.975278564622826],[80.61995173085779,6.975217016920021],[80.62029811993614,6.975009563338833],[80.62096039889556,6.974471289535106],[80.62139157996239,6.97400231885252],[80.62148393623947,6.973963915793245],[80.6217533320033,6.973956232481518],[80.62177638926894,6.973933208036723],[80.62180720682782,6.973964021820083],[80.62189955300931,6.973956279478962],[80.62213521270627,6.973925175800233],[80.62239766524303,6.973913777636565],[80.62257679600012,6.973870768060219],[80.62289485437556,6.973701469901692],[80.62310197495219,6.973531737596005],[80.62344624178127,6.973240788237013],[80.6235798900745,6.973150389166387],[80.62373219384837,6.973127468859047],[80.6239347590287,6.973183522314642],[80.62412932736008,6.973236542743495],[80.62461598150844,6.973163802679681],[80.6252494464454,6.97302315800526],[80.62553823103033,6.973036171274341],[80.62575946828011,6.973112328327766],[80.62590740480628,6.973268856441097],[80.62624730586401,6.97360188026138],[80.62670167943863,6.974068739953581],[80.62690637043544,6.974218944705477],[80.62708893913123,6.974281810832734],[80.62748189965336,6.974312989217371],[80.62787906174411,6.97459011704607],[80.62810346552502,6.974883289798115],[80.62827702560146,6.975038867568955],[80.62858532652456,6.974981608975175],[80.62846564237753,6.974222726996271],[80.62840905109839,6.973328448055644],[80.62828347414153,6.972882772880387],[80.62757072433385,6.971299724470076],[80.62750644733279,6.971062242720583],[80.62741182049454,6.970751231441215],[80.62740938566408,6.970726330346821],[80.6271888689266,6.970735370765668],[80.62707470209031,6.970740049763858],[80.62700418227372,6.970742942058518],[80.62669621324872,6.970658207798157],[80.62600365097364,6.969973532114266],[80.6259191237658,6.969858064792894],[80.6257882133644,6.969742721926105],[80.62564201826946,6.969665667379681],[80.62557394572747,6.969643429320155],[80.62526491132874,6.969542474001542],[80.62471068984554,6.969626935655262],[80.62461461541726,6.969641464254311],[80.6242025714537,6.969703779097881],[80.62402552345131,6.969703721988062],[80.62362518050887,6.969718852927437],[80.62360251872461,6.969717734189945],[80.6235373860064,6.969714518159187],[80.62315569968379,6.969695670571035],[80.62295143444254,6.969626265846917],[80.62274777104656,6.969557064702355],[80.62256308640598,6.969557003656062],[80.62249899889981,6.969556983673605],[80.62249379583973,6.969556982881818],[80.62248685390463,6.969555123155139],[80.62206280864709,6.969441540181003],[80.62201276811578,6.96938387281662],[80.62179331469073,6.969326011641103],[80.6211852404793,6.969333583814748],[80.62071577547003,6.969264191254228],[80.62041554487641,6.969302525558453],[80.62013832382388,6.969463939160693],[80.62002292739147,6.969479302346151],[80.62000750095318,6.969517730632418],[80.62003830192687,6.969594607626054],[80.62009948023346,6.969655902472749],[80.61981450344028,6.970291812903789],[80.6197816565281,6.970358204061051],[80.61938382351357,6.970302803782564],[80.6189095759693,6.970278418301596],[80.61817551151498,6.970303427650553],[80.61806616347731,6.970210190466916],[80.61804432700634,6.970209301435498],[80.61793277752474,6.970136212527735],[80.61766261857773,6.969828544312159],[80.61749032571095,6.969632331366297],[80.61745916041345,6.969603798777761],[80.61703639265481,6.969216759528451],[80.61666701373233,6.968832160633522],[80.61655154047531,6.968655214013784],[80.61651312084614,6.968524356560477],[80.61650755755625,6.968383034644044],[80.61650555028525,6.968332046870549],[80.6164363076801,6.968185919559446],[80.61635163320491,6.968093622695062],[80.61623790298884,6.968024274714134],[80.61603606790527,6.967901206704544],[80.6159918641643,6.967834905395484],[80.61591227508642,6.967668560339852],[80.61587365853508,6.967587852466087],[80.61586705106309,6.967574041328557],[80.61586760627668,6.967556834209534],[80.61587076741911,6.967458883489322],[80.6157822944872,6.967308936050589],[80.61551300315055,6.967024268185447],[80.61549761317171,6.966955025865161],[80.6155130845261,6.966785754198249],[80.61578255649398,6.966539702184797],[80.61589036286641,6.966393637677323],[80.61588780432982,6.966385700538164],[80.61581351549394,6.966155237701452],[80.61580889622321,6.966152562975444],[80.61553180704213,6.96599209744307],[80.6155373345946,6.965969309679426],[80.61548030147836,6.965918670309212],[80.615488879977,6.965866445414375],[80.6155003219005,6.965803867086045],[80.61550078128862,6.96561658628655],[80.61549336935897,6.965358486788094],[80.61549389900324,6.965299529236627],[80.61549586418944,6.96508090176468],[80.61551420589582,6.964819702899992],[80.6155296944059,6.964533507787601],[80.6155383358751,6.964362870972013],[80.6155442994316,6.964245113979761],[80.61551687070576,6.963791527255163],[80.61550035940779,6.963600468762316],[80.61547073536737,6.963257706919626],[80.6154750400342,6.962630400262319],[80.61544810082871,6.962503821313856],[80.6154497345887,6.962386513187944],[80.61545674816844,6.962390197948253],[80.61549144888357,6.962224749004863],[80.61549151441135,6.962032581123093],[80.61540727419523,6.961795880461868],[80.61537241900425,6.961697944805639],[80.6154171766628,6.961717129727882],[80.61542067689729,6.96169970476408],[80.61539117890436,6.961438873903384],[80.61535167805216,6.961089614773928],[80.61534399588719,6.961021679084782],[80.61534912797511,6.960942949332024],[80.61534573551715,6.960747980502743],[80.61537444940078,6.96040488309451],[80.61538435630541,6.960286510684476],[80.61537232187305,6.960266429880137],[80.61536131948178,6.960248069434855],[80.61536143486342,6.959912526874979],[80.61536146206637,6.959832789780485],[80.61538452158256,6.959801994844253],[80.6153769847626,6.959509642487517],[80.61528124130749,6.959296928455098],[80.61523850802244,6.959201987904187],[80.61521551418684,6.9590404756665],[80.61524411342253,6.959011918091526],[80.61521234280828,6.958768037813723],[80.61499239853622,6.958548112858887],[80.61465764143591,6.958259607769935],[80.61450767699499,6.958055659554177],[80.61448144603892,6.957981762578718],[80.61442305479657,6.957817259365191],[80.61413073565703,6.957486377757825],[80.61376083531519,6.957232417500067],[80.61349200410123,6.957047846443871],[80.61295327172763,6.956539972488719],[80.61275775055032,6.956408356837115],[80.61253013617821,6.956255250690062],[80.6122787994115,6.956121493076552],[80.61205297304076,6.956001311639608],[80.61166048268869,6.955831898127407],[80.61146026518165,6.955785764342349],[80.6114355838696,6.955793144896764],[80.61138333214761,6.955808769519274],[80.61132183025248,6.955777944367016],[80.61110617176705,6.955808672753636],[80.6107674465793,6.955962429856827],[80.6103054833794,6.956316080332414],[80.61007848895919,6.9564120840696],[80.60978970836794,6.956485033930572],[80.60928938886804,6.956538693129519],[80.60904301369256,6.95665404819051],[80.60868883760972,6.956907695291872],[80.6084425850909,6.957076743788236],[80.6082577368567,6.957153686877329],[80.60796529213795,6.95720612172294],[80.60774203190687,6.957246153963899],[80.60757271208118,6.957276514715279],[80.60703372846983,6.957491661143629],[80.60694903289571,6.957468597900263],[80.60692217727849,6.957433971095485],[80.60692526096172,6.95742304264817],[80.60691130774391,6.957432345763375],[80.60674132637354,6.957406916970626],[80.60655667798143,6.957420325896223],[80.60642569376192,6.957429835641705],[80.6062717085973,6.957406748275384],[80.60610247076313,6.957329821491593],[80.60607002290214,6.957300871724911],[80.60581776568749,6.957075803501795],[80.6052866725562,6.95697571469183],[80.60511726412089,6.956983283079982],[80.60518652023694,6.957075575418052],[80.60537129554503,6.957198715928767],[80.60550967321113,6.95736804106228],[80.60550962500731,6.957498742601449],[80.60542501402851,6.957637185260161],[80.60542498895948,6.957706422322278],[80.60545563723987,6.95780647325049],[80.60552343994206,6.957874156794771],[80.60538511751206,6.957916742536111],[80.60515541002533,6.957857810212124],[80.60515541575299,6.957837025438119],[80.60510156447296,6.95776776977048],[80.60497856466833,6.957698629207166],[80.60478021998524,6.957673753721848],[80.60476335698384,6.957663455593399],[80.60474554222233,6.957662252719105],[80.60448794706461,6.957704916975564],[80.60387502888335,6.957745075968938],[80.60382999824549,6.957744679727601],[80.60379403219922,6.957744362752798],[80.60346375295302,6.957691958225015],[80.60333895740783,6.957636426524659],[80.60327744733108,6.957628774307799],[80.60322147582524,6.957653517575991],[80.60307646666666,6.95763050932589],[80.6027565436349,6.957632325399191],[80.6027385426226,6.95762080595673],[80.60223069452435,6.957374475548253],[80.60208060307714,6.957147634357316],[80.60190745831879,6.957312891933014],[80.60191500105209,6.957566667172657],[80.60193139653498,6.957637009022863],[80.60196879217578,6.957797428378561],[80.60189946749897,6.957889670049766],[80.60183795172367,6.957897419029849],[80.6017456273509,6.95785895156238],[80.60158472382659,6.957712694245653],[80.60028277213901,6.958337930119306],[80.59933085890759,6.95879506385197],[80.59915032004949,6.958881762496879],[80.59847918737813,6.958929745697447],[80.5967969811464,6.959050007586373],[80.59422645208541,6.958590204062256],[80.59254802617446,6.960112972435313],[80.58918849399872,6.961666139409346],[80.58771215474248,6.963374209416662],[80.58744494206047,6.963683362653779],[80.58704047343241,6.964151312528831],[80.58694242308435,6.964277243250256],[80.58708062219054,6.964401622808055],[80.58721588109462,6.964523358744348],[80.58725063249284,6.964547686943988],[80.58731571367697,6.964593247908653],[80.58786356111489,6.964976765695464],[80.58786977213535,6.964984011728184],[80.58825209852259,6.965430066849884],[80.5883343498126,6.965524068664574],[80.58860549687888,6.965833953773013],[80.58870539558788,6.965948126931448],[80.58899674054578,6.966433756074681],[80.58930251498545,6.966866956830118],[80.58938524172444,6.966984157925576],[80.58959326705735,6.967307777532609],[80.5896037743361,6.967324122640323],[80.58967659900988,6.967437419464535],[80.59011891755883,6.96804562675859],[80.59019461324844,6.96814971148787],[80.59049000182137,6.968702460416332],[80.59050962297157,6.96873917785855],[80.5905173679738,6.968753668920112],[80.59058070897223,6.968872196045291],[80.59062081768882,6.968947249984301],[80.59084689543096,6.969370297332311],[80.5911980680716,6.970027424665356],[80.59122613650966,6.970090596572972],[80.59127195876428,6.97019372441038],[80.59127530896583,6.970201265893108],[80.59135893294034,6.97038946468856],[80.59136395508229,6.970400768771648],[80.59136803229616,6.970409942825182],[80.59149049976723,6.970685569606882],[80.59161704641147,6.970970370409447],[80.59171590531601,6.971192859452695],[80.59182649136058,6.971624503674179],[80.59184687971192,6.971704084934344],[80.59196800718979,6.972176865955825],[80.59199241326392,6.972272128676524],[80.59201533372853,6.972361591450867],[80.59203913617544,6.972454496386923],[80.59203934672747,6.972455321203377],[80.59208742227959,6.972768372732056],[80.59210690799482,6.972895252857074],[80.59212043109068,6.972983321121117],[80.59214505614923,6.97314365743564],[80.59214871767772,6.973167507428909],[80.59231800557406,6.973238042141809],[80.59232626976628,6.973232786780253],[80.59234176885943,6.973222933091423],[80.59262076590119,6.973250029252264],[80.59299050882365,6.973021692764398],[80.59307608434638,6.973009789068676],[80.59315865677131,6.9729983019844],[80.59322844490742,6.972902101035252],[80.59322925988364,6.97290097457645],[80.5933502616804,6.972662508734031],[80.59358847578756,6.972469445939444],[80.5935740239793,6.972579347940872],[80.59363546297314,6.972520443927908],[80.59389806061012,6.972434654703935],[80.59391943616227,6.972331100937524],[80.59401184804955,6.972146599640248],[80.59441218842919,6.972146754160288],[80.59446607537416,6.972123601887937],[80.59460471404672,6.971985323299537],[80.59471247000866,6.971985365691811],[80.59487414841894,6.97186998588384],[80.59495110945149,6.971785378013441],[80.59500504658115,6.971631664458157],[80.59515916970143,6.971308714445231],[80.59525933112913,6.971200940569767],[80.59535169088561,6.971154913859638],[80.59552874216138,6.971147210051905],[80.59583663792195,6.971039657570439],[80.59592901528468,6.970947424823961],[80.59599072899194,6.970793714113049],[80.59602919493939,6.970793729714999],[80.59608305219349,6.970847585914663],[80.59611382580421,6.970985927880391],[80.59610140278895,6.971015494206584],[80.59618778227299,6.971082197744078],[80.59654894911692,6.971124691739353],[80.59661461232697,6.971146329857649],[80.59662439929295,6.971149042909796],[80.59694736560996,6.971238589794832],[80.59718630774081,6.971381613741756],[80.59743694862219,6.971531643205779],[80.59750579943744,6.97173222628117],[80.59767125202784,6.972046394327029],[80.5976676288933,6.972025589208861],[80.59773627425123,6.972059538732082],[80.59789728983017,6.972139173867371],[80.59819881174036,6.972270424199296],[80.59821803075546,6.972278790934677],[80.59804972642162,6.972742909997988],[80.59788883094514,6.973611774733024],[80.59808017448182,6.973618938703757],[80.59834431700627,6.973717268652179],[80.59872643773943,6.973786526687812],[80.59912742381475,6.973873775598911],[80.59965908494948,6.973888665604484],[80.59994028765084,6.9739180452976],[80.60034610758531,6.973943252707053],[80.60041142592183,6.974189470273533],[80.60038082674706,6.974554139821188],[80.60062690805354,6.974774389548523],[80.60074635431218,6.974779168114995],[80.60150043423944,6.974809327682663],[80.60199139474321,6.974648388656702],[80.60206868643125,6.975047488369806],[80.60174559455118,6.975433202666609],[80.60162514522693,6.975533552308132],[80.6015649970362,6.975593442644316],[80.60111524158403,6.97598966377344],[80.60085361864498,6.976102601236229],[80.60057636416606,6.976325467475898],[80.60040702577052,6.976502310772384],[80.60029138342607,6.976786843494109],[80.60029896270036,6.976940721690512],[80.60039133788716,6.977232962646078],[80.60045199990198,6.97732002912263],[80.60059615440082,6.977871062429263],[80.60124937355661,6.978563814694075],[80.60206310166832,6.979144074523829],[80.60241074573963,6.979876854655068],[80.6022370025578,6.980220423509144],[80.60207863881848,6.980708024447471],[80.60206164535566,6.980740043539377],[80.60204448433782,6.980772378174195],[80.60208616010004,6.981621277632788],[80.6016012803694,6.982087528736241],[80.6015783163331,6.982092221747836],[80.60127484351595,6.982361251902771],[80.60123155538098,6.982368455859548],[80.60112389860457,6.982418823198471],[80.6010781028824,6.982461539518772],[80.60104800384805,6.982496388717646],[80.60133615474669,6.98247889878628],[80.6014130629989,6.982540393560276],[80.6014438691976,6.98260201228441],[80.60144383398612,6.982694280321565],[80.60141296862604,6.982794166609271],[80.60135906647213,6.982855752976739],[80.60124365387354,6.982901915112556],[80.601097374903,6.983047964387427],[80.60104345266818,6.983163243439553],[80.60104341163485,6.983270914648174],[80.60106644352108,6.983324758829106],[80.60116639338604,6.983409433449004],[80.60134344917712,6.983401868649216],[80.60141667991613,6.983459544949044],[80.60160524595094,6.98330192609914],[80.60168218863441,6.9832711518909],[80.60179008642903,6.983278962648048],[80.60193626262401,6.983409719077289],[80.60212863091391,6.983678963800673],[80.60245947187651,6.983871393803883],[80.60254034156848,6.983929073656969],[80.60262108051091,6.983956092685841],[80.60264426140277,6.983986903973431],[80.60290581582892,6.984163907652399],[80.60311357363948,6.984502394636666],[80.60313033801953,6.984519988802407],[80.60359534823904,6.984482205510326],[80.60362931660286,6.984476302848963],[80.6036960384424,6.984477608721076],[80.60415285976156,6.98445657067424],[80.60419126026937,6.984633492028664],[80.60422970584982,6.984687340790943],[80.60432201963786,6.984772012871629],[80.60445280813818,6.984833524123519],[80.60468681433765,6.984839666555824],[80.60475303105034,6.984841405261959],[80.60490704558428,6.984810658600926],[80.60505603371088,6.984744170668842],[80.60519968466205,6.984680063616686],[80.60522068287592,6.984675685322832],[80.60538438819151,6.984641556272599],[80.60545539005268,6.984595728795813],[80.60551522801474,6.984557106450558],[80.60563076967769,6.984549376664392],[80.60574612922507,6.984649460004261],[80.60577693245746,6.984718705439787],[80.60576978396765,6.984811795647562],[80.6057730075587,6.984819981760951],[80.60591546493228,6.984872489869829],[80.60618486417773,6.984872587269255],[80.60631564924557,6.984941871492662],[80.60633542152016,6.984963859790609],[80.60638491509047,6.985018903351954],[80.60652350061935,6.985026584844914],[80.60657458193153,6.984998276526707],[80.606662116645,6.984949768109201],[80.60685462601957,6.984834394498702],[80.60702389678083,6.984849858559209],[80.60726263005441,6.98478847899507],[80.60751666943152,6.984634694747176],[80.6079458265567,6.984709759038435],[80.60800155612279,6.984719506666131],[80.60811419195768,6.984693158118411],[80.60814550472263,6.984690070216491],[80.60817785962065,6.984678264192178],[80.60849429255497,6.984604241387111],[80.60858420565049,6.984529989438426],[80.6087176561326,6.984419784776335],[80.60897928617884,6.984389074155359],[80.60920598159082,6.984414349744649],[80.60925645147043,6.984419976206585],[80.6092633179232,6.984418213420946],[80.60930606873917,6.984942941502904],[80.60934097443221,6.984942954784952],[80.60934475326344,6.985054580142228],[80.6093173374645,6.985081254922638],[80.6093966954094,6.98605528635146],[80.61034428405227,6.985922255783889],[80.61038754250404,6.985904863886653],[80.61049530357512,6.985897129268524],[80.610507669657,6.985899317541994],[80.6107569099444,6.985943426353524],[80.6109878624929,6.985889673679298],[80.61107259401044,6.985828097018164],[80.61155758416218,6.985620698822844],[80.61202732336905,6.985351545506258],[80.61223522790796,6.985290153564351],[80.6123352347718,6.985213320783295],[80.61248659041246,6.985162931719428],[80.61252008992307,6.985151779613124],[80.61272024206322,6.985013375159895],[80.61298970738443,6.984821162640404],[80.6132130390878,6.984721339536177],[80.6135979585098,6.98435989073863],[80.6135439991771,6.984590612421134],[80.61354395566255,6.984713684162954],[80.61359782803672,6.984736874931397],[80.61367095306548,6.984702281230727],[80.61368256074718,6.984667667181848],[80.61389030180388,6.985075387512416],[80.61389910929026,6.985108632241325],[80.61424352453798,6.985005792908946],[80.61439855280408,6.985010232164933],[80.61450290649336,6.985003833838221],[80.61455608980678,6.98499132554753],[80.61467978454225,6.984956625167483],[80.61476892001359,6.98495669373576],[80.61482526700655,6.984990204346142],[80.61487164604385,6.985098855536713],[80.61486506303248,6.985113369334244],[80.61481401093147,6.985144942242057],[80.6147601032569,6.985229420172854],[80.6147600847556,6.985283255809977],[80.6147790916447,6.985302944733107],[80.61497552731761,6.985506439408456],[80.61504477098383,6.985652568681654],[80.61506013331518,6.985806447554954],[80.61503725095717,6.985857791208937],[80.61499842801886,6.985944898650609],[80.6150138132447,6.986029401246719],[80.61512156548991,6.986052612108986],[80.61512161165588,6.98605259042124],[80.61521498884113,6.986188948675288],[80.61532552387848,6.986266009651353],[80.6154160243636,6.986377360782176],[80.61557463042763,6.986488866279225],[80.61576038102342,6.986360438345285],[80.6159066627659,6.986198983084281],[80.61616855697311,6.985814454661805],[80.616179016437,6.985802380195929],[80.61627200056522,6.985833938020599],[80.61636762200212,6.985940186763981],[80.61645881804964,6.986002813475618],[80.61644877802838,6.986138801773022],[80.61646295084545,6.986300136276255],[80.61650061697563,6.986324509485032],[80.61655458978004,6.986359434339234],[80.6165629826799,6.986358873799293],[80.6166937998697,6.986350123712162],[80.61690686572919,6.986385305909551],[80.61702283856717,6.986283999548636],[80.61730768331164,6.986191828633933],[80.61733072582136,6.986214866591623],[80.6175001552157,6.986184122824335],[80.61754645594688,6.986015002697934],[80.61773884793799,6.98582275873282],[80.6177458052259,6.985672436879377],[80.61784967493412,6.985681812513372],[80.61796275887653,6.985777962007812],[80.6180288210423,6.985779710557779],[80.6182189353098,6.985784743640795],[80.61838533672834,6.985738776207345],[80.61849363072646,6.985768867412296],[80.61855857638602,6.985783068829025],[80.61863277697036,6.985881830361029],[80.61866021291338,6.985909733129949],[80.61866255500591,6.985907706441054],[80.61876246777678,6.985857831671645],[80.61897061222285,6.985753935852689],[80.61898771469478,6.985717889260175],[80.61910929858331,6.985461632659886],[80.61937872309765,6.985384856703917],[80.61951733376802,6.98531566675049],[80.61964818341181,6.985200409292498],[80.61983051818521,6.985023992026679]]]]}}]}