{"type":"FeatureCollection","name":"SED_PPL_MWS_108_3","crs":{"type":"name","properties":{"name":"urn:ogc:def:crs:OGC:1.3:CRS84"}},"features":[{"type":"Feature","properties":{"GND_N":"Girakaduwa","GND_NO":"631","GND_C":"135","PROVINCE_N":"CENTRAL","PROVINCE_C":"2","DISTRICT_N":"KANDY","DISTRICT_C":"1","DSD_N":"PATHADUMBARA","DSD_C":"12","Admin_Code":"2112135","GND_NO_Cen":"631","GND_NAME_C":"Girakaduwa","GND_NO_Gaz":"631","GND_NAME_G":"ගිරාකඩුw","shape_1":"Polygon","Area__Ha_":44.3758607991,"MWS_ID":"108-3","Alt_MWS":null,"Total_Pop":1323.0,"Density":2981.35062718,"Area_sqkm":0.44375860657},"geometry":{"type":"MultiPolygon","coordinates":[[[[80.62571700262093,7.361586800310913],[80.62659279774252,7.360669494343264],[80.62742538290325,7.359940324504324],[80.62749495069598,7.359595428549769],[80.62751220528655,7.35957136633261],[80.62772442872293,7.359247349155281],[80.6279197134597,7.358990920888701],[80.62821273128115,7.358773917070869],[80.62831472597014,7.358481299323874],[80.62853631384111,7.358339368389514],[80.62865433017292,7.357561577934884],[80.62869683137666,7.357175143724432],[80.62877080071482,7.356915571496786],[80.62834802175136,7.356788426734919],[80.6267850078063,7.356831173260282],[80.6261269603172,7.356197508064242],[80.62583701235297,7.356163637902212],[80.62431004643481,7.357048673005679],[80.62353822413999,7.357388163316863],[80.6231661969425,7.357220437863543],[80.62290625830067,7.357069095716484],[80.62262784117156,7.356866009363364],[80.62226248627431,7.356815632863375],[80.62195731155934,7.356816332677259],[80.6219488477438,7.356816352369355],[80.62156634386042,7.356756913735876],[80.62123290827377,7.356705206344734],[80.6209366403941,7.356515812021087],[80.62049858176925,7.356434678051549],[80.62034477997152,7.356449014676492],[80.62030454287091,7.356492027265385],[80.62026276444305,7.356554769331228],[80.62023484749469,7.35660449610927],[80.62013467324725,7.356586103014925],[80.62004825866126,7.3565868858564],[80.61995205828791,7.356604393912418],[80.61986654297435,7.35662380651653],[80.61978148343867,7.356634988324942],[80.61968156719632,7.356653219368774],[80.61964551619282,7.356653569391104],[80.61959641890738,7.356654004374039],[80.61954624261806,7.356644671630148],[80.61945448319543,7.356652323358246],[80.61936062871727,7.35669072234107],[80.619303643854,7.35671909830226],[80.6192324389096,7.356742041663439],[80.61907634616426,7.356805374730903],[80.61901772332845,7.356852469088991],[80.61894280155019,7.356886533987848],[80.61886488526555,7.356930636455299],[80.61862192268184,7.357003434884342],[80.61852816932313,7.357014162147506],[80.61845605852155,7.357031897201121],[80.6184444650626,7.357034749800351],[80.61844136817177,7.357037183988981],[80.6183512312309,7.35710805476269],[80.6182854840312,7.357145238096539],[80.61819316871775,7.356819172862213],[80.61815580339727,7.356371821498533],[80.61775811882872,7.355941006331394],[80.61765767862025,7.355333242346512],[80.6171432281388,7.354968699421058],[80.61710850123279,7.354969937734865],[80.61707407597042,7.354955891675587],[80.6170045135004,7.354912544660607],[80.61696850359297,7.354899657342679],[80.61693129968934,7.354899906362473],[80.61677640594681,7.354939588911209],[80.61671976193732,7.354942032964096],[80.61662145784933,7.35494627438672],[80.61654572036922,7.354956778874355],[80.61647231126342,7.354981137149756],[80.61641136066189,7.355015136077363],[80.6164025382432,7.355020058651558],[80.61634163207495,7.355074127617275],[80.61632253781897,7.355107122322723],[80.6163161676763,7.355144130330848],[80.61631635373651,7.355148150914601],[80.61631980258585,7.355222695394682],[80.61631190999424,7.355259145810328],[80.61629386083284,7.355292659955285],[80.6162506982491,7.355329161981646],[80.6162346573585,7.355354747939744],[80.61619223982026,7.355422735235202],[80.61618067130257,7.35543695031356],[80.61616251472783,7.355459259234459],[80.61614817545716,7.355478286005809],[80.61612096591114,7.355514388592916],[80.61619476814425,7.355543366125049],[80.61629254112363,7.355565651341974],[80.61640253567418,7.35559153187323],[80.61647946353821,7.355601130423341],[80.61653314339893,7.355612633267399],[80.61657339998932,7.355629875434041],[80.61661749002458,7.355651902709444],[80.61667210897542,7.355712216362505],[80.61675068192991,7.355812735572126],[80.61680337866012,7.355891231283052],[80.61686183041229,7.355965902942581],[80.61690686221412,7.356031956365229],[80.61694422552979,7.356098005247995],[80.6170055519996,7.356173634660689],[80.61706592368377,7.356236821463787],[80.61712246215613,7.356297136649503],[80.61717228695993,7.356362233190648],[80.61717791558154,7.356710601343963],[80.61717980872788,7.356776640322743],[80.61718070773384,7.356943167461989],[80.61717970790136,7.357064712242301],[80.61718063885311,7.357136491373858],[80.61719499856324,7.357194876262952],[80.61723811192985,7.357263799218754],[80.6172994345168,7.357350914102648],[80.61733775599542,7.357417920945743],[80.61737031450753,7.357521294872659],[80.61739615150039,7.357651462626119],[80.6174152733257,7.357793113508547],[80.61740278642593,7.357862973476792],[80.61736346818499,7.357901241255262],[80.61725606196168,7.358012221316643],[80.61717359741061,7.358068658323883],[80.61709398180841,7.358200703930433],[80.61702876024346,7.358297342258473],[80.61700284923417,7.358374854146142],[80.61699516271646,7.358422704245185],[80.6169883941253,7.358586358397059],[80.61699322962076,7.358648960269265],[80.61701861392977,7.358859619599333],[80.6170517413587,7.358927307363649],[80.61712360008313,7.359038351977954],[80.61715330376754,7.359077601907546],[80.61718013788719,7.359101537403568],[80.61725968772595,7.359149418484846],[80.61732162089908,7.359188714208455],[80.61738428725323,7.359219328001585],[80.61741495703325,7.359239436943602],[80.61743700037532,7.359255714019036],[80.61745904065418,7.359280605452014],[80.61750408035894,7.359325602196053],[80.61752291948905,7.359353142089481],[80.61752591579888,7.359358511075017],[80.61752643992627,7.359359451732574],[80.61754085027701,7.359385271885854],[80.61796843865663,7.359138333254768],[80.6185834034713,7.358908885165831],[80.61928534865231,7.358601761127922],[80.61998730994672,7.358401149842635],[80.62059439287562,7.358468659253875],[80.62082756946738,7.358526450851113],[80.6208907089628,7.358457733302488],[80.62096372815958,7.358430358338407],[80.62106609121807,7.358407246453769],[80.62114118584401,7.358394794033207],[80.62121818301719,7.358389124508335],[80.62128259802002,7.358356318904559],[80.62133333025925,7.358333007325451],[80.62136122956788,7.358331479665261],[80.62141738184866,7.358353384045596],[80.62148484766453,7.358398713698252],[80.62155059104946,7.35845335522716],[80.62158889048553,7.358494606343005],[80.62161877740536,7.358507999398717],[80.62164241768792,7.358511534330543],[80.62168797405923,7.358530362208048],[80.62175244689287,7.358586902299365],[80.62178576430357,7.358633756531245],[80.6217897392402,7.358659169636011],[80.62181416315593,7.358751418465857],[80.62183316861056,7.358798990294114],[80.62184889565437,7.358891955945672],[80.62185085711245,7.358982477953464],[80.62186051235349,7.359089098248624],[80.6218644584901,7.359195173994934],[80.62186198678829,7.359267789333932],[80.62185566830901,7.359287504511754],[80.62184085959964,7.359333705516263],[80.62183571325056,7.359536629555096],[80.62183623505231,7.359599296817016],[80.62185524004411,7.359645693957508],[80.62188674721119,7.359688838118906],[80.62190730502975,7.359700422957614],[80.62193592775454,7.359702695381101],[80.62203103847857,7.359702546384301],[80.62209072767378,7.359710074436256],[80.62214877826923,7.359741201432233],[80.62225101532496,7.359816203071889],[80.6223000994833,7.359852212897353],[80.62235207820815,7.359894644242106],[80.62239797964399,7.35995877488308],[80.62240313570283,7.359979212929336],[80.6224309235206,7.36003601432185],[80.62244973119321,7.360129525397397],[80.62245844132966,7.360345383881622],[80.62246031591323,7.360422883030246],[80.62247016738016,7.360483655369704],[80.62248836650252,7.360505817872848],[80.62251416600556,7.360547152335105],[80.62256107790971,7.360575925178849],[80.62261705428948,7.360583542318373],[80.62268662303819,7.360578594344034],[80.62280666487123,7.360514249344802],[80.6228530520818,7.360488403165897],[80.62285456297994,7.360488377458837],[80.62291826981512,7.360487250819986],[80.6229804954338,7.360497309855417],[80.62300105197919,7.360510157047119],[80.62304088086762,7.360587942282868],[80.6230544508406,7.36064057627926],[80.6230600373536,7.360721241746366],[80.62306467202269,7.360740753603539],[80.62307296992681,7.360775686836712],[80.62308799869096,7.360795404812876],[80.6231176932019,7.360844791556167],[80.62320145955634,7.360906132640458],[80.62323964750871,7.360930147622757],[80.62324519983189,7.360933638309542],[80.62329248238763,7.360935734356107],[80.62336820920464,7.360935129924887],[80.6234342391125,7.360945731873292],[80.62354273995871,7.360990081401993],[80.62366319020263,7.361050530612599],[80.62372250842327,7.361086633298855],[80.62386173016591,7.361090388339768],[80.62394995703556,7.361090239311091],[80.62403717805229,7.361112516562372],[80.62420539496982,7.361206134408388],[80.62423261394164,7.361221282537724],[80.6242757219837,7.36124634537874],[80.62432608346028,7.361248351027823],[80.62437437069654,7.361226214775293],[80.62437575231932,7.361225445684731],[80.62442628347847,7.361197293879921],[80.6245131571304,7.361181045933401],[80.62456352033584,7.361180613563493],[80.62464014087234,7.361210390987703],[80.6246993758019,7.361225332898258],[80.62472056831032,7.361238180227565],[80.62475388672003,7.361278252897928],[80.62478657105358,7.361326373621285],[80.62482340608763,7.361419075927286],[80.62500703307175,7.361453542096005],[80.62571700262093,7.361586800310913]]]]}},{"type":"Feature","properties":{"GND_N":"Ambathenna","GND_NO":"629","GND_C":"140","PROVINCE_N":"CENTRAL","PROVINCE_C":"2","DISTRICT_N":"KANDY","DISTRICT_C":"1","DSD_N":"PATHADUMBARA","DSD_C":"12","Admin_Code":"2112140","GND_NO_Cen":"629","GND_NAME_C":"Ambathenna","GND_NO_Gaz":"629","GND_NAME_G":"අඹතැන්න","shape_1":"Polygon","Area__Ha_":73.6394461318,"MWS_ID":"108-3","Alt_MWS":"106","Total_Pop":1919.0,"Density":2605.9403037,"Area_sqkm":0.73639445895},"geometry":{"type":"MultiPolygon","coordinates":[[[[80.62158980021498,7.354835592513835],[80.62184852481899,7.354663043614443],[80.62197118542464,7.354520637793041],[80.62200994356232,7.354216403868088],[80.62200104487513,7.354198466723977],[80.62192875778966,7.353682099997977],[80.62186538971521,7.353277242869535],[80.62145485291425,7.352869620873735],[80.62142849823626,7.352549947977465],[80.62164709419888,7.352314150285892],[80.62185872458143,7.352290097409536],[80.62181372300026,7.352439471400364],[80.62225717393812,7.352919575005346],[80.62272986599619,7.352661112728852],[80.62284025391871,7.352471708664266],[80.62324456009316,7.352018966046683],[80.62326896821551,7.351993240704206],[80.62354387180076,7.351796196976333],[80.62362873517057,7.35134343275229],[80.62362866820025,7.351335307590841],[80.6237940235544,7.351012357717743],[80.62398328518829,7.350875377130745],[80.62445080100996,7.350897238896422],[80.62480405479896,7.350957550422263],[80.62499835335969,7.350916435085315],[80.62507630737093,7.350790769951401],[80.62511463364213,7.35054021297945],[80.62491177976547,7.349996551462416],[80.62483950780616,7.349758807269343],[80.62467997755131,7.349463214410823],[80.62468335576725,7.349191883813099],[80.62480729490464,7.348776308281117],[80.62479426210245,7.348715904744515],[80.62474162499753,7.34873228645205],[80.62462504864907,7.348713552443654],[80.62420141414795,7.348744630873598],[80.62413425256521,7.348607207776107],[80.62413211493927,7.348604468829103],[80.6241001891236,7.348566088528242],[80.62406125499415,7.348520499476144],[80.62397369721415,7.348430400519389],[80.62380546425032,7.34825716620052],[80.62375354402253,7.348211368335536],[80.62374977528349,7.348208043749655],[80.62369742851192,7.348188582580438],[80.62364381199075,7.348176626667057],[80.62358901643032,7.348158522007004],[80.62352344910222,7.348122416283867],[80.62351112732136,7.348131546426343],[80.6234881829805,7.348210845762375],[80.62350789724121,7.34830399542599],[80.62353429445763,7.348449959415877],[80.62351941543807,7.348523291307179],[80.62349215388492,7.348576737029741],[80.62349044194627,7.348576752723965],[80.62334905541373,7.348626662614682],[80.62326069569103,7.348664892524444],[80.62319615799707,7.348700779366989],[80.62312435520822,7.348722811645062],[80.62308675339143,7.348757056416275],[80.62303844024099,7.348760811748356],[80.62293812527564,7.348816741901985],[80.62292996952269,7.348816923590699],[80.62291908280696,7.348817164029242],[80.6229000013889,7.348817587950998],[80.62283430345211,7.348816187324256],[80.6228315552785,7.348816248780735],[80.6227006871792,7.348766865355358],[80.62259538223573,7.348730480023749],[80.62249085597583,7.348655499393166],[80.62248254731715,7.348649924244953],[80.6224060715544,7.348527237801705],[80.62240636448166,7.348515669187015],[80.62224419530969,7.348324368452785],[80.62222978818873,7.348315660517527],[80.62214324755172,7.348219037032736],[80.6221403884301,7.348207256632976],[80.6220853895966,7.348124768243878],[80.6219273745745,7.348080533393472],[80.6218015235617,7.348011243263466],[80.62174122319021,7.347952553289846],[80.62171242389748,7.347926085345174],[80.62170087729949,7.347917274384401],[80.62169799339931,7.3479143244669],[80.6216430687853,7.347861140809555],[80.6216314651429,7.34785228099515],[80.62157005551235,7.347873921430426],[80.62145251485892,7.347902319312818],[80.62144075077015,7.347896437299392],[80.62136416580397,7.347833925506642],[80.62127464693656,7.347722483867218],[80.62127458034999,7.347713373017667],[80.62123805883165,7.347607286862845],[80.6212380354273,7.347604253831185],[80.62118979135676,7.347534528252602],[80.62117781071616,7.347531496512431],[80.62117176777653,7.347522389926452],[80.62109983490613,7.347543690259512],[80.62104250561524,7.347607731967471],[80.62104428929753,7.347651516097007],[80.62097526292759,7.347709697498086],[80.62096103845604,7.347722895358598],[80.62080702330611,7.347809832986115],[80.62073835490287,7.34784390039954],[80.62064667613099,7.347877507668677],[80.62052845117061,7.347935613145918],[80.62047472634966,7.34796706233138],[80.62046233173731,7.34797708942972],[80.62040070205494,7.348026950128066],[80.62032903525461,7.348084931562206],[80.62018406381449,7.348209039762018],[80.62014235235429,7.348243070342831],[80.62011493098635,7.34826544313384],[80.6200313766083,7.34839078171036],[80.62002965199581,7.348393371025694],[80.62000209885522,7.34843767123763],[80.6199071389236,7.348531504513131],[80.61982331489821,7.348603981174596],[80.61982015728275,7.348606711964326],[80.61976398391462,7.348648741424792],[80.61957953397325,7.348735306274093],[80.61953306032878,7.348754914254952],[80.61949292281261,7.34878437951045],[80.61941909656437,7.348800540671073],[80.61928186888579,7.34880664008829],[80.61917498500124,7.348807597390743],[80.61907109397582,7.348800415205786],[80.61901077357987,7.348789088496104],[80.61891946994795,7.348790503350955],[80.61886729301386,7.348795908129745],[80.6187637262516,7.348894168301388],[80.61875910878067,7.348888396339761],[80.61870904183223,7.348825783993309],[80.61864103338401,7.3487546848079],[80.61862130360375,7.348734058922805],[80.6184611789944,7.348685167680621],[80.61841282044334,7.348691743914816],[80.61838291542686,7.348695809068884],[80.6183480459098,7.348686752884924],[80.61832124121187,7.348670827761142],[80.61821593654601,7.348565619639531],[80.61818569904686,7.34852120874471],[80.61815356339424,7.348470645224158],[80.61813593584338,7.348368453081596],[80.6181329687528,7.348311391594126],[80.61811764037306,7.348300574375439],[80.61807139517735,7.347817915837513],[80.61806886167253,7.347787283581007],[80.61809252397988,7.347516953168248],[80.61820182970845,7.347118626623936],[80.61826360271387,7.346937772049014],[80.61838921548451,7.346740457254043],[80.61839616111965,7.346729892044917],[80.61850694716107,7.34666832736921],[80.61854843534293,7.346576450575307],[80.6186219139927,7.346458503189536],[80.61854052855074,7.34642048040307],[80.61853432823402,7.346413488885672],[80.61852606814698,7.34640657170086],[80.61840795068865,7.346388882730746],[80.61832539737713,7.34633646665069],[80.61834440652028,7.346242886396571],[80.61841423867024,7.346147542555169],[80.61842746812809,7.346138298930297],[80.61847125153908,7.346143904717518],[80.61855158697888,7.346164369251084],[80.61862458100548,7.346195325596305],[80.61865881606717,7.346205012734691],[80.61871914140922,7.346203859238187],[80.61874586264372,7.346201786922196],[80.61876742771703,7.346180454813909],[80.61877896672937,7.346159074874254],[80.61866536381152,7.346136016917816],[80.61850919050764,7.346081192170876],[80.61850677962073,7.346080346706554],[80.61843398677014,7.345995314156529],[80.61836300632294,7.345905401723836],[80.61828459589776,7.345822901022447],[80.61821260925335,7.345755866106818],[80.6181123491589,7.345733765845705],[80.61799432399725,7.345734805767209],[80.61788300433766,7.345733228266883],[80.617731838888,7.345710296076911],[80.61754635006334,7.345671524630391],[80.61736793151823,7.345618195472472],[80.61734182548268,7.34566828446354],[80.6173231714015,7.345735878825659],[80.6173069923738,7.345794503404519],[80.61729223683705,7.345790527393466],[80.61707731520865,7.345732622988645],[80.6169923133084,7.345709723065057],[80.61688054188737,7.34567960995992],[80.61680859701202,7.345955867124911],[80.61675290790107,7.34620468001869],[80.61664343267145,7.346742505309598],[80.61663186728913,7.346918599198029],[80.61659872053622,7.347288038356719],[80.61656741139831,7.347404347348276],[80.61651278553191,7.34751575848145],[80.61645333302772,7.347565502751686],[80.61637470233562,7.34763055540573],[80.61627690530639,7.347680286885277],[80.61608899051318,7.347749128395511],[80.61606604626387,7.347753805380323],[80.61585573866188,7.347784726912127],[80.61563802874373,7.347904523026663],[80.61562783027644,7.347910274340362],[80.61562601338942,7.347909957184574],[80.61562642421653,7.3479110660037],[80.61550571229043,7.347979126502246],[80.6154347591381,7.34802312601322],[80.6153484410381,7.348137941169921],[80.61508567825382,7.348415390992889],[80.61493222430374,7.348620145322395],[80.61480755903965,7.34874643118125],[80.61464452217068,7.348939697343092],[80.6144757183932,7.349176985400391],[80.6144566189706,7.349192070372922],[80.61440499253737,7.349232842908717],[80.61441588533908,7.349283362849886],[80.61443502137533,7.349384816848837],[80.61445608701624,7.349447990713337],[80.61448674408685,7.349503512233043],[80.61452123861014,7.349547546907073],[80.61457106804995,7.349599246529767],[80.61462664647713,7.349658603119323],[80.6146707297331,7.349694987242844],[80.61477591942023,7.349750774331808],[80.61486098385645,7.349787889399742],[80.61497480885082,7.349825017510786],[80.61511978314529,7.349871725187718],[80.61516891130579,7.34987652839662],[80.61520845218675,7.349882524545651],[80.61524559510768,7.349894499966444],[80.61530549938641,7.349922037516493],[80.615462448274,7.349993872646756],[80.6154995830344,7.350028579434724],[80.6155415103216,7.350063287937591],[80.61556306908216,7.350093203580982],[80.61558462784589,7.350123118319075],[80.6155966009555,7.350144656707069],[80.61559539494853,7.350170974119818],[80.61559538797552,7.350185330785163],[80.61556298089546,7.350338447013918],[80.61555456658033,7.350410223719397],[80.61553534213131,7.350553775365879],[80.61551491462228,7.350712877826846],[80.61548968802174,7.350885137938616],[80.61548358082145,7.350979312266766],[80.61547764378385,7.351056206386192],[80.61547760801055,7.351153108451138],[80.61549075553202,7.35124881795037],[80.61552903664094,7.351425886386037],[80.61553859598331,7.351502454182531],[80.61553977497933,7.35155628939346],[80.61553975862705,7.351601749453296],[80.61553255077283,7.351648403323581],[80.61551696614524,7.351669930927253],[80.61550017971172,7.351701028306283],[80.61545462098188,7.351764417864548],[80.6154078678431,7.351821824140379],[80.61536831291451,7.351849324176729],[80.61530598497696,7.35189835103307],[80.61523766564825,7.351946179339327],[80.61510462117056,7.352044229084992],[80.61503149837795,7.352117178893327],[80.61500272740734,7.352150664718961],[80.61497275759552,7.352182955530984],[80.61496196464411,7.352209270393425],[80.61493678175457,7.352257113267391],[80.61492597843072,7.352312140552857],[80.61489834142112,7.352523877863235],[80.61489233793777,7.352556176391584],[80.61486353196149,7.352688957040226],[80.6148455280604,7.352772692347942],[80.61484550597399,7.352831312678641],[80.61484188753968,7.352895911849417],[80.61484545021267,7.352985637770943],[80.61485022850103,7.353025116704835],[80.61487177914165,7.353077761955109],[80.61490649875425,7.353161517149724],[80.61493524305429,7.35320459568492],[80.61496877896788,7.353245281356523],[80.61503227060743,7.353297943499268],[80.61509216500824,7.353356583570715],[80.61510422621146,7.353367601376517],[80.6151808023415,7.353454712987291],[80.6152203258987,7.353512150235531],[80.61526583129209,7.353592321016233],[80.61531131519304,7.353734698575691],[80.61532927426884,7.353777772308314],[80.61534723813246,7.35381007944722],[80.61542866860907,7.35395486267756],[80.61553525968966,7.354114011583174],[80.61563345715277,7.354289904185292],[80.61569573034627,7.354394005995299],[80.61574242955221,7.354487334719426],[80.6157567987974,7.3545184441657],[80.6157651770144,7.354544766815056],[80.6157567558056,7.354638076696522],[80.61574475066433,7.35470028009024],[80.61573394771227,7.354749326350702],[80.6157302829906,7.354945519227932],[80.61573506528995,7.354976625239861],[80.61575302488366,7.355018504375087],[80.61582606548637,7.355172853828607],[80.61587515590666,7.355279344574477],[80.61591799942335,7.355354547016838],[80.61594462085142,7.35538225253485],[80.61596618418264,7.355400204272013],[80.61601821736413,7.35543919459119],[80.61601889562537,7.355439701241697],[80.61603566500037,7.355456456680937],[80.61606082302306,7.355475606992105],[80.61610695191865,7.355505353245422],[80.61612096591114,7.355514388592916],[80.61614817545716,7.355478286005809],[80.61616251472783,7.355459259234459],[80.61618067130257,7.35543695031356],[80.61619223982026,7.355422735235202],[80.6162346573585,7.355354747939744],[80.6162506982491,7.355329161981646],[80.61629386083284,7.355292659955285],[80.61631190999424,7.355259145810328],[80.61631980258585,7.355222695394682],[80.61631635373651,7.355148150914601],[80.6163161676763,7.355144130330848],[80.61632253781897,7.355107122322723],[80.61634163207495,7.355074127617275],[80.6164025382432,7.355020058651558],[80.61641136066189,7.355015136077363],[80.61647231126342,7.354981137149756],[80.61654572036922,7.354956778874355],[80.61662145784933,7.35494627438672],[80.61671976193732,7.354942032964096],[80.61677640594681,7.354939588911209],[80.61693129968934,7.354899906362473],[80.61696850359297,7.354899657342679],[80.6170045135004,7.354912544660607],[80.61707407597042,7.354955891675587],[80.61710850123279,7.354969937734865],[80.6171432281388,7.354968699421058],[80.61721290142246,7.354929858249691],[80.61734595799409,7.354842284218544],[80.61747846018984,7.35476228707946],[80.61752670405436,7.354736224160956],[80.61754827069362,7.354724572660726],[80.61762112223094,7.354703907170459],[80.61769697200654,7.354708594778908],[80.6177745132408,7.354730209659738],[80.61785193940207,7.35475450392743],[80.61792635528063,7.35475672677293],[80.61846683435236,7.355251810968207],[80.61928590652268,7.355971700820587],[80.61985366443302,7.355622632495187],[80.61989898593012,7.355620482515519],[80.61996337952598,7.35559619287712],[80.62001547257093,7.355576497305636],[80.6200776107754,7.355575345189043],[80.62013349780999,7.355574913421298],[80.62018921283946,7.355550879355604],[80.62024501387296,7.355537333384707],[80.6202883240415,7.355505338050667],[80.62037982816739,7.355452468342095],[80.62043309583099,7.355435849558694],[80.62053819213645,7.355367972258597],[80.62056194428537,7.355312547823328],[80.62061152320993,7.355224035880744],[80.62066335066017,7.355183901149626],[80.62074806028589,7.355131031716311],[80.62081972776818,7.355082045328287],[80.62084483087409,7.355040907477778],[80.62088062239185,7.355010173687588],[80.62090227661739,7.354993904698733],[80.62096187845165,7.354990308159581],[80.62105309993211,7.354970898218701],[80.62110944958295,7.354947496361073],[80.62117394516069,7.3549394713218],[80.62132413438603,7.35491646633902],[80.62141970492232,7.354890818155828],[80.62154734568739,7.354850711319952],[80.62158980021498,7.354835592513835]]]]}},{"type":"Feature","properties":{"GND_N":"Kendaliyadda","GND_NO":"630","GND_C":"130","PROVINCE_N":"CENTRAL","PROVINCE_C":"2","DISTRICT_N":"KANDY","DISTRICT_C":"1","DSD_N":"PATHADUMBARA","DSD_C":"12","Admin_Code":"2112130","GND_NO_Cen":"630","GND_NAME_C":"Kendaliyadda","GND_NO_Gaz":"630","GND_NAME_G":"කැන්දලිya","shape_1":"Polygon","Area__Ha_":101.163259609,"MWS_ID":"108-3","Alt_MWS":null,"Total_Pop":1463.0,"Density":1446.17720935,"Area_sqkm":1.01163259284},"geometry":{"type":"MultiPolygon","coordinates":[[[[80.62431004643481,7.357048673005679],[80.62583701235297,7.356163637902212],[80.6261269603172,7.356197508064242],[80.6267850078063,7.356831173260282],[80.62834802175136,7.356788426734919],[80.62877080071482,7.356915571496786],[80.62878953539203,7.356849827796472],[80.62878919073174,7.356834752996512],[80.62892538029011,7.35648477389371],[80.6290528227799,7.356204824503586],[80.62932581811862,7.355902790079455],[80.62958474906328,7.355569443089283],[80.62975540380702,7.355297779255396],[80.62996159408969,7.354986240069399],[80.63004041692697,7.354860860124826],[80.63004911932254,7.354865183712191],[80.63008833233064,7.354892506380086],[80.63011123905241,7.35492018635065],[80.63020748292946,7.355055501081632],[80.63021891204949,7.35507008936478],[80.6302590004424,7.355121260515001],[80.63033080052581,7.35520945229602],[80.63037869288101,7.355286876010994],[80.63045554529093,7.355436925376885],[80.63051767674934,7.355456388051791],[80.63061557847494,7.355505613832606],[80.63068594229398,7.355554288065254],[80.63075249392602,7.355629817868191],[80.63076183590405,7.355645058364802],[80.63077222986173,7.355662017373712],[80.63081323140898,7.355757706578739],[80.63081655493534,7.355801748898259],[80.6308210788993,7.355861702773804],[80.63081098782644,7.355971572906209],[80.63076856309158,7.356073744175958],[80.6307410970615,7.356138755360854],[80.63070013398581,7.356202856953794],[80.63064792992581,7.356291913580741],[80.63063858479289,7.356336310789555],[80.63063565330718,7.356440033094803],[80.63063635623813,7.35648993352461],[80.63078908523923,7.35655090948295],[80.63097857158665,7.356651215390354],[80.63126343946708,7.35657974948902],[80.63141609891929,7.356478540737389],[80.63147906002148,7.356392650738924],[80.63151648489989,7.356345458348901],[80.63151704313759,7.356344642850266],[80.6315824258584,7.356248971800383],[80.63159532785888,7.356230094173248],[80.6316665493191,7.356148459738643],[80.63174600548416,7.356097301065741],[80.63181802620117,7.356067664141011],[80.6318671200837,7.356052387341644],[80.63187372856196,7.356050330379376],[80.631941407708,7.356029270229575],[80.63200481699042,7.356021966722168],[80.63206170824786,7.356000281825752],[80.6321386199006,7.355974533106463],[80.63223466794659,7.355975412228531],[80.63221734791664,7.35576270794794],[80.63212856808245,7.35554284846368],[80.63213284540721,7.355354380952297],[80.6320255029158,7.355219426580392],[80.63196065647305,7.355099881587801],[80.63144898813901,7.354583273198299],[80.63113663947995,7.354345910818552],[80.63091306733888,7.354205984663599],[80.63093306516745,7.353859074338788],[80.63094945571456,7.353833487948804],[80.63100617607384,7.353782322926995],[80.63106098484782,7.353757292468262],[80.63114161901144,7.353700798898813],[80.63120104758897,7.353674955143732],[80.6312266872935,7.353657420916004],[80.63127616476824,7.35358979434009],[80.6312985567798,7.353531655962214],[80.6313122604864,7.353453710590588],[80.63132406669263,7.353355777753371],[80.63132455107025,7.353261549790616],[80.63132942092727,7.353221525213542],[80.63133417816442,7.353182426603709],[80.63135684511639,7.353111535863475],[80.631386573438,7.353055208452401],[80.63143615710796,7.35294471894607],[80.63147849098047,7.352839199840314],[80.63151510276946,7.352787304811605],[80.63155362427582,7.352709277013122],[80.63156586499399,7.352670667329288],[80.63157257457215,7.352649960107159],[80.63158707968418,7.352608819111875],[80.63164610047914,7.352445883188589],[80.63167455882541,7.352392267343054],[80.63177697909515,7.352191997781365],[80.63179212281753,7.352139463700137],[80.63179622590295,7.352053104311763],[80.631793627383,7.351965657602347],[80.63180011935356,7.351780278966539],[80.6318045630831,7.351763730792437],[80.63181724849132,7.351750350326408],[80.63187332569234,7.351720617805967],[80.631927043973,7.351705622810878],[80.63195730394823,7.351690983786979],[80.63200097564649,7.35164930958333],[80.6320836846319,7.351614791003793],[80.63218107532737,7.3515613781482],[80.6322113373217,7.351534802338469],[80.63223245024098,7.351510030379799],[80.63229569208136,7.351455341408305],[80.63236347215121,7.351371805788084],[80.63239302300362,7.351306072612963],[80.63243508734273,7.351192505943688],[80.63244634225433,7.351120707174725],[80.63244537708704,7.351023766734094],[80.63246116248405,7.350947176623745],[80.63248373323752,7.350895639627039],[80.63251637139682,7.350800426323961],[80.63254901068387,7.350707294718494],[80.6325293705253,7.350656375387205],[80.63249551414357,7.350596590253628],[80.63242861026114,7.350488323997387],[80.63241730956058,7.350423843729929],[80.63241597195292,7.350358371927994],[80.63241601928226,7.350354848787545],[80.63241847719706,7.350173172845752],[80.63242479492295,7.349959758993178],[80.63242639009593,7.349790655264647],[80.63243450073134,7.349638012803007],[80.63245001006295,7.349574715820128],[80.6324983984674,7.349514504906499],[80.63259245874865,7.349391370193942],[80.632609870452,7.349369562229197],[80.63261375331109,7.349364700143552],[80.63261791998312,7.349361717285817],[80.63266031931252,7.349335234853799],[80.63273017439582,7.349276296808958],[80.63281237593961,7.349201350248631],[80.63284161965863,7.349174688155586],[80.63290966731954,7.349099834713597],[80.63292942332484,7.349071897229982],[80.63293368301316,7.349064122508961],[80.63293613121682,7.349056074110058],[80.63293631449068,7.349049473677097],[80.63293568313742,7.349041063477837],[80.63292727298048,7.348995663984947],[80.63289216826239,7.348874477358729],[80.63286929980188,7.348767462323213],[80.63286250393351,7.348735656794793],[80.63286379343782,7.348666117378879],[80.63287179359104,7.348574966414689],[80.63290034258608,7.348522706050751],[80.63294111676333,7.348476690172038],[80.63300408999936,7.348410606807394],[80.63302244269748,7.348400281937182],[80.63303172232426,7.348395061659509],[80.63314209306326,7.348332972334287],[80.63307957240917,7.348318120938797],[80.63302312677608,7.348317654379926],[80.63301127642649,7.348317557451693],[80.63296217098072,7.348309525136107],[80.63291310991767,7.348301500968087],[80.63186616391897,7.348420201817477],[80.63174234934468,7.34842060413627],[80.63139726681985,7.348348713016811],[80.63048251908303,7.348124842700822],[80.63037303799139,7.348077249018888],[80.62977809292991,7.348007611120878],[80.62915689338716,7.347763455493189],[80.62874133476402,7.347589629057691],[80.62862076192621,7.347445595773645],[80.62808162103279,7.347194192391712],[80.62749549272527,7.347075268211402],[80.62706921851255,7.346827230684383],[80.62704530727369,7.34684748991709],[80.62700788316803,7.346893415035182],[80.62697969099057,7.346957701430227],[80.62694896769055,7.34700408092328],[80.62686724412549,7.347070066754273],[80.62680491252307,7.347111370719887],[80.62675861252492,7.347152139248704],[80.62667644182308,7.347200763226462],[80.62662027470932,7.347226517059073],[80.62654134871994,7.347317731940587],[80.62613188913878,7.3475327697842],[80.62577321963337,7.347617225199403],[80.62556345289904,7.347859292096039],[80.62531858523795,7.348132838437324],[80.62530612699274,7.348162615573917],[80.62524454094574,7.348226896938421],[80.62515142508526,7.348319007467289],[80.62507842688244,7.348394395198436],[80.62500758023229,7.348535700820388],[80.62496664147609,7.348613308549631],[80.62496388691218,7.348616196860421],[80.62490024198195,7.348682921803821],[80.62479426210245,7.348715904744515],[80.62480729490464,7.348776308281117],[80.62468335576725,7.349191883813099],[80.62467997755131,7.349463214410823],[80.62483950780616,7.349758807269343],[80.62491177976547,7.349996551462416],[80.62511463364213,7.35054021297945],[80.62507630737093,7.350790769951401],[80.62499835335969,7.350916435085315],[80.62480405479896,7.350957550422263],[80.62445080100996,7.350897238896422],[80.62398328518829,7.350875377130745],[80.6237940235544,7.351012357717743],[80.62362866820025,7.351335307590841],[80.62362873517057,7.35134343275229],[80.62354387180076,7.351796196976333],[80.62326896821551,7.351993240704206],[80.62324456009316,7.352018966046683],[80.62284025391871,7.352471708664266],[80.62272986599619,7.352661112728852],[80.62225717393812,7.352919575005346],[80.62181372300026,7.352439471400364],[80.62185872458143,7.352290097409536],[80.62164709419888,7.352314150285892],[80.62142849823626,7.352549947977465],[80.62145485291425,7.352869620873735],[80.62186538971521,7.353277242869535],[80.62192875778966,7.353682099997977],[80.62200104487513,7.354198466723977],[80.62200994356232,7.354216403868088],[80.62197118542464,7.354520637793041],[80.62184852481899,7.354663043614443],[80.62158980021498,7.354835592513835],[80.62154734568739,7.354850711319952],[80.62141970492232,7.354890818155828],[80.62132413438603,7.35491646633902],[80.62117394516069,7.3549394713218],[80.62110944958295,7.354947496361073],[80.62105309993211,7.354970898218701],[80.62096187845165,7.354990308159581],[80.62090227661739,7.354993904698733],[80.62088062239185,7.355010173687588],[80.62084483087409,7.355040907477778],[80.62081972776818,7.355082045328287],[80.62074806028589,7.355131031716311],[80.62066335066017,7.355183901149626],[80.62061152320993,7.355224035880744],[80.62056194428537,7.355312547823328],[80.62053819213645,7.355367972258597],[80.62043309583099,7.355435849558694],[80.62037982816739,7.355452468342095],[80.6202883240415,7.355505338050667],[80.62024501387296,7.355537333384707],[80.62018921283946,7.355550879355604],[80.62013349780999,7.355574913421298],[80.6200776107754,7.355575345189043],[80.62001547257093,7.355576497305636],[80.61996337952598,7.35559619287712],[80.61989898593012,7.355620482515519],[80.61985366443302,7.355622632495187],[80.61928590652268,7.355971700820587],[80.61846683435236,7.355251810968207],[80.61792635528063,7.35475672677293],[80.61785193940207,7.35475450392743],[80.6177745132408,7.354730209659738],[80.61769697200654,7.354708594778908],[80.61762112223094,7.354703907170459],[80.61754827069362,7.354724572660726],[80.61752670405436,7.354736224160956],[80.61747846018984,7.35476228707946],[80.61734595799409,7.354842284218544],[80.61721290142246,7.354929858249691],[80.6171432281388,7.354968699421058],[80.61765767862025,7.355333242346512],[80.61775811882872,7.355941006331394],[80.61815580339727,7.356371821498533],[80.61819316871775,7.356819172862213],[80.6182854840312,7.357145238096539],[80.6183512312309,7.35710805476269],[80.61844136817177,7.357037183988981],[80.6184444650626,7.357034749800351],[80.61845605852155,7.357031897201121],[80.61852816932313,7.357014162147506],[80.61862192268184,7.357003434884342],[80.61886488526555,7.356930636455299],[80.61894280155019,7.356886533987848],[80.61901772332845,7.356852469088991],[80.61907634616426,7.356805374730903],[80.6192324389096,7.356742041663439],[80.619303643854,7.35671909830226],[80.61936062871727,7.35669072234107],[80.61945448319543,7.356652323358246],[80.61954624261806,7.356644671630148],[80.61959641890738,7.356654004374039],[80.61964551619282,7.356653569391104],[80.61968156719632,7.356653219368774],[80.61978148343867,7.356634988324942],[80.61986654297435,7.35662380651653],[80.61995205828791,7.356604393912418],[80.62004825866126,7.3565868858564],[80.62013467324725,7.356586103014925],[80.62023484749469,7.35660449610927],[80.62026276444305,7.356554769331228],[80.62030454287091,7.356492027265385],[80.62034477997152,7.356449014676492],[80.62049858176925,7.356434678051549],[80.6209366403941,7.356515812021087],[80.62123290827377,7.356705206344734],[80.62156634386042,7.356756913735876],[80.6219488477438,7.356816352369355],[80.62195731155934,7.356816332677259],[80.62226248627431,7.356815632863375],[80.62262784117156,7.356866009363364],[80.62290625830067,7.357069095716484],[80.6231661969425,7.357220437863543],[80.62353822413999,7.357388163316863],[80.62431004643481,7.357048673005679]]]]}}]}