{"type":"FeatureCollection","name":"SED_PPL_MWS_101_2","crs":{"type":"name","properties":{"name":"urn:ogc:def:crs:OGC:1.3:CRS84"}},"features":[{"type":"Feature","properties":{"GND_N":"Hathale","GND_NO":"732","GND_C":"050","PROVINCE_N":"CENTRAL","PROVINCE_C":"2","DISTRICT_N":"KANDY","DISTRICT_C":"1","DSD_N":"PANVILA","DSD_C":"15","Admin_Code":"2115050","GND_NO_Cen":"732","GND_NAME_C":"Hathale","GND_NO_Gaz":"732","GND_NAME_G":"හාතලේ","shape_1":"Polygon","Area__Ha_":629.819406948,"MWS_ID":"101-2","Alt_MWS":null,"Area":6.29819406948,"Total_Pop":2170.0,"Density":344.543209698},"geometry":{"type":"MultiPolygon","coordinates":[[[[80.7051113240663,7.393646648120118],[80.70600051973115,7.394273434536059],[80.7074669600472,7.396168481376752],[80.70785503545923,7.397331270471688],[80.70786673965178,7.397589013398303],[80.7078823412958,7.397932927751101],[80.70870142297629,7.397868121237294],[80.70960666920888,7.39774032437969],[80.7105721223438,7.397738684543541],[80.71137135152354,7.397749468843581],[80.71206108079883,7.39780984046413],[80.71307180231933,7.397915635406961],[80.71367486277725,7.39793338970476],[80.714352932098,7.397967742118248],[80.71520977667605,7.398225974139798],[80.71578245001498,7.398201095386795],[80.71633791273455,7.398253687761898],[80.71699547922549,7.398149970147795],[80.71746804636207,7.398254634196401],[80.71757964280633,7.398637781362196],[80.71772078509251,7.399137251712677],[80.7179019876535,7.399660106155607],[80.71815415093587,7.399982828087319],[80.71840405849588,7.400392084851886],[80.7187355229184,7.400978189875155],[80.71896013920242,7.401617181598551],[80.71914888386074,7.402155123820867],[80.71930835889182,7.402302211614471],[80.71982779612543,7.402489465354794],[80.720796678072,7.402556999177054],[80.72133219047538,7.402473769537572],[80.72168982550428,7.40207974451774],[80.72189223818316,7.401384043553521],[80.7220676214684,7.400722235999479],[80.72221507029579,7.399910412275388],[80.72210473878222,7.399719405968844],[80.72151172174333,7.399261823124675],[80.72106153040498,7.39901440141078],[80.7207298110226,7.398736935972535],[80.72056131354138,7.398493544904693],[80.7205864188194,7.398288380220219],[80.72079119825882,7.397978970228996],[80.72117522291899,7.397469941602327],[80.72151400969656,7.396878382355362],[80.72180293643864,7.396125698300795],[80.72203426687453,7.395093001905497],[80.72216636152586,7.394454983714684],[80.72227795848754,7.39386888072491],[80.7223529661745,7.393593189148809],[80.72233804479943,7.393576112326227],[80.72235662937143,7.39357972906754],[80.72236268231114,7.393580907200143],[80.72237898875137,7.393583261260317],[80.72238668767324,7.393584438687374],[80.7223978439411,7.393484332980223],[80.7223984776438,7.39348026550967],[80.72241189441237,7.393414704384119],[80.72241987743442,7.393396300104889],[80.72244288502459,7.393343268327166],[80.72248628737465,7.393261796021718],[80.72249626209619,7.393186198541591],[80.72247851739161,7.393099473001007],[80.72245796300432,7.393024865661873],[80.72245099814634,7.392961473299308],[80.72244853962036,7.392953785536958],[80.72245072377494,7.392900775658158],[80.7224568056954,7.392872039505694],[80.72245680865915,7.392862533490681],[80.72254037169495,7.392687259233288],[80.72272806955547,7.392475804630307],[80.72293937148952,7.392499557026404],[80.72318515646911,7.39263008609839],[80.72333210415752,7.392759681821216],[80.72342926023059,7.392913328721787],[80.72341181999337,7.393022243416951],[80.7234021069183,7.393115675580672],[80.72347236572243,7.393261978159877],[80.72348714041955,7.39327108984167],[80.72352021679299,7.393301254920132],[80.72353094032493,7.393311035303842],[80.72358302444545,7.393343777172836],[80.72360929185774,7.393361957638596],[80.72362749339435,7.393410158144608],[80.72367133059934,7.393471928004919],[80.72369224300591,7.393508513982225],[80.72372576173305,7.393567158258318],[80.72374867276656,7.393632271557262],[80.72377012941618,7.393731872926201],[80.72377164635873,7.393742960743078],[80.72378233009589,7.39382130343115],[80.7237829799541,7.39382606736688],[80.72384077229582,7.393841809013727],[80.72391930817192,7.393874645289597],[80.72394249786626,7.393889298598923],[80.72399422153161,7.39389907112465],[80.72405110888646,7.393922772298063],[80.72408713111146,7.393946556025226],[80.72409549173206,7.393952075955132],[80.72416795530224,7.394010051956212],[80.72422583783987,7.394037188664334],[80.72428689502544,7.39403737665276],[80.72430102148813,7.394035904289681],[80.72436489223075,7.394029247939169],[80.72442712390627,7.394040921575893],[80.72453817555581,7.394112283855971],[80.72459050070017,7.394153741290999],[80.72475130771426,7.394281144315837],[80.72479221039785,7.394324794240984],[80.72480972974246,7.394343729620902],[80.72487340375883,7.394424763270237],[80.72490084277439,7.394488337910456],[80.72491596198671,7.394566111371737],[80.7249257335335,7.394653919247165],[80.72492812390121,7.394718765157958],[80.72493060908539,7.39478621998865],[80.7249261610733,7.39486570665268],[80.72493403145032,7.394959032353923],[80.72496572933593,7.395004523263141],[80.72500146264211,7.395028993247537],[80.72502080259689,7.395042238964831],[80.7251131061781,7.395092438294102],[80.72521727664729,7.395136401094409],[80.72522530694086,7.39513945583999],[80.72532996255424,7.395179279682788],[80.72544337373742,7.395233190800779],[80.72548328410996,7.395257678404914],[80.72552208848182,7.395281489462162],[80.72557518093288,7.395324744619211],[80.72559147262008,7.395338016189576],[80.72562348973278,7.395373271302327],[80.72564790110913,7.395400149910344],[80.72568042935373,7.395457450132837],[80.7256902860725,7.395475030868414],[80.72571310856162,7.395517626047973],[80.72573240168394,7.395536800328014],[80.72578575701577,7.395555073263503],[80.72580229836498,7.395555720809039],[80.72584128648802,7.395557250780913],[80.72586823355681,7.395551314380307],[80.7258917454308,7.395546135393992],[80.72591189701515,7.395544211511023],[80.72591322958351,7.395544083250893],[80.72597218870634,7.395538457019983],[80.72606785055174,7.395541091189737],[80.72611017847741,7.395552296633562],[80.72612355978035,7.395555838479629],[80.72616703873227,7.395586229702898],[80.72619491219181,7.395599234880661],[80.72623352704949,7.39561725290095],[80.72628217243116,7.395622052063761],[80.72628406845106,7.395621993496968],[80.7263108536969,7.395621156406166],[80.72633880572413,7.395620283272508],[80.72636868457121,7.395619351573401],[80.72648173384144,7.395623017601213],[80.72649741009155,7.395623526666208],[80.72655266657581,7.395636735635543],[80.72655421375146,7.395637385096545],[80.72659511879345,7.395654566862539],[80.72663772591306,7.395672465021073],[80.72666903283886,7.39569223924669],[80.72668727513468,7.395703760267051],[80.72670101246638,7.395715347703666],[80.72674443008458,7.395751966786634],[80.72676086505547,7.395764312325761],[80.72691113873171,7.395696424118788],[80.72707816004768,7.395500296940438],[80.72709566998704,7.395507305400042],[80.72712194070039,7.395506313568176],[80.72714159171487,7.395500864608032],[80.72714703442621,7.395499355025209],[80.72716923070261,7.395488142328303],[80.72717890570024,7.395478424869016],[80.72719767767668,7.395459571351882],[80.72720818780229,7.395450710357251],[80.72725195697177,7.395421232241955],[80.72725973636528,7.395415990863537],[80.72727604496598,7.395399626613337],[80.72730014510594,7.395366441406963],[80.72733376419701,7.395268056219046],[80.72733821518003,7.395174190235531],[80.72733450437296,7.395144166121134],[80.7273339321661,7.395141348255478],[80.7273162173087,7.395054006178357],[80.72731857766928,7.394999839695142],[80.72732711480094,7.3949660586501],[80.72733743095343,7.394925235101841],[80.72735926641023,7.39487514011277],[80.72736398119726,7.394853438303762],[80.72736290751983,7.394830657932029],[80.72742953877862,7.394706696386566],[80.72779029439351,7.394414711581073],[80.72832576604043,7.394002314984545],[80.72876745013336,7.393666150293207],[80.72899979398353,7.393365154785537],[80.72924874946065,7.393064605820775],[80.72933112999586,7.392824720529988],[80.72935216700311,7.392534997236443],[80.72950087959292,7.392343680777998],[80.72951464035107,7.391943246698805],[80.7294661881326,7.391785207701477],[80.72910723298509,7.391506003859839],[80.72877627331434,7.391253241774669],[80.72831896514485,7.390751817327208],[80.72800635702974,7.39037975033972],[80.72768988235369,7.389866125161307],[80.72742351377421,7.389353705252613],[80.72736582413113,7.389158006269957],[80.7270919937728,7.388694906843483],[80.72719969122726,7.387976845402371],[80.72722256575933,7.387898728924047],[80.72725158692711,7.387891474191388],[80.72727776810896,7.387876828287992],[80.72730159465206,7.387856575454667],[80.7273541432977,7.387789028991234],[80.72738685059377,7.387739115131401],[80.72741349041551,7.387688929313711],[80.72742469574551,7.387649951526029],[80.72742515174828,7.38764675215698],[80.72742971273864,7.387614237588846],[80.72742809333474,7.387529231253626],[80.7274239454768,7.387363473221638],[80.72743509520572,7.387294565757003],[80.72748919813893,7.387120585859755],[80.72750786721112,7.387045529964072],[80.72752055347995,7.387015962497239],[80.72753930875534,7.386980786310418],[80.72753947907896,7.386980595521399],[80.72754546874653,7.386971561298557],[80.72762311692698,7.386854737625331],[80.72763806781089,7.386817210739032],[80.72764568522332,7.386759335361705],[80.7276462417199,7.386632460095725],[80.72767995694586,7.386501340938791],[80.72774564504756,7.386391296391363],[80.72775362871356,7.38629742984546],[80.72769736559574,7.386238475009155],[80.72775825373587,7.386142698911185],[80.7280993947123,7.386093371874717],[80.72844332369459,7.386028773933911],[80.72874414483469,7.385993508489788],[80.72911982520995,7.38598732315882],[80.7294813819566,7.38600981776621],[80.73009497796237,7.38595498428597],[80.73068324236345,7.385899131841662],[80.73135362708986,7.385705464086764],[80.73194291519091,7.385598654489404],[80.73237925097155,7.385563893792029],[80.73295661374422,7.385560625132687],[80.73357199074755,7.385588678955009],[80.7342907036914,7.385487173316738],[80.73424949339184,7.385438165323068],[80.73418654538199,7.385338594859099],[80.73412568373237,7.385228083436199],[80.73411780785074,7.385183681475397],[80.73411292481003,7.385092888212668],[80.73409673168135,7.384891860398688],[80.7340926763816,7.384860684211556],[80.73408070962928,7.384768692981583],[80.73405644198385,7.384688479117263],[80.73402030646783,7.384610342212623],[80.73397665169958,7.384529221300165],[80.73394546217033,7.38446099510137],[80.7339205933323,7.384406593561994],[80.73382685514716,7.384233317714009],[80.73376372906608,7.384104086974779],[80.73374353579003,7.384036263318876],[80.73370242781714,7.383866700999965],[80.73368821534508,7.383776812947588],[80.73366702464054,7.383710073449993],[80.73365784654712,7.383690455553888],[80.73363148240088,7.383634106892242],[80.73363089009064,7.383632841717376],[80.73360978575161,7.383610231249424],[80.73360676303834,7.383608801259108],[80.73355779363706,7.383585629263687],[80.73345190032819,7.383550531294867],[80.73333740341663,7.383522484218423],[80.73323785247959,7.383492362278018],[80.73317999681792,7.383467348225239],[80.73316692764053,7.383461697788909],[80.73313803156476,7.383453375418603],[80.73308984472176,7.383403723681733],[80.7330556075601,7.383350366558263],[80.733009073081,7.383272193293116],[80.73295353677045,7.383178899222219],[80.73294131482788,7.383114964800045],[80.73293742723027,7.383037104034634],[80.7329339171509,7.382970848211071],[80.73292409851652,7.382785532298121],[80.73292395927085,7.382782903479144],[80.73288347680054,7.382687223503683],[80.73284987517053,7.382638567890288],[80.73284435198548,7.382631102340843],[80.73283179212905,7.382614128276461],[80.73282143502587,7.382600132292312],[80.732815277676,7.382574810336368],[80.73281636110286,7.382556047987096],[80.73282099605404,7.382475880270699],[80.73283278004733,7.382404712862258],[80.73284265767451,7.382356604965115],[80.73286377072917,7.382307504333351],[80.7328941207717,7.382267899768356],[80.73291688106616,7.382242525462069],[80.73295099658908,7.382204492935638],[80.73295916829672,7.382195380174911],[80.73298317776324,7.382160658217994],[80.73300483076991,7.382129280139462],[80.73314795087492,7.381873642431306],[80.73323281493245,7.381706033750583],[80.7333563891211,7.381525779402688],[80.73338372127255,7.381433904053639],[80.73352323126896,7.381214274265868],[80.7336598680358,7.380991771190031],[80.73367137622519,7.380951576068481],[80.73369727519844,7.380793664816338],[80.73370447913467,7.380664463364726],[80.73371887122485,7.380542439138104],[80.73375123332758,7.380470663256603],[80.73379078676025,7.38039170970836],[80.73386629082763,7.380330705446794],[80.73394897973493,7.380302001711035],[80.73403166896256,7.380298421276872],[80.73413592618441,7.380298430230647],[80.73422580481787,7.380298438709607],[80.73435163004783,7.380330751310992],[80.73442712602987,7.380345114191522],[80.73446307759373,7.380334350038455],[80.73448824543051,7.380309229983395],[80.73450622880573,7.380237453603245],[80.73451342539842,7.380154906880594],[80.73448468507517,7.37994674563209],[80.73446000844861,7.379844306705338],[80.73442933556903,7.379775396019126],[80.73432581685401,7.379572489871983],[80.73421078705643,7.379432749013165],[80.73403056875597,7.379264291273945],[80.73390212336356,7.379049898029812],[80.73373725450269,7.378781907818325],[80.73360113642414,7.378619195517897],[80.73357429802083,7.378561769772599],[80.73353597078648,7.378353127349332],[80.73353006690613,7.377999806030918],[80.73353025801491,7.3779435069168],[80.73350726182666,7.377815259310346],[80.73347276784504,7.377620017190325],[80.73345551478522,7.377585561627148],[80.73344784536745,7.377572161847716],[80.73342675546691,7.377562589595007],[80.73336923368353,7.377558755254648],[80.73328327268668,7.377547274103351],[80.7332561110694,7.377545345323088],[80.73318325374535,7.377508970883866],[80.73307780176405,7.377459193331744],[80.73297043596564,7.3773979318372],[80.7328822418661,7.377342414499041],[80.7328343106089,7.377298385699718],[80.7328113075473,7.377242873782538],[80.73278447207538,7.377175876854449],[80.73278447771875,7.377108883444716],[80.73279215275086,7.377055288921409],[80.73289380098493,7.376779666632655],[80.73296863516457,7.376634658206786],[80.73301845067523,7.376565298544307],[80.73306639360725,7.376479169316601],[80.7331085944396,7.376289675988781],[80.73315653491285,7.376228429526791],[80.73320064410817,7.376125071148873],[80.73321790579827,7.37606956403714],[80.73320832500144,7.376010225520823],[80.73320065950931,7.375956630411759],[80.73317574673099,7.375837951918073],[80.73315274370101,7.375782441823643],[80.7331220690506,7.375746070541075],[80.73304921261295,7.375694381722169],[80.73299744684795,7.375671408337524],[80.73286323274145,7.375652253040202],[80.7326063679347,7.375610965589003],[80.73255454099568,7.375602456459777],[80.73250277417313,7.375581395616863],[80.73244525774454,7.375525881196678],[80.7324184214864,7.375468456280317],[80.7323992547357,7.375386147529756],[80.73238776670195,7.375240673124013],[80.73237628015026,7.375043518753644],[80.73240369253425,7.37467785963552],[80.73240892896149,7.374505657504995],[80.73242429637249,7.374222370079298],[80.73240898650458,7.373921853584525],[80.7323975021634,7.373720871292201],[80.73234382565253,7.373621331279978],[80.73229397960638,7.373561989680129],[80.73223838164968,7.373510303330026],[80.73217155974112,7.373492412351282],[80.732113757707,7.37347009479094],[80.7320773302783,7.373443293095671],[80.73199680760847,7.373370549379715],[80.7319392937677,7.373301634940817],[80.73189711901668,7.373236550834432],[80.73187219847884,7.373173383751777],[80.73186837490468,7.373073849538805],[80.73187221776418,7.372980058406775],[80.73191824587492,7.372872873323936],[80.73197002512033,7.372765687901946],[80.73207932737974,7.372643195618968],[80.7321943754255,7.372574298252544],[80.73224806427304,7.372547507263661],[80.73234370994471,7.372471667425548],[80.73255869389465,7.372369524971171],[80.73275045115967,7.372147506745189],[80.73278305219294,7.372082429999014],[80.73281374359931,7.371935046183799],[80.73278499303397,7.371845079777143],[80.73274668379113,7.371452684812165],[80.73275821055132,7.371211506701807],[80.73281191657892,7.371006703733475],[80.73287904931671,7.37075021937432],[80.73279088869333,7.370365473563942],[80.73273724936436,7.369888855784383],[80.73269509542298,7.369613219408457],[80.73265868852101,7.369379693331269],[80.73263187967814,7.369027495678916],[80.73262231502144,7.368815027991156],[80.73264534654034,7.368566195154736],[80.73270418754103,7.368101017780655],[80.73289851467842,7.367756550807671],[80.73293878276242,7.367714444966293],[80.73300397832091,7.367653199261058],[80.73318614511824,7.367450321231414],[80.73340283309524,7.367149826985155],[80.73343735459505,7.36705986666712],[80.73343928533939,7.366895254861589],[80.73342013399989,7.366682785345693],[80.73341055174366,7.366621533305474],[80.73340096872245,7.366587079365271],[80.73337988209055,7.366558363928934],[80.73333195284349,7.366514335167704],[80.73323417617517,7.366441589999383],[80.73316132457363,7.366355447259917],[80.73307889365675,7.366225280327785],[80.73294529705508,7.36597727418734],[80.73290253150091,7.365882638397771],[80.73289870106736,7.365842440874429],[80.73289870277063,7.365815643677744],[80.73290062337875,7.365785016946027],[80.73290637905224,7.365756305899098],[80.73292747285389,7.365719941418731],[80.73296390696305,7.365672091973069],[80.73302526768725,7.365612760294471],[80.73322851650514,7.365476876805245],[80.73346627881304,7.365340998337358],[80.73397247862798,7.365059671879207],[80.73422558272537,7.36488168379651],[80.7344825259857,7.364650101529776],[80.73471454160084,7.364458710333],[80.73492162458547,7.364303686854519],[80.73508652888361,7.364158229629092],[80.7351421346483,7.364106553853921],[80.73516323194404,7.364049133482256],[80.73517474025913,7.364001280654063],[80.7351689932307,7.363938115491447],[80.73516324675653,7.363878777337352],[80.73515174815968,7.363821353062672],[80.73511915974971,7.363760098029299],[80.73507123220142,7.363689271345191],[80.73498304747717,7.363568675356665],[80.73491786772908,7.363478705688006],[80.73481626210794,7.36334279315461],[80.73475875052677,7.363248997164362],[80.73467001576229,7.363035453217146],[80.73465471136262,7.362993628699048],[80.73448116096158,7.363056113389084],[80.73362008796111,7.363366131016355],[80.73259389048847,7.363776501231867],[80.73247145085747,7.363879474851448],[80.73235471691058,7.363973381555106],[80.73161046147248,7.364816795148919],[80.73155695297156,7.364779419496939],[80.73152112485624,7.364754355879456],[80.73149561149515,7.36473657202362],[80.73145537591834,7.364717997234547],[80.73127967580426,7.364636893489048],[80.73112261595892,7.364553407815949],[80.73108050253103,7.364482414905548],[80.73105351345075,7.364439548235059],[80.73101511803998,7.364345678647914],[80.7309796348006,7.364270162172895],[80.73097436588323,7.364258950095813],[80.7308973023464,7.364232743731583],[80.73089030875774,7.364230365610302],[80.73086096309075,7.36421100965129],[80.73084300701906,7.36417563151052],[80.7308205716692,7.364131426016202],[80.7308166400218,7.364126394076962],[80.73079321950443,7.364096426725109],[80.73077184372683,7.364081232267006],[80.73076340567654,7.364066884647831],[80.73074594361466,7.364037190999287],[80.73073335630849,7.364002192303333],[80.73071207464227,7.363943680854024],[80.73070565541437,7.363843212182853],[80.73070180079907,7.363775845768803],[80.7307004616732,7.363752463984596],[80.73070005116668,7.363745276545776],[80.73067414781684,7.36371543011084],[80.73065947759684,7.363676001021556],[80.73065748879435,7.363645797112095],[80.73065151948154,7.363636670281327],[80.7306373836868,7.36361504877242],[80.73060912905791,7.363547765774778],[80.73056538286377,7.36350968926152],[80.73054337610242,7.363464743172327],[80.73050072294596,7.363411929344999],[80.73048450543833,7.363391850358272],[80.73044316486079,7.363329883308829],[80.73044221118202,7.363328453508664],[80.73040661503474,7.363313166240594],[80.73039085746102,7.36327771596195],[80.73036033939071,7.363200305430774],[80.7303444001039,7.363179052682651],[80.73033212810725,7.363170126859586],[80.73026393063166,7.36312052698861],[80.73023970456299,7.363102908680543],[80.73021714054579,7.363086495977715],[80.73020536762162,7.36307793554081],[80.730153558905,7.363047906449561],[80.73010964328842,7.363037249233447],[80.73004767248094,7.363022212418069],[80.73001951806212,7.363003019301153],[80.72997032120087,7.362969482669031],[80.7297803095124,7.36298995806878],[80.72964625629523,7.363228392430562],[80.72962337485897,7.363259058562442],[80.72960524780326,7.363292128825566],[80.72958707637584,7.36332504625613],[80.72949468235893,7.363512345699926],[80.7294577389301,7.363595232017038],[80.72942661778785,7.363655108961641],[80.72939489686436,7.363716137922475],[80.7293275933688,7.363951103032736],[80.72931410872954,7.36400858180065],[80.72929507507655,7.36409149078159],[80.72928447379044,7.364164828605077],[80.7292703009499,7.364254445307171],[80.72925836197,7.364308624435016],[80.7292499804495,7.364377043988743],[80.72924434575704,7.364433229521893],[80.72923568408113,7.364504040925706],[80.7290854994911,7.36536475923225],[80.72907295365148,7.365589069238848],[80.72896541621321,7.365785827764067],[80.72896521351548,7.365800944967273],[80.72884496120504,7.366088839527404],[80.72881563778334,7.366149473513294],[80.72878624460873,7.366210074030461],[80.72869682434907,7.366482459414218],[80.72868210007614,7.366508893320516],[80.72839398792472,7.367312986365005],[80.72830454869673,7.367370261620581],[80.72822990055361,7.367420260622286],[80.72820620460632,7.367441235177709],[80.72816983856559,7.367473425335493],[80.72810397284623,7.36757768430954],[80.72801554437163,7.367735836356299],[80.7280054843007,7.367752214899285],[80.72795511508008,7.367834218832442],[80.7279108993885,7.367922111338263],[80.7278783701967,7.368014255326022],[80.72782835348927,7.368127738951925],[80.72779564376886,7.368213734561258],[80.72779781120987,7.36827387090419],[80.72779853621027,7.368295731588378],[80.72780110863457,7.368363478583763],[80.72780463365933,7.368459240969536],[80.72780801327828,7.36855104159046],[80.72781371037203,7.368706092986338],[80.72781457559772,7.368729603132768],[80.72781478512594,7.368735338241026],[80.7278163603305,7.368818883288951],[80.72781703670043,7.368854797730125],[80.7278096911437,7.368923161286802],[80.727712554694,7.369171472164868],[80.72768555536598,7.369231243614398],[80.72768238070097,7.369270308225657],[80.7276635940941,7.369309084474988],[80.72764649995511,7.369344367587763],[80.7275665918209,7.369463724983507],[80.72753578660304,7.369519427552018],[80.72751775437412,7.369567895284884],[80.72750850525298,7.369656062847068],[80.72750387836392,7.36971312472231],[80.7275004338811,7.369734375450659],[80.72747678143341,7.369811600285543],[80.72745097683118,7.369863055885264],[80.72743401687782,7.369896871320837],[80.7274011254038,7.369978073166942],[80.72736837227752,7.370044893905973],[80.72735799546894,7.370066064295488],[80.7273458555166,7.37009083271049],[80.72733262575052,7.370132972652809],[80.72732347385323,7.370160280675211],[80.7273015456347,7.370216616305084],[80.72727454534161,7.37027584424054],[80.72720577873106,7.370386432863433],[80.72717624876606,7.370426148384325],[80.72714815928255,7.370463924333143],[80.72711210371114,7.370487070505831],[80.7270969731019,7.370516187374025],[80.72704949905182,7.370584455159414],[80.72702240761357,7.370640067667844],[80.72697294513267,7.370668365969565],[80.72689703445934,7.37068571928638],[80.72678198654303,7.370742406309529],[80.72670598153225,7.370785169572457],[80.72669324659059,7.370800018611167],[80.72666503167574,7.370832912186832],[80.72664355750564,7.370886172300508],[80.7266066866528,7.370917185770674],[80.72653965155997,7.370948194976806],[80.7264607311761,7.371002134144253],[80.72645833778233,7.37100376976017],[80.72637812737361,7.371058591367954],[80.72629259802926,7.371120264264166],[80.72628019888587,7.371129205521779],[80.72623515132781,7.371238179750024],[80.72622517176455,7.371262319884665],[80.72621758696955,7.371280667327245],[80.72620771188907,7.371293960367873],[80.72615571602097,7.371319118556444],[80.72609728475346,7.371347391337385],[80.72603658585075,7.371370524706074],[80.72602019408409,7.371376771591044],[80.72594292345427,7.371395390614579],[80.72590431089365,7.371399716062195],[80.72586148886919,7.371404513981581],[80.72583934659085,7.37140519061361],[80.72575444792906,7.371407778177893],[80.725740376658,7.371408206130138],[80.72563684172756,7.371407650922237],[80.72545594660863,7.37139270849284],[80.72532061750157,7.371379127642481],[80.72524951091503,7.371375137885009],[80.72516354652569,7.371381820800185],[80.72508251377093,7.371401844530134],[80.72414676272437,7.370545303357741],[80.72411323816944,7.370620174766294],[80.72408742804338,7.370769170917993],[80.72402757283136,7.370827633392322],[80.7240185103527,7.370832142992088],[80.72384637044503,7.370832186129182],[80.72382780313256,7.370828410297126],[80.72381365366691,7.370816089327023],[80.7236722737933,7.37088714633898],[80.72366312498562,7.370878607744655],[80.7235561744186,7.37087695473527],[80.7235545750838,7.370896820257614],[80.72353998795337,7.370924038937236],[80.72340239124408,7.370929988359095],[80.72323493575097,7.370934367039712],[80.7231958616246,7.37093538878297],[80.72310520364043,7.370938936434109],[80.7230392396795,7.370941516693204],[80.72286260294703,7.370943483270832],[80.722807075178,7.370945284330205],[80.72274025022868,7.370959100397023],[80.72272926220283,7.370961372496216],[80.72265551475382,7.371006278534606],[80.72255683918523,7.371025167503372],[80.72253819392822,7.371029281645142],[80.72251531767174,7.371032178990652],[80.722496647956,7.371036297649261],[80.72235932646574,7.371073065401728],[80.72233215489284,7.371074745028841],[80.72230499328435,7.371076421038283],[80.72216757773346,7.371074480065192],[80.72215287178592,7.37107985436078],[80.72211928505305,7.371089384349464],[80.72210286290073,7.371084434017336],[80.72206763605399,7.371083635768038],[80.7219285688259,7.371099349212697],[80.72190715805964,7.371095977178271],[80.72188150898208,7.371091937251903],[80.72185313949957,7.371096853201572],[80.72183327562402,7.371103123926147],[80.72181194728938,7.371099750088595],[80.72165674631054,7.371122382106542],[80.72163665777975,7.371128691679894],[80.72162392110972,7.371126650016646],[80.72153848883583,7.371152243971757],[80.72146101282823,7.371175057253001],[80.7212739845837,7.371247917409396],[80.7212489309658,7.371255870375399],[80.72096351982256,7.371352575574838],[80.72093180921152,7.371360610894691],[80.7209184797423,7.371368919780457],[80.72075207707394,7.371420715648572],[80.72062471276163,7.371576621389897],[80.72060977347883,7.371593250549821],[80.72058339645494,7.371644273415859],[80.72057062058549,7.371687590608849],[80.72047286105293,7.371890647594165],[80.72047894921506,7.371933649729375],[80.72048174907782,7.37199206799649],[80.72045482532165,7.372140822333139],[80.72044589827334,7.372177282679259],[80.72043542870257,7.372220035870812],[80.72038396298534,7.372333700211676],[80.72034872114236,7.37239384997817],[80.72033893333379,7.37241028806093],[80.72027376829125,7.372497690643736],[80.72021835076,7.372572019135545],[80.72020194510864,7.372594024172782],[80.7201532857943,7.372655595610214],[80.72014242127246,7.372669344158732],[80.72004829132368,7.372769528090027],[80.71998263723336,7.372833745165523],[80.71997572393913,7.3728405057611],[80.71994572757845,7.372872987223955],[80.71987661090925,7.372947833013444],[80.71982152562917,7.373015558281935],[80.71980689620743,7.3730382010614],[80.71977595307821,7.37308608717855],[80.71973717169713,7.373177055060754],[80.71973494511379,7.373184465534433],[80.71959115507431,7.373370533687878],[80.7193325020836,7.373739516618643],[80.71919378577057,7.374020822756474],[80.71890675472548,7.374137543134307],[80.7185996567144,7.374168460560993],[80.71821471800565,7.374074860652687],[80.71819459452158,7.374069969380106],[80.71793422264207,7.37398854284543],[80.71761638128174,7.373793627757787],[80.71753711393367,7.373767177360416],[80.71732053918012,7.373627630405185],[80.71724148924089,7.373621975313383],[80.71714126817352,7.373635879267013],[80.71687926844444,7.373694070708731],[80.71653242949478,7.373847782026332],[80.7164112815181,7.373856082674432],[80.71639110380683,7.373857235668106],[80.71614819493834,7.373891354910408],[80.71604685146015,7.373898441838477],[80.71580704748587,7.373727811971124],[80.71572495930047,7.373689349932528],[80.71570555442017,7.373636167110701],[80.71543899281549,7.373468160414968],[80.71535524536154,7.373435249592674],[80.71531273242448,7.373429786331337],[80.71493533278871,7.373294915005571],[80.71485067113029,7.373277202567146],[80.71483013067956,7.373261757881971],[80.71452700836974,7.373269152167635],[80.71445912774357,7.373294430681929],[80.71421239477975,7.373372725306059],[80.7140766344974,7.373415806363714],[80.71405143497653,7.3734483676733],[80.7135788397451,7.373652285903387],[80.71326298206701,7.373742249353722],[80.71318470179011,7.373764543818253],[80.71313819290498,7.373773913955044],[80.71315108924114,7.373819245720921],[80.71316772810998,7.373880147381546],[80.71317097657432,7.373892034889396],[80.7131990719925,7.373994868839032],[80.71321364668144,7.374047862085703],[80.713271497295,7.374264722755396],[80.71331162036248,7.374406947975868],[80.71331984307739,7.374436095689973],[80.71333216354473,7.374473547281474],[80.71339734788062,7.37467167815938],[80.71341862506651,7.374736519600821],[80.7134303014212,7.374793764458808],[80.71343011261945,7.374847841686335],[80.71343016964707,7.374848127453771],[80.713448578024,7.374938816151101],[80.71345690032807,7.37497489263729],[80.71347926635774,7.37507184327579],[80.71352172736992,7.3752216929713],[80.71353335326481,7.375270794579952],[80.71354915622943,7.375337538800359],[80.71357467340977,7.375520301793935],[80.71359149927362,7.375669333105158],[80.71361647707157,7.37582949028011],[80.71363156038754,7.375912242346869],[80.71363318602678,7.375921156278368],[80.71364082272662,7.375963058176286],[80.7136676199934,7.376074562353022],[80.7136979512541,7.376171146946504],[80.71375318515435,7.376318737648843],[80.71379555957286,7.376441638200153],[80.71386491491117,7.376665553938172],[80.71391226574752,7.37681685115431],[80.7139150842528,7.376826765408893],[80.71394558351128,7.376934053323062],[80.71396702590722,7.377049509433935],[80.71396929877132,7.377061745859059],[80.71399110678142,7.377212134294234],[80.71399915696702,7.377290267094045],[80.71400132750942,7.377308714249474],[80.71400882114646,7.377480081392223],[80.7140107057407,7.377599992074598],[80.71399201109037,7.377825069281204],[80.71398366433192,7.377911248982146],[80.71398555076122,7.378011536313754],[80.71398734000154,7.378029577383983],[80.71399468692013,7.37810368503578],[80.71401478453727,7.378184352461787],[80.71404891803654,7.378253733443814],[80.71407120189618,7.378299027598954],[80.7141163019839,7.378372190988954],[80.71416176244344,7.378459554675112],[80.7142172657072,7.378620890732719],[80.7142199602294,7.378630086047572],[80.71424243631375,7.378706801089502],[80.7142666036056,7.378829158283382],[80.71426773464005,7.378838318112978],[80.71427628435659,7.378907563494423],[80.71427192378313,7.378990757745973],[80.71426589815773,7.379016165075452],[80.71426113874583,7.379036241721886],[80.71416582009468,7.379190321489717],[80.71411635003054,7.379260306655461],[80.71407530257528,7.379336532670865],[80.7140475728224,7.379413395358386],[80.71404664457275,7.379450493303224],[80.71404387165391,7.379561392863416],[80.71404356375126,7.379573727496034],[80.71404698383246,7.379719139689694],[80.71405349151495,7.37980297027028],[80.71406061200507,7.379838237220953],[80.71407078129019,7.379888608243487],[80.71414113365066,7.380113068437874],[80.71417101151401,7.380209199866454],[80.7141850812735,7.380241127290858],[80.71421945833897,7.380319079260258],[80.71424825250114,7.38039160825817],[80.71427232943603,7.38051296889022],[80.71428541680238,7.38060674769728],[80.71428621225323,7.380612441291164],[80.71428771446813,7.380623206307047],[80.71429790054478,7.38067689792111],[80.71430970962632,7.380739141741131],[80.71436456779306,7.380942843306232],[80.71436864564711,7.380957990924838],[80.71437662305387,7.380987201879515],[80.71438883588357,7.381031933950859],[80.71440477078302,7.3810902952682],[80.71443990178813,7.381199631112301],[80.71446525319462,7.381250426535217],[80.71448327828918,7.381286541413578],[80.7145013976968,7.381308881076996],[80.71451608903595,7.381326996272317],[80.71453961275189,7.381356000480862],[80.71466864875897,7.381559918439065],[80.71466879547505,7.381560151769151],[80.71466966284947,7.381563285294105],[80.71469483854793,7.381646933054006],[80.71470484363961,7.381680166615681],[80.71472570674732,7.38174948964047],[80.71478058701922,7.381847976558918],[80.71497295226604,7.382428412749666],[80.7150000686656,7.38251022954574],[80.71499986621289,7.38251347234355],[80.7149836337465,7.382772926908212],[80.71493889971828,7.382793378777347],[80.71486854371904,7.382825545057235],[80.71461076670879,7.382943399694457],[80.71453264334995,7.382979116944156],[80.71451699367341,7.382986272325747],[80.7145654011571,7.383238803432789],[80.71464157943836,7.383636219236695],[80.71464317259691,7.383644534509681],[80.71482773766755,7.383985300793871],[80.71506965850891,7.384207162833597],[80.71508101780418,7.384215091499075],[80.71509152023881,7.384222422303457],[80.71515460179135,7.384576831247021],[80.71514622484527,7.38533123008169],[80.71498779264248,7.38585443899896],[80.71478955844657,7.38652653469119],[80.71432919612538,7.387217104991847],[80.71403906740872,7.387448771040426],[80.71325602221,7.388246651891165],[80.71323712186607,7.388255268116268],[80.71322941718167,7.388257226648202],[80.71317099021599,7.388272078768928],[80.71311736244968,7.388274782272888],[80.71303990313758,7.388328215506597],[80.71300365934343,7.388379212058021],[80.71296889228374,7.388428962688661],[80.71295228705048,7.388452724466318],[80.71289619974033,7.388538624222385],[80.71286521324558,7.388579222947821],[80.71286102397445,7.388582971585497],[80.71284156705622,7.38860038023634],[80.7128074123735,7.388618098778725],[80.71276483621351,7.388626774010142],[80.71268919327082,7.388634448888084],[80.71263339103592,7.388645835124877],[80.71261954934155,7.388652304329677],[80.71261907735249,7.388652524007526],[80.71261228198993,7.388661928675669],[80.71260874631776,7.388675039635959],[80.71261164169158,7.388692493065047],[80.71262350792317,7.388709677388534],[80.71264615079832,7.388730208260101],[80.7127377248161,7.388789092237803],[80.71279064664219,7.388814079290594],[80.71284080576027,7.38883775832441],[80.7128481301417,7.388841093525232],[80.71238340126338,7.38952097043434],[80.70929766416639,7.391491639238395],[80.7051113240663,7.393646648120118]]]]}},{"type":"Feature","properties":{"GND_N":"Panvila","GND_NO":"729","GND_C":"070","PROVINCE_N":"CENTRAL","PROVINCE_C":"2","DISTRICT_N":"KANDY","DISTRICT_C":"1","DSD_N":"PANVILA","DSD_C":"15","Admin_Code":"2115070","GND_NO_Cen":"729","GND_NAME_C":"Panvila","GND_NO_Gaz":"729","GND_NAME_G":"පන්විල","shape_1":"Polygon","Area__Ha_":267.302683707,"MWS_ID":"101-2","Alt_MWS":null,"Area":2.67302683707,"Total_Pop":3204.0,"Density":1198.64116423},"geometry":{"type":"MultiPolygon","coordinates":[[[[80.7193325020836,7.373739516618643],[80.71959115507431,7.373370533687878],[80.71973494511379,7.373184465534433],[80.71973717169713,7.373177055060754],[80.71977595307821,7.37308608717855],[80.71980689620743,7.3730382010614],[80.71982152562917,7.373015558281935],[80.71987661090925,7.372947833013444],[80.71994572757845,7.372872987223955],[80.71997572393913,7.3728405057611],[80.71998263723336,7.372833745165523],[80.72004829132368,7.372769528090027],[80.72014242127246,7.372669344158732],[80.7201532857943,7.372655595610214],[80.72020194510864,7.372594024172782],[80.72021835076,7.372572019135545],[80.72027376829125,7.372497690643736],[80.72033893333379,7.37241028806093],[80.72034872114236,7.37239384997817],[80.72038396298534,7.372333700211676],[80.72043542870257,7.372220035870812],[80.72044589827334,7.372177282679259],[80.72045482532165,7.372140822333139],[80.72048174907782,7.37199206799649],[80.72047894921506,7.371933649729375],[80.72047286105293,7.371890647594165],[80.72057062058549,7.371687590608849],[80.72058339645494,7.371644273415859],[80.72060977347883,7.371593250549821],[80.72062471276163,7.371576621389897],[80.72075207707394,7.371420715648572],[80.7209184797423,7.371368919780457],[80.72093180921152,7.371360610894691],[80.72096351982256,7.371352575574838],[80.7212489309658,7.371255870375399],[80.7212739845837,7.371247917409396],[80.72146101282823,7.371175057253001],[80.72153848883583,7.371152243971757],[80.72162392110972,7.371126650016646],[80.72163665777975,7.371128691679894],[80.72165674631054,7.371122382106542],[80.72181194728938,7.371099750088595],[80.72183327562402,7.371103123926147],[80.72185313949957,7.371096853201572],[80.72188150898208,7.371091937251903],[80.72190715805964,7.371095977178271],[80.7219285688259,7.371099349212697],[80.72206763605399,7.371083635768038],[80.72210286290073,7.371084434017336],[80.72211928505305,7.371089384349464],[80.72215287178592,7.37107985436078],[80.72216757773346,7.371074480065192],[80.72230499328435,7.371076421038283],[80.72233215489284,7.371074745028841],[80.72235932646574,7.371073065401728],[80.722496647956,7.371036297649261],[80.72251531767174,7.371032178990652],[80.72253819392822,7.371029281645142],[80.72255683918523,7.371025167503372],[80.72265551475382,7.371006278534606],[80.72272926220283,7.370961372496216],[80.72274025022868,7.370959100397023],[80.722807075178,7.370945284330205],[80.72286260294703,7.370943483270832],[80.7230392396795,7.370941516693204],[80.72310520364043,7.370938936434109],[80.7231958616246,7.37093538878297],[80.72323493575097,7.370934367039712],[80.72340239124408,7.370929988359095],[80.72353998795337,7.370924038937236],[80.7235545750838,7.370896820257614],[80.7235561744186,7.37087695473527],[80.72366312498562,7.370878607744655],[80.7236722737933,7.37088714633898],[80.72381365366691,7.370816089327023],[80.72382780313256,7.370828410297126],[80.72384637044503,7.370832186129182],[80.7240185103527,7.370832142992088],[80.72402757283136,7.370827633392322],[80.72408742804338,7.370769170917993],[80.72411323816944,7.370620174766294],[80.72414676272437,7.370545303357741],[80.72508251377093,7.371401844530134],[80.72516354652569,7.371381820800185],[80.72524951091503,7.371375137885009],[80.72532061750157,7.371379127642481],[80.72545594660863,7.37139270849284],[80.72563684172756,7.371407650922237],[80.725740376658,7.371408206130138],[80.72575444792906,7.371407778177893],[80.72583934659085,7.37140519061361],[80.72586148886919,7.371404513981581],[80.72590431089365,7.371399716062195],[80.72594292345427,7.371395390614579],[80.72602019408409,7.371376771591044],[80.72603658585075,7.371370524706074],[80.72609728475346,7.371347391337385],[80.72615571602097,7.371319118556444],[80.72620771188907,7.371293960367873],[80.72621758696955,7.371280667327245],[80.72622517176455,7.371262319884665],[80.72623515132781,7.371238179750024],[80.72628019888587,7.371129205521779],[80.72629259802926,7.371120264264166],[80.72637812737361,7.371058591367954],[80.72645833778233,7.37100376976017],[80.7264607311761,7.371002134144253],[80.72653965155997,7.370948194976806],[80.7266066866528,7.370917185770674],[80.72664355750564,7.370886172300508],[80.72666503167574,7.370832912186832],[80.72669324659059,7.370800018611167],[80.72670598153225,7.370785169572457],[80.72678198654303,7.370742406309529],[80.72689703445934,7.37068571928638],[80.72697294513267,7.370668365969565],[80.72702240761357,7.370640067667844],[80.72704949905182,7.370584455159414],[80.7270969731019,7.370516187374025],[80.72711210371114,7.370487070505831],[80.72714815928255,7.370463924333143],[80.72717624876606,7.370426148384325],[80.72720577873106,7.370386432863433],[80.72727454534161,7.37027584424054],[80.7273015456347,7.370216616305084],[80.72732347385323,7.370160280675211],[80.72733262575052,7.370132972652809],[80.7273458555166,7.37009083271049],[80.72735799546894,7.370066064295488],[80.72736837227752,7.370044893905973],[80.7274011254038,7.369978073166942],[80.72743401687782,7.369896871320837],[80.72745097683118,7.369863055885264],[80.72747678143341,7.369811600285543],[80.7275004338811,7.369734375450659],[80.72750387836392,7.36971312472231],[80.72750850525298,7.369656062847068],[80.72751775437412,7.369567895284884],[80.72753578660304,7.369519427552018],[80.7275665918209,7.369463724983507],[80.72764649995511,7.369344367587763],[80.7276635940941,7.369309084474988],[80.72768238070097,7.369270308225657],[80.72768555536598,7.369231243614398],[80.727712554694,7.369171472164868],[80.7278096911437,7.368923161286802],[80.72781703670043,7.368854797730125],[80.7278163603305,7.368818883288951],[80.72781478512594,7.368735338241026],[80.72781457559772,7.368729603132768],[80.72781371037203,7.368706092986338],[80.72780801327828,7.36855104159046],[80.72780463365933,7.368459240969536],[80.72780110863457,7.368363478583763],[80.72779853621027,7.368295731588378],[80.72779781120987,7.36827387090419],[80.72779564376886,7.368213734561258],[80.72782835348927,7.368127738951925],[80.7278783701967,7.368014255326022],[80.7279108993885,7.367922111338263],[80.72795511508008,7.367834218832442],[80.7280054843007,7.367752214899285],[80.72801554437163,7.367735836356299],[80.72810397284623,7.36757768430954],[80.72816983856559,7.367473425335493],[80.72820620460632,7.367441235177709],[80.72822990055361,7.367420260622286],[80.72830454869673,7.367370261620581],[80.72839398792472,7.367312986365005],[80.72868210007614,7.366508893320516],[80.72869682434907,7.366482459414218],[80.72878624460873,7.366210074030461],[80.72881563778334,7.366149473513294],[80.72884496120504,7.366088839527404],[80.72896521351548,7.365800944967273],[80.72896541621321,7.365785827764067],[80.72907295365148,7.365589069238848],[80.7290854994911,7.36536475923225],[80.72923568408113,7.364504040925706],[80.72924434575704,7.364433229521893],[80.7292499804495,7.364377043988743],[80.72925836197,7.364308624435016],[80.7292703009499,7.364254445307171],[80.72928447379044,7.364164828605077],[80.72929507507655,7.36409149078159],[80.72931410872954,7.36400858180065],[80.7293275933688,7.363951103032736],[80.72939489686436,7.363716137922475],[80.72942661778785,7.363655108961641],[80.7294577389301,7.363595232017038],[80.72949468235893,7.363512345699926],[80.72958707637584,7.36332504625613],[80.72960524780326,7.363292128825566],[80.72962337485897,7.363259058562442],[80.72964625629523,7.363228392430562],[80.7297803095124,7.36298995806878],[80.72997032120087,7.362969482669031],[80.73001951806212,7.363003019301153],[80.73004767248094,7.363022212418069],[80.73010964328842,7.363037249233447],[80.730153558905,7.363047906449561],[80.73020536762162,7.36307793554081],[80.73021714054579,7.363086495977715],[80.73023970456299,7.363102908680543],[80.73026393063166,7.36312052698861],[80.73033212810725,7.363170126859586],[80.7303444001039,7.363179052682651],[80.73036033939071,7.363200305430774],[80.73039085746102,7.36327771596195],[80.73040661503474,7.363313166240594],[80.73044221118202,7.363328453508664],[80.73044316486079,7.363329883308829],[80.73048450543833,7.363391850358272],[80.73050072294596,7.363411929344999],[80.73054337610242,7.363464743172327],[80.73056538286377,7.36350968926152],[80.73060912905791,7.363547765774778],[80.7306373836868,7.36361504877242],[80.73065151948154,7.363636670281327],[80.73065748879435,7.363645797112095],[80.73065947759684,7.363676001021556],[80.73067414781684,7.36371543011084],[80.73070005116668,7.363745276545776],[80.7307004616732,7.363752463984596],[80.73070180079907,7.363775845768803],[80.73070565541437,7.363843212182853],[80.73071207464227,7.363943680854024],[80.73073335630849,7.364002192303333],[80.73074594361466,7.364037190999287],[80.73076340567654,7.364066884647831],[80.73077184372683,7.364081232267006],[80.73079321950443,7.364096426725109],[80.7308166400218,7.364126394076962],[80.7308205716692,7.364131426016202],[80.73084300701906,7.36417563151052],[80.73086096309075,7.36421100965129],[80.73089030875774,7.364230365610302],[80.7308973023464,7.364232743731583],[80.73097436588323,7.364258950095813],[80.7309796348006,7.364270162172895],[80.73101511803998,7.364345678647914],[80.73105351345075,7.364439548235059],[80.73108050253103,7.364482414905548],[80.73112261595892,7.364553407815949],[80.73127967580426,7.364636893489048],[80.73145537591834,7.364717997234547],[80.73149561149515,7.36473657202362],[80.73152112485624,7.364754355879456],[80.73155695297156,7.364779419496939],[80.73161046147248,7.364816795148919],[80.73235471691058,7.363973381555106],[80.73247145085747,7.363879474851448],[80.73259389048847,7.363776501231867],[80.73362008796111,7.363366131016355],[80.73448116096158,7.363056113389084],[80.73465471136262,7.362993628699048],[80.73463359582428,7.362935916850019],[80.73463321328995,7.362929215931644],[80.7346297677628,7.362868922134829],[80.7346271731808,7.362794841418594],[80.73466813478295,7.362643061645515],[80.73470457006029,7.362577984179172],[80.73476205280399,7.362523277398688],[80.7347870220194,7.362499512832986],[80.73488864553802,7.36242104415031],[80.7349073408844,7.362408950831802],[80.73419977174485,7.362383415128928],[80.73355758571934,7.362458117467575],[80.73298958154025,7.362380858911932],[80.73263196926791,7.362231915346951],[80.73222967323669,7.362111957233265],[80.73198782437801,7.362065091374893],[80.7316308047824,7.361874091570104],[80.73123913120521,7.36177825951928],[80.73117459117948,7.361732002455477],[80.73095603021358,7.361515871917515],[80.73093389094916,7.361491804370758],[80.73050944963435,7.361232423410764],[80.73018031355409,7.361090235944051],[80.73015611891695,7.36108509520225],[80.72991541392265,7.360942899468119],[80.72952394715199,7.360881669988445],[80.7294443863936,7.360817726561687],[80.72939800799189,7.360808189449261],[80.72917638575275,7.360755335902502],[80.72913888050536,7.360747638144824],[80.72899568515035,7.360696680045551],[80.72895761983445,7.360674595661979],[80.72892111186715,7.360667176516823],[80.72881601243988,7.360614867745819],[80.72868109936059,7.360501154530531],[80.72863744794734,7.360445055988041],[80.72862424394201,7.360444959630024],[80.72857803399971,7.360444621017892],[80.72854503440364,7.360444377858089],[80.72847595295869,7.360450251162771],[80.72844548480164,7.36045284235075],[80.72841228270201,7.360457322332512],[80.72838607181006,7.360468800554493],[80.72821419721296,7.360498294945509],[80.72819479578504,7.360505277694747],[80.72817516589438,7.360505695181041],[80.72800564652076,7.360542258679175],[80.72790816008222,7.360586378121072],[80.72773148273922,7.360666299341644],[80.72763809083747,7.36069918230347],[80.72763957394741,7.360787817691389],[80.72764616142115,7.360817307717657],[80.7276511564658,7.360938270498589],[80.72765219444632,7.360963928390961],[80.72770821654507,7.361135756504162],[80.7277115910677,7.36123215734246],[80.72771862258296,7.361251660296847],[80.72774953881893,7.361402150464674],[80.72775002018521,7.361415309929035],[80.72774962311588,7.361551430946104],[80.72775148652619,7.361575008126774],[80.72770264428286,7.361706683758908],[80.72766228254818,7.361976793665759],[80.72765761600236,7.361983160353331],[80.72764783062087,7.36199853333856],[80.72763976727148,7.362013183068679],[80.72763170495583,7.362026655396736],[80.72762056036883,7.362038139732213],[80.72760543300265,7.362048807048782],[80.72758740532501,7.362058481124865],[80.72756820117094,7.362066527327396],[80.72754763942694,7.362072494389465],[80.7275286169884,7.362075475611103],[80.72751059114381,7.362076648335325],[80.7274930174193,7.362076737753609],[80.72747589770633,7.362075015902597],[80.72745823551894,7.362072302876032],[80.72744102534354,7.362069496754987],[80.72742345174825,7.362068409672842],[80.72740587899948,7.362067864267372],[80.72738885058578,7.362067863310904],[80.72737245533679,7.362067861518691],[80.72735488251874,7.362067948218726],[80.7273363122694,7.362069211306679],[80.72731602277307,7.36207056734884],[80.7272958211409,7.362071921591085],[80.72727616553627,7.362074901828372],[80.72725850235598,7.36208123001139],[80.72724264876464,7.36208963828811],[80.72722797274217,7.362097955358816],[80.72721366110524,7.362104014425392],[80.72719753711169,7.36210844283503],[80.72718068876456,7.362110159161045],[80.72716094184952,7.36211151163851],[80.72713892960064,7.362111870941997],[80.72711619560674,7.362110511085793],[80.72709227963396,7.362108159078502],[80.7270677333343,7.362104719124546],[80.7270414659067,7.362102003326211],[80.7270151977035,7.362098111932856],[80.72698829451451,7.362094310898248],[80.7269614827635,7.362090960214811],[80.72696078257447,7.362090906783758],[80.72673113690954,7.362073210429026],[80.72670722275284,7.362070855688512],[80.7266828564639,7.362069677394262],[80.72665785695014,7.362069041610011],[80.72663185908758,7.362069670832943],[80.7266205209427,7.362070211251699],[80.72660541005868,7.362070933016085],[80.72658113313334,7.362072557160015],[80.72655876005909,7.362075719732974],[80.72653919405431,7.362079335672569],[80.7265214386018,7.362084487318517],[80.72650422755363,7.362089549498358],[80.72648765141061,7.362095244760058],[80.72647107346566,7.362100849590666],[80.72645449726119,7.36210708743268],[80.7264379201,7.362113776520972],[80.72642197705913,7.362120015336607],[80.72640775496531,7.362127156837535],[80.7263951615364,7.362134208993692],[80.72638383884428,7.362142344645726],[80.7263742345028,7.362150302341564],[80.726364542297,7.362158259123087],[80.72635611545363,7.362166759531487],[80.72634760255761,7.362175259025809],[80.7263397210247,7.362183666351574],[80.7263334690627,7.362191986141792],[80.72632839556611,7.362200304254927],[80.72632495172167,7.362207811390539],[80.72632167007578,7.362214803091764],[80.72592797131948,7.362140724601569],[80.7259273974758,7.362144821932051],[80.72592495005631,7.362168062233299],[80.72592422199628,7.362190216660629],[80.72592458177895,7.362212735644351],[80.72592557465528,7.362235884998233],[80.72592711284271,7.362258943983201],[80.7259310043586,7.362281824181081],[80.72593369144526,7.362293983736159],[80.72593580272884,7.362303527983327],[80.7259399663067,7.362323604873697],[80.72594367872767,7.36234422339049],[80.72594630306043,7.362366650390001],[80.72594847248004,7.362390796417496],[80.7259485647838,7.362391588596951],[80.72595136914744,7.362416025881291],[80.7259542647153,7.362442974424122],[80.72595552806503,7.36246937929743],[80.72595507117889,7.362496598753808],[80.7259536198804,7.362522281688177],[80.72595352821949,7.362523818992265],[80.72595225750493,7.362546607274354],[80.7259484499443,7.36257436893518],[80.72594391899355,7.362598966359819],[80.7259392966776,7.362622476802393],[80.7259356699958,7.362644722237659],[80.72593141027068,7.362665883342812],[80.72592669672146,7.362687131209876],[80.72592071592429,7.362708473885942],[80.72591364724163,7.362729813726548],[80.72590431587007,7.362750792495446],[80.7258944401633,7.362771229525592],[80.72588202665499,7.362789041983492],[80.72587610288295,7.362794695015698],[80.7258732057699,7.362797458237884],[80.72586553992478,7.362804774086071],[80.72584905143262,7.362820056749439],[80.72583319773274,7.362836964515509],[80.72583237875764,7.362837998945273],[80.7258186129063,7.362855411547087],[80.72566790352003,7.362692707775038],[80.72566527722046,7.362695690772059],[80.72566092894374,7.362698855339025],[80.72565322906495,7.362702744777299],[80.7256444421968,7.362706720905437],[80.72563456924443,7.362710789149289],[80.72562405956482,7.362714314739295],[80.72561237510314,7.362717297614431],[80.72559960170635,7.362721546389469],[80.7255937281705,7.362723514390675],[80.7255869207027,7.362725794270343],[80.72557360477293,7.362729590831889],[80.72555965393785,7.362732754309239],[80.72554679196567,7.362735284897852],[80.72553392914928,7.362737272904473],[80.72552160988418,7.362738719295147],[80.72550920010967,7.362739530854818],[80.725496246835,7.36274043368699],[80.7254505922979,7.362744767345253],[80.72542912430933,7.362746030928906],[80.72542586424585,7.362746301849056],[80.72541798358269,7.362746845343202],[80.72541010293008,7.36274729569404],[80.72540167876717,7.362747926843449],[80.72539261873136,7.362748469298712],[80.72538193182902,7.362749191524891],[80.72536952113774,7.362750094415129],[80.72535656787292,7.362750905908702],[80.72534307201362,7.362751809578982],[80.72533011873827,7.362752712406365],[80.72531671060888,7.362754789870552],[80.72530330597841,7.36275795340213],[80.72528989870281,7.36276048301692],[80.72527658284189,7.362763647462116],[80.72526362853608,7.362765635450531],[80.72525841006173,7.362766219939096],[80.7252507657798,7.36276707996313],[80.72523726991993,7.362767982725931],[80.7252225955827,7.362768975784046],[80.7252079212455,7.362769967937379],[80.72519442447951,7.362770871603065],[80.72518029272604,7.362771864721768],[80.7251662533762,7.362772766516021],[80.72515572408709,7.362773470668745],[80.72515275570427,7.362773670180343],[80.72513980242803,7.362774572097905],[80.72512793698522,7.362775926290761],[80.72511634127822,7.362779000497619],[80.72510529075846,7.362783067690789],[80.725094782812,7.362787226280297],[80.72509306802927,7.362787857287265],[80.72508373138581,7.362791295281416],[80.72508007173,7.362792670306741],[80.72507267994935,7.362795451999592],[80.72506108508483,7.362799069690952],[80.72504949009587,7.362803768927858],[80.72503907176186,7.362808470107864],[80.72502983081212,7.362814708736859],[80.72502176923504,7.362820947500817],[80.72501370682471,7.36282655325273],[80.72500600784429,7.362830439967001],[80.72499821575155,7.36283270163876],[80.7249904256058,7.362833785908685],[80.7249824544216,7.362833784994633],[80.72497276327954,7.362832155234262],[80.7249629807749,7.362829441204443],[80.72495310782418,7.362825550666392],[80.72494368784407,7.362821119407185],[80.72493662920347,7.362817764538864],[80.72493435844599,7.362816686349579],[80.72492484808258,7.362810536904735],[80.72491597361312,7.362804295293862],[80.72490655202019,7.362798145858805],[80.72489586414866,7.362791542318251],[80.72488463375606,7.362784396133544],[80.72487448860457,7.362776617965801],[80.72486443578414,7.362769382389962],[80.72485483503945,7.362761512949797],[80.72484631958791,7.36275256027973],[80.72483835029172,7.362744059823598],[80.72483146721564,7.362734292564347],[80.72482512762959,7.362724525367521],[80.72481887945824,7.362715390288601],[80.72481208676626,7.362707341214341],[80.72480438798698,7.362701643222328],[80.72479569344446,7.36269829630227],[80.72478591088142,7.362696123041517],[80.72477495165255,7.362694042788211],[80.72476299323549,7.362692595431372],[80.72474931563207,7.362690693916308],[80.72473437091728,7.36268770890032],[80.72472042195615,7.362682462337927],[80.72470746875914,7.362674864703243],[80.72469496963811,7.362665005459836],[80.7246845549574,7.362653789098349],[80.72467359690243,7.362641580654041],[80.72466309092361,7.362628738345519],[80.72465195003115,7.362615354286259],[80.7246397240978,7.362600883129756],[80.72462631864607,7.362587679668914],[80.72462305441599,7.362584828026003],[80.7246119176305,7.362575106391581],[80.72459633996085,7.362562533882119],[80.72458130583378,7.362549511092276],[80.7245658177785,7.362537482982263],[80.72454914942536,7.362525633787131],[80.72454317145063,7.362522106315804],[80.72453203340062,7.362515503618782],[80.72451572776671,7.362508086451229],[80.72449897070118,7.36250356209474],[80.72448348171484,7.362499581370291],[80.72446898914713,7.362495418995899],[80.72445567426604,7.362490173403013],[80.72444281328309,7.362484203515967],[80.72443112979786,7.362478775442272],[80.72441944450131,7.362473347368063],[80.72440785139811,7.362469639287719],[80.72439580351272,7.362466471927252],[80.72438158235468,7.362465204254032],[80.724366273112,7.362465655533259],[80.72434924571617,7.362464568393848],[80.72433040500412,7.362462394975845],[80.72431210790799,7.362459137361432],[80.72429148186183,7.362456723189914],[80.7242904573984,7.362456602798609],[80.72426763111919,7.362454249862854],[80.72424426233091,7.362451261138111],[80.72422080296128,7.362448273305927],[80.72419688886174,7.362445377658438],[80.72417351915782,7.362442481168782],[80.72414951447747,7.362439584603909],[80.72412614569068,7.362436596777319],[80.7241027768299,7.362434243769915],[80.72407995062733,7.362431255099913],[80.7240582114143,7.362428176125375],[80.72403873675087,7.362425008792595],[80.7240215267217,7.362421029659826],[80.72400603858466,7.362417592404849],[80.72399181736584,7.362416866396496],[80.72397659870626,7.362417315864387],[80.72396138179438,7.362418309722135],[80.72394670656048,7.362419300929805],[80.72393320973909,7.362420747139089],[80.723921613064,7.362424362087888],[80.72382988346077,7.362250488323095],[80.72381658271948,7.36222527661654],[80.72380615277304,7.362205507339151],[80.72373092101444,7.362245554590664],[80.72367026834976,7.362277834680787],[80.72362944079084,7.362260359656403],[80.72360686448818,7.362250696334544],[80.72354309814612,7.362232587397687],[80.72354146749541,7.362234138084354],[80.72352715479921,7.362248696572421],[80.72351456233096,7.362262530012236],[80.72350359936995,7.362276816699516],[80.72349381585452,7.362290471418192],[80.72348611495795,7.362302858550239],[80.72348582775047,7.362303399289274],[80.72349118922484,7.362372647794662],[80.72349347115406,7.362401730434134],[80.72349577207508,7.362431071706328],[80.7234893819569,7.362527058146735],[80.72348520994352,7.362533238562317],[80.7234109939,7.362608280578793],[80.72339755924813,7.362620099129408],[80.72338045291454,7.362650632690918],[80.72328090149698,7.362760906932598],[80.72327167393665,7.362768613209797],[80.72316535203024,7.36291235033771],[80.7230480910166,7.363013874199862],[80.7229181604549,7.363038324624072],[80.72278374879812,7.36298732851527],[80.7227069220961,7.362895707145277],[80.72269280406597,7.362880420028688],[80.72262165378518,7.362746684146433],[80.72260046746166,7.362680539108922],[80.72258649876083,7.362681464342643],[80.72256113570461,7.362683179472533],[80.72253577264821,7.362684894600967],[80.72251104276792,7.362686519373827],[80.72248740167852,7.362688143371933],[80.72246430318356,7.36268967790813],[80.72244283516827,7.362691122209083],[80.72242200123523,7.362692474346512],[80.72240116638497,7.36269391962601],[80.7223792454614,7.362695362965072],[80.72235669136106,7.362696898465598],[80.72233413635512,7.362698431251975],[80.72231112746914,7.362700509276884],[80.72228802986797,7.362702133330025],[80.72226429646031,7.362703125197726],[80.72224174145364,7.362704658883751],[80.72221927793403,7.362706194388281],[80.72219780991723,7.362707638677493],[80.7221775194723,7.362708991773546],[80.72215722916987,7.362709170179693],[80.72213684827491,7.362709438099906],[80.72211528813901,7.362708622522007],[80.72210288011645,7.362709886138741],[80.72207008872311,7.362709429110744],[80.72204581271984,7.362710511331375],[80.72204504005256,7.362710561878651],[80.72202217073259,7.362712046683153],[80.72199907131824,7.362713670721177],[80.72197597366018,7.362715747813751],[80.72195296476086,7.36271791534619],[80.72192823571653,7.362720082668453],[80.7219056815476,7.36272215891915],[80.72188602607832,7.362723512079151],[80.72186745565513,7.362725861007345],[80.72185178378807,7.362728663342972],[80.72183892186204,7.362730650339173],[80.72182769055948,7.362731372414257],[80.72181863050918,7.362732004323137],[80.72181129424905,7.362732455581199],[80.72180567813386,7.362732906144333],[80.72180006196311,7.362733811571535],[80.72179507986395,7.362734714362984],[80.72179055075011,7.362734985102117],[80.72178665570752,7.362735255918425],[80.72178384674956,7.362735436436757],[80.72178103855371,7.362736792548434],[80.72177379273138,7.36273841941018],[80.7217616551923,7.362742576818466],[80.72174571102613,7.362749900629807],[80.72172713970491,7.362759574402423],[80.72170811706529,7.362771054915667],[80.72168963611361,7.36278244687255],[80.72167287712871,7.362793749512897],[80.72165729557139,7.362806135650763],[80.72164289067956,7.362818432405863],[80.7216289396119,7.362830639689991],[80.72161508003127,7.362842844271926],[80.72160176212773,7.362855051632537],[80.72159903082174,7.362857249658094],[80.72158726672882,7.362866715362969],[80.72157105310644,7.362877473675991],[80.72155302617186,7.362887147507857],[80.72153382082487,7.362896368139261],[80.72151515988385,7.362905499310493],[80.72149677092023,7.36291273238328],[80.72148734962285,7.362911917357172],[80.72147267624597,7.362912366806651],[80.72145464944732,7.362913540190974],[80.721436443564,7.362912542322305],[80.7214196865263,7.362907928324843],[80.72140802554502,7.36290386295919],[80.72138725878197,7.362896620565582],[80.7213687816445,7.362891644634149],[80.72134876363567,7.362887301524516],[80.72134587773981,7.362887014506247],[80.72132874533747,7.362885309600466],[80.72130854455781,7.36288666357238],[80.72128825675286,7.362888559209856],[80.72126705824493,7.362893350311077],[80.72124613286921,7.362901575985778],[80.72122638493119,7.362910797441477],[80.72120781441987,7.362921103299938],[80.72120033726802,7.362925492768038],[80.72118933351652,7.362931951750158],[80.72117076300304,7.362942261224285],[80.7211521917289,7.362951389678435],[80.72113407524076,7.362959978319327],[80.72111523256683,7.36296630520933],[80.72109530477977,7.362972181622068],[80.72107519513602,7.362976338028082],[80.72105445071588,7.36297886841896],[80.72103470374535,7.3629802224345],[80.72101667882193,7.362980852315587],[80.721000282568,7.362981391966979],[80.72098560828249,7.362981842304665],[80.72097374296804,7.362982021698394],[80.72096522738579,7.362982021549827],[80.72095961217249,7.362982472102415],[80.72095625972273,7.362982652548341],[80.7209522750017,7.362982923346278],[80.72094720238367,7.36298328443988],[80.72093877641,7.362983825979068],[80.72092636843271,7.362984638316171],[80.72091287074684,7.362985540043998],[80.72089874078947,7.362986533932014],[80.72088578659344,7.362987435726302],[80.72087401088713,7.362988158614288],[80.72086386655675,7.362988879895466],[80.72085426482154,7.362989512621976],[80.7208458397536,7.362990053255238],[80.7208385034772,7.362990594023291],[80.72083343085902,7.362990955115605],[80.72083007750331,7.362991135560458],[80.72082726944919,7.362991316072887],[80.72082446230081,7.362991497489697],[80.7208210210696,7.362991768353862],[80.72081649104682,7.362992039082982],[80.72081205250035,7.362992399349348],[80.72080752338336,7.362992670078506],[80.72080417183912,7.362992851427698],[80.72080136377376,7.362993122370214],[80.72079448056316,7.36299239717022],[80.7207859659541,7.362991854436876],[80.72077518678114,7.362991490474279],[80.72076223266359,7.362991759253288],[80.72074810270583,7.362992752232212],[80.72073288486217,7.362993745075625],[80.72071712261142,7.362994828281167],[80.7207013621835,7.362995821056113],[80.72068668692383,7.362996813965372],[80.72067373363272,7.36299771756226],[80.7206613238431,7.362998528987477],[80.72064900372919,7.362999341327811],[80.72063605043796,7.36300024492358],[80.7206223736026,7.362999518875881],[80.72060733672737,7.362994814631839],[80.72059288692886,7.362989252277322],[80.72058994678935,7.362988120628898],[80.72057083578918,7.362981515032589],[80.72055063683567,7.362975454594362],[80.72052871763533,7.362970206908772],[80.72050625321337,7.362964324333777],[80.7204843332552,7.362957902861304],[80.72046241239231,7.362951477770414],[80.72044148988677,7.362943879922741],[80.72042056564995,7.362935646349237],[80.72040082078671,7.362927415634968],[80.72038035044474,7.362918550008834],[80.72036114824644,7.362909686348874],[80.72034239993127,7.362900278354787],[80.72032582393491,7.362889514177834],[80.72031087856772,7.362877485085146],[80.72029584547329,7.362864371722236],[80.72027972350908,7.36285189033001],[80.72026079257546,7.362839678067571],[80.72024023367459,7.362829187392388],[80.72021758761514,7.36281995976527],[80.72019322222631,7.362811455363478],[80.72016840379372,7.362804036066514],[80.72014358702539,7.362797794170251],[80.72011777203711,7.362791640768926],[80.72009249956498,7.362786030920065],[80.72006831492175,7.362780873357715],[80.7200448548636,7.362776258466638],[80.72002302522947,7.362772005500354],[80.72000246352164,7.362769469962959],[80.71998262626137,7.362768563164582],[80.71996224634876,7.362768198878485],[80.71994186454458,7.362768467602995],[80.7199222090679,7.36276982067674],[80.71990354917448,7.362770451337409],[80.71988660845146,7.362771624795504],[80.7198714829384,7.362773159298536],[80.71986479161424,7.362773632309281],[80.71978482549,7.362707427275752],[80.71976523317063,7.362682183005686],[80.71974804964513,7.362676581393615],[80.7196555858513,7.362590259452851],[80.7196392321392,7.362591149929258],[80.71954167111916,7.3624995977382],[80.7195342340488,7.362480790015915],[80.7194757446025,7.362388564537485],[80.71935009058154,7.362212853441326],[80.71929991330903,7.362181738143215],[80.71926427077119,7.362171709409247],[80.71925450560613,7.362168376714283],[80.71922877957392,7.362168230554766],[80.71916062012008,7.362157996909836],[80.71914768871586,7.362157919297329],[80.71913150996765,7.36215782137503],[80.7191120739114,7.362157704045603],[80.71909910174554,7.362157626426479],[80.71908611961581,7.362157547901422],[80.71901125678579,7.362157098834215],[80.71899820219103,7.36215701939302],[80.71897871226767,7.36216020275505],[80.71896901329006,7.362163447054448],[80.71895602982914,7.362166676463997],[80.71889058117625,7.362172927655628],[80.71885113978108,7.362176030682456],[80.71882802611627,7.362175906538509],[80.71881811016664,7.362175852815561],[80.71873781087073,7.362145480538976],[80.71872104691968,7.362138729573076],[80.71870759824937,7.362131996214943],[80.7186037546759,7.362111365647886],[80.71859024807401,7.3621113403947],[80.71851207471228,7.362081280336221],[80.71846452293615,7.36206127283145],[80.7184544335444,7.362064566805917],[80.71842436024845,7.362094392240401],[80.7184213404701,7.362127693693666],[80.71841806012185,7.362137700280877],[80.71837751096842,7.362154345052613],[80.71833031630983,7.362167433242526],[80.71828000088323,7.362154453599272],[80.71826244705393,7.36215477506368],[80.71818559266805,7.362123989868824],[80.71817226476043,7.362115102461804],[80.71816246500627,7.362106182957771],[80.71808259242115,7.362027117547356],[80.71806624267154,7.362018607742532],[80.7180010572973,7.361971886606971],[80.71798744921597,7.361972110909886],[80.71796448673352,7.361965823015349],[80.71796420772242,7.361965977614698],[80.71795833037083,7.361969241380652],[80.71794800332802,7.361975028474709],[80.71793767440258,7.361981356341156],[80.71792961176546,7.361988138462797],[80.71792390510471,7.361995280803941],[80.71791928362143,7.36200233376062],[80.71791466393789,7.362009476243431],[80.71790886586027,7.362016076895245],[80.71790197988703,7.362022769643911],[80.71789455035423,7.362030001285834],[80.71788775564309,7.362038410412318],[80.7178809618494,7.362046729108555],[80.71787416713782,7.362055137330516],[80.7178679159264,7.362063457905975],[80.71786284228592,7.36207168639625],[80.71785767820597,7.362078829711667],[80.71785360118675,7.362085338348605],[80.7178497959589,7.362091488012924],[80.71784653406576,7.362098813341399],[80.71784535560592,7.362105685886409],[80.71784526406472,7.362113009820321],[80.71784571609537,7.362119700813472],[80.7178462577185,7.362127026638662],[80.71784616435359,7.362134442811183],[80.71784634779577,7.362137786945724],[80.71784181987083,7.362129015524523],[80.71783774499592,7.362119157190874],[80.71783367020404,7.362108666749732],[80.71782959532939,7.362098809320297],[80.71782497703717,7.362088409238318],[80.71781972369776,7.362078552559118],[80.71781347470245,7.362069959964647],[80.71780613956442,7.362061909809613],[80.71779889484182,7.362055127498381],[80.7177922831538,7.362049337289605],[80.71778521659245,7.362044725327417],[80.71777643160598,7.362040835678103],[80.71776610567458,7.362038122324665],[80.71775405860072,7.36203613037923],[80.71774155854828,7.362034681859989],[80.71772733818781,7.362034498234488],[80.71771320659695,7.362034316428731],[80.71769971074566,7.362035218060172],[80.71768730097787,7.362036030307487],[80.71767724611415,7.362038471511663],[80.71766737221154,7.362042447340659],[80.71765695472459,7.362047148348792],[80.71764590226135,7.362051849273492],[80.71763485077503,7.362056007616533],[80.71762388981053,7.36206061812242],[80.71761338188385,7.362064234859004],[80.71760287306338,7.36206775935637],[80.71759118675472,7.362070742926158],[80.71757895875706,7.362073815046206],[80.71756564278037,7.362077611369441],[80.71755169365069,7.362081318083233],[80.71753665579129,7.362084570693788],[80.7175209858039,7.362086829392393],[80.71750522252931,7.362088997647952],[80.71748955345937,7.362091165915343],[80.71747451657642,7.362093876846735],[80.71745830205069,7.362097219730266],[80.71744272145192,7.362101647859543],[80.71742723045664,7.36210662039015],[80.71741291778298,7.362112677333925],[80.71740041660733,7.36211972834407],[80.71739046713608,7.362126595211986],[80.71738954493239,7.362127232623853],[80.71737985180579,7.362134104046809],[80.71737115613627,7.362139800911934],[80.71736191614372,7.362144953315123],[80.71735312921373,7.362148930184565],[80.71734542934499,7.362152275089584],[80.71734008446342,7.362156615037428],[80.71733528301078,7.362161408112354],[80.71732993812923,7.362165746251463],[80.71732332524968,7.362169002677674],[80.71731725601491,7.36217107996499],[80.71731109543578,7.362172075694432],[80.71730602373012,7.362172436746957],[80.71730158511737,7.362173340464386],[80.71729823176656,7.362173520882837],[80.71729424795659,7.362173791648396],[80.71729143990646,7.362173971234372],[80.71728754486648,7.36217424110728],[80.71728473772181,7.36217442340626],[80.71728129377765,7.362174693338575],[80.7172756776772,7.362175054318995],[80.71726951899366,7.362175414323447],[80.71726272530982,7.362175956008881],[80.71725593073222,7.362176406359524],[80.7172492276416,7.36217685943506],[80.71724243495939,7.362176676774023],[80.71723500637108,7.362176675793767],[80.71722767025958,7.362176042718163],[80.71722024274487,7.362174774810017],[80.71721227066762,7.362174773757639],[80.71720429956805,7.362174230123777],[80.71719642072985,7.362174681234664],[80.71718681808984,7.362175403408491],[80.71717558588885,7.362176124462549],[80.71716317521037,7.362176937599466],[80.71714904534342,7.362177386074968],[80.71713446069698,7.362178289354027],[80.71711915243645,7.362178196899918],[80.71710266674854,7.36217710955682],[80.71708554707426,7.36217538911752],[80.71706851873147,7.362174843378559],[80.71706416632647,7.362174573320422],[80.71683273614008,7.362160249226601],[80.71682944620662,7.362160351879956],[80.71682480026283,7.362160495046729],[80.71681525565155,7.362160791293828],[80.71679605137341,7.362161511278773],[80.71677802458223,7.362162774000996],[80.71676108569842,7.362163858719617],[80.7167341871256,7.362132926187539],[80.71672268475054,7.362121892166466],[80.71667515630662,7.362076992645566],[80.71667069935528,7.362072780715214],[80.71666840251558,7.362070488002426],[80.71666281981898,7.362064912233878],[80.71665448617962,7.362059214017838],[80.7166456107785,7.362054149645457],[80.71663745889401,7.36205080173545],[80.71662939655195,7.362048450378553],[80.71662833679147,7.362048131018504],[80.71662187859262,7.362046188620036],[80.71661544770788,7.362043202660087],[80.71660783939714,7.362039222714603],[80.71660580961175,7.362038137280927],[80.71660023200448,7.362035152338858],[80.71659135486547,7.362029545383693],[80.71658663865847,7.362026782110465],[80.71658193603768,7.362024026977735],[80.7165719728277,7.362018418068669],[80.71656137552334,7.362012990839559],[80.71655014348548,7.362005754920538],[80.71653873237523,7.361996439985904],[80.7165284980277,7.361986310431623],[80.71651744872656,7.361974099063938],[80.71650585684276,7.36196189033642],[80.71649933759048,7.36195591835622],[80.71649381098915,7.361950855332566],[80.7164806789068,7.361940997585026],[80.71646763552215,7.361931681526137],[80.71645350589687,7.361923630440782],[80.71643883180457,7.361916123672302],[80.71642325241592,7.361911509645819],[80.71640721980488,7.361909245840277],[80.71639191163904,7.36190851944536],[80.7163771478554,7.361907884457346],[80.71637702104395,7.361907865450025],[80.71637022485692,7.361906835443903],[80.7163640138142,7.361905893233375],[80.71635133282608,7.361902816906722],[80.71633865199615,7.361898564986497],[80.71632579014963,7.361893226974412],[80.71631138652215,7.361888522671361],[80.71629689592464,7.361883908786433],[80.71628249494235,7.361879746159977],[80.71626745813927,7.361875133105154],[80.7162518787539,7.36187051907273],[80.71623557500958,7.361863734616634],[80.71621854782467,7.361854689306645],[80.71620188236487,7.361843383288404],[80.716184671679,7.361831533710522],[80.71616692021065,7.361819775393868],[80.71614862427579,7.361808559584855],[80.71613105277373,7.36179897071261],[80.71611239412445,7.361790649525571],[80.7160943702321,7.361783954358978],[80.7160766157479,7.361781148632865],[80.71606076581251,7.361781145595749],[80.7160461802592,7.361782138365281],[80.71603277378252,7.361785302523371],[80.71602072573369,7.361790636285616],[80.71600858809464,7.361795336119424],[80.71599690177071,7.361798409173561],[80.71598567039776,7.361799763209706],[80.71597543377986,7.361799851356156],[80.71596465472581,7.361798856074889],[80.71595695826012,7.361797101594879],[80.71595315214651,7.361796232951372],[80.71593992774962,7.361792612149745],[80.71592597892153,7.361787366218467],[80.71591139526498,7.361781035038166],[80.71589726559348,7.36177343518227],[80.71588377186485,7.361765385973417],[80.71587127290441,7.361755979540471],[80.71586031406116,7.361744855140425],[80.71585044235455,7.361732555293707],[80.71584111406348,7.361720797197361],[80.715832962376,7.361709402789356],[80.71582662396918,7.361699183315105],[80.71582200574011,7.361688692782424],[80.7158179326522,7.361679375203692],[80.7158149430768,7.361668885795295],[80.71581204764506,7.361658846742225],[80.71580914857775,7.361648899927517],[80.71580733906993,7.361639946184153],[80.71580570875354,7.361632170771127],[80.71580416977763,7.361625477820492],[80.71580308370851,7.361618785835367],[80.71580263179479,7.36161146182853],[80.71580208944725,7.361603049933555],[80.71580136707541,7.361592922552481],[80.7158010497574,7.361588331365896],[80.7158008508681,7.361585457465728],[80.71580055434298,7.361581167414705],[80.71579974169656,7.361568778360884],[80.71579883680432,7.36155530413162],[80.71579738842411,7.361541828924589],[80.71579648535602,7.361528263361001],[80.71579549086182,7.361514248346706],[80.71579513128182,7.361500683760877],[80.7157941368615,7.361486124356472],[80.71579314252712,7.361470931940337],[80.715792057771,7.361454563014443],[80.71579088249479,7.361437742829363],[80.71578997403587,7.361423855333295],[80.71570826249247,7.36145000032514],[80.71566559758097,7.361518058682773],[80.71565417133688,7.361566993463476],[80.71502354477634,7.361309606396294],[80.71460277936289,7.361314722115142],[80.71362766375421,7.360525070913069],[80.71362295207723,7.360541891184015],[80.71352770406962,7.360677869559376],[80.71352655164578,7.360679512515411],[80.71346775221781,7.360759986282973],[80.71342200243006,7.360810980710529],[80.71336746537243,7.360848953751038],[80.71330586876445,7.360865131197609],[80.71326842777268,7.360866184865722],[80.71317787698673,7.360868729474491],[80.71309327369354,7.360865370713924],[80.71301547807278,7.36085215600293],[80.7130112099885,7.360851431053281],[80.71295804149644,7.36083252361202],[80.7128468193579,7.360757360326406],[80.71268922698819,7.360631004194341],[80.71266450189039,7.360612372953947],[80.71258024380953,7.360557956324206],[80.7125617017454,7.360545978911432],[80.71244694579975,7.360479767618029],[80.71240827028114,7.360455075547064],[80.71240900775751,7.36045405650343],[80.71238508491597,7.360437618295631],[80.71238481319858,7.360437436492044],[80.7123846320493,7.360437346035948],[80.71233979814727,7.36041111576564],[80.71224460207846,7.360384695618993],[80.71223982683055,7.360383379175643],[80.71223934767525,7.360383247983233],[80.71223505969697,7.360382327694031],[80.712228388603,7.360380894324265],[80.71222702992527,7.360380621934767],[80.71219025513325,7.360372658808488],[80.71210981814919,7.360379248690965],[80.71206644138469,7.360380513918948],[80.71202657374737,7.36038167746034],[80.71193789535866,7.36037171648922],[80.7118751234185,7.360372609954579],[80.71181615649083,7.360356777076499],[80.71174900692445,7.36031275319018],[80.71173337501374,7.360302505189147],[80.71168410528314,7.360258367216295],[80.71158991020303,7.360200748640234],[80.71141319696258,7.360128829209587],[80.71138399676609,7.360119692426105],[80.71129870861365,7.360093001320498],[80.71123412639113,7.360072552895292],[80.71115360467115,7.360045592972684],[80.71104961937579,7.360027401350667],[80.71104682769962,7.360027183911229],[80.71099590542339,7.360023231919423],[80.71095680388554,7.360007518480669],[80.71094255723152,7.360001792166616],[80.71090152896734,7.359974204046126],[80.71083496472053,7.359886838700062],[80.71080263514433,7.359839538048429],[80.71074195524967,7.359781834670164],[80.71069422656042,7.359724674858711],[80.7106560076512,7.359688224058795],[80.71060637261697,7.359671668043838],[80.71056135660329,7.35964697397933],[80.71055184865232,7.359626264960927],[80.71055683589412,7.359602663398612],[80.71058736772316,7.359555462386897],[80.71057144203128,7.359455354669107],[80.71055246514061,7.359376682992787],[80.7105466398172,7.359352530026612],[80.71051268919821,7.359241838415324],[80.71050775630745,7.359228569764406],[80.71048941913797,7.359179257263511],[80.71044214663702,7.359106633918858],[80.71040474455059,7.359059875977409],[80.7103371747693,7.359035960792427],[80.71030991226672,7.359026311485191],[80.71025728644258,7.359015180805999],[80.71023944473404,7.358996820833587],[80.7102293049103,7.358967609462671],[80.71022224779932,7.358912265108549],[80.7102276010372,7.358851678535281],[80.71027020230106,7.358678872610342],[80.71032309560574,7.35849184532624],[80.71032902177738,7.35847089079706],[80.71033727108146,7.358433326381327],[80.7103477855218,7.358385437877053],[80.71035513357953,7.358316983258161],[80.71045136117655,7.358126008723528],[80.7104923926789,7.358050427723019],[80.71050599705698,7.358025368785629],[80.71028754132267,7.357802714534891],[80.71041066829393,7.357521387865142],[80.71042354316408,7.357486240422922],[80.71049167707092,7.357313282679386],[80.71056059241582,7.356988031441196],[80.71058633331452,7.356749732496541],[80.71053811976662,7.356604370534513],[80.71053435148575,7.356593010132038],[80.71050087378084,7.356520023474301],[80.71041256570922,7.356492009667781],[80.71040270795562,7.356479032379656],[80.71036381415603,7.356432796898625],[80.71037255442046,7.356413248067168],[80.71035271864613,7.356392082657779],[80.71033759332906,7.356381287579147],[80.71032763326353,7.356374174676681],[80.71027949052568,7.356357219144235],[80.71025236404355,7.356347666614126],[80.71018995742567,7.35633210340329],[80.71011169876903,7.356301525514277],[80.71007324101113,7.356277659805947],[80.71005907918111,7.356268872412153],[80.71004932094745,7.356244586826945],[80.70996534944341,7.356128486361589],[80.70994850624086,7.356127165393857],[80.70994289485924,7.356126725975894],[80.7098207994271,7.356026615138807],[80.70981537735258,7.356026222771081],[80.7097754119418,7.355944500436816],[80.70976874657936,7.355935496210139],[80.70976211563027,7.355926541725113],[80.70973758337807,7.355892851904005],[80.70971811630362,7.355817118188666],[80.70969040919157,7.355741151745676],[80.70966294834807,7.355696327711031],[80.70962874093212,7.355640493690552],[80.7096283216339,7.355639904927132],[80.70960157258622,7.355602326267181],[80.7095962317619,7.355579537045897],[80.70956898095179,7.355499230010242],[80.70955718401817,7.355443203992274],[80.70954952094631,7.355406808287007],[80.7095492494088,7.355405451792607],[80.7095381301619,7.355269714310801],[80.70953604178627,7.355218567546859],[80.70953541365216,7.355203163562151],[80.70953298683898,7.355143743282777],[80.7095281947775,7.355085686339114],[80.70951751018691,7.355059912121283],[80.70949740605818,7.355034950371123],[80.70943717963883,7.354972815795304],[80.70941369604868,7.354941335323529],[80.70940330951237,7.354927412937855],[80.70934263136778,7.354869709364793],[80.70927678677994,7.354822585351603],[80.7092601822072,7.354812879699915],[80.70922525128947,7.354792462552409],[80.70916945786219,7.354772920354606],[80.70911501862034,7.354771373975632],[80.7090637843487,7.35478019861378],[80.70903947386236,7.354784385503278],[80.70900322721394,7.354797483405629],[80.70899019566758,7.354802191056196],[80.70892796605837,7.354809868275278],[80.7088254344879,7.354776935325071],[80.70867492176436,7.354714426224203],[80.70862481245648,7.354693615175834],[80.70848433214962,7.354638883624895],[80.7084089737827,7.35461156136827],[80.708366586796,7.354588403891565],[80.70833262545936,7.354542099350062],[80.70830528146713,7.354480783482038],[80.7082929879953,7.354438917829613],[80.70828138076507,7.354399391711911],[80.7082577480221,7.354342869208147],[80.70821781121604,7.354296199316265],[80.70815015781025,7.354238133705508],[80.70808078430885,7.354168219649313],[80.70800027015196,7.354100021155054],[80.70792292281858,7.354048734493599],[80.70785572070616,7.353995731193572],[80.70782103490728,7.353960729381177],[80.70777955278028,7.353938386764074],[80.70769785286406,7.353918387365901],[80.70769740268382,7.353918378253955],[80.70764613284133,7.353917474237599],[80.7075699528194,7.35393310699509],[80.70744711698363,7.353989604339745],[80.70739511903494,7.354016998525516],[80.70734720010299,7.354031277327319],[80.70728035174437,7.354034161708184],[80.70722203779926,7.354013732664086],[80.7071987437429,7.354005571358235],[80.70712402073265,7.353965227930679],[80.70697529981449,7.353905156537916],[80.70695180409054,7.353894965932961],[80.70691189913201,7.353877655019948],[80.70677866063784,7.35383784505157],[80.70671824777564,7.353824722381907],[80.70663329086885,7.353786094554336],[80.70650956714961,7.353733262218807],[80.70647963781305,7.353709895801931],[80.70646600359997,7.353699252748124],[80.70638678837466,7.35359834554133],[80.7061594227207,7.353607599911606],[80.70616361896232,7.353615391135667],[80.70618282249445,7.35381333604109],[80.70621844622549,7.354115994522068],[80.70629440201233,7.354288969644682],[80.70587054121822,7.354774012733765],[80.70593193575588,7.354829363890205],[80.7060765676932,7.354978143453772],[80.7061520607905,7.355110207873384],[80.70615333224342,7.355117825917428],[80.70617234221109,7.355210533472311],[80.70617615429603,7.355224807580886],[80.70617657448379,7.355248540163463],[80.70617826681284,7.355338962547048],[80.7061783737227,7.355344569239745],[80.7061788533013,7.3553707995152],[80.70615438035354,7.355474697336372],[80.70608643113556,7.355535750627133],[80.70606093016409,7.355558449145557],[80.7060112519858,7.355561047554075],[80.7059903283396,7.355564481524843],[80.70592746244888,7.355585269708732],[80.70586224004961,7.355609311193859],[80.70583056668782,7.355622073156312],[80.70578977132288,7.355638509670736],[80.70571439430529,7.355717712895662],[80.70567479078214,7.355832642603283],[80.70568029880025,7.35593103430105],[80.70570292928757,7.356028881593987],[80.70578116830274,7.356164360245272],[80.70580183526492,7.356214909488163],[80.70584472929991,7.356319820755729],[80.70587314380103,7.356478259026146],[80.70588246053741,7.356560914645438],[80.70589194809797,7.356697647581436],[80.70590289721419,7.356768093563643],[80.70594310372731,7.356827512555564],[80.7059871230707,7.356850580085849],[80.70604056375295,7.356861712296573],[80.70614808135205,7.356864442960124],[80.70619445781992,7.356868881303268],[80.70623361341843,7.356883592292982],[80.70625430166899,7.356891365295836],[80.70625443572003,7.356891415957738],[80.70627344018071,7.35689855658894],[80.70633502471236,7.356945952568456],[80.7063389606615,7.356950264897593],[80.70634391939836,7.356953717394767],[80.70634801557722,7.356958653717572],[80.70635058013421,7.356962996578733],[80.7063927154443,7.357009171417139],[80.7064251337684,7.357058099241267],[80.70642758252288,7.357107852538585],[80.70642766198114,7.357109465826651],[80.70641469912441,7.357172402354296],[80.70641849376467,7.357228832326737],[80.70645607604422,7.357278121770658],[80.70645869627187,7.357279820459342],[80.70651974858306,7.357319369697533],[80.70657861853987,7.357354917953479],[80.70660261757149,7.357385667973555],[80.70660406014137,7.357434500532847],[80.7066021399355,7.357439654758272],[80.70658357945274,7.35748947893706],[80.70654742292687,7.357573212622587],[80.70647863158638,7.357816095742217],[80.7064432805031,7.357973619720742],[80.70644779754775,7.358038640677163],[80.70645749556198,7.35807628197127],[80.70646037880455,7.358087473163919],[80.70646553467205,7.358139472263977],[80.7064569212038,7.358192553475407],[80.70643128169415,7.35822564694623],[80.70637321434043,7.358252675622646],[80.70631538120689,7.358276330375565],[80.7063073579608,7.358279612643923],[80.7062562661688,7.358306915494467],[80.70620689094,7.358345339719308],[80.70616575704429,7.358410623012033],[80.70614165182523,7.358484772941283],[80.70646499770338,7.358560991066939],[80.70660168486644,7.358648555168327],[80.7067368573052,7.358749459262498],[80.70677469781504,7.358874900026523],[80.70680745897377,7.359038487092572],[80.70681403959166,7.359068093166811],[80.70681330012489,7.35910510162913],[80.70690851807325,7.359324820286741],[80.70697081749405,7.359565888928725],[80.70697830058108,7.359587960492051],[80.70697841852781,7.359610053522598],[80.7069859412324,7.35963949696518],[80.70701648867033,7.359838428328377],[80.70702394120076,7.359853156046156],[80.70707703210398,7.360118748829287],[80.70708444955199,7.36012610466739],[80.70711903867866,7.360284881097164],[80.70712018251277,7.36031541866129],[80.70714214481767,7.3604848422018],[80.70702717813492,7.360521134881927],[80.7071138857977,7.360674517972448],[80.70711919543834,7.360699357266234],[80.70717469031996,7.360884386102911],[80.70717881045655,7.360892834731767],[80.70718216749195,7.360927304543308],[80.70723710923508,7.361110657613208],[80.70724137515211,7.361119485166598],[80.7072450281514,7.36115552670054],[80.70729009874577,7.361395186434109],[80.70730142636026,7.361404183275624],[80.70737613962153,7.361545076047394],[80.70738556081642,7.361563779374608],[80.70742925407548,7.361736993456093],[80.70740415783013,7.361893849876961],[80.70741954766453,7.361893521270699],[80.70748617142513,7.361892103624093],[80.7075645625295,7.361873621780992],[80.70761279068047,7.361986147001499],[80.70763808057276,7.362153841991956],[80.70765937942532,7.362233468173666],[80.70765973552291,7.362238625464412],[80.70769030980514,7.362342621301226],[80.70769446226078,7.362353107323046],[80.70774648887046,7.362528577976355],[80.70775686500507,7.36265226460926],[80.7077954553463,7.362753374227663],[80.70780475425973,7.36277233163563],[80.70783837261352,7.362843820971576],[80.70784359346155,7.36285742699821],[80.70784960845238,7.362878619338205],[80.7078527030027,7.362894491221061],[80.70801150271423,7.362745538907726],[80.70820211109755,7.362577770132613],[80.70834253465567,7.362420565855936],[80.70867133370233,7.361829897331607],[80.70870273039776,7.361846034827883],[80.7087759188566,7.361866755302275],[80.70880901352847,7.361867783059219],[80.70885191540454,7.361869117041442],[80.70892365780358,7.361862437816765],[80.70896710279959,7.36185420977658],[80.70898806212689,7.361850239424194],[80.70898843293112,7.361812054408525],[80.70898898402375,7.361755649535891],[80.70898550577498,7.361701107824402],[80.70898292939688,7.361660697781447],[80.70898620488438,7.361564208307005],[80.70898920536273,7.361501358839058],[80.7090086975908,7.361387059757877],[80.70903996434755,7.361285601729648],[80.7090781155936,7.361194002532791],[80.70912288037898,7.361088929314702],[80.70915840613483,7.360975987275089],[80.70920235964098,7.360850385357184],[80.70924159780415,7.360740611637149],[80.70927040617764,7.360644590791233],[80.70931799778504,7.360485971514369],[80.7093317843549,7.360370493253155],[80.7093307096198,7.360294982935528],[80.70936811994966,7.360298788408537],[80.70953839610178,7.360401815686813],[80.7096051414388,7.360470282232648],[80.70968430096859,7.360532510929128],[80.70975838749901,7.360585785359347],[80.7097972074913,7.36061261816312],[80.70982957696161,7.36063499089063],[80.70992141546905,7.360695412822695],[80.71000990823755,7.360735487436114],[80.71008037604146,7.36076488859776],[80.71014594944562,7.360808577003408],[80.71019440190648,7.360853619325351],[80.71021511550387,7.360887676603962],[80.71023026424264,7.360912584232785],[80.71024003452816,7.360990807833583],[80.71065999206061,7.361574099445488],[80.71075836609315,7.361777882127116],[80.71087839791048,7.362076556401016],[80.71089239270866,7.36245367876097],[80.71088874590272,7.362805744839746],[80.71078796716981,7.36307332130258],[80.71058596217655,7.363378866297265],[80.71057584735858,7.363634043553151],[80.71062594027333,7.363896643115813],[80.71085385277729,7.363986131897388],[80.71119285294718,7.364145395523424],[80.71162641692497,7.364194534879833],[80.7119128916729,7.364279316551772],[80.71205945450268,7.364383536754077],[80.71203545976,7.364430966677602],[80.71200392176284,7.364519493342635],[80.7119630425265,7.364610880778766],[80.71196242274561,7.364612267889373],[80.7119080647311,7.364673391809816],[80.71184953540875,7.364746992685551],[80.71179915638929,7.36484736117155],[80.71176462877325,7.364950717943889],[80.71174287796474,7.365021251288237],[80.71172628955736,7.365103360445418],[80.71171830576019,7.365183929912623],[80.71170243964836,7.365263506221853],[80.71168404129803,7.365333769659781],[80.71166528597459,7.365367044369767],[80.71161590611902,7.365447609660668],[80.71157169189671,7.365517415400529],[80.71155376178339,7.36554429499928],[80.71153005398428,7.36557983788077],[80.71151107650799,7.365608286290463],[80.71146985028103,7.365692470857889],[80.71139972534641,7.365772130623052],[80.71133503760339,7.365854774459393],[80.71128375577577,7.365932807388559],[80.71127162309033,7.365945908964588],[80.7112439839024,7.36597575596305],[80.71117042056308,7.366041757514091],[80.71114804214471,7.366073222164601],[80.71113499425883,7.366094654035589],[80.71112900804732,7.366104507344938],[80.71112883403656,7.366105142139754],[80.71110780513665,7.36618101093662],[80.71109737991415,7.366243677561055],[80.71109347247675,7.366322259949735],[80.7110953668041,7.366370096908585],[80.71109744150264,7.366423362419766],[80.71109947030847,7.366437383921205],[80.71110739549863,7.366492180364172],[80.71112383984325,7.366591171296811],[80.71112612775156,7.366604951387088],[80.71113453572755,7.366697100101911],[80.71113878127244,7.366790426515688],[80.71113450869107,7.366875879737707],[80.71110850207033,7.366946774144521],[80.7110654698421,7.366978599308284],[80.71098653475116,7.366989075887135],[80.71097767854664,7.366988783408703],[80.71090685880343,7.366986441770661],[80.71088454672544,7.366985119131595],[80.71081509775703,7.366981000725719],[80.7107947390603,7.366982965506545],[80.71075703538811,7.366986600704492],[80.7106866406923,7.367062820345669],[80.71068418052327,7.367068628317669],[80.7106541999826,7.367139408171812],[80.71061125042488,7.367224587131403],[80.71059967074838,7.367246516567006],[80.71056431467271,7.367313474043832],[80.71051321150753,7.367394130283985],[80.71044635266591,7.367460676180642],[80.710360925933,7.367510580170601],[80.71033583182542,7.367522951845688],[80.71028693631335,7.367547060562251],[80.71089154180783,7.368415341834446],[80.71096570094456,7.368613490694477],[80.71101207175137,7.36870236775657],[80.71106087465883,7.368773133805713],[80.71130496836525,7.369281363617979],[80.71131536146264,7.369339937679414],[80.71133906542761,7.36943785895398],[80.71155709509516,7.370054455488103],[80.71158360409855,7.370136488566116],[80.71161020908652,7.370218819171598],[80.71177821037668,7.37066024593963],[80.71199247072572,7.371210800516423],[80.71223868778607,7.372661097543634],[80.71226487407361,7.372778222870069],[80.71232840300613,7.372905028666967],[80.71256912630983,7.373412078033247],[80.71263969087255,7.373495837301222],[80.71271058150776,7.37357998635851],[80.71303105914934,7.3737820013478],[80.71309402386558,7.373782812372263],[80.71313819290498,7.373773913955044],[80.71318470179011,7.373764543818253],[80.71326298206701,7.373742249353722],[80.7135788397451,7.373652285903387],[80.71405143497653,7.3734483676733],[80.7140766344974,7.373415806363714],[80.71421239477975,7.373372725306059],[80.71445912774357,7.373294430681929],[80.71452700836974,7.373269152167635],[80.71483013067956,7.373261757881971],[80.71485067113029,7.373277202567146],[80.71493533278871,7.373294915005571],[80.71531273242448,7.373429786331337],[80.71535524536154,7.373435249592674],[80.71543899281549,7.373468160414968],[80.71570555442017,7.373636167110701],[80.71572495930047,7.373689349932528],[80.71580704748587,7.373727811971124],[80.71604685146015,7.373898441838477],[80.71614819493834,7.373891354910408],[80.71639110380683,7.373857235668106],[80.7164112815181,7.373856082674432],[80.71653242949478,7.373847782026332],[80.71687926844444,7.373694070708731],[80.71714126817352,7.373635879267013],[80.71724148924089,7.373621975313383],[80.71732053918012,7.373627630405185],[80.71753711393367,7.373767177360416],[80.71761638128174,7.373793627757787],[80.71793422264207,7.37398854284543],[80.71819459452158,7.374069969380106],[80.71821471800565,7.374074860652687],[80.7185996567144,7.374168460560993],[80.71890675472548,7.374137543134307],[80.71919378577057,7.374020822756474],[80.7193325020836,7.373739516618643]]]]}}]}