{"type":"FeatureCollection","name":"SED_PPL_MWS_097","crs":{"type":"name","properties":{"name":"urn:ogc:def:crs:OGC:1.3:CRS84"}},"features":[{"type":"Feature","properties":{"GND_N":"Thawalanthenna","GND_NO":"737","GND_C":"025","PROVINCE_N":"CENTRAL","PROVINCE_C":"2","DISTRICT_N":"KANDY","DISTRICT_C":"1","DSD_N":"PANVILA","DSD_C":"15","Admin_Code":"2115025","GND_NO_Cen":"737","GND_NAME_C":"Thawalanthenna","GND_NO_Gaz":"737","GND_NAME_G":"තවලන්තැnt","shape_1":"Polygon","Area__Ha_":1846.77963097,"MWS_ID":"097","Alt_MWS":null,"Area":18.4677963097,"Total_Pop":3560.0,"Density":192.767991389},"geometry":{"type":"MultiPolygon","coordinates":[[[[80.7820159666622,7.429467924468901],[80.78235001851196,7.429532038546112],[80.78265288294722,7.429590165447189],[80.78286726007165,7.42963130979668],[80.78297206281488,7.429651425296793],[80.7831580564069,7.429687131469764],[80.78334405093477,7.429722836660408],[80.7837502199932,7.429800811454847],[80.7847764086295,7.429849571014823],[80.78502660287403,7.429795275609569],[80.7859003244895,7.42960566202665],[80.78664750699063,7.429129143287706],[80.78707251773123,7.428858088207371],[80.78755619817969,7.428549616720486],[80.78846875020058,7.427550522729246],[80.78868562855754,7.427313076441037],[80.78956519749596,7.426776504416779],[80.78958349674986,7.426777518495066],[80.79025007560067,7.424571082276088],[80.79093712420146,7.423664500913217],[80.79246643452112,7.423270320384676],[80.79400368863566,7.420259354729649],[80.79544137507474,7.418111465729438],[80.79754391119391,7.417531514707162],[80.79767166026996,7.417486325211834],[80.7995337903602,7.416807130180555],[80.80183333124933,7.415397933840049],[80.80406892979647,7.41389416413826],[80.80411784511435,7.413795249581952],[80.80568670645954,7.411556627455938],[80.80714287078496,7.409299960329483],[80.80722197607899,7.409212207823013],[80.80777898742318,7.407746293514713],[80.80799039655696,7.406263005298519],[80.80800072145175,7.406191025826838],[80.80852278054158,7.404876810298525],[80.80919324854753,7.403456601800113],[80.81048612156832,7.401384419804343],[80.81092300602003,7.401225606192298],[80.81101907072663,7.398176136923704],[80.81078085340712,7.396419269850107],[80.81037653247833,7.396028225859304],[80.80975318455972,7.395425348190809],[80.80821331277689,7.395076915178139],[80.8046583859278,7.39485124352476],[80.80120633726452,7.39464358945462],[80.80083734799419,7.393800988094956],[80.80045810229839,7.3928476796405],[80.80020605991935,7.391531321301797],[80.80014055299655,7.390221597631188],[80.80019172283464,7.390100270170731],[80.80015791852743,7.389358631569398],[80.79997577351102,7.388441975034736],[80.79959257250215,7.387740559961519],[80.79890230420806,7.387415726799531],[80.7983646706018,7.387288125029799],[80.79833728594141,7.38728162625945],[80.7982917341912,7.3878451179272],[80.79769876137078,7.388030884864091],[80.79666820692607,7.388105001655659],[80.79603639259349,7.388954894588656],[80.79425742859858,7.39127429906903],[80.79415727618196,7.391233074161669],[80.79406043774854,7.391221496629639],[80.79400233665524,7.39126396674908],[80.79391325138538,7.391453141130441],[80.79386289744225,7.391499470485364],[80.793812542426,7.391518777493027],[80.7937699345969,7.391518778256478],[80.79369633557766,7.391511059295979],[80.79349878359479,7.391472462305648],[80.79326249835117,7.391484052727951],[80.79313854921024,7.391553548475223],[80.79304558752352,7.39167709313686],[80.79293713624195,7.391873989878062],[80.79289065801834,7.391958925423581],[80.79279567963113,7.392031756871114],[80.79268722403272,7.392116697391415],[80.79238121787142,7.392209363252176],[80.79226114211927,7.392309743228044],[80.79218367582216,7.39242942578533],[80.79211476875092,7.392564339177769],[80.79207522361686,7.392641765974695],[80.79202486975636,7.392699677415508],[80.79177696979936,7.392900439216495],[80.79169562645471,7.392977654913714],[80.79099488215168,7.392904566626354],[80.79093982663527,7.393018238239666],[80.79082184646312,7.393116233113912],[80.79070386587712,7.393175033717202],[80.79046003929882,7.393363184167304],[80.79022800810957,7.393469023681628],[80.79007463327133,7.393570940510243],[80.78990159635441,7.393735571198666],[80.78982687509561,7.393802209640593],[80.78958803868952,7.393942872775677],[80.78928521960536,7.394107507967329],[80.78904138809278,7.394193748277456],[80.7888919449574,7.394256466730011],[80.7888368888695,7.394342700665182],[80.78880149501568,7.394432854190922],[80.78879765120963,7.394459674977995],[80.78868816351017,7.394419708802155],[80.78654050688552,7.395225447000031],[80.78651112444958,7.395259071411353],[80.78644122440281,7.395324096803307],[80.78632006341961,7.395361255476073],[80.78604978262626,7.395454151303688],[80.78578982804042,7.395511932720463],[80.78571608057575,7.395534745285256],[80.78565468564712,7.395553736001395],[80.78541702231682,7.395581609674222],[80.78476927155448,7.395590910490894],[80.78452477676295,7.395661453284506],[80.78084311036463,7.3951948364541],[80.77899662519367,7.395432143677232],[80.77752200237882,7.395022329653361],[80.77625961936474,7.394889083321951],[80.77522854238677,7.395781652017383],[80.77482945880178,7.396091514294543],[80.77374322890364,7.396295970994523],[80.7736971735858,7.396319024083742],[80.77367854763264,7.396328347322085],[80.77346663874695,7.396434416962954],[80.77345778188024,7.396438849792044],[80.77336556153102,7.396490574330917],[80.77333911861093,7.396510246329401],[80.77329834360542,7.396540581752488],[80.77316621955423,7.396636987514023],[80.7731128164187,7.396675951675164],[80.77299387293944,7.396770359877839],[80.77294196343588,7.396828051208896],[80.77293682521216,7.396833191219526],[80.7729362146404,7.396833801618375],[80.77282156935135,7.396948413710741],[80.772797351247,7.396966738284969],[80.77276504262213,7.396991185818655],[80.77271290675594,7.397028653322437],[80.77263984568769,7.397081160085442],[80.77258041813312,7.39714084529613],[80.77251093611471,7.397201972773715],[80.772410925628,7.397270608388399],[80.77238527534757,7.397281550210236],[80.77234352558413,7.397299363673933],[80.77227005871556,7.397338157544671],[80.77217455788491,7.397383424188527],[80.77216017233572,7.397390243391704],[80.77207230174764,7.397437807914779],[80.77205687259739,7.39744626750749],[80.7719240534253,7.397519109507286],[80.77185568392484,7.39755660659134],[80.77184591659358,7.397561963575141],[80.77179002203503,7.39760147917505],[80.7717441836669,7.39764651291878],[80.77173483297761,7.397657962183306],[80.7716785956648,7.397726813304554],[80.7716302233976,7.397781945344161],[80.77158338571117,7.397835327571401],[80.77151965759603,7.39790123237822],[80.77151045819991,7.397910746434439],[80.77142702512118,7.397982273960909],[80.77137362889869,7.398023020289553],[80.77134087350959,7.398048014816265],[80.77130049043322,7.398082147220619],[80.77124022652956,7.398133107540318],[80.77123060222995,7.39814532182988],[80.7711984644577,7.398186098221612],[80.77116250000066,7.398244516583186],[80.7711397517082,7.39828909657092],[80.7711181086211,7.398331508055504],[80.77106012998547,7.398402313271634],[80.77103078419964,7.398437189116997],[80.77092369930992,7.398564451979487],[80.77088528920666,7.398596554212655],[80.77086481664068,7.398552968442824],[80.7708150844996,7.398530448917102],[80.77079923148486,7.398526559320505],[80.77076979008787,7.398526105899599],[80.77071878751097,7.398534243973888],[80.77069324140093,7.39853668526575],[80.77057520360995,7.398568424738653],[80.77047981327189,7.398582438361466],[80.77046970362228,7.398576641656726],[80.77038487859966,7.398527997257177],[80.77034918662672,7.398455740384059],[80.7703500956911,7.398354369111281],[80.7704002844362,7.398235094231739],[80.77040262258177,7.398231582860372],[80.7704575549511,7.398149085071631],[80.77048018721176,7.398115095391016],[80.77054885682074,7.398003506393267],[80.77055411276653,7.397935141272583],[80.77054867662605,7.397927906790684],[80.77051778556083,7.397949426955008],[80.7704212776365,7.398020424201948],[80.77039240759925,7.398041663146515],[80.77029463763151,7.398120081046483],[80.77027346225681,7.398137065349044],[80.77020434195245,7.398210402347094],[80.7701780686836,7.39825995679954],[80.77016560036199,7.398301390814443],[80.77016293964375,7.398310234845614],[80.7701459079028,7.398384297800706],[80.77012056433315,7.398414251528972],[80.77009128007693,7.398448863257271],[80.77005220576622,7.398490917246622],[80.77001826338956,7.398527445119147],[80.76995026189283,7.398591232669393],[80.76993410604244,7.398606387625446],[80.76986867716403,7.398675951877296],[80.76984828708446,7.398697631303494],[80.76983255244241,7.39871436065067],[80.7698079106801,7.398759122306452],[80.7698077195331,7.398759413488709],[80.76975627379625,7.398837976631022],[80.76971967357207,7.398868811863732],[80.76967573766159,7.398885178161628],[80.76960915465452,7.398891053314042],[80.7695661120907,7.398897869287477],[80.76948921451893,7.398910041820391],[80.76946412034846,7.398917094985817],[80.76944120223881,7.398916823342085],[80.76942344566768,7.39893092926505],[80.76939518266724,7.398939519689888],[80.76933503067785,7.398938071868529],[80.76927569516428,7.398919712711503],[80.76919217445501,7.39888561741159],[80.76909388704188,7.398839495552361],[80.76901618230156,7.398797689335606],[80.76900782644749,7.398793193011941],[80.76898237759228,7.398774528716819],[80.76896787900189,7.398763893893255],[80.76895691311692,7.398769258932372],[80.76894477862432,7.398775196374686],[80.76888634877187,7.398772754694024],[80.76883027368476,7.398749149679555],[80.76881757416353,7.398740428383093],[80.76877338447157,7.398710082898738],[80.76875219501873,7.398697602275556],[80.76868370411296,7.398657268359709],[80.76867329455695,7.398656041044153],[80.76862690495237,7.398650575552082],[80.76853278303143,7.398650300817776],[80.76845523904665,7.398641164202775],[80.76838747892393,7.398617923359486],[80.76831899389634,7.398605802687313],[80.76824081570399,7.398602002306218],[80.76820901913743,7.398593592629659],[80.76815991973822,7.398603990294975],[80.76810962244409,7.398630974629271],[80.76810311990452,7.398634463304222],[80.76802195186617,7.398652457397841],[80.76799906182228,7.398653861351003],[80.76797629407349,7.398655257166566],[80.76792302787943,7.398649289585125],[80.76782917670786,7.398654892666506],[80.76777674804842,7.398529277868203],[80.76771083774565,7.398415626710487],[80.76763593649966,7.398349827381345],[80.76755504345218,7.398343844747701],[80.767456174087,7.3984216018621],[80.76718952163378,7.39861599957793],[80.7669678111526,7.398762543352135],[80.76665621863131,7.39888515906818],[80.7664764552696,7.398941980528249],[80.7664045491322,7.398950951412238],[80.76632964768416,7.398938986735899],[80.76622478725405,7.398900103029537],[80.76609595955195,7.398789440729892],[80.76595814576969,7.398627934741445],[80.76585328671462,7.398535218788693],[80.7656705305384,7.398394646229422],[80.76552971973308,7.398295947385092],[80.76535595152116,7.398137430859914],[80.76522712658226,7.397969942908271],[80.76504813308236,7.39768295473816],[80.76498034453063,7.397756949292322],[80.76496115949199,7.397798153298774],[80.76494459170401,7.397833736233391],[80.76491278241323,7.397902056297965],[80.76489212461347,7.397969698420117],[80.76488655861036,7.39797848175714],[80.76483006873968,7.398067631764779],[80.76478069422348,7.398136446018778],[80.76475492999477,7.398165606358835],[80.76472652048982,7.398197756249072],[80.76468430367986,7.398254756884394],[80.76460938401226,7.398355915504058],[80.76455176734393,7.39843630547742],[80.76452727092123,7.398480770234454],[80.76451081646117,7.398510635257003],[80.76448055798717,7.398577103320367],[80.76444078685975,7.398639768540547],[80.76443147277058,7.398697462721578],[80.76443027498588,7.398704877961086],[80.76441824128254,7.398733637137242],[80.76439557809049,7.398787802376459],[80.76436124065991,7.398843052462874],[80.76430489333644,7.398912320433714],[80.76426294874207,7.398948309591733],[80.76424566957571,7.398956302243814],[80.7641949146255,7.398979776529623],[80.76412443678981,7.39899731805312],[80.76407624192592,7.399018928630259],[80.7640284090605,7.399053290765962],[80.76399108702364,7.399095249319072],[80.76394905076191,7.399168405231441],[80.76391715964041,7.399238576323254],[80.76391274935636,7.39925317162469],[80.76389478025435,7.399312638886727],[80.76388386794636,7.399375399810473],[80.76386563213578,7.399480271130944],[80.76385590854134,7.399536182003926],[80.76384258893324,7.399610876019453],[80.76382099969032,7.399676524075916],[80.7637958409211,7.399753029977206],[80.7637915756813,7.399763703326194],[80.76376590270155,7.399827967683596],[80.7637625506639,7.399836361314306],[80.7637610522125,7.399840112314068],[80.7637485922654,7.399883008401592],[80.76374030254418,7.399911553344039],[80.76373021199392,7.399937075155998],[80.76371403069182,7.399977995238745],[80.76371360307998,7.399979077675367],[80.76370125125696,7.400010314607097],[80.76369600032743,7.400023594123618],[80.7636556063404,7.39996873263179],[80.76363467560645,7.399940304419186],[80.76355713669312,7.399781958133876],[80.76345885286625,7.3996254234556],[80.7633320398347,7.399346438284171],[80.76323203269395,7.399237104417468],[80.76315275508969,7.399189058358244],[80.76314235293445,7.399182753261528],[80.76309099155408,7.399094852741219],[80.76308582846633,7.399078484732883],[80.76307177037809,7.399033868797806],[80.76304778648874,7.398957759366596],[80.76300775015571,7.398854124328841],[80.7629851969422,7.398799682902112],[80.76294470461742,7.398738008333425],[80.76291207660122,7.398697404220166],[80.76290539048101,7.39868908625469],[80.76285511674,7.398645496506701],[80.76280203228727,7.398623339515208],[80.76274721979313,7.398618047685845],[80.76272611897168,7.398616010555882],[80.76270537301646,7.398621886977312],[80.76268535240881,7.398636536047835],[80.76264496054421,7.398697394294142],[80.7626375192211,7.398708607403029],[80.76260100866145,7.398753730015733],[80.76254873823315,7.398801928571943],[80.76249755444545,7.398834390502803],[80.76245715032655,7.398851117014742],[80.76243540893354,7.398852201499486],[80.76240986309722,7.398843882034283],[80.76240503567826,7.398841692569888],[80.7623891185125,7.398834475747465],[80.76237090961685,7.398821814054075],[80.76235949786128,7.398801285150817],[80.76235136818617,7.398779465912066],[80.76233857357373,7.398745128282621],[80.76231448837729,7.398697381316955],[80.76230025774171,7.398669166665895],[80.76229527646868,7.398633716085783],[80.76228640280668,7.398562727242275],[80.76227734390503,7.398534331892895],[80.7622261655376,7.39842490980731],[80.76216919147001,7.398282300573851],[80.76211312094617,7.398185808020371],[80.76202643059187,7.398114998447304],[80.7619764142558,7.398100031556077],[80.76190884831749,7.398079815526621],[80.76178773131556,7.398071398877329],[80.76174669466741,7.398068503772709],[80.76169478886358,7.398019940181717],[80.76164007793568,7.397904459995396],[80.7616131769709,7.397813757675277],[80.76157948209084,7.397716090198894],[80.76152159949434,7.39763452029123],[80.76134911946377,7.397606480281756],[80.7611975636667,7.397604301224237],[80.76102644168336,7.397626268101106],[80.76085921340797,7.397641906745895],[80.76084907463725,7.397644143635808],[80.76074235482325,7.397667854319129],[80.76070892635553,7.39767671439915],[80.76067984628065,7.397681776563289],[80.76064116574894,7.397682861270172],[80.76058527278049,7.39767453882285],[80.76044603862522,7.397627870122816],[80.76026875751813,7.397598292211973],[80.76008087833316,7.39757214928574],[80.75993289070213,7.397573839434129],[80.7598759656229,7.397574490243058],[80.75970257744784,7.397610201909841],[80.75973892068063,7.397587671688966],[80.76013607892948,7.397438225155145],[80.7601428296925,7.397435684313192],[80.76038526646298,7.397344458978914],[80.76038019175876,7.397342394277247],[80.760346133628,7.397328542776929],[80.76028027593823,7.397320672084779],[80.76015308972322,7.397312526063436],[80.7600857826832,7.397302937117247],[80.76002816887676,7.397286747114757],[80.75993287181988,7.397250841949355],[80.7598990427085,7.39724215488885],[80.75983213818016,7.397224975212838],[80.75974734776806,7.397209507609002],[80.75972769122852,7.397201640359375],[80.75971654944557,7.397184998989219],[80.75971467640596,7.397176071655506],[80.75971174819642,7.397162121792269],[80.75971709367053,7.397142227359521],[80.75972660698234,7.397126221578125],[80.75975251637335,7.397098369152968],[80.75977942268054,7.397082907501763],[80.75980949734596,7.397079019216322],[80.75988993967138,7.397089333938434],[80.75991295444598,7.397094051622631],[80.75991376430231,7.397094217139617],[80.75999755743894,7.397131025285286],[80.76001966176159,7.397136816336442],[80.76005154892188,7.397137991284798],[80.7600813509763,7.397132477037047],[80.76010415381887,7.39711125752939],[80.76010544928047,7.397110051238394],[80.76011188281477,7.397087172645606],[80.76010164692302,7.397070081880086],[80.7600741088687,7.397045754263717],[80.7599528146759,7.396937775327721],[80.75993020386402,7.396910408526058],[80.75988795795048,7.396859277765937],[80.7598340917874,7.396771790035959],[80.75983188699435,7.396768213442106],[80.75978025569844,7.396704366036972],[80.75976123270824,7.396688086999911],[80.75967653372494,7.39665299604393],[80.75965660570348,7.396638255185395],[80.7596379445799,7.396611035013081],[80.75962934180919,7.396575676503459],[80.75963106310805,7.396548458902148],[80.75964075323583,7.396527712780448],[80.75964229789436,7.396524403999125],[80.7596567915657,7.396513372063222],[80.75970978663358,7.39649239424701],[80.75972709118939,7.396483351876759],[80.75975281822714,7.396461740932731],[80.75977338290966,7.396456768038479],[80.75997153661599,7.396470353437141],[80.7601802861852,7.39424791344685],[80.76018838517085,7.394161684967975],[80.76019419181767,7.3941130509351],[80.76020362036695,7.394034077715048],[80.76020884797768,7.393990280769928],[80.76021167971285,7.393966560137493],[80.76012001765883,7.39400749093158],[80.75986487047487,7.394171099584344],[80.75982172598293,7.394247662490857],[80.75974502225858,7.394396002178766],[80.75968749273223,7.394558699259671],[80.7596419490389,7.39464483228113],[80.75953408783747,7.394781209566641],[80.75937589141618,7.394936724456896],[80.7592943967849,7.395022855169034],[80.75912182366318,7.395065915905399],[80.75891809465392,7.395058731462376],[80.75878147706725,7.395027620848752],[80.75858733784804,7.394972582803291],[80.75836923023716,7.394910366267507],[80.7582398038875,7.394850544203581],[80.75808401674318,7.394716550212091],[80.75787310555637,7.394482064282771],[80.75767897210724,7.394276289623672],[80.75743930146959,7.394020267244504],[80.75732186815931,7.393797746194005],[80.75721162803657,7.393481913251057],[80.75704626473026,7.393118225873875],[80.75689048144869,7.392876563498834],[80.75681378713298,7.392814350529641],[80.75669874251447,7.39275213766993],[80.756554935631,7.392725812524857],[80.75593655670036,7.392780814153763],[80.75576878037572,7.392792771267793],[80.75568489182129,7.392807122277596],[80.75551950873661,7.392898035790513],[80.75503058872569,7.393174254247358],[80.7546230818875,7.393326274831558],[80.75399511629571,7.39335495540972],[80.75385036656793,7.393360342298244],[80.75371469226342,7.393287946099584],[80.75364519223793,7.393165918828228],[80.75349180483992,7.392998426209462],[80.75327130978125,7.392785470832214],[80.75310593618109,7.392668222264697],[80.75297171855038,7.392584473312103],[80.75283270759587,7.39250790241271],[80.75274163085037,7.392505504824678],[80.75266493283645,7.392507892640808],[80.75259542232878,7.392538993306442],[80.75251632519657,7.392615554499782],[80.75243003447059,7.392708861150473],[80.7523533299709,7.392847630253232],[80.75230059094318,7.393010327548944],[80.7522598363882,7.393177809239243],[80.75217833147506,7.39343381713089],[80.75211121200229,7.393586942493077],[80.75200996907049,7.393753662158806],[80.7515766947103,7.394101329610479],[80.75148801078738,7.394134821817924],[80.75141131158026,7.394137210321759],[80.7512555230671,7.394084562199474],[80.75097270703414,7.393945774811341],[80.75067790674443,7.393816555873455],[80.75054129143733,7.393747160034744],[80.75046939031407,7.393694518287916],[80.75036153667084,7.393641873533656],[80.75030880648346,7.393639479487655],[80.75025128335326,7.393651438229422],[80.75010747219095,7.393699282723879],[80.74989192271863,7.393760168379869],[80.7498597255815,7.393857608578481],[80.74985701560666,7.393865813145506],[80.7497675075541,7.393954881525691],[80.74976487820221,7.393978211444329],[80.74975083056582,7.394071716289945],[80.74974720365982,7.394128325349342],[80.74973173341148,7.394167475257334],[80.74971286559371,7.394215226678051],[80.7496669296439,7.394300136038694],[80.74962625096846,7.39439237235982],[80.7496241126664,7.394399418549205],[80.74959471916084,7.394496273810335],[80.74953835670608,7.394727500323106],[80.74953641851987,7.394735889411685],[80.74951017371315,7.394849487996976],[80.74949721453832,7.394918395895595],[80.74949308304241,7.39497457628141],[80.74948461152397,7.39508976026915],[80.74948238506936,7.395131374280817],[80.74947699170177,7.395232096863634],[80.74947591570235,7.395273946966936],[80.74947508486795,7.395306249469945],[80.74948468121761,7.395375700400859],[80.74951275065433,7.395484907343702],[80.74953458274919,7.395569857831403],[80.7495604845745,7.395661646889677],[80.74957433899726,7.39573950717246],[80.74957480035602,7.395765216490591],[80.74957948170952,7.396025267644332],[80.74957951323245,7.396028307907692],[80.74958119160374,7.396197718032159],[80.74958558076978,7.396300500292544],[80.74958878851811,7.396375595484598],[80.74958832523674,7.396517298586594],[80.74959103657507,7.396592174907199],[80.74958905332811,7.396611616364589],[80.74957372304553,7.396761819910916],[80.74955505949791,7.396815082144096],[80.74951419930841,7.396878652078212],[80.74945349889636,7.396948856576765],[80.74944914943336,7.396953885134715],[80.74941037436665,7.397005789696407],[80.74938391852567,7.3970562481169],[80.7493724985815,7.397136549391199],[80.7493728564916,7.39719487775739],[80.7493736144448,7.397199391171476],[80.74938299966323,7.397255285703797],[80.74939205467857,7.397288925358518],[80.74941189100839,7.397346620985323],[80.74942320751414,7.397433615462119],[80.74942364855664,7.397435670965781],[80.74945101036789,7.397563838347195],[80.74946160394308,7.397621622939713],[80.74946133765867,7.39763583492418],[80.74946078508627,7.39766548241163],[80.74945906157232,7.397688993239333],[80.74944837270208,7.397708978559804],[80.74938876084096,7.397767572786807],[80.74933594371659,7.397801480893871],[80.74923547986285,7.397845965523568],[80.74923255377664,7.397847087583738],[80.74916182763832,7.397874263866139],[80.74907630736791,7.397917302487824],[80.74899124110782,7.39797218837297],[80.74894884361636,7.398003473694224],[80.74891260566217,7.398042808576577],[80.74891199683148,7.39804400402552],[80.74887373833428,7.398119218745383],[80.74884338434344,7.398198704060011],[80.74882308799988,7.398270413001279],[80.74881139637979,7.398347097938538],[80.74879046483895,7.398421340690966],[80.74876790390243,7.398476048623823],[80.74876288109866,7.398528782646013],[80.74874995378678,7.398664503008434],[80.74874845164071,7.398696605612849],[80.74874740485436,7.398718990623295],[80.74874587095982,7.398751768738758],[80.7487260235448,7.398858294206875],[80.74870599763051,7.398936153310562],[80.74870157437564,7.398947401640625],[80.74866132836439,7.399049730786409],[80.74862871044367,7.399143864719282],[80.74859928701335,7.399247164846122],[80.74859319084449,7.399268565661663],[80.74857479471031,7.39934443449212],[80.74857524571404,7.39939001221027],[80.74860318422799,7.399449194138999],[80.74862143823984,7.399487861389],[80.74868219821026,7.39960372424382],[80.74868275979645,7.399604792258449],[80.74873357353488,7.399699205366435],[80.74874539314861,7.399721205035518],[80.74876092649052,7.399750118317321],[80.74878058141644,7.399811883310508],[80.74877260681092,7.399841724760118],[80.74874905078369,7.399872831267523],[80.74872286654109,7.399907465290191],[80.74869740366707,7.400024932448984],[80.74868806782759,7.40009311528221],[80.74867540974708,7.400122948300475],[80.74862591265826,7.400239607325525],[80.74859284310135,7.400311225929427],[80.74858494838013,7.400323564628883],[80.74855026106789,7.400377779850812],[80.74852108962025,7.400433754279996],[80.74850005294877,7.400491927571437],[80.7484739713821,7.400564060244947],[80.74843383332768,7.40068957474868],[80.74842900465927,7.400708059268288],[80.74841547278636,7.400759876691185],[80.74840320403028,7.400806860702519],[80.74837607593517,7.400881954890197],[80.7483702944179,7.400897957946632],[80.74836795680358,7.40090443259688],[80.74835300550089,7.400939969793121],[80.74833575470224,7.400980806049614],[80.7483356024895,7.400981163239041],[80.74831033060792,7.401040977560657],[80.74829923882913,7.401069815029604],[80.74826838080853,7.401150033650211],[80.74823992884745,7.401244349571819],[80.74822479501238,7.401315245833805],[80.74822370802586,7.401328179081356],[80.74821917423397,7.401382074243959],[80.74823565215546,7.401501533473932],[80.74823907541253,7.401517773130951],[80.74826971991598,7.401663112543693],[80.74827758073536,7.401700391047295],[80.7482870876365,7.401750942083087],[80.7483118161946,7.401803303582494],[80.74832720915077,7.40188993660515],[80.74832430332111,7.401985973209923],[80.7483176859669,7.402039960479738],[80.74829274762575,7.402081724966464],[80.748290959197,7.402084719899502],[80.74823922812935,7.402139608628417],[80.7482447526883,7.402176233174782],[80.74832427905224,7.402327708628183],[80.74836340823755,7.402401682922156],[80.74837264336628,7.402467064476867],[80.74836892532625,7.402513999283292],[80.74834709766844,7.402558089829902],[80.74833948081718,7.402573499547848],[80.7482980745085,7.402638063144527],[80.74827950065396,7.402684815250526],[80.74827786577646,7.402752275110401],[80.74834263173395,7.402814587341582],[80.74841201806495,7.402886934882705],[80.74844451893122,7.40293086334658],[80.74848294387685,7.402982797052095],[80.74853231211995,7.403034165344462],[80.74866701570087,7.403090603023461],[80.74869117277777,7.403098952126418],[80.7487164757926,7.403107698287272],[80.74885281357928,7.403106892843973],[80.74891359973677,7.403101020439112],[80.74896668514756,7.403105003531459],[80.74899796967395,7.40311606776746],[80.7490347175579,7.403129062114647],[80.74905029568566,7.403153752298709],[80.74908199905957,7.40320394204815],[80.74912402844384,7.403259651375752],[80.74912285021287,7.403283614379984],[80.7491241135513,7.403334344847248],[80.74913688444289,7.40335686362966],[80.74916177264808,7.403408904965818],[80.74918969070501,7.403467282018886],[80.74928688339122,7.403636574005773],[80.74931632273035,7.403690911629525],[80.74932039791611,7.403698430236195],[80.74936731722697,7.403757395320298],[80.74937909371762,7.403790674314393],[80.74937549781819,7.403841739981657],[80.74937165530113,7.40389629623621],[80.74936549206558,7.403962490705614],[80.74937735587385,7.404004994480485],[80.7494003636328,7.404039810560531],[80.74944907966243,7.404094294931793],[80.74947192402395,7.404119847337525],[80.74951395263784,7.404175554817794],[80.74957654899923,7.404228551530414],[80.74966179129721,7.404247908684476],[80.7497119773674,7.404261929257054],[80.7497754793143,7.404290508961401],[80.74980048031955,7.404306517484713],[80.7499129903331,7.404355176473816],[80.74995493364294,7.404368957794689],[80.74998926572239,7.404380231034759],[80.75010684717432,7.404441460060035],[80.75015023840196,7.404465970076091],[80.75020962434,7.404519402383886],[80.75021074850426,7.404520413458429],[80.75027986839926,7.404527019807469],[80.75038060581151,7.404538059063807],[80.7503856280953,7.404538644439095],[80.7504239954806,7.404543126579298],[80.75046485071192,7.404559044652384],[80.75051273218023,7.404589487108992],[80.75051648519182,7.404591874681348],[80.75062025880439,7.404672443058367],[80.75069656945617,7.404731690933387],[80.75071380799187,7.404745167819849],[80.75085192194547,7.404853154716287],[80.75085237668792,7.40485351103693],[80.75093625744323,7.404922967958445],[80.75099957666534,7.404981660703884],[80.75104559411794,7.405039538587666],[80.7510684460209,7.405062392476791],[80.7511019362424,7.405095880643794],[80.75116643390736,7.405141823690896],[80.75121978458444,7.405169395223928],[80.75122296058689,7.405171035805085],[80.75126290897562,7.405205131109796],[80.75139400253096,7.405279547072569],[80.75143067594169,7.405300365230313],[80.7515026922261,7.405337989982991],[80.7515175415792,7.405341771693092],[80.7515690939838,7.405354903204358],[80.7516104029474,7.405358885327382],[80.75168490795838,7.405393168796166],[80.7516856806741,7.405393525133533],[80.75179755559434,7.405468318815863],[80.75180508701483,7.405473035160621],[80.75189113128546,7.405526923572909],[80.75197211664037,7.405571057900565],[80.75199671100687,7.405587788814439],[80.75201333371983,7.405599094389766],[80.75209812469558,7.405628580129071],[80.75216697061856,7.405646035974835],[80.7521780341291,7.405651409931708],[80.75221706668219,7.405670366196524],[80.75226768548357,7.405727648267502],[80.75230016558612,7.405764402624639],[80.75230665327351,7.405771743186322],[80.75235908339113,7.405838565720584],[80.75236036968661,7.405840203479038],[80.75242341704286,7.405906584373496],[80.75246934352695,7.405943029264192],[80.75254425955225,7.405985356368675],[80.75261390132985,7.406012329956391],[80.75261781656823,7.406013846677689],[80.7527219940028,7.406043694145582],[80.75280928902066,7.406073381541054],[80.75282997588708,7.406080416286422],[80.75293223682243,7.406120521995192],[80.7529960235001,7.406152861337995],[80.75306166180836,7.406186123155446],[80.75314540144016,7.406228560039822],[80.75314581996341,7.406228653204596],[80.75324473004181,7.406250896912712],[80.7532467719279,7.40625135549915],[80.75336835558525,7.406297478423375],[80.75337504465747,7.406300015332558],[80.75347326186542,7.406372718952785],[80.75349172170019,7.406386382079785],[80.75352107662175,7.406439931770302],[80.75433566670094,7.407026390253881],[80.7544775968243,7.407175176460857],[80.7545049549224,7.407236362809168],[80.75460118605399,7.407175741364727],[80.75467226165783,7.407176588538961],[80.75466825407506,7.407192088967903],[80.75457369767574,7.407425073899316],[80.75458238721069,7.407663979798055],[80.7546013305698,7.407665641923519],[80.75466252801122,7.407671013739693],[80.75469957976446,7.407668575736423],[80.75473898737982,7.407637197499265],[80.75492271488501,7.407498849217284],[80.75497263021336,7.407483751595115],[80.75504908944781,7.407470462933992],[80.75513379337644,7.407456450307],[80.75516396195924,7.407436376259041],[80.75520527466375,7.407385557407432],[80.75524314415567,7.407331574239618],[80.75525338455313,7.407254798663351],[80.75525055171296,7.4072180947594],[80.75524795335811,7.407184443786718],[80.7552493210563,7.407055580050756],[80.75525874583835,7.406984955490447],[80.75526930617902,7.406885522665253],[80.75527886775981,7.406795505374582],[80.75528049710374,7.406784441328337],[80.75528448618716,7.406757345040418],[80.75528937869714,7.406744323336507],[80.7553032410407,7.406721625130554],[80.75531864575584,7.406707057567579],[80.75532045493088,7.40670534942824],[80.75534609060836,7.406697935367967],[80.75536556855188,7.406696670263571],[80.75538432071103,7.40669866060797],[80.75539945005866,7.406702640243664],[80.75540483898524,7.406709173167576],[80.75540579103806,7.406710326196122],[80.7554066051065,7.40671756154702],[80.75539310491494,7.406764041986365],[80.75538440610731,7.406789543771106],[80.75535532129456,7.406880966333411],[80.7553459866847,7.406960814770966],[80.75536944367818,7.40702999580861],[80.75538176038496,7.407106771545431],[80.75538275378838,7.407172334320911],[80.75538927011362,7.407284647910103],[80.75538192900825,7.407334475455464],[80.75535166772306,7.407399582800307],[80.75530999066675,7.407492722935718],[80.75527601687658,7.407540288468728],[80.75522789805372,7.40759167309656],[80.75521124028113,7.407609461716521],[80.75514293026659,7.407667153781038],[80.75505897215578,7.407750610432023],[80.75505652608695,7.407753051023601],[80.75500434172002,7.407818701685036],[80.75494337038775,7.407895653872145],[80.75487560771559,7.407929381040404],[80.75480159367419,7.407956597833341],[80.75475306401152,7.4079781829583],[80.75468491012617,7.408008499055083],[80.75464024620184,7.408043763716556],[80.75463320414678,7.408052494399594],[80.75460917255421,7.408082287232883],[80.75458346728371,7.408121491043451],[80.75456233356705,7.408153722915332],[80.75453574159154,7.408189095156395],[80.75451803081882,7.408212654042844],[80.75447164523739,7.408274352224557],[80.75446666278307,7.408291805893152],[80.75446702349684,7.408306908641444],[80.75447408996038,7.408317759695676],[80.75448622888172,7.408323095666941],[80.75449963631652,7.408323548474768],[80.7545115936752,7.408318212780629],[80.75453922540368,7.408287739190503],[80.75456323392757,7.408266851916194],[80.75463969546158,7.408209522060011],[80.75471081135554,7.408167746812247],[80.75480321546036,7.4081203659163],[80.75487559970286,7.408095140315659],[80.75495504891049,7.408074253878413],[80.75508033792272,7.408036008845872],[80.75515851976547,7.407995680744735],[80.75521876469321,7.40793446242703],[80.75528290568454,7.407878127510462],[80.75535673972398,7.407844218801458],[80.75538273913703,7.407828305231637],[80.75549476069581,7.407777622605985],[80.75549926768457,7.407775583618017],[80.75556607644869,7.4077400630811],[80.7555806627831,7.40773346507638],[80.75562061488984,7.4077000068942],[80.75562487294303,7.407693884070028],[80.7556557664746,7.407649458100842],[80.75570912949348,7.407560387829262],[80.75575035435756,7.407468693613006],[80.75576548499396,7.407406388876045],[80.7558157751419,7.407218928688719],[80.75584476698322,7.407157892416498],[80.75589604580746,7.40707994311857],[80.75595284963397,7.407004257532702],[80.75600213485896,7.406958501247695],[80.75604045790382,7.406928116671336],[80.75610215054847,7.406879199503567],[80.75619537553898,7.406759747367635],[80.75621254037384,7.406745793873645],[80.75626567643376,7.406702599617578],[80.7562770003808,7.406699887224299],[80.7562876908096,7.406703595339688],[80.75629321565255,7.406709743026757],[80.75629774566795,7.406719059339885],[80.75629964771143,7.406727017274617],[80.75630471805972,7.406767350233582],[80.75630321734997,7.406819240768701],[80.75630145079576,7.406880297287104],[80.75629700671283,7.406954087147859],[80.75629990447918,7.406979225942721],[80.75630660852639,7.406991795124248],[80.75631494161001,7.406999574296229],[80.75632880283754,7.407000659175737],[80.7563428427078,7.406997766946882],[80.75635842677971,7.406982938013099],[80.75637727031095,7.406947760642804],[80.75644277400126,7.406839701405977],[80.75648675866488,7.406774479750171],[80.756502660182,7.40675090261697],[80.75651380248183,7.406738331519576],[80.7565239487746,7.406735078295621],[80.75653454763314,7.406740504572997],[80.75654559905813,7.40675461125599],[80.75655003841213,7.406765644830197],[80.75655003680913,7.406781289238259],[80.7565185042781,7.406897490521259],[80.75648775585158,7.407022506962818],[80.75647682319439,7.407066954680244],[80.75644692040562,7.407202145446558],[80.75643794142195,7.407396117615625],[80.75643025765002,7.407554771460267],[80.7564296800517,7.407566706399254],[80.75641130995228,7.407750672958575],[80.75640894931978,7.407888307465837],[80.7564022394634,7.408045112958766],[80.7563707062613,7.408193507339625],[80.75636614572109,7.40827838573017],[80.75636299958254,7.408336928226247],[80.7563635428555,7.408342987971491],[80.75636807301514,7.408349498237304],[80.75637858120963,7.408357366126681],[80.7563883647948,7.408362612414811],[80.75639615471334,7.408362523237708],[80.75640476117294,7.408355377836446],[80.75651112019872,7.408237371303127],[80.75660012348385,7.408125712168171],[80.75660316569541,7.408121897057048],[80.756615034156,7.408118551668834],[80.75663016262914,7.408123164273236],[80.7566379529519,7.408134286615634],[80.75664759099847,7.408152867714101],[80.7566484605967,7.408154544326568],[80.75665425776037,7.40816928468883],[80.75670679111953,7.408340018128489],[80.75672880020133,7.408483261277327],[80.75676747454027,7.408644229455521],[80.75679320195454,7.408674524667309],[80.75684495577971,7.408734302132812],[80.75684628468245,7.40873583769401],[80.75692436997515,7.4088516811525],[80.75767079619912,7.409659006923388],[80.75792948295047,7.410009679361618],[80.75837984662635,7.410815016583752],[80.75893206432944,7.411359691686564],[80.75996462272535,7.411986000774506],[80.76039810053746,7.412079624292351],[80.76028959570185,7.413044100634578],[80.7603768991788,7.413520843012666],[80.76028648837436,7.414397522283528],[80.76075700194185,7.415596495260054],[80.76088971272068,7.416321189274132],[80.76128559926188,7.417476720013176],[80.76154656778512,7.418275102310586],[80.76209657394718,7.419433015634697],[80.76283941883072,7.420128797660881],[80.76339641887976,7.420547454696258],[80.76377848072462,7.421974628135064],[80.763842138659,7.422634280020615],[80.7642621636176,7.423028623563754],[80.76527485026392,7.423519268110741],[80.76642630161616,7.423630243838475],[80.76709212421028,7.423512174609053],[80.76716817135626,7.423215093603662],[80.7672621893131,7.422794924999714],[80.76733553111966,7.422451686597771],[80.76767840168777,7.422351435410766],[80.76784546170666,7.42232395150909],[80.76786017182941,7.422397453329272],[80.76793680773318,7.422690900272351],[80.76811563553728,7.422933436981627],[80.76829455345789,7.423163132552163],[80.76843506264802,7.423380078541999],[80.76843598849332,7.423381509161652],[80.76857557016403,7.423597021772402],[80.76860633178852,7.423781427242847],[80.7686138856422,7.423826713832866],[80.768665339131,7.424108404289902],[80.76871525355273,7.424228044085446],[80.76879271084694,7.424324443822365],[80.76887478379895,7.424429861305882],[80.76897153908664,7.424554138200532],[80.76907381839615,7.424707239737178],[80.76913125369482,7.424854008615653],[80.76920789221087,7.425007198325666],[80.76926315529529,7.425087320215797],[80.76944597059482,7.425235808289147],[80.76950168534096,7.425287986371385],[80.76957832661793,7.425511259289379],[80.76962941889758,7.425709122778255],[80.76967685768766,7.425837080174278],[80.76969328452785,7.42588139294284],[80.76977635678304,7.426079164648236],[80.7698529973616,7.426245012634126],[80.76998073236929,7.426417375011654],[80.77007658204927,7.426570475308863],[80.77008944317336,7.426613156653579],[80.77012767330805,7.426736415123009],[80.77016599414107,7.426788502445975],[80.77022986298536,7.426819340868412],[80.77041503971066,7.42687034409149],[80.77054286390063,7.427042707208101],[80.77061950460754,7.427304322259497],[80.77072169289657,7.427514842844906],[80.77078764360836,7.4276299610899],[80.77082141063649,7.427735317006919],[80.77139861388513,7.427609600713453],[80.7725050852875,7.427824913701284],[80.7736090355683,7.427897529861423],[80.77472654252318,7.428564805715197],[80.77540326112519,7.429153453676658],[80.77618488722729,7.429912110867247],[80.77683105716999,7.430292424848315],[80.77736610447627,7.430584519163324],[80.77737075474853,7.430587057522632],[80.77742543353354,7.430539765205498],[80.7778119930521,7.430126347891588],[80.77821411939966,7.42984300922113],[80.77832607919119,7.429703315153485],[80.77949886267201,7.429215538719784],[80.78060265077315,7.429278488602159],[80.78120917434673,7.429313077228384],[80.781681914003,7.429403809235744],[80.7820159666622,7.429467924468901]]]]}}]}