{
"type": "FeatureCollection",
"name": "SED_PPL_MWS_042_1",
"crs": { "type": "name", "properties": { "name": "urn:ogc:def:crs:OGC:1.3:CRS84" } },
"features": [
{ "type": "Feature", "properties": { "GND_N": "Thelhawadigama", "PROVINCE_N": "UVA", "DISTRICT_N": "BADULLA", "DSD_N": "UVAPARANAGAMA", "Female": 793, "Male": 736, "Density": 1524.12725617, "MWS_ID": "042-1", "GND_NO": "46E", "GND_C": "275", "PROVINCE_C": "8", "DISTRICT_C": "1", "DSD_C": "27", "Admin_Code": "8127275", "GND_NAME_G": "තෙල්හවඩ", "AreaGND": 100.319707151, "MWS_ID_2": null, "AreaGND_1": 1.00319707151, "Total": 1529, "FP_MWS": "042_1" }, "geometry": { "type": "MultiPolygon", "coordinates": [ [ [ [ 80.85651801240661, 6.927432192154137 ], [ 80.857044745025576, 6.927252652037754 ], [ 80.857572758352859, 6.927341818653924 ], [ 80.857771439414847, 6.927368704528905 ], [ 80.858023261844991, 6.927239392674552 ], [ 80.858246217149954, 6.927022274467722 ], [ 80.8584894525507, 6.926580751336392 ], [ 80.858921712436015, 6.925979423918807 ], [ 80.859113229346946, 6.925792762787017 ], [ 80.859429271862297, 6.925711355288731 ], [ 80.859630407454915, 6.925763959704227 ], [ 80.859786215568008, 6.926038075856594 ], [ 80.859936687504671, 6.926220393662475 ], [ 80.860027101295501, 6.926248878318756 ], [ 80.860215071446092, 6.926350455472118 ], [ 80.86044966968403, 6.926401349910759 ], [ 80.860637773618549, 6.926429680654867 ], [ 80.860974959761435, 6.926409745799947 ], [ 80.861319701419291, 6.926141705846437 ], [ 80.861808086438671, 6.925768359109768 ], [ 80.861836028047534, 6.925749294674899 ], [ 80.862411391235796, 6.925356709517151 ], [ 80.862947649857219, 6.924916359220649 ], [ 80.863546927655932, 6.924511359291834 ], [ 80.863830777527326, 6.924326480789267 ], [ 80.863842435785813, 6.924216765772741 ], [ 80.863857959643269, 6.924070658443281 ], [ 80.863858469154493, 6.924065859129152 ], [ 80.863860102484395, 6.924050491737618 ], [ 80.863734514801521, 6.923901443214873 ], [ 80.863566877955037, 6.923733985893432 ], [ 80.863272332557756, 6.923511520230744 ], [ 80.86304962220224, 6.923322539110907 ], [ 80.862762259459146, 6.923097678988332 ], [ 80.862510803086764, 6.922824958351985 ], [ 80.862381462107919, 6.922568964459462 ], [ 80.862450109496592, 6.922166907200454 ], [ 80.862859724208903, 6.92189554008969 ], [ 80.863378657250053, 6.921555940816857 ], [ 80.863585590500534, 6.92131258874582 ], [ 80.863669358484501, 6.921123550842929 ], [ 80.8637865764601, 6.920902842063346 ], [ 80.864008851441369, 6.920623804374216 ], [ 80.864139941558122, 6.920528656756694 ], [ 80.864189692432959, 6.920492547182476 ], [ 80.864398150361382, 6.920341244211984 ], [ 80.864478193042416, 6.920254636361451 ], [ 80.86407654427218, 6.920005420353713 ], [ 80.863687421470971, 6.919772204537442 ], [ 80.863447961285928, 6.919622706479273 ], [ 80.862487865840833, 6.91929909289724 ], [ 80.861887563771859, 6.918841696755743 ], [ 80.861640016438415, 6.918384819311146 ], [ 80.861442418997868, 6.918025951982964 ], [ 80.861101103945472, 6.917332135778441 ], [ 80.860846034252262, 6.91673595967285 ], [ 80.860674526461196, 6.916304891034708 ], [ 80.860614830953196, 6.916092751878543 ], [ 80.860411289485484, 6.915675506779868 ], [ 80.860245582405412, 6.915790766102101 ], [ 80.860241761325156, 6.915793423663675 ], [ 80.859786528574702, 6.916110067647869 ], [ 80.859238142599551, 6.916431277010946 ], [ 80.858604055406929, 6.917245155607416 ], [ 80.858267898770919, 6.917710675604498 ], [ 80.857845436618916, 6.918220293862356 ], [ 80.857693893125528, 6.918346437888871 ], [ 80.8571891444779, 6.918766589898796 ], [ 80.856701350126244, 6.919735315784632 ], [ 80.85625534054995, 6.919769976353336 ], [ 80.855887429521275, 6.920342081245322 ], [ 80.855566226497899, 6.92063149603585 ], [ 80.855169897347295, 6.920938641352008 ], [ 80.854935334755524, 6.92115012254041 ], [ 80.854606985410257, 6.921319961536314 ], [ 80.854239703452095, 6.921513687926583 ], [ 80.853929707130533, 6.921840856927335 ], [ 80.853732580388709, 6.922007897711751 ], [ 80.853455981358806, 6.922278541034171 ], [ 80.853246087937066, 6.922410648923832 ], [ 80.852834323754465, 6.922740809718151 ], [ 80.852363278759427, 6.923010903869842 ], [ 80.852126745127705, 6.923020129377931 ], [ 80.851936777835519, 6.923088300870376 ], [ 80.851910436832085, 6.92311304902601 ], [ 80.851857715909645, 6.923162580607561 ], [ 80.851761961279095, 6.92320285875776 ], [ 80.851635045100778, 6.923228868935995 ], [ 80.851550860732061, 6.92322640709012 ], [ 80.851447390739452, 6.923222599925128 ], [ 80.851352011496786, 6.9232276284737 ], [ 80.851322223392387, 6.923205708839083 ], [ 80.851295542463419, 6.923186814566751 ], [ 80.851258497389551, 6.923169552407756 ], [ 80.85121339132094, 6.923183033844151 ], [ 80.851155789066425, 6.923215626406041 ], [ 80.850942348788195, 6.922930282883355 ], [ 80.85090966065907, 6.922887173666109 ], [ 80.850891669626563, 6.922952643767118 ], [ 80.850880511554138, 6.92302186753374 ], [ 80.850863021679714, 6.923126721563945 ], [ 80.850767592035638, 6.923278295845815 ], [ 80.850678194486193, 6.923370248303529 ], [ 80.850697452794307, 6.923498078970375 ], [ 80.850808995628839, 6.92353479140737 ], [ 80.850848212957459, 6.92354855535489 ], [ 80.851127798687017, 6.923548510713256 ], [ 80.851238885240988, 6.923572252469369 ], [ 80.851237931910944, 6.923638694762897 ], [ 80.851222784507939, 6.924385228945837 ], [ 80.851253179684733, 6.924497827290336 ], [ 80.851329709169477, 6.924781331095708 ], [ 80.851372233474521, 6.924824816737349 ], [ 80.851413902467655, 6.924867427128615 ], [ 80.851940459511212, 6.925405883228276 ], [ 80.85256645034886, 6.925862843685055 ], [ 80.853024417486068, 6.925725653793494 ], [ 80.853215553587759, 6.925739246593865 ], [ 80.853451880095932, 6.925756055006862 ], [ 80.853498696340978, 6.925779407807269 ], [ 80.85369616014161, 6.925877897772868 ], [ 80.853831182852389, 6.926153800794959 ], [ 80.85394037374914, 6.926513190193645 ], [ 80.853983927376859, 6.926656542095118 ], [ 80.853999921408843, 6.9266831355148 ], [ 80.85421298645285, 6.927037386753649 ], [ 80.85439620665305, 6.92718971104554 ], [ 80.854661067620043, 6.927159168552743 ], [ 80.854793123896954, 6.927143940720013 ], [ 80.85509562523734, 6.927154671242279 ], [ 80.85509605238029, 6.927154686545164 ], [ 80.855220584450649, 6.927159105263098 ], [ 80.855541201466437, 6.927296170392877 ], [ 80.855720999519818, 6.927480386448872 ], [ 80.855827461734279, 6.927589464852532 ], [ 80.85589519052921, 6.927658858230834 ], [ 80.856072292519158, 6.927840309190343 ], [ 80.856087090916432, 6.92782705572929 ], [ 80.85651801240661, 6.927432192154137 ] ] ] ] } },
{ "type": "Feature", "properties": { "GND_N": "Medagodagama", "PROVINCE_N": "UVA", "DISTRICT_N": "BADULLA", "DSD_N": "UVAPARANAGAMA", "Female": 823, "Male": 827, "Density": 1170.4977326400001, "MWS_ID": "042-1", "GND_NO": "46D", "GND_C": "270", "PROVINCE_C": "8", "DISTRICT_C": "1", "DSD_C": "27", "Admin_Code": "8127270", "GND_NAME_G": "මැදගොඩග", "AreaGND": 140.96567246500001, "MWS_ID_2": null, "AreaGND_1": 1.40965672465, "Total": 1650, "FP_MWS": "042_1" }, "geometry": { "type": "MultiPolygon", "coordinates": [ [ [ [ 80.862351844235619, 6.932476820036594 ], [ 80.862676625895119, 6.93197954065604 ], [ 80.863140988900625, 6.931497033911403 ], [ 80.86347270066392, 6.931288869735868 ], [ 80.863880206213466, 6.930891507942319 ], [ 80.864486700272849, 6.930172492609118 ], [ 80.864818371015488, 6.929737306439199 ], [ 80.864995569934877, 6.929284982119105 ], [ 80.864931958080945, 6.928904522645076 ], [ 80.864931816430143, 6.928143578235929 ], [ 80.865058821338479, 6.927731376969931 ], [ 80.865062814355596, 6.927718617193091 ], [ 80.865107456787129, 6.927669463677442 ], [ 80.865112020569541, 6.927665002727291 ], [ 80.865244491705852, 6.927405991991201 ], [ 80.865348764699945, 6.927188369919837 ], [ 80.865407204457995, 6.92692377883799 ], [ 80.865429424224928, 6.926606441983886 ], [ 80.865402905477936, 6.926490988034909 ], [ 80.865439777235409, 6.926177713350472 ], [ 80.865249083460682, 6.925797276696213 ], [ 80.865180828953058, 6.925729186071449 ], [ 80.865174531590938, 6.925710983306426 ], [ 80.864981108434847, 6.925435118856773 ], [ 80.864899801500826, 6.925267818696914 ], [ 80.864889050905475, 6.925244918818062 ], [ 80.864776740490157, 6.925132226261078 ], [ 80.864771421027967, 6.925126598766931 ], [ 80.864600109548761, 6.925102238313674 ], [ 80.864584183008944, 6.925091133512453 ], [ 80.864533715715012, 6.924921201434816 ], [ 80.864523391619315, 6.924904487913706 ], [ 80.864433739055727, 6.924867100046384 ], [ 80.864407106375438, 6.924867713572359 ], [ 80.864391120432742, 6.924868082773592 ], [ 80.864252324573911, 6.924802403283387 ], [ 80.864244089679943, 6.924798506282667 ], [ 80.864197836315995, 6.924747989605017 ], [ 80.864087197939696, 6.924627151370654 ], [ 80.864067284879383, 6.924604982038803 ], [ 80.864030883947805, 6.924535718808873 ], [ 80.863981271512813, 6.924441309798978 ], [ 80.863858138906551, 6.924223766841451 ], [ 80.863854253587874, 6.924216901060748 ], [ 80.863842435785813, 6.924216765772741 ], [ 80.863830777527326, 6.924326480789267 ], [ 80.863546927655932, 6.924511359291834 ], [ 80.862947649857219, 6.924916359220649 ], [ 80.862411391235796, 6.925356709517151 ], [ 80.861836028047534, 6.925749294674899 ], [ 80.861808086438671, 6.925768359109768 ], [ 80.861319701419291, 6.926141705846437 ], [ 80.860974959761435, 6.926409745799947 ], [ 80.860637773618549, 6.926429680654867 ], [ 80.86044966968403, 6.926401349910759 ], [ 80.860215071446092, 6.926350455472118 ], [ 80.860027101295501, 6.926248878318756 ], [ 80.859936687504671, 6.926220393662475 ], [ 80.859786215568008, 6.926038075856594 ], [ 80.859630407454915, 6.925763959704227 ], [ 80.859429271862297, 6.925711355288731 ], [ 80.859113229346946, 6.925792762787017 ], [ 80.858921712436015, 6.925979423918807 ], [ 80.8584894525507, 6.926580751336392 ], [ 80.858246217149954, 6.927022274467722 ], [ 80.858023261844991, 6.927239392674552 ], [ 80.857771439414847, 6.927368704528905 ], [ 80.857572758352859, 6.927341818653924 ], [ 80.857044745025576, 6.927252652037754 ], [ 80.85651801240661, 6.927432192154137 ], [ 80.856087090916432, 6.92782705572929 ], [ 80.856072292519158, 6.927840309190343 ], [ 80.855512525220689, 6.92834157876644 ], [ 80.854973867398854, 6.928808241344118 ], [ 80.854471093405678, 6.929095446187371 ], [ 80.853956336248942, 6.929310872135151 ], [ 80.853657088485178, 6.929621967604778 ], [ 80.853238126532915, 6.929957012302238 ], [ 80.852759287029599, 6.930196357638175 ], [ 80.852280421321524, 6.930280178626687 ], [ 80.851765631532743, 6.930304186832223 ], [ 80.851310733506622, 6.930531563692507 ], [ 80.850760114078028, 6.931105893433803 ], [ 80.850389055542578, 6.931572523745673 ], [ 80.850191564277964, 6.9318796149868 ], [ 80.849982101510818, 6.932178732805835 ], [ 80.849811442861295, 6.932156913512459 ], [ 80.849476785495895, 6.932114761323939 ], [ 80.849176558250349, 6.931875185380575 ], [ 80.849014242124525, 6.931654405303949 ], [ 80.848983704001085, 6.931612866449036 ], [ 80.848956371942037, 6.931575691347053 ], [ 80.848836245303005, 6.931246229143174 ], [ 80.848808577662538, 6.931126677855341 ], [ 80.848776168518214, 6.930986648077157 ], [ 80.848676486355799, 6.93090814842763 ], [ 80.848586024213674, 6.930836912658477 ], [ 80.848465941284346, 6.930787008814131 ], [ 80.847875568909586, 6.930787097769251 ], [ 80.847245163046466, 6.930747255408387 ], [ 80.846814864262839, 6.930567602072983 ], [ 80.846444579456332, 6.930228192459383 ], [ 80.846131344434525, 6.92991574009188 ], [ 80.846124330843338, 6.929908742592764 ], [ 80.845884136470872, 6.92961923459591 ], [ 80.84568397816993, 6.929399610956144 ], [ 80.84542380149702, 6.929319773824751 ], [ 80.844828010088918, 6.929143034616058 ], [ 80.844737902031881, 6.92878361413431 ], [ 80.844527717014046, 6.928414227125915 ], [ 80.844177453891874, 6.928104764775445 ], [ 80.843777180416453, 6.927955058128298 ], [ 80.843700660312663, 6.927914649487202 ], [ 80.843266822792984, 6.92768555514834 ], [ 80.842836500394142, 6.927306211791447 ], [ 80.842829941122105, 6.926922700844581 ], [ 80.842714930603961, 6.926855789091316 ], [ 80.842691741886725, 6.926842298064043 ], [ 80.842580447028794, 6.926761387802459 ], [ 80.842455768149165, 6.926760663553155 ], [ 80.842396589823451, 6.926823003766266 ], [ 80.842297932526549, 6.926936542042452 ], [ 80.842253284554502, 6.927034360292211 ], [ 80.842180123602759, 6.927168379661417 ], [ 80.842093810174731, 6.927277905535185 ], [ 80.84194313055184, 6.927387238584671 ], [ 80.841886317392891, 6.927434593838217 ], [ 80.841814141488172, 6.927283345494569 ], [ 80.841729712525719, 6.927237870716528 ], [ 80.841446025392031, 6.927167190836546 ], [ 80.841095722498508, 6.927196207471235 ], [ 80.84092135300223, 6.927321493797764 ], [ 80.840658154963663, 6.927316769916077 ], [ 80.840369047792876, 6.927256999831505 ], [ 80.840107914714991, 6.927271112339304 ], [ 80.839938964955749, 6.927316741519816 ], [ 80.839894429298994, 6.927385310232207 ], [ 80.840160618237718, 6.928051950656046 ], [ 80.84026712561797, 6.92838140342697 ], [ 80.840491363522048, 6.928901088324762 ], [ 80.840510073550291, 6.929249942333617 ], [ 80.84054809556612, 6.929773617634816 ], [ 80.840552954030017, 6.930241356200647 ], [ 80.840043373870245, 6.932839150071636 ], [ 80.839998099092753, 6.932886142731528 ], [ 80.840209235096026, 6.932854135057076 ], [ 80.840448988679498, 6.932860636584028 ], [ 80.840767575510512, 6.932850241896717 ], [ 80.841160691763079, 6.932957713053749 ], [ 80.841395969749726, 6.933032800983165 ], [ 80.841577850500343, 6.933084778092478 ], [ 80.84199416488886, 6.933380754306195 ], [ 80.842294778466183, 6.933383871593613 ], [ 80.842397417668607, 6.933384936233555 ], [ 80.842587955534313, 6.933059235560038 ], [ 80.842691946672446, 6.932891363200496 ], [ 80.842843707536403, 6.932646373772993 ], [ 80.842868078448561, 6.932543419071708 ], [ 80.842990985400704, 6.932300619360455 ], [ 80.843261391401697, 6.932091676536063 ], [ 80.843264260744178, 6.932089460551513 ], [ 80.843710141710133, 6.931721708844821 ], [ 80.843852514640915, 6.93161842993379 ], [ 80.84447237582097, 6.931424172689439 ], [ 80.845144365432134, 6.93123729992834 ], [ 80.845551904753677, 6.931133782314697 ], [ 80.846131993993112, 6.931161380762889 ], [ 80.846305317030371, 6.93122477525362 ], [ 80.846644705998997, 6.931422959294004 ], [ 80.84689126048626, 6.931660412421002 ], [ 80.847283143408703, 6.932021508528373 ], [ 80.847521233767367, 6.932194509047613 ], [ 80.847706395157914, 6.932275360032935 ], [ 80.847713583072334, 6.932279729530304 ], [ 80.848188767689734, 6.932568651350439 ], [ 80.848991141599399, 6.932630398692756 ], [ 80.849441321555631, 6.932821393453206 ], [ 80.849443518059587, 6.932822325469091 ], [ 80.849675015945579, 6.932918700245985 ], [ 80.849720355802404, 6.932942010225615 ], [ 80.84996767291176, 6.933069161820557 ], [ 80.850061070096615, 6.933108552172856 ], [ 80.850301984367903, 6.93321016028538 ], [ 80.850806109392295, 6.933155832582717 ], [ 80.850938640014277, 6.933141550743739 ], [ 80.851377060453302, 6.932771614573424 ], [ 80.851898583861043, 6.932529515628019 ], [ 80.852383502550893, 6.932394879457314 ], [ 80.853094601576217, 6.932496393707108 ], [ 80.85349156679186, 6.932762932745033 ], [ 80.853665505047417, 6.933172212821024 ], [ 80.854009513119919, 6.933782045750672 ], [ 80.854245858513522, 6.934060846623869 ], [ 80.854522875627652, 6.9342251259088 ], [ 80.854873511105481, 6.934463604911648 ], [ 80.855141008746855, 6.934854188449397 ], [ 80.855505269318343, 6.935331522418108 ], [ 80.855501398389023, 6.936351410968142 ], [ 80.855966604858125, 6.93592943076339 ], [ 80.85600388233172, 6.935895435711276 ], [ 80.856475221268909, 6.935491658824208 ], [ 80.856516755000726, 6.935464425510936 ], [ 80.857435662376417, 6.934759134664883 ], [ 80.857449440263338, 6.934704159689875 ], [ 80.857476937982895, 6.934678339420509 ], [ 80.857771043497891, 6.934378349324477 ], [ 80.857798849728042, 6.934352245932065 ], [ 80.858463629483566, 6.933895588288766 ], [ 80.859113517445209, 6.933604618868454 ], [ 80.860116659501415, 6.933533499685624 ], [ 80.860882844053606, 6.933509716372299 ], [ 80.861435721491148, 6.933273136779834 ], [ 80.861980669990643, 6.932871020636479 ], [ 80.862147991178603, 6.932693319942141 ], [ 80.862351844235619, 6.932476820036594 ] ] ] ] } },
{ "type": "Feature", "properties": { "GND_N": "Perawella", "PROVINCE_N": "UVA", "DISTRICT_N": "BADULLA", "DSD_N": "UVAPARANAGAMA", "Female": 1060, "Male": 1032, "Density": 423.17615285400001, "MWS_ID": "042-1", "GND_NO": "46", "GND_C": "260", "PROVINCE_C": "8", "DISTRICT_C": "1", "DSD_C": "27", "Admin_Code": "8127260", "GND_NAME_G": "පේරවැල්", "AreaGND": 494.356779297, "MWS_ID_2": null, "AreaGND_1": 4.9435677929699997, "Total": 2092, "FP_MWS": "042_1" }, "geometry": { "type": "MultiPolygon", "coordinates": [ [ [ [ 80.850946479300276, 6.949584407995317 ], [ 80.851247574750289, 6.949307085809042 ], [ 80.85152943752081, 6.948817344823935 ], [ 80.851982143887255, 6.948454281454942 ], [ 80.85234719117669, 6.948027648154968 ], [ 80.852534757540496, 6.947627414780417 ], [ 80.852508333821831, 6.947443782712308 ], [ 80.852455323366272, 6.947075378247361 ], [ 80.85267395997306, 6.946711325226526 ], [ 80.852942205126084, 6.946413096681143 ], [ 80.853102599988858, 6.946288894342451 ], [ 80.853192216717389, 6.946219279910352 ], [ 80.853420923502426, 6.946035848036948 ], [ 80.853482256042824, 6.945986656738111 ], [ 80.853507013464935, 6.945966801124925 ], [ 80.853545992827094, 6.945935537938649 ], [ 80.853685871243911, 6.94577856623718 ], [ 80.853779530473759, 6.945631728579916 ], [ 80.853860365378736, 6.945537208715879 ], [ 80.85392511782608, 6.945466147671643 ], [ 80.853958503809352, 6.945266024709196 ], [ 80.853960898495458, 6.945222186581224 ], [ 80.854190463974504, 6.945064710847832 ], [ 80.856032573574879, 6.943801055813032 ], [ 80.856296835678478, 6.943411167950201 ], [ 80.856468780748045, 6.943098730473627 ], [ 80.856589706028913, 6.942840194397859 ], [ 80.856694346408702, 6.942477536915021 ], [ 80.856802762903385, 6.942182929632336 ], [ 80.856830732303564, 6.942123396332438 ], [ 80.856834136542716, 6.942116154878881 ], [ 80.856828921533719, 6.94204392061417 ], [ 80.856798663802635, 6.941624760573601 ], [ 80.856835132728619, 6.941190904916368 ], [ 80.856798434519789, 6.940901417983794 ], [ 80.856632841424187, 6.94036108220117 ], [ 80.856632751544581, 6.940070167476861 ], [ 80.856391490820414, 6.939804709247504 ], [ 80.856150594511831, 6.939147884370796 ], [ 80.856151475234512, 6.939073482318595 ], [ 80.855934137454241, 6.938704763825943 ], [ 80.855738141523091, 6.938229329358113 ], [ 80.855525523863435, 6.937523405734091 ], [ 80.855503811480617, 6.93692469072133 ], [ 80.855500266193005, 6.936649954781808 ], [ 80.855501398389023, 6.936351410968142 ], [ 80.855505269318343, 6.935331522418108 ], [ 80.855141008746855, 6.934854188449397 ], [ 80.854873511105481, 6.934463604911648 ], [ 80.854522875627652, 6.9342251259088 ], [ 80.854245858513522, 6.934060846623869 ], [ 80.854009513119919, 6.933782045750672 ], [ 80.853665505047417, 6.933172212821024 ], [ 80.85349156679186, 6.932762932745033 ], [ 80.853094601576217, 6.932496393707108 ], [ 80.852383502550893, 6.932394879457314 ], [ 80.851898583861043, 6.932529515628019 ], [ 80.851377060453302, 6.932771614573424 ], [ 80.850938640014277, 6.933141550743739 ], [ 80.850806109392295, 6.933155832582717 ], [ 80.850301984367903, 6.93321016028538 ], [ 80.850061070096615, 6.933108552172856 ], [ 80.84996767291176, 6.933069161820557 ], [ 80.849720355802404, 6.932942010225615 ], [ 80.849675015945579, 6.932918700245985 ], [ 80.849443518059587, 6.932822325469091 ], [ 80.849441321555631, 6.932821393453206 ], [ 80.848991141599399, 6.932630398692756 ], [ 80.848188767689734, 6.932568651350439 ], [ 80.847713583072334, 6.932279729530304 ], [ 80.847706395157914, 6.932275360032935 ], [ 80.847521233767367, 6.932194509047613 ], [ 80.847283143408703, 6.932021508528373 ], [ 80.84689126048626, 6.931660412421002 ], [ 80.846644705998997, 6.931422959294004 ], [ 80.846305317030371, 6.93122477525362 ], [ 80.846131993993112, 6.931161380762889 ], [ 80.845551904753677, 6.931133782314697 ], [ 80.845144365432134, 6.93123729992834 ], [ 80.84447237582097, 6.931424172689439 ], [ 80.843852514640915, 6.93161842993379 ], [ 80.843710141710133, 6.931721708844821 ], [ 80.843264260744178, 6.932089460551513 ], [ 80.843261391401697, 6.932091676536063 ], [ 80.842990985400704, 6.932300619360455 ], [ 80.842868078448561, 6.932543419071708 ], [ 80.842843707536403, 6.932646373772993 ], [ 80.842691946672446, 6.932891363200496 ], [ 80.842587955534313, 6.933059235560038 ], [ 80.842397417668607, 6.933384936233555 ], [ 80.842294778466183, 6.933383871593613 ], [ 80.84199416488886, 6.933380754306195 ], [ 80.841577850500343, 6.933084778092478 ], [ 80.841395969749726, 6.933032800983165 ], [ 80.841160691763079, 6.932957713053749 ], [ 80.840767575510512, 6.932850241896717 ], [ 80.840448988679498, 6.932860636584028 ], [ 80.840209235096026, 6.932854135057076 ], [ 80.839998099092753, 6.932886142731528 ], [ 80.839324381002911, 6.933585413767303 ], [ 80.838906790047375, 6.93350818383378 ], [ 80.83864957373595, 6.933535526148404 ], [ 80.838350580888616, 6.933567311253399 ], [ 80.837886935796433, 6.933886520922745 ], [ 80.837886514097946, 6.933907663053803 ], [ 80.837518045685997, 6.934110907366617 ], [ 80.837183985828645, 6.934611597454078 ], [ 80.836816597753895, 6.934862691323056 ], [ 80.836209895376413, 6.935107697305002 ], [ 80.83614782736322, 6.935169588556152 ], [ 80.835820129216359, 6.935627756704455 ], [ 80.835798633330498, 6.935649380751155 ], [ 80.835549874359543, 6.936577954781399 ], [ 80.835425455816448, 6.936989312400854 ], [ 80.83520739774707, 6.937588537557774 ], [ 80.834921330752039, 6.938415290395278 ], [ 80.834951513949989, 6.939056817804603 ], [ 80.8348984230893, 6.939894058194659 ], [ 80.834257415027523, 6.941660438693328 ], [ 80.833033756491801, 6.945600509515168 ], [ 80.833040815700357, 6.945693686965574 ], [ 80.83304126619305, 6.945699643659524 ], [ 80.833050498099922, 6.945821515788664 ], [ 80.833051963781642, 6.945840840001291 ], [ 80.833118758513905, 6.946255827523705 ], [ 80.833137178802815, 6.946377109840454 ], [ 80.833138228518663, 6.946384021423184 ], [ 80.833185275572617, 6.946693849867756 ], [ 80.833275261957141, 6.947085802487957 ], [ 80.833295620092244, 6.947208528758814 ], [ 80.834074522815044, 6.950170014174979 ], [ 80.834405840817553, 6.951421643841237 ], [ 80.834763284929693, 6.952771962779384 ], [ 80.835020766934406, 6.953724107840929 ], [ 80.835148971765193, 6.954040325814187 ], [ 80.835192801231756, 6.954162966763541 ], [ 80.835285056571678, 6.954421110197949 ], [ 80.835478556096461, 6.95481361278662 ], [ 80.835614790538671, 6.955040759683462 ], [ 80.835672611147032, 6.955137164561128 ], [ 80.835935676095716, 6.955472575874716 ], [ 80.836256984429312, 6.955692958544111 ], [ 80.836450712793521, 6.95578816241509 ], [ 80.836636125449729, 6.955879279742184 ], [ 80.837061842980063, 6.955985183605372 ], [ 80.837071459044552, 6.955987461258601 ], [ 80.837127367051536, 6.956000546830304 ], [ 80.837204686524942, 6.95601864228966 ], [ 80.837464239691627, 6.956079387301155 ], [ 80.837866569824087, 6.956231228290763 ], [ 80.838303401807508, 6.956394791636031 ], [ 80.838445193004816, 6.956448807043172 ], [ 80.838671225425927, 6.956534908330529 ], [ 80.839016001845536, 6.956686474637556 ], [ 80.839133932819237, 6.956749883423745 ], [ 80.839383549366474, 6.956884101830419 ], [ 80.839456110978034, 6.956933030280011 ], [ 80.83934760794466, 6.954815310391196 ], [ 80.839710519764466, 6.954553583168558 ], [ 80.840239943300688, 6.954171766968357 ], [ 80.841085002163425, 6.954078764633066 ], [ 80.842408121800446, 6.953130971811946 ], [ 80.843603294132279, 6.952710978012067 ], [ 80.845452345529182, 6.952504262277887 ], [ 80.846974561162142, 6.952328199205808 ], [ 80.847712771759674, 6.951728019495052 ], [ 80.848277505043441, 6.951374821583526 ], [ 80.848881734649154, 6.950879998928199 ], [ 80.849000261692467, 6.950788615740413 ], [ 80.849208163502567, 6.950628323342464 ], [ 80.849871285649499, 6.950242065562382 ], [ 80.850775955511622, 6.949741469596358 ], [ 80.850946479300276, 6.949584407995317 ] ] ] ] } },
{ "type": "Feature", "properties": { "GND_N": "Galahagama", "PROVINCE_N": "UVA", "DISTRICT_N": "BADULLA", "DSD_N": "UVAPARANAGAMA", "Female": 1267, "Male": 1006, "Density": 672.60596865699995, "MWS_ID": "042-1", "GND_NO": "46B", "GND_C": "265", "PROVINCE_C": "8", "DISTRICT_C": "1", "DSD_C": "27", "Admin_Code": "8127265", "GND_NAME_G": "ගලහගම", "AreaGND": 337.93931453499999, "MWS_ID_2": null, "AreaGND_1": 3.3793931453499999, "Total": 2273, "FP_MWS": "042_1" }, "geometry": { "type": "MultiPolygon", "coordinates": [ [ [ [ 80.83864957373595, 6.933535526148404 ], [ 80.838906790047375, 6.93350818383378 ], [ 80.839324381002911, 6.933585413767303 ], [ 80.839998099092753, 6.932886142731528 ], [ 80.840043373870245, 6.932839150071636 ], [ 80.840552954030017, 6.930241356200647 ], [ 80.84054809556612, 6.929773617634816 ], [ 80.840510073550291, 6.929249942333617 ], [ 80.840491363522048, 6.928901088324762 ], [ 80.84026712561797, 6.92838140342697 ], [ 80.840160618237718, 6.928051950656046 ], [ 80.839894429298994, 6.927385310232207 ], [ 80.839938964955749, 6.927316741519816 ], [ 80.840107914714991, 6.927271112339304 ], [ 80.840369047792876, 6.927256999831505 ], [ 80.840658154963663, 6.927316769916077 ], [ 80.84092135300223, 6.927321493797764 ], [ 80.841095722498508, 6.927196207471235 ], [ 80.841446025392031, 6.927167190836546 ], [ 80.841729712525719, 6.927237870716528 ], [ 80.841814141488172, 6.927283345494569 ], [ 80.841886317392891, 6.927434593838217 ], [ 80.84194313055184, 6.927387238584671 ], [ 80.842093810174731, 6.927277905535185 ], [ 80.842180123602759, 6.927168379661417 ], [ 80.842253284554502, 6.927034360292211 ], [ 80.842297932526549, 6.926936542042452 ], [ 80.842396589823451, 6.926823003766266 ], [ 80.842455768149165, 6.926760663553155 ], [ 80.842580447028794, 6.926761387802459 ], [ 80.842691741886725, 6.926842298064043 ], [ 80.842714930603961, 6.926855789091316 ], [ 80.842829941122105, 6.926922700844581 ], [ 80.842836500394142, 6.927306211791447 ], [ 80.843266822792984, 6.92768555514834 ], [ 80.843700660312663, 6.927914649487202 ], [ 80.843777180416453, 6.927955058128298 ], [ 80.844177453891874, 6.928104764775445 ], [ 80.844527717014046, 6.928414227125915 ], [ 80.844737902031881, 6.92878361413431 ], [ 80.844828010088918, 6.929143034616058 ], [ 80.84542380149702, 6.929319773824751 ], [ 80.84568397816993, 6.929399610956144 ], [ 80.845884136470872, 6.92961923459591 ], [ 80.846124330843338, 6.929908742592764 ], [ 80.846131344434525, 6.92991574009188 ], [ 80.846444579456332, 6.930228192459383 ], [ 80.846814864262839, 6.930567602072983 ], [ 80.847245163046466, 6.930747255408387 ], [ 80.847875568909586, 6.930787097769251 ], [ 80.848465941284346, 6.930787008814131 ], [ 80.848586024213674, 6.930836912658477 ], [ 80.848676486355799, 6.93090814842763 ], [ 80.848776168518214, 6.930986648077157 ], [ 80.848808577662538, 6.931126677855341 ], [ 80.848836245303005, 6.931246229143174 ], [ 80.848956371942037, 6.931575691347053 ], [ 80.848983704001085, 6.931612866449036 ], [ 80.849014242124525, 6.931654405303949 ], [ 80.849176558250349, 6.931875185380575 ], [ 80.849476785495895, 6.932114761323939 ], [ 80.849811442861295, 6.932156913512459 ], [ 80.849982101510818, 6.932178732805835 ], [ 80.850191564277964, 6.9318796149868 ], [ 80.850389055542578, 6.931572523745673 ], [ 80.850760114078028, 6.931105893433803 ], [ 80.851310733506622, 6.930531563692507 ], [ 80.851765631532743, 6.930304186832223 ], [ 80.852280421321524, 6.930280178626687 ], [ 80.852759287029599, 6.930196357638175 ], [ 80.853238126532915, 6.929957012302238 ], [ 80.853657088485178, 6.929621967604778 ], [ 80.853956336248942, 6.929310872135151 ], [ 80.854471093405678, 6.929095446187371 ], [ 80.854973867398854, 6.928808241344118 ], [ 80.855512525220689, 6.92834157876644 ], [ 80.856072292519158, 6.927840309190343 ], [ 80.85589519052921, 6.927658858230834 ], [ 80.855827461734279, 6.927589464852532 ], [ 80.855720999519818, 6.927480386448872 ], [ 80.855541201466437, 6.927296170392877 ], [ 80.855220584450649, 6.927159105263098 ], [ 80.85509605238029, 6.927154686545164 ], [ 80.85509562523734, 6.927154671242279 ], [ 80.854793123896954, 6.927143940720013 ], [ 80.854661067620043, 6.927159168552743 ], [ 80.85439620665305, 6.92718971104554 ], [ 80.85421298645285, 6.927037386753649 ], [ 80.853999921408843, 6.9266831355148 ], [ 80.853983927376859, 6.926656542095118 ], [ 80.85394037374914, 6.926513190193645 ], [ 80.853831182852389, 6.926153800794959 ], [ 80.85369616014161, 6.925877897772868 ], [ 80.853498696340978, 6.925779407807269 ], [ 80.853451880095932, 6.925756055006862 ], [ 80.853215553587759, 6.925739246593865 ], [ 80.853024417486068, 6.925725653793494 ], [ 80.85256645034886, 6.925862843685055 ], [ 80.851940459511212, 6.925405883228276 ], [ 80.851413902467655, 6.924867427128615 ], [ 80.851372233474521, 6.924824816737349 ], [ 80.851329709169477, 6.924781331095708 ], [ 80.851253179684733, 6.924497827290336 ], [ 80.851222784507939, 6.924385228945837 ], [ 80.851237931910944, 6.923638694762897 ], [ 80.851238885240988, 6.923572252469369 ], [ 80.851127798687017, 6.923548510713256 ], [ 80.850848212957459, 6.92354855535489 ], [ 80.850808995628839, 6.92353479140737 ], [ 80.850697452794307, 6.923498078970375 ], [ 80.850678194486193, 6.923370248303529 ], [ 80.850767592035638, 6.923278295845815 ], [ 80.850863021679714, 6.923126721563945 ], [ 80.850880511554138, 6.92302186753374 ], [ 80.850891669626563, 6.922952643767118 ], [ 80.85090966065907, 6.922887173666109 ], [ 80.850942348788195, 6.922930282883355 ], [ 80.851155789066425, 6.923215626406041 ], [ 80.85121339132094, 6.923183033844151 ], [ 80.851258497389551, 6.923169552407756 ], [ 80.851295542463419, 6.923186814566751 ], [ 80.851322223392387, 6.923205708839083 ], [ 80.851352011496786, 6.9232276284737 ], [ 80.851447390739452, 6.923222599925128 ], [ 80.851550860732061, 6.92322640709012 ], [ 80.851635045100778, 6.923228868935995 ], [ 80.851761961279095, 6.92320285875776 ], [ 80.851857715909645, 6.923162580607561 ], [ 80.851910436832085, 6.92311304902601 ], [ 80.851936777835519, 6.923088300870376 ], [ 80.852126745127705, 6.923020129377931 ], [ 80.852363278759427, 6.923010903869842 ], [ 80.852834323754465, 6.922740809718151 ], [ 80.853246087937066, 6.922410648923832 ], [ 80.853455981358806, 6.922278541034171 ], [ 80.853732580388709, 6.922007897711751 ], [ 80.853929707130533, 6.921840856927335 ], [ 80.854239703452095, 6.921513687926583 ], [ 80.854606985410257, 6.921319961536314 ], [ 80.854935334755524, 6.92115012254041 ], [ 80.855169897347295, 6.920938641352008 ], [ 80.855566226497899, 6.92063149603585 ], [ 80.855887429521275, 6.920342081245322 ], [ 80.85625534054995, 6.919769976353336 ], [ 80.856701350126244, 6.919735315784632 ], [ 80.8571891444779, 6.918766589898796 ], [ 80.857693893125528, 6.918346437888871 ], [ 80.857845436618916, 6.918220293862356 ], [ 80.858267898770919, 6.917710675604498 ], [ 80.858604055406929, 6.917245155607416 ], [ 80.859238142599551, 6.916431277010946 ], [ 80.859786528574702, 6.916110067647869 ], [ 80.860241761325156, 6.915793423663675 ], [ 80.860245582405412, 6.915790766102101 ], [ 80.860411289485484, 6.915675506779868 ], [ 80.860339761006372, 6.9155288776537 ], [ 80.859946098586221, 6.915380467438993 ], [ 80.859514611655356, 6.915360349326395 ], [ 80.859296220451284, 6.915363826435762 ], [ 80.859063022717521, 6.915247509011418 ], [ 80.858740517583726, 6.915134506747994 ], [ 80.858517221841012, 6.91514392301058 ], [ 80.858507963460255, 6.915149261896565 ], [ 80.8581966303733, 6.915328765785071 ], [ 80.857994856865687, 6.91544535805163 ], [ 80.857713463779831, 6.915506192618134 ], [ 80.857365889527657, 6.915484879927095 ], [ 80.857298342526391, 6.915464454666367 ], [ 80.857056545810607, 6.915429519226526 ], [ 80.856862904475918, 6.915400415642663 ], [ 80.856438938787434, 6.915370951854013 ], [ 80.856339860052671, 6.915360134711367 ], [ 80.855485892140436, 6.915301921235545 ], [ 80.854847063273823, 6.915328120792505 ], [ 80.854416740144558, 6.915345766770129 ], [ 80.854160587507522, 6.915386826691839 ], [ 80.854075617909984, 6.915410776959308 ], [ 80.853741010869939, 6.91540173474239 ], [ 80.852997369469534, 6.915214855842676 ], [ 80.852804573829616, 6.915226324573294 ], [ 80.852775787870641, 6.915226634839811 ], [ 80.852584348886168, 6.915182527402681 ], [ 80.852393209356237, 6.915120675282307 ], [ 80.852201956521512, 6.914977654996485 ], [ 80.851767046102921, 6.91491286334286 ], [ 80.851460574401628, 6.914912910722718 ], [ 80.850962564348478, 6.914960843546638 ], [ 80.850522041719145, 6.915152327663543 ], [ 80.850206030537791, 6.915401214626763 ], [ 80.849937908511521, 6.915669235739093 ], [ 80.849708106665133, 6.916013817746904 ], [ 80.849554912030214, 6.916281822787943 ], [ 80.849436675647937, 6.916559996025692 ], [ 80.849416475959458, 6.91665678482064 ], [ 80.84936197005031, 6.916759599819351 ], [ 80.849052062862924, 6.917406530373055 ], [ 80.848968543908668, 6.917482306969813 ], [ 80.848960226847026, 6.917489852067891 ], [ 80.848827641702144, 6.917670875377987 ], [ 80.848811244905377, 6.917693523835629 ], [ 80.848697792070681, 6.917809993878479 ], [ 80.848681547025961, 6.917842814998954 ], [ 80.848575805711462, 6.917981068901878 ], [ 80.848551459006217, 6.918003866861195 ], [ 80.848134133605697, 6.917943757255927 ], [ 80.847978484763075, 6.917836109629387 ], [ 80.847726738484397, 6.917703981018628 ], [ 80.847385837984177, 6.91748925866192 ], [ 80.84709850879625, 6.917423503017373 ], [ 80.846745351259898, 6.917459445832559 ], [ 80.846511924076978, 6.917597058837264 ], [ 80.846129564210059, 6.917758620901413 ], [ 80.845727868480466, 6.91818337954196 ], [ 80.845578234933825, 6.918273127841996 ], [ 80.845274132370207, 6.918363611015761 ], [ 80.845047505465359, 6.918423101774331 ], [ 80.845008552180886, 6.918422733891659 ], [ 80.844548692401958, 6.918410855523544 ], [ 80.844153625692115, 6.918386985282856 ], [ 80.843896233942559, 6.918387021752089 ], [ 80.843513211459154, 6.91844887696561 ], [ 80.843273920946302, 6.918646830845429 ], [ 80.84310183349973, 6.918782947791472 ], [ 80.843000023472058, 6.918845251543059 ], [ 80.842992320763869, 6.918852915822124 ], [ 80.842403988309457, 6.919401130975692 ], [ 80.842399692338816, 6.919406210228621 ], [ 80.84181507847255, 6.920097482071228 ], [ 80.841010685457874, 6.920879999002827 ], [ 80.840019600041273, 6.922172181438608 ], [ 80.838942273952554, 6.923170073176288 ], [ 80.838109889578007, 6.923601075356075 ], [ 80.837793934665513, 6.923706800327681 ], [ 80.837117863366174, 6.923859402153059 ], [ 80.836686913323987, 6.92413222218375 ], [ 80.836493023539461, 6.924548572740242 ], [ 80.836385343006057, 6.925072585178267 ], [ 80.836263265386833, 6.92535972285344 ], [ 80.835925681536338, 6.925524859476704 ], [ 80.835358252774881, 6.925826408366168 ], [ 80.835142791900083, 6.926092022727913 ], [ 80.834914875536413, 6.926450778901638 ], [ 80.834871073591557, 6.926515569719531 ], [ 80.834823415404259, 6.926586062739855 ], [ 80.834604159333168, 6.926910386642034 ], [ 80.83421630810048, 6.927219089803433 ], [ 80.833785332615008, 6.927312455871173 ], [ 80.83329687736159, 6.927298158329307 ], [ 80.832973636854405, 6.927291019202205 ], [ 80.832686318991676, 6.927362833556985 ], [ 80.832355918494969, 6.927556679854094 ], [ 80.831954880016283, 6.927718233674445 ], [ 80.831655585853994, 6.927754158173014 ], [ 80.831422134208324, 6.927754185165046 ], [ 80.831417098316606, 6.927756013375661 ], [ 80.830971386013616, 6.927917917875242 ], [ 80.830011535497988, 6.928185639290058 ], [ 80.829900114292769, 6.928220531404291 ], [ 80.829937614520517, 6.928272866493526 ], [ 80.829981660154147, 6.928331584435298 ], [ 80.830026852556685, 6.928391829639359 ], [ 80.830187228007333, 6.928608281237386 ], [ 80.830286109465263, 6.92873542823927 ], [ 80.830287016369155, 6.928736594708847 ], [ 80.830438960843708, 6.928931968388023 ], [ 80.830667641087771, 6.929232626815561 ], [ 80.830724832891605, 6.929303635601967 ], [ 80.830726998775262, 6.929306326609751 ], [ 80.83091923211559, 6.929545009721609 ], [ 80.831054604238474, 6.929714397661539 ], [ 80.831159507360113, 6.929845664765057 ], [ 80.831434009489215, 6.930192521928751 ], [ 80.831662691454909, 6.930481733881087 ], [ 80.831925739737088, 6.930817145198953 ], [ 80.832165741123774, 6.93116386576482 ], [ 80.83240546549122, 6.931545202672444 ], [ 80.832553413747306, 6.931879923570386 ], [ 80.832643532886607, 6.932237400300134 ], [ 80.832678202369607, 6.932536959197066 ], [ 80.832687556641176, 6.932617772582375 ], [ 80.832731302183745, 6.933032483696851 ], [ 80.832775188546591, 6.933435888079531 ], [ 80.832818660543012, 6.933908248647596 ], [ 80.832896770001398, 6.934346266286895 ], [ 80.832940514555375, 6.934749671550877 ], [ 80.832942560390151, 6.934777515295197 ], [ 80.832943149574689, 6.934785522067169 ], [ 80.832972670551641, 6.935187414273707 ], [ 80.832993647850401, 6.935567649947489 ], [ 80.833049127858288, 6.935959466743489 ], [ 80.833055030729824, 6.936010248985779 ], [ 80.833104052876223, 6.936431966942179 ], [ 80.833136346674166, 6.936846676597174 ], [ 80.83315732190087, 6.937215324291073 ], [ 80.833178160120326, 6.937618592040768 ], [ 80.833175811913577, 6.938044751767131 ], [ 80.833168704936313, 6.938149415786922 ], [ 80.833150688402554, 6.938413122789827 ], [ 80.833147720543053, 6.938447436624657 ], [ 80.833113838636564, 6.938839005370396 ], [ 80.83306511550515, 6.939310952651118 ], [ 80.833029069495183, 6.939716322447218 ], [ 80.833028262425941, 6.939725391053927 ], [ 80.833014318947136, 6.940139824914047 ], [ 80.832977324614461, 6.940577292702429 ], [ 80.832951790520525, 6.941026347061483 ], [ 80.832949716709479, 6.941394855459756 ], [ 80.832936190747162, 6.94177481389039 ], [ 80.832922109651818, 6.942235452998589 ], [ 80.832919623677867, 6.942684502778415 ], [ 80.832917413691504, 6.94308763391878 ], [ 80.832914884041813, 6.943542321211318 ], [ 80.832914786579337, 6.943559857773691 ], [ 80.832914757340504, 6.943565118199809 ], [ 80.832912297430482, 6.943997461565654 ], [ 80.832944041076459, 6.944515885678111 ], [ 80.8329644655458, 6.944999694704416 ], [ 80.832996455834632, 6.945240106757084 ], [ 80.833019666184555, 6.945414542562292 ], [ 80.833033756491801, 6.945600509515168 ], [ 80.834257415027523, 6.941660438693328 ], [ 80.8348984230893, 6.939894058194659 ], [ 80.834951513949989, 6.939056817804603 ], [ 80.834921330752039, 6.938415290395278 ], [ 80.83520739774707, 6.937588537557774 ], [ 80.835425455816448, 6.936989312400854 ], [ 80.835549874359543, 6.936577954781399 ], [ 80.835798633330498, 6.935649380751155 ], [ 80.835820129216359, 6.935627756704455 ], [ 80.83614782736322, 6.935169588556152 ], [ 80.836209895376413, 6.935107697305002 ], [ 80.836816597753895, 6.934862691323056 ], [ 80.837183985828645, 6.934611597454078 ], [ 80.837518045685997, 6.934110907366617 ], [ 80.837886514097946, 6.933907663053803 ], [ 80.837886935796433, 6.933886520922745 ], [ 80.838350580888616, 6.933567311253399 ], [ 80.83864957373595, 6.933535526148404 ] ] ] ] } }
]
}
