{"type":"FeatureCollection","name":"SED_PPL_MWS_147","crs":{"type":"name","properties":{"name":"urn:ogc:def:crs:OGC:1.3:CRS84"}},"features":[{"type":"Feature","properties":{"GND_N":"Agarapathana","GND_NO":"475K","GND_C":"350","PROVINCE_N":"CENTRAL","PROVINCE_C":"2","DISTRICT_N":"NUWARA ELIYA","DISTRICT_C":"3","DSD_N":"THALAWAKELE","DSD_C":"12","Admin_Code":"2312350","GND_NO_Cen":"475K","GND_NAME_C":"Agarapathana","GND_NO_Gaz":"475K","GND_NAME_G":"ආගරපතන","shape_1":"Polygon","Area__Ha_":3589.03011578,"MWS_ID":"147","Alt_MWS":null,"Area":35.8903011578,"Tot_Pop":3625.0,"PopDensity":101.002217397},"geometry":{"type":"MultiPolygon","coordinates":[[[[80.71675506577841,6.85625977779607],[80.71676191095,6.856258385088724],[80.7168771339769,6.856266030106323],[80.71704607428168,6.856327517872601],[80.71714590252473,6.856204737757087],[80.7173916363736,6.856074349485482],[80.71764501167839,6.855874864571093],[80.71775952426154,6.855971668227548],[80.71784461776869,6.85604360210888],[80.71809795174549,6.856166421917299],[80.71827453178187,6.85618184581736],[80.71838976223954,6.856135795435663],[80.71848958640477,6.856036049932635],[80.71849563836483,6.85597967702479],[80.71855143018986,6.855984067023325],[80.71860686135997,6.855925545081435],[80.7186843648767,6.855903765696123],[80.71873813698848,6.855924310242052],[80.71885846697502,6.856043206027425],[80.71897984318794,6.856047556834472],[80.71937394261408,6.856020348600509],[80.71970055532766,6.856034345632612],[80.72003820436889,6.855962542550339],[80.72027389177434,6.855756730229458],[80.72047585410746,6.855769957889302],[80.72041675579987,6.855744635379522],[80.72030931878994,6.855652636037257],[80.72028248387588,6.855426269264848],[80.72043985825903,6.855261249781821],[80.72051664319648,6.855123066551595],[80.7205474766907,6.854992648787902],[80.72051668894385,6.854731806984699],[80.72080092066986,6.854210016264256],[80.72081621717247,6.853964438454432],[80.72077028914472,6.853795578950655],[80.72077794096579,6.853634356344235],[80.72096217995792,6.853434861598768],[80.72114655284405,6.853296832683756],[80.72119265403656,6.853197079488465],[80.72121572101834,6.853005196692691],[80.72127711860416,6.852932645460561],[80.72130013488885,6.852905448806085],[80.72133083398768,6.852728967491323],[80.72132634776342,6.852447396243106],[80.72132325484766,6.852253208924084],[80.72141544982918,6.85209976685937],[80.7215535931718,6.851953960715733],[80.72165342549836,6.851777487289067],[80.72167151229229,6.851663124218306],[80.72167648695152,6.851631667930427],[80.72160354980511,6.851512685114708],[80.72149520140877,6.851444710152968],[80.72143843375584,6.851409093228255],[80.72132335564343,6.851386047812303],[80.72127726965597,6.851339978129841],[80.72126187303395,6.851232588063885],[80.72121593356631,6.851155857338987],[80.72097023531194,6.851017636722669],[80.72080129547152,6.850971553657892],[80.72074282846646,6.850968907146684],[80.72063235027709,6.850963903333892],[80.72055528663972,6.850999819464755],[80.72055391034174,6.851000460468819],[80.72054928429016,6.850905215782551],[80.72046916987524,6.84811470496743],[80.72340829995787,6.848064931624285],[80.72500128378512,6.848054281448386],[80.72516991622757,6.848058663784233],[80.7255096695478,6.848201592041276],[80.73541038541636,6.848009381966156],[80.73543134927162,6.846000656754538],[80.7417324268736,6.84568363379545],[80.74712782486945,6.84544818275894],[80.74656004342367,6.845033987588603],[80.74651519493472,6.844616516744468],[80.74656914758454,6.843991933166582],[80.74671944671888,6.843297194565931],[80.74705135272747,6.842387637913984],[80.74731065740589,6.841360325570277],[80.7470826453441,6.840338451818425],[80.74734642641474,6.839374525458901],[80.74749963446527,6.839234431578848],[80.74760383589089,6.838228922705831],[80.7477315435494,6.838017444451506],[80.74835566873844,6.837497944176873],[80.74863139976486,6.837466413873526],[80.74879157217387,6.837634318911014],[80.74906251876047,6.838202112039626],[80.74935430718394,6.838462834191806],[80.74949739478024,6.838570382585106],[80.74956301275472,6.838606558302684],[80.74968007460146,6.838495259861358],[80.74973843074741,6.838369146205784],[80.74982104201433,6.838267966989375],[80.74990250856388,6.838168987008832],[80.75002182392805,6.838109129226149],[80.75020744174387,6.83807621122842],[80.75042262247676,6.838030097075241],[80.75063671445312,6.838022148825551],[80.75085954067019,6.837974739898502],[80.75098809858834,6.83792647308109],[80.75107703382898,6.837828517895362],[80.75118031896278,6.837748427453056],[80.75131985896736,6.837686035597075],[80.75156446570959,6.837678323661037],[80.75168799127933,6.8376951938948],[80.75182232033852,6.837724020711478],[80.751832637933,6.837701151811641],[80.7518976816478,6.837556976183619],[80.7501046018615,6.837034496611668],[80.74988283279515,6.836577454726984],[80.7499799091211,6.836057799759148],[80.74985156681987,6.83490507699528],[80.74991626404625,6.834226008788353],[80.75017833378983,6.833877920233139],[80.75005672775919,6.833887197325589],[80.74973994476514,6.833911364070523],[80.74918343226358,6.834205540740749],[80.7491569774183,6.834203509931246],[80.74912271258464,6.834199703487659],[80.74909986872309,6.834197799486451],[80.74908018237645,6.834183219763799],[80.74894757849546,6.833344922454685],[80.74883265637818,6.833116095787242],[80.74863459912216,6.832551183313009],[80.74832513576345,6.83234357145727],[80.7478956788159,6.831866311039597],[80.74755502412495,6.831761092467673],[80.74660608733505,6.831722243328889],[80.74630104724277,6.831813011973817],[80.74503973375835,6.831112548701504],[80.74467175615125,6.830840812314348],[80.74443761990092,6.830811681134173],[80.74408974670779,6.830664727816037],[80.74376052075154,6.83047088091993],[80.74362143546885,6.83046282112756],[80.74325390602671,6.830283818443755],[80.74310244797628,6.830289036731109],[80.74298687975819,6.830293017649666],[80.7420956886168,6.830172085459997],[80.74202993627605,6.829989849613769],[80.7418585867468,6.82978304924736],[80.74189409494716,6.829440139567895],[80.74160307989963,6.828989547455978],[80.7415025181679,6.828874803187049],[80.74145390363012,6.82875315908389],[80.74142239933157,6.828469848496668],[80.74146962934194,6.828296617915416],[80.74159574022188,6.828170728074369],[80.7416981100164,6.827942393802011],[80.74170256336546,6.827929040882793],[80.74177687208292,6.827706286042631],[80.74178480728433,6.827438663807937],[80.74186357730989,6.827052918507664],[80.74186053075893,6.827043025892106],[80.74176902392281,6.826746007761191],[80.74174543173861,6.826525576268954],[80.74174998797383,6.826440596403288],[80.7417690726774,6.826084720208631],[80.74174151185794,6.825994144777152],[80.74158798298697,6.825990177230462],[80.74149082594573,6.825945369968223],[80.74148563365797,6.82594297494088],[80.74145215866803,6.825948329713635],[80.74128870320796,6.825974470803206],[80.7411076084941,6.825974457498779],[80.74102839530626,6.82589906090915],[80.74094221773325,6.825817037811775],[80.74080044251828,6.825573000990468],[80.74064191531066,6.82540675731854],[80.74063900942734,6.825403710435326],[80.7403830021171,6.825234412727565],[80.74032787815729,6.825116422378192],[80.74028859323782,6.824888077694051],[80.74020194696017,6.824714837106607],[80.7401748767682,6.824566145257829],[80.74017043440791,6.8245417408432],[80.74008378106564,6.824463030995654],[80.74000503906416,6.824455111286989],[80.73967436675962,6.824580985105545],[80.73956674078117,6.824587951896588],[80.73943021826257,6.824596792003327],[80.7390206843651,6.824423526195254],[80.73886306604781,6.824321212264658],[80.73862684665967,6.82422680583322],[80.73839062062883,6.824171678584797],[80.73810703677972,6.824147917525468],[80.73796538288255,6.824163731857035],[80.73774483866143,6.824250332060038],[80.73713833702351,6.824580784149076],[80.73651615448507,6.824753966856423],[80.73637436078222,6.82476186787579],[80.73601993988528,6.824856227851228],[80.73581523597528,6.824864123405478],[80.73556317679329,6.824816908074531],[80.73512126474803,6.824681332936855],[80.7351073288684,6.824573758824111],[80.73499477946345,6.824178548840123],[80.73515383103866,6.824122238551369],[80.73557612396759,6.823861292291703],[80.73588319052129,6.823715496133126],[80.73701195118792,6.822886862484165],[80.7373750182553,6.822646881026444],[80.73748796570499,6.82257222471356],[80.73763386282941,6.822518542305396],[80.73787956590046,6.822487900099976],[80.73818661284331,6.822557020421249],[80.73855113532493,6.822562893067043],[80.73858325030142,6.822327683706763],[80.73919783769676,6.821751006527715],[80.73921768028436,6.821747166499122],[80.73929530436813,6.821709434175432],[80.73950919307471,6.82160546519738],[80.73980055943736,6.821518869581468],[80.73998165576427,6.821487515089401],[80.74021788243286,6.821495304730573],[80.74047786226238,6.821448129427042],[80.74063535353139,6.821353752402953],[80.7409425569673,6.82123564882579],[80.74109893830204,6.821124047815328],[80.7412635508281,6.820941573689739],[80.74144657629523,6.820692526336577],[80.74203725346162,6.820117898357629],[80.74214597767525,6.819946649805399],[80.74225413620415,6.819802673786374],[80.7423772901549,6.819479526923071],[80.74250821487053,6.819233249913105],[80.7426930007749,6.818994605530786],[80.74290861765775,6.818525219553392],[80.7432475014405,6.818171285290695],[80.74349377801418,6.817986481049974],[80.74364787173377,6.817909624065566],[80.7442176311274,6.817217007459856],[80.74457191582805,6.816939939910476],[80.74465659763378,6.816901511755418],[80.74581300513049,6.816303855898127],[80.7463966444161,6.816712860677853],[80.7468996861062,6.8175430369423],[80.74756477213032,6.818412859868443],[80.74784422283246,6.818574113959805],[80.74795194380097,6.818040743759915],[80.74804426622875,6.817894503768629],[80.74861415149621,6.817324953223236],[80.74871868424543,6.816941860491007],[80.74875272094751,6.816817127234645],[80.74885282051842,6.816617051309656],[80.74893750145007,6.816555450002547],[80.74904331858245,6.816535108768939],[80.74933800073795,6.8164784623793],[80.74958045322624,6.81632841520176],[80.74973060126517,6.816047517926605],[80.74973839088126,6.815809003789522],[80.74965372382428,6.815578112467366],[80.74955764348066,6.815411206844475],[80.7493303080592,6.815016283849839],[80.74928408958775,6.814847002613073],[80.74930728811773,6.814592945820956],[80.74942279572694,6.814392869724205],[80.7498385880743,6.813823450906161],[80.75006181769349,6.813592578426748],[80.75025436375145,6.813507950567764],[80.75036649362565,6.813418215164281],[80.75040831725278,6.813384744781592],[80.75060087279141,6.813138467931692],[80.75067779554762,6.812792143938708],[80.75067572827922,6.812656263690228],[80.75139584805439,6.810881882033261],[80.75530646656264,6.80844516685876],[80.75569038419498,6.808829045834832],[80.75579825775925,6.808574990510436],[80.75592139175377,6.808459694443648],[80.75604801792501,6.808239251791674],[80.75616017349718,6.808043998447862],[80.75637576282384,6.807867099069107],[80.75652208383407,6.807667023402081],[80.75673767101225,6.807513014118395],[80.75689162593879,6.807289907315437],[80.7570533497554,6.807220676101561],[80.75717641995024,6.807123459863298],[80.75721073167277,6.806207609357116],[80.75723725514722,6.805499648236713],[80.7572762219133,6.804459521050315],[80.7573779681566,6.801743662007351],[80.75900232151331,6.800403999495111],[80.75887833637496,6.800294326598617],[80.75878773266241,6.800039558715384],[80.75884752920962,6.800063440516159],[80.7593249186522,6.799817170421838],[80.75957132184905,6.799578663527883],[80.75966457045433,6.799444863823904],[80.7600487245959,6.798893655037163],[80.76044130320098,6.798431896595205],[80.7613007177034,6.797519128985819],[80.75987755721498,6.79697123367285],[80.75979462056107,6.797015900823161],[80.7593866410521,6.797339040599265],[80.75937123808471,6.797192793544112],[80.75940205966188,6.797046690114949],[80.75926339260401,6.796838831519887],[80.75907863790803,6.796677175883064],[80.7588251866324,6.796566083879869],[80.75595078026534,6.795459455765033],[80.75581468444341,6.795421572283201],[80.75087222091902,6.794045745126287],[80.75067097010559,6.794101957160637],[80.75047099144184,6.794221828226492],[80.75007826563534,6.794683576836075],[80.74987809535601,6.79476043433451],[80.74973178579313,6.794775827784221],[80.74963169929511,6.794829799555514],[80.7495162029456,6.794914432481905],[80.74930061342555,6.79515293603996],[80.74926981199023,6.794891245294906],[80.7491775126922,6.794714331518249],[80.74902352175407,6.794562096852157],[80.74670873296334,6.795208618511984],[80.74453896324745,6.79581462405132],[80.74313365241282,6.796207115233048],[80.74156153245497,6.795407594370507],[80.73923253255714,6.794223139852003],[80.73915310157722,6.794051806662752],[80.73895295770012,6.793759298121873],[80.73878361514782,6.793682276232895],[80.73846018075614,6.793690022616888],[80.73822920789084,6.793566791004975],[80.73790593625577,6.793305216438461],[80.73777505365689,6.793097352318951],[80.73712060945469,6.792427674862649],[80.7368742345564,6.792242976194674],[80.73678193043065,6.792196903206158],[80.73643548183071,6.791904382461505],[80.7362507298615,6.791835130176042],[80.73554238367835,6.791719628119559],[80.73519591179986,6.791711825937631],[80.73474171763255,6.791757992452236],[80.73447992368605,6.791704134381988],[80.73430281024258,6.791596306234416],[80.72918664330594,6.792239069412986],[80.71938581769123,6.795428169225049],[80.71918936310028,6.79549209075064],[80.7189756640051,6.795561623285611],[80.71886139342818,6.795608736731432],[80.7177379767686,6.796071919409253],[80.71051246481224,6.799050901788503],[80.70785880324269,6.800144935249192],[80.70759505413037,6.800322355040874],[80.69763224309536,6.809222806915323],[80.69754181328335,6.809303591637583],[80.69149527546604,6.818241846941508],[80.68929120904225,6.822930171085037],[80.68913888815726,6.82289412068938],[80.68882832202303,6.822777634506362],[80.68853332318193,6.822568031929124],[80.68846348936256,6.822552476576068],[80.68833146218698,6.822498051983764],[80.68821115403573,6.822509758118271],[80.68831585053965,6.822824028607781],[80.68837019440177,6.823281994010563],[80.68837471065709,6.823323254569712],[80.68845543932204,6.82405817185837],[80.6884734245795,6.824288631884952],[80.6884863261325,6.824453959837986],[80.68851954114062,6.824571580329997],[80.68807553813114,6.825516010884371],[80.68803043237295,6.825611955774321],[80.68750758748529,6.826724080622028],[80.68737892073237,6.826814912326527],[80.68715882667162,6.826980851845989],[80.68714915536707,6.826986960560393],[80.68689166534973,6.827220247876086],[80.68664508435937,6.827349316604007],[80.6866320296934,6.827347955875022],[80.6864322205878,6.827462830830532],[80.68641002405491,6.827481171768762],[80.68623227525264,6.827676370900332],[80.686014026399,6.827855351465105],[80.6860089901027,6.827857178154777],[80.6858808678384,6.827993914778462],[80.68576222795147,6.828128266645988],[80.68559273541742,6.828180769491185],[80.68527166118447,6.828318685792272],[80.68519221778739,6.828366071709116],[80.6852243293389,6.828388287962159],[80.68486701329059,6.82876860079945],[80.68461601208595,6.829153292496738],[80.6846148481128,6.82915557026325],[80.68461325262538,6.829157521486914],[80.6841047136977,6.829936919474902],[80.68406509669889,6.830000962323489],[80.68404322643009,6.830071861533853],[80.68404743513669,6.830115802471083],[80.68401670923186,6.830236848281832],[80.68401428588741,6.830238705294764],[80.68398808931033,6.830317218066289],[80.6873931686517,6.831167939103057],[80.687589723928,6.831164334652507],[80.69241025581513,6.833639096025369],[80.69431856484317,6.836390350770565],[80.69592640708726,6.839787849701158],[80.69828209449004,6.84523122247806],[80.69818157603514,6.845310163380561],[80.69783964698054,6.845603576357012],[80.69832119474908,6.845674882128706],[80.69851133171761,6.845760915903443],[80.69870707162211,6.846213217313274],[80.70009314350071,6.850246832754847],[80.69975037875972,6.850743439915665],[80.70020742884867,6.851007154349262],[80.70061896871205,6.851061620910672],[80.70089067668847,6.851185724136834],[80.7012271149152,6.851444592218436],[80.70134939383823,6.851522927490821],[80.70143452252307,6.851696011793687],[80.70152448157747,6.851935939804934],[80.7015906856157,6.852112511804074],[80.701613668329,6.852173809440197],[80.7017480884249,6.852361761197302],[80.70192068194069,6.85254985902221],[80.70207434451609,6.852642009795504],[80.70224314075266,6.852695730077775],[80.70246992928845,6.852745017223723],[80.70249047641552,6.852759181173904],[80.7025706375499,6.852766904688839],[80.70260657004292,6.852770365639826],[80.70261640519296,6.852771785131742],[80.70301873012176,6.852757174301244],[80.70311076374661,6.852780219665501],[80.70311890201293,6.852801664196434],[80.70315301888378,6.852891570788161],[80.70329508545917,6.853002796979198],[80.70350471657903,6.853007911215045],[80.70360979182296,6.853010473764077],[80.70375568676346,6.853056561175306],[80.70383075839518,6.85312375826128],[80.70390156983476,6.853187144781712],[80.70400898684998,6.853386677092897],[80.70411655902417,6.853494080684101],[80.70422399934549,6.8535401603408],[80.70440058280366,6.853517153832732],[80.70468081777648,6.853367560407301],[80.70477208575979,6.853211718667648],[80.70479988889154,6.853164246816994],[80.70493816143097,6.853067438077703],[80.70495344179096,6.853056740417602],[80.70539879298636,6.852980080330291],[80.70542207694783,6.852959928249027],[80.7056292688272,6.852780599266824],[80.70585959020451,6.852657842568085],[80.70595816021076,6.852651135247018],[80.70619734479278,6.85263486000671],[80.70627313976696,6.852614856650808],[80.70645847978456,6.852565942736993],[80.70715715582202,6.852650401229005],[80.70741828628891,6.852612005214358],[80.7075487869908,6.852550700093999],[80.70780977750545,6.852497043408233],[80.70809394605382,6.85250471378404],[80.70832425775242,6.852451052441866],[80.70856997481695,6.852435685790926],[80.70876195784788,6.852481776402098],[80.70920726124152,6.852750451721416],[80.70921400677,6.852749656864199],[80.70913651786523,6.853144388060267],[80.70902620562283,6.85340408122954],[80.70898288193511,6.853840975789038],[80.70898062372522,6.853852250560036],[80.70897497729325,6.853880451052137],[80.70902099657597,6.853898727550502],[80.70917196147231,6.854000268880628],[80.70928611349689,6.85406539247283],[80.70935617050885,6.854146492856223],[80.7094106698548,6.854287193118656],[80.70941237620717,6.854372175224441],[80.7093887252703,6.854461330845835],[80.70932856496326,6.854529881798406],[80.70928772177257,6.854597695715542],[80.70934953291027,6.854939191792623],[80.70942308159532,6.854995679717799],[80.70950027743339,6.855060083673075],[80.7095988745046,6.85512842259517],[80.70965625600823,6.855164550128643],[80.70973868759572,6.855232663400658],[80.70977603680456,6.855304499811414],[80.70980931156997,6.85539609961269],[80.70982997997845,6.855431898270124],[80.7098750265871,6.855431890966978],[80.70991576306352,6.8553961487719],[80.70993181495446,6.855328646970516],[80.70996018288254,6.855277071990654],[80.71000479672448,6.855213673441558],[80.71006549954068,6.855154349280196],[80.71018840705821,6.855134268638606],[80.71041241298678,6.855154177471648],[80.71064187002435,6.855190632427297],[80.71064309240167,6.855190907509137],[80.71072716126348,6.855190919953339],[80.71101117996363,6.855267686044578],[80.71127996525978,6.855091236977138],[80.71149501092661,6.855029941381297],[80.71180971388064,6.855060645892787],[80.71259295277807,6.855037718749286],[80.71296915940329,6.855060800929413],[80.71319488088706,6.855122387094486],[80.71339144104967,6.855176015802376],[80.71371390810194,6.855306479489375],[80.71379397928175,6.855308020986569],[80.71411316103166,6.855314161377295],[80.71422060282694,6.855352609040749],[80.7142331963269,6.855365172616378],[80.71428972866475,6.855421571679835],[80.71440491878114,6.855667167968644],[80.7144969444999,6.855766937470325],[80.7148041402886,6.855928201475141],[80.7148502232949,6.855981901534309],[80.71491154880344,6.856219859193731],[80.71499892466692,6.856299839623184],[80.71500371786418,6.856304227105055],[80.71508042855325,6.856278680795532],[80.71511283609125,6.856212503936292],[80.71515665329083,6.856112295273441],[80.71516043582598,6.856109409161047],[80.71528017750599,6.855805472733746],[80.71536458714884,6.855759419141628],[80.71559487914134,6.855866836719114],[80.71566400620318,6.855928311373454],[80.7156959390751,6.856015183712015],[80.71580222648875,6.856304328885664],[80.71589425171645,6.856404099024592],[80.71591828129391,6.856410106761711],[80.71602274002251,6.856436220500324],[80.71607860395815,6.856450185758778],[80.71630892067644,6.856350456242144],[80.71675506577841,6.85625977779607]]]]}}]}