{
"type": "FeatureCollection",
"name": "SED_PPL_MWS_048",
"crs": { "type": "name", "properties": { "name": "urn:ogc:def:crs:OGC:1.3:CRS84" } },

"features": [
{ "type": "Feature", "properties": { "GND_N": "Bambarapana", "PROVINCE_N": "UVA", "DISTRICT_N": "BADULLA", "DSD_N": "UVAPARANAGAMA", "Female": 756, "Male": 743, "Density": 622.23649641500003, "MWS_ID": "048", "GND_NO": "39", "GND_C": "095", "PROVINCE_C": "8", "DISTRICT_C": "1", "DSD_C": "27", "Admin_Code": "8127095", "GND_NAME_G": "බඹරපාන", "AreaGND": 240.90518776, "MWS_ID_2": null, "AreaGND_1": 2.4090518776000001, "Total": 1499, "FP_MWS": "048" }, "geometry": { "type": "MultiPolygon", "coordinates": [ [ [ [ 80.95113492015463, 6.986710240051206 ], [ 80.951386667650326, 6.986668284278476 ], [ 80.951736351178269, 6.986710016936343 ], [ 80.951960051931749, 6.986472710659546 ], [ 80.952295558353285, 6.985998143137784 ], [ 80.952312577541107, 6.985986812981625 ], [ 80.952547095519492, 6.985830705219428 ], [ 80.952589206871551, 6.985802672966341 ], [ 80.952882923100617, 6.985788609654855 ], [ 80.953274558135163, 6.98580241567324 ], [ 80.953736074293246, 6.985676655951091 ], [ 80.954211475217676, 6.985285758557618 ], [ 80.954215158693657, 6.985280581784784 ], [ 80.954588915320286, 6.984755354016322 ], [ 80.954966426041423, 6.984406356209854 ], [ 80.955595670333224, 6.983987490316058 ], [ 80.95591727835172, 6.983764100399708 ], [ 80.955936056067529, 6.983731810178744 ], [ 80.955727361534485, 6.983673316235989 ], [ 80.955636824663316, 6.983402591087472 ], [ 80.955636693321452, 6.983059628511629 ], [ 80.955582317297228, 6.982752787614457 ], [ 80.955582215267327, 6.982482029914644 ], [ 80.955636405916778, 6.982301502073801 ], [ 80.95585341044756, 6.982211165552752 ], [ 80.956050557984966, 6.982014259548 ], [ 80.95610383687017, 6.982096876327283 ], [ 80.956313805631581, 6.982543332702628 ], [ 80.956607706401797, 6.983017664040124 ], [ 80.957153352960731, 6.983450037274355 ], [ 80.957782876820119, 6.983770742871118 ], [ 80.958328429241917, 6.983951938128911 ], [ 80.958845958829585, 6.984007555285473 ], [ 80.959062891423045, 6.984025507002402 ], [ 80.959129826878268, 6.983189055675914 ], [ 80.95931910496239, 6.983022873613911 ], [ 80.959319998841607, 6.982938098434008 ], [ 80.959379699272716, 6.982769897472604 ], [ 80.959458141219216, 6.982644829494474 ], [ 80.959502914245974, 6.982599699566378 ], [ 80.959590487223934, 6.982581579330047 ], [ 80.959779624183099, 6.982516631380676 ], [ 80.959888410971928, 6.982447680452043 ], [ 80.959901003512471, 6.982430196993757 ], [ 80.959770162890678, 6.982368292435967 ], [ 80.959669467260056, 6.982320650722436 ], [ 80.959659135001317, 6.982315762399208 ], [ 80.958735201991885, 6.982052709082943 ], [ 80.958251181822874, 6.98176753430152 ], [ 80.957910119249064, 6.981438402375561 ], [ 80.957762566791956, 6.981347085453581 ], [ 80.957591100681285, 6.981240967722123 ], [ 80.957299949926053, 6.981217828556256 ], [ 80.957038900450883, 6.981055134917821 ], [ 80.957010497474712, 6.981037432997663 ], [ 80.956983351129779, 6.980999533661607 ], [ 80.956830968891524, 6.980922927845896 ], [ 80.956726483072188, 6.980838745440598 ], [ 80.956534169547822, 6.980825455802741 ], [ 80.956467267800178, 6.980785455505679 ], [ 80.956526817324217, 6.980582682124401 ], [ 80.956648694016025, 6.98047824168744 ], [ 80.956700760599233, 6.9802049392203 ], [ 80.956834156980051, 6.979992412615281 ], [ 80.956855871168912, 6.979902777821588 ], [ 80.956843102968932, 6.979898902291473 ], [ 80.956813309598516, 6.97988986059259 ], [ 80.956666317298655, 6.980023789464258 ], [ 80.956652192985658, 6.980042705856463 ], [ 80.956433142055218, 6.980101408813182 ], [ 80.956076451678655, 6.980114368721314 ], [ 80.955676670976089, 6.979883037215855 ], [ 80.955211864048223, 6.979722793646708 ], [ 80.954944748336771, 6.979695603426014 ], [ 80.954723701665955, 6.97945032046566 ], [ 80.954661269034816, 6.979141145685047 ], [ 80.95455918325591, 6.978846050635911 ], [ 80.954653317030875, 6.978546820281784 ], [ 80.954794983918774, 6.978225685764134 ], [ 80.954917473327569, 6.978157632401581 ], [ 80.955058356925107, 6.977647401621706 ], [ 80.955298751526655, 6.977554985666297 ], [ 80.955708059319875, 6.977512491442178 ], [ 80.955689905010331, 6.977317545520119 ], [ 80.955683152807154, 6.977280450428901 ], [ 80.955449886220563, 6.977033280577198 ], [ 80.955413625027759, 6.976798637612144 ], [ 80.955413535978707, 6.976563978225363 ], [ 80.955540058356306, 6.976347321856057 ], [ 80.95564754635987, 6.97613256721148 ], [ 80.955720784291685, 6.975986240480079 ], [ 80.955702636067301, 6.975823791954885 ], [ 80.955485524787406, 6.97562531686176 ], [ 80.955033245466183, 6.975300576295478 ], [ 80.954834181105568, 6.974993790748048 ], [ 80.954580849983373, 6.974668974562164 ], [ 80.95449026794455, 6.974271893815735 ], [ 80.954434073576238, 6.974110847672134 ], [ 80.954345421860566, 6.973856782466121 ], [ 80.954216543310082, 6.97366637616375 ], [ 80.953998585122719, 6.973348703050449 ], [ 80.953663361494478, 6.973114693896059 ], [ 80.953490143720842, 6.97301873606399 ], [ 80.953361675184055, 6.972947567649808 ], [ 80.953043226874897, 6.972763723991918 ], [ 80.952724827883344, 6.972713670613291 ], [ 80.95267711196658, 6.972720183188907 ], [ 80.952356195803617, 6.972763980190671 ], [ 80.952188665521319, 6.972864386082816 ], [ 80.952004383620704, 6.972981522520143 ], [ 80.951803346568752, 6.973098663295585 ], [ 80.951585507282203, 6.973098744974001 ], [ 80.951445042844185, 6.973042729543419 ], [ 80.951417913792838, 6.973031911333071 ], [ 80.951362559639847, 6.97294910932996 ], [ 80.951317317721774, 6.972881432749907 ], [ 80.951266972790762, 6.972680765127421 ], [ 80.951330999630045, 6.972499049403252 ], [ 80.951330949143298, 6.972365257082065 ], [ 80.951313938236297, 6.971679582708046 ], [ 80.951196553819628, 6.971445491997609 ], [ 80.951151781382649, 6.971423170182284 ], [ 80.950760798271475, 6.971228240419895 ], [ 80.950576442592933, 6.971144689156917 ], [ 80.950358598032025, 6.971128045865527 ], [ 80.9501313352214, 6.97098235218278 ], [ 80.950123949265802, 6.970977616290615 ], [ 80.950040114279886, 6.970843855627481 ], [ 80.949905975734779, 6.970609771622636 ], [ 80.949872339288348, 6.970275303510429 ], [ 80.949821988227569, 6.970057912211511 ], [ 80.949637627938131, 6.969957636179397 ], [ 80.949593234067208, 6.969957652437761 ], [ 80.949386276558613, 6.969957728176732 ], [ 80.949101413467702, 6.969957832278093 ], [ 80.948950572985865, 6.969874267213419 ], [ 80.94885838783452, 6.969629195531123 ], [ 80.948746922332589, 6.969648190584012 ], [ 80.948681534369797, 6.96968793369139 ], [ 80.948675900251203, 6.969662396103288 ], [ 80.948600146661619, 6.969795809121753 ], [ 80.948460209991595, 6.969850776333855 ], [ 80.948232938186351, 6.969953175773366 ], [ 80.948071915301213, 6.969974221569405 ], [ 80.947970447657909, 6.970130300510494 ], [ 80.947901479478361, 6.97042737916234 ], [ 80.947897349122286, 6.970570066964828 ], [ 80.947914587036337, 6.97073105124 ], [ 80.947782867672743, 6.970875544187196 ], [ 80.947638830602642, 6.970984983108301 ], [ 80.947508575268714, 6.971029119188159 ], [ 80.947482400449019, 6.971143511738129 ], [ 80.947543677540594, 6.971237250664744 ], [ 80.947690098713082, 6.971325242578976 ], [ 80.947762920134394, 6.971487627395498 ], [ 80.947761817974481, 6.971662658697327 ], [ 80.947759875525392, 6.97168196560335 ], [ 80.94756671474957, 6.972091870722344 ], [ 80.947237805939864, 6.972372991722882 ], [ 80.946729302421147, 6.972459798530591 ], [ 80.946406858013987, 6.972571287199388 ], [ 80.946134092806872, 6.972868380958837 ], [ 80.946010167049508, 6.973165420286017 ], [ 80.946001152516189, 6.973222511967485 ], [ 80.945503444378133, 6.973537464834344 ], [ 80.945170480536177, 6.973886946607573 ], [ 80.944938994907915, 6.974212438508125 ], [ 80.944898791508891, 6.974335590586095 ], [ 80.944753213681835, 6.974603589836828 ], [ 80.944431814368571, 6.974796155820321 ], [ 80.944202652754186, 6.974833765366944 ], [ 80.943944590147964, 6.974993459323076 ], [ 80.943689378318396, 6.975173729801292 ], [ 80.94335575931207, 6.975382182767034 ], [ 80.943068458527264, 6.975482925297615 ], [ 80.94274615025536, 6.975526912559392 ], [ 80.942425820352014, 6.975511736862809 ], [ 80.942110064913379, 6.975585138732092 ], [ 80.941767502975281, 6.975654033627626 ], [ 80.941351065062989, 6.975838336427912 ], [ 80.941268977293959, 6.975893154760287 ], [ 80.941296553441859, 6.975860106017801 ], [ 80.941415266213909, 6.975436391542448 ], [ 80.941415099369181, 6.974961879813736 ], [ 80.94125064229442, 6.974679275681535 ], [ 80.941201284233102, 6.974727238733474 ], [ 80.940065169352508, 6.975831240615763 ], [ 80.938206459582062, 6.976503618940928 ], [ 80.937831593779222, 6.976997135648317 ], [ 80.937501660929954, 6.977431498205268 ], [ 80.937270634530591, 6.978548332803622 ], [ 80.936822456418625, 6.980115873540329 ], [ 80.936374046596228, 6.981011678405659 ], [ 80.935380648283129, 6.981555800675308 ], [ 80.934483474595837, 6.982323804146713 ], [ 80.934207245338527, 6.982553694573165 ], [ 80.934231006897832, 6.982664707490185 ], [ 80.934269617003906, 6.982965122262068 ], [ 80.934151609980049, 6.983118002579261 ], [ 80.934073747245137, 6.983231143839321 ], [ 80.93450805361995, 6.983706038491761 ], [ 80.934585540391396, 6.9834678658948 ], [ 80.934641008670184, 6.983264621665005 ], [ 80.934907367127252, 6.983068598157191 ], [ 80.935321750606036, 6.982836369311047 ], [ 80.935541801443946, 6.982587946079592 ], [ 80.935630206731247, 6.982461258923307 ], [ 80.935826868202966, 6.982195484233168 ], [ 80.936179805242787, 6.98191865019959 ], [ 80.936410616368406, 6.98179555817444 ], [ 80.936863093990823, 6.981662415274283 ], [ 80.937315304072911, 6.981486018687397 ], [ 80.937778312911419, 6.981499800685913 ], [ 80.938335243434366, 6.981513575351054 ], [ 80.940119940531048, 6.981390813341542 ], [ 80.94050950932963, 6.981353110195053 ], [ 80.940814830429986, 6.981358986025654 ], [ 80.940937629996469, 6.981416640299377 ], [ 80.941372398602056, 6.981421170241912 ], [ 80.941771660993339, 6.981421033298762 ], [ 80.942047562000312, 6.981405527084535 ], [ 80.942129543498766, 6.981465638817487 ], [ 80.942270603261235, 6.981488525404671 ], [ 80.942275310470961, 6.981491083864074 ], [ 80.942406965837677, 6.981496162345268 ], [ 80.942412057701972, 6.981496160555144 ], [ 80.942525794707407, 6.981503822597174 ], [ 80.942611716529953, 6.981511510680931 ], [ 80.942715702515756, 6.981457847343988 ], [ 80.942778924444823, 6.981493485789539 ], [ 80.942781097491633, 6.981498611579765 ], [ 80.942833483412997, 6.981555496170759 ], [ 80.942948815691381, 6.9816569077763 ], [ 80.94314978159548, 6.981677627931727 ], [ 80.943392385276866, 6.981715038668785 ], [ 80.944070474332065, 6.981819604733595 ], [ 80.944226617584832, 6.981856541125195 ], [ 80.944498369209612, 6.981844074347591 ], [ 80.944658218714409, 6.981906345437552 ], [ 80.944669413717662, 6.981902152666215 ], [ 80.944865948931778, 6.981860461539563 ], [ 80.944989170468205, 6.981823388619792 ], [ 80.945161951073516, 6.981651811114343 ], [ 80.945247085330251, 6.981598233542924 ], [ 80.945661169804453, 6.982011064617195 ], [ 80.945767157796908, 6.981935476616933 ], [ 80.945950363773662, 6.98180481890716 ], [ 80.946077708689586, 6.981745208724615 ], [ 80.946148750363193, 6.98194350463328 ], [ 80.94614886830314, 6.98227101087429 ], [ 80.946148974532861, 6.982565985331219 ], [ 80.946148991896223, 6.982616710997554 ], [ 80.946149077083092, 6.982853243276417 ], [ 80.946149122953884, 6.982980605905893 ], [ 80.946276799351438, 6.983144313114376 ], [ 80.946418160576172, 6.983238293671793 ], [ 80.946440916595549, 6.983253422783262 ], [ 80.946532137467401, 6.983435336934469 ], [ 80.946532209719706, 6.983635478716784 ], [ 80.946495859981596, 6.983944803278593 ], [ 80.946423033830797, 6.984217749583557 ], [ 80.946332896051203, 6.984394308599565 ], [ 80.946205431816139, 6.984812835583141 ], [ 80.946132611023415, 6.985103976629873 ], [ 80.946132710247653, 6.985376897556721 ], [ 80.946160856707962, 6.98561493172696 ], [ 80.946162785534426, 6.985620310795058 ], [ 80.946368871396729, 6.985869314434053 ], [ 80.946681760908959, 6.985912857373076 ], [ 80.94754369636513, 6.985956508761993 ], [ 80.947616754418462, 6.985939270459411 ], [ 80.947882740949893, 6.986595023662504 ], [ 80.948022855922062, 6.986889037392484 ], [ 80.948148695339341, 6.987153097267628 ], [ 80.948554429726073, 6.987473896580315 ], [ 80.948932481968555, 6.987522424105345 ], [ 80.94898804144816, 6.987529555094421 ], [ 80.949477579701906, 6.987529375755082 ], [ 80.949664382668033, 6.987529307186945 ], [ 80.949855222247393, 6.987529237060692 ], [ 80.95026082659615, 6.987501179744385 ], [ 80.950540525440161, 6.987389442716273 ], [ 80.950743445398842, 6.987129012333762 ], [ 80.95113492015463, 6.986710240051206 ] ] ] ] } },
{ "type": "Feature", "properties": { "GND_N": "Malwattegama", "PROVINCE_N": "UVA", "DISTRICT_N": "BADULLA", "DSD_N": "UVAPARANAGAMA", "Female": 437, "Male": 420, "Density": 314.75544222500002, "MWS_ID": "048", "GND_NO": "39A", "GND_C": "070", "PROVINCE_C": "8", "DISTRICT_C": "1", "DSD_C": "27", "Admin_Code": "8127070", "GND_NAME_G": "මල්වත්ත", "AreaGND": 272.27487917000002, "MWS_ID_2": null, "AreaGND_1": 2.7227487917, "Total": 857, "FP_MWS": "048" }, "geometry": { "type": "MultiPolygon", "coordinates": [ [ [ [ 80.959711077583023, 7.00472931510598 ], [ 80.95999756441428, 7.004636370344706 ], [ 80.960229973319258, 7.00477545869653 ], [ 80.960477753258004, 7.004790905158022 ], [ 80.960717960887479, 7.004976477284663 ], [ 80.960903908082884, 7.005278217704774 ], [ 80.961004619147573, 7.005324525108954 ], [ 80.9611439210437, 7.005324470438238 ], [ 80.961260216490572, 7.005440431738029 ], [ 80.961500212553261, 7.005448108145216 ], [ 80.961697559337651, 7.005531895475809 ], [ 80.961864295838296, 7.005602687162124 ], [ 80.961964988752314, 7.005602646558089 ], [ 80.962081075113772, 7.005548484012685 ], [ 80.962112004044229, 7.005440096329696 ], [ 80.962096373708107, 7.005254435463574 ], [ 80.96214286568997, 7.005161584048503 ], [ 80.962289883859441, 7.00500680361538 ], [ 80.962522191222021, 7.004882934068849 ], [ 80.962723506174612, 7.004704959028086 ], [ 80.962743291071732, 7.004703297207278 ], [ 80.962816418256708, 7.004697150573509 ], [ 80.962828079042552, 7.004686607100832 ], [ 80.962975639324156, 7.004553172532689 ], [ 80.962978995144624, 7.004550135426477 ], [ 80.96309505429042, 7.004426169702018 ], [ 80.963187900854209, 7.004256010049308 ], [ 80.963187798816733, 7.003999365407704 ], [ 80.963187753163794, 7.003884535872772 ], [ 80.96323420085271, 7.00368344906157 ], [ 80.96323412174705, 7.003482239643604 ], [ 80.963357884276547, 7.003172746642961 ], [ 80.963311128054059, 7.002600221674749 ], [ 80.963280094941396, 7.002445512513725 ], [ 80.963419499309964, 7.002352624081013 ], [ 80.963585874633452, 7.002155163790143 ], [ 80.963705928379298, 7.002120356087715 ], [ 80.963734957657223, 7.00212959836309 ], [ 80.964069851267269, 7.002236217216505 ], [ 80.964217077138798, 7.002251701817785 ], [ 80.964315751817722, 7.00221534978561 ], [ 80.964364133960345, 7.002197524564236 ], [ 80.964449235208704, 7.00211228809758 ], [ 80.964472503266975, 7.001942154179033 ], [ 80.964433703797397, 7.001818392858411 ], [ 80.964472325886916, 7.001501161913395 ], [ 80.964441246007112, 7.001230304803751 ], [ 80.964472184364425, 7.001145229227259 ], [ 80.964541734839329, 7.001075541370199 ], [ 80.964616817234401, 7.001116589741463 ], [ 80.96466182847422, 7.001141197974366 ], [ 80.964694700306524, 7.001088340444423 ], [ 80.964750866060214, 7.000998026932542 ], [ 80.964803231220529, 7.000954945350079 ], [ 80.964803662832622, 7.00095013333242 ], [ 80.964823153409327, 7.00085816783877 ], [ 80.964822495597048, 7.000790912598341 ], [ 80.964807900939093, 7.000720933720495 ], [ 80.964819454960249, 7.00059116663197 ], [ 80.964831008975636, 7.000461398638313 ], [ 80.964815747070574, 7.000325430558515 ], [ 80.964800484270697, 7.000189463381871 ], [ 80.964769925065227, 7.000091084633041 ], [ 80.964758295555924, 6.999996328219255 ], [ 80.964757485249365, 6.999993451926291 ], [ 80.964730537611814, 6.999897883235536 ], [ 80.964716504216824, 6.999730897652443 ], [ 80.964694241153779, 6.999666432711622 ], [ 80.964669444777698, 6.999620140031732 ], [ 80.964592950602153, 6.999583430209846 ], [ 80.964310846580887, 6.999544861807597 ], [ 80.964296029094086, 6.999544345931597 ], [ 80.964272362388996, 6.999543524310719 ], [ 80.964248750895024, 6.999542703570922 ], [ 80.964228787224584, 6.999535832430491 ], [ 80.96420271714301, 6.999531857523551 ], [ 80.963980657246722, 6.99946427905259 ], [ 80.963883232654922, 6.999259070615385 ], [ 80.963867474597478, 6.999094650310002 ], [ 80.963867288376846, 6.99862533491819 ], [ 80.96404798621856, 6.998192047638457 ], [ 80.964282960997537, 6.997794840600513 ], [ 80.964282883456235, 6.997600762550622 ], [ 80.964282759069121, 6.997289422339614 ], [ 80.964386370093507, 6.997264700513583 ], [ 80.964772715573304, 6.997172522461748 ], [ 80.965152514199332, 6.997100167436265 ], [ 80.965514190937924, 6.996937568113662 ], [ 80.965767272924296, 6.996594504218337 ], [ 80.965800694358791, 6.996410640481708 ], [ 80.965839461129789, 6.99619736093154 ], [ 80.965893532902044, 6.995728022814158 ], [ 80.965901076997298, 6.995694833327524 ], [ 80.96598380810282, 6.995330872223332 ], [ 80.966023162989742, 6.995252239997778 ], [ 80.966092241335559, 6.99511422227588 ], [ 80.966182538109294, 6.994771224570252 ], [ 80.966182407945993, 6.994446311534805 ], [ 80.966200356771878, 6.994103342948771 ], [ 80.966290652386874, 6.993760344311248 ], [ 80.966290499411087, 6.993381281953019 ], [ 80.966398933885472, 6.993164631028217 ], [ 80.966507369166692, 6.992947979174549 ], [ 80.967031713000139, 6.992514552964101 ], [ 80.967049430308833, 6.992140139680195 ], [ 80.96705949352787, 6.991978411098057 ], [ 80.967065258454411, 6.991885766484741 ], [ 80.967071205633928, 6.991885544331601 ], [ 80.967069380312978, 6.991803429888119 ], [ 80.967083972915674, 6.991450524214271 ], [ 80.967085312870779, 6.991418100455616 ], [ 80.967085225118794, 6.991201492349715 ], [ 80.967193664253244, 6.991002891319357 ], [ 80.967410560521628, 6.990641791139137 ], [ 80.967669758656214, 6.990451932390249 ], [ 80.967692462210493, 6.990420098618411 ], [ 80.967720525882541, 6.990393369322928 ], [ 80.967934866072838, 6.990118110898598 ], [ 80.968002404264496, 6.990035083860928 ], [ 80.968169876877312, 6.989829204231172 ], [ 80.96818010005714, 6.989818993099696 ], [ 80.968441067833226, 6.989558334603504 ], [ 80.968552556328362, 6.989446721457872 ], [ 80.968659695092853, 6.98908268662649 ], [ 80.968663619475038, 6.989069354557534 ], [ 80.968725307573919, 6.988766149627851 ], [ 80.968736571898006, 6.988559582896233 ], [ 80.968668547541725, 6.988430863669834 ], [ 80.968643092542308, 6.988211724778147 ], [ 80.96862219614178, 6.988031838419553 ], [ 80.968503523285648, 6.987821131320085 ], [ 80.968503637252738, 6.987787674425462 ], [ 80.968647636317627, 6.987713676461819 ], [ 80.968735651196582, 6.987643798724315 ], [ 80.968782781915394, 6.987606381664063 ], [ 80.968847073478287, 6.987579601356267 ], [ 80.968775437386057, 6.987584503010732 ], [ 80.96825790956747, 6.987542851343293 ], [ 80.967782297300687, 6.987389548339358 ], [ 80.967502463078006, 6.987152439803738 ], [ 80.967236583952683, 6.986831600572704 ], [ 80.967054621051062, 6.986496771923166 ], [ 80.966271238048833, 6.986190093585241 ], [ 80.965697702595563, 6.985994965366482 ], [ 80.965414354095614, 6.985882021782945 ], [ 80.964998253805447, 6.985716162793577 ], [ 80.964312713877874, 6.985241989503953 ], [ 80.963739190529679, 6.985074767739343 ], [ 80.962969936944731, 6.985116936747899 ], [ 80.962298496851929, 6.984921841200301 ], [ 80.961780900064412, 6.984698777177819 ], [ 80.961450976968294, 6.984498698100215 ], [ 80.961237826135175, 6.984369435030153 ], [ 80.96032854769922, 6.984006979872471 ], [ 80.959964860624041, 6.983923396536289 ], [ 80.959727097798179, 6.983951396950087 ], [ 80.95955979376123, 6.98399474051743 ], [ 80.959349496255527, 6.984049223743764 ], [ 80.959062891423045, 6.984025507002402 ], [ 80.958845958829585, 6.984007555285473 ], [ 80.958328429241917, 6.983951938128911 ], [ 80.957782876820119, 6.983770742871118 ], [ 80.957153352960731, 6.983450037274355 ], [ 80.956607706401797, 6.983017664040124 ], [ 80.956313805631581, 6.982543332702628 ], [ 80.95610383687017, 6.982096876327283 ], [ 80.956050557984966, 6.982014259548 ], [ 80.95585341044756, 6.982211165552752 ], [ 80.955636405916778, 6.982301502073801 ], [ 80.955582215267327, 6.982482029914644 ], [ 80.955582317297228, 6.982752787614457 ], [ 80.955636693321452, 6.983059628511629 ], [ 80.955636824663316, 6.983402591087472 ], [ 80.955727361534485, 6.983673316235989 ], [ 80.955936056067529, 6.983731810178744 ], [ 80.95591727835172, 6.983764100399708 ], [ 80.955595670333224, 6.983987490316058 ], [ 80.954966426041423, 6.984406356209854 ], [ 80.954588915320286, 6.984755354016322 ], [ 80.954215158693657, 6.985280581784784 ], [ 80.954211475217676, 6.985285758557618 ], [ 80.953736074293246, 6.985676655951091 ], [ 80.953274558135163, 6.98580241567324 ], [ 80.952882923100617, 6.985788609654855 ], [ 80.952589206871551, 6.985802672966341 ], [ 80.952547095519492, 6.985830705219428 ], [ 80.952312577541107, 6.985986812981625 ], [ 80.952295558353285, 6.985998143137784 ], [ 80.951960051931749, 6.986472710659546 ], [ 80.951736351178269, 6.986710016936343 ], [ 80.951386667650326, 6.986668284278476 ], [ 80.95113492015463, 6.986710240051206 ], [ 80.950743445398842, 6.987129012333762 ], [ 80.950540525440161, 6.987389442716273 ], [ 80.95026082659615, 6.987501179744385 ], [ 80.949855222247393, 6.987529237060692 ], [ 80.949664382668033, 6.987529307186945 ], [ 80.949477579701906, 6.987529375755082 ], [ 80.94898804144816, 6.987529555094421 ], [ 80.948932481968555, 6.987522424105345 ], [ 80.948981170732438, 6.987541023398097 ], [ 80.949379175403948, 6.987843508837013 ], [ 80.949451171463664, 6.9880932248593 ], [ 80.949532980243603, 6.988376988281189 ], [ 80.949713298197878, 6.988478839088017 ], [ 80.949991194342942, 6.988635805283062 ], [ 80.950067197589235, 6.98873329212903 ], [ 80.950381241149017, 6.989136108578812 ], [ 80.950617879452111, 6.988904828106435 ], [ 80.951066090461737, 6.988996649093017 ], [ 80.951352076475686, 6.989147605922938 ], [ 80.95167954357612, 6.989516171048213 ], [ 80.951723688608851, 6.989552693416704 ], [ 80.951743244830254, 6.989560722778312 ], [ 80.951938346321313, 6.989640813049927 ], [ 80.952100800102585, 6.989786620088118 ], [ 80.952709087244045, 6.98975227786402 ], [ 80.952713581554633, 6.989746665824837 ], [ 80.953105513381928, 6.98925711569901 ], [ 80.953431450686608, 6.988865432196662 ], [ 80.953800355011055, 6.98896425258399 ], [ 80.954064633494298, 6.989318687271979 ], [ 80.954734791876376, 6.989380707162104 ], [ 80.954772881012929, 6.989380701801583 ], [ 80.954791925581148, 6.989380699120158 ], [ 80.955695506183304, 6.989485002688398 ], [ 80.955733803493644, 6.989484998075172 ], [ 80.955781671963422, 6.98948499162723 ], [ 80.955800821523781, 6.989484989769321 ], [ 80.95634757557616, 6.989936270598482 ], [ 80.956334049782384, 6.990082175810215 ], [ 80.956306183341951, 6.990382771942003 ], [ 80.95629943846906, 6.990455548198455 ], [ 80.956057574486067, 6.990712751058959 ], [ 80.955989358479869, 6.990785293902656 ], [ 80.955254130838782, 6.991101331416229 ], [ 80.955232604814015, 6.991126039082121 ], [ 80.955512064618873, 6.991789519686821 ], [ 80.955898213307975, 6.992137284630662 ], [ 80.95557169519364, 6.992320678706116 ], [ 80.955007396068055, 6.99254721071734 ], [ 80.954848586614972, 6.992758428841521 ], [ 80.954659990423309, 6.993009260756599 ], [ 80.954536641416126, 6.993291314671686 ], [ 80.9546272328745, 6.993391753214556 ], [ 80.954878981353147, 6.993670864579275 ], [ 80.955092554838288, 6.993585849686194 ], [ 80.955296326028432, 6.993874125223195 ], [ 80.955569415855521, 6.994036079787485 ], [ 80.955798172659868, 6.994541130181402 ], [ 80.955947272401858, 6.995420518532984 ], [ 80.956541813568222, 6.995799606524523 ], [ 80.95676053984424, 6.996513474148176 ], [ 80.956878645657554, 6.997018257877417 ], [ 80.95684008083235, 6.997388884410116 ], [ 80.95678715811168, 6.997779710640169 ], [ 80.956755347400374, 6.998014626177112 ], [ 80.956888434246949, 6.99854179942828 ], [ 80.957392705691802, 6.999227450173496 ], [ 80.957543951524954, 6.999557051942531 ], [ 80.957641742151964, 6.999770162598753 ], [ 80.958123603482875, 7.000084361156027 ], [ 80.958503818652005, 7.000776808225877 ], [ 80.958522668808158, 7.000811137680098 ], [ 80.958835469577608, 7.001428109457373 ], [ 80.958453947376697, 7.00188546756319 ], [ 80.958220053515788, 7.001805290274063 ], [ 80.958080380218419, 7.001757412921435 ], [ 80.958061988005198, 7.00175110882191 ], [ 80.957326318526711, 7.001580332358039 ], [ 80.957184421355805, 7.001510754801976 ], [ 80.956898064323596, 7.001370339024064 ], [ 80.956239417098857, 7.001065394613622 ], [ 80.955975716859655, 7.000777779162638 ], [ 80.955753534657859, 7.000535446568453 ], [ 80.955367904235956, 7.000288241174204 ], [ 80.955203612083395, 7.00023774617716 ], [ 80.954875004345283, 7.00013674968663 ], [ 80.954522189286806, 7.000234558084843 ], [ 80.954515210134844, 7.000461583904801 ], [ 80.954500792946618, 7.000812948294788 ], [ 80.954674858258457, 7.001340178091935 ], [ 80.954983958330502, 7.001455446723759 ], [ 80.955079313447754, 7.002023104544326 ], [ 80.955187874418215, 7.00226298921583 ], [ 80.955350597245925, 7.00249493963195 ], [ 80.9555287604434, 7.002788914525282 ], [ 80.955792339409214, 7.003446419367418 ], [ 80.95611108466889, 7.004027013795183 ], [ 80.956234024437251, 7.004250948755744 ], [ 80.956396813722137, 7.004653162680012 ], [ 80.956644770713496, 7.005132776574089 ], [ 80.956718344602052, 7.005221767995497 ], [ 80.957187102129225, 7.005805716952207 ], [ 80.957575864300608, 7.006142050281041 ], [ 80.957768118788266, 7.006308376005476 ], [ 80.957840781794971, 7.006175209706283 ], [ 80.957860968570003, 7.006138216452207 ], [ 80.958131878695923, 7.005991020070701 ], [ 80.958232537879823, 7.005905918853839 ], [ 80.958265909983979, 7.005896438710562 ], [ 80.958340997370897, 7.005874931360466 ], [ 80.958457063210503, 7.005766511872586 ], [ 80.958518960925687, 7.005650480929922 ], [ 80.958542064223238, 7.005418319647926 ], [ 80.958865818958202, 7.005212383592007 ], [ 80.958882808999377, 7.005201574993348 ], [ 80.959034354362274, 7.005066856866603 ], [ 80.959091758846185, 7.005015827753676 ], [ 80.959487255161349, 7.004802856811565 ], [ 80.959494304438167, 7.004799059574621 ], [ 80.959711077583023, 7.00472931510598 ] ] ] ] } },
{ "type": "Feature", "properties": { "GND_N": "Medipokuna", "PROVINCE_N": "UVA", "DISTRICT_N": "BADULLA", "DSD_N": "UVAPARANAGAMA", "Female": 431, "Male": 422, "Density": 270.337797018, "MWS_ID": "048", "GND_NO": "39B", "GND_C": "075", "PROVINCE_C": "8", "DISTRICT_C": "1", "DSD_C": "27", "Admin_Code": "8127075", "GND_NAME_G": "මැදිපොක", "AreaGND": 315.531164864, "MWS_ID_2": null, "AreaGND_1": 3.1553116486400001, "Total": 853, "FP_MWS": "048" }, "geometry": { "type": "MultiPolygon", "coordinates": [ [ [ [ 80.966408840723986, 7.009668445854223 ], [ 80.966448904194323, 7.009665138874185 ], [ 80.96655555219786, 7.009672823104762 ], [ 80.966569259183061, 7.009666021659245 ], [ 80.966650061287041, 7.009612394037489 ], [ 80.966714102172801, 7.009540095531468 ], [ 80.966802883919243, 7.009502610236218 ], [ 80.96681819803257, 7.009494964410084 ], [ 80.966824712352988, 7.009493294221468 ], [ 80.966888238286245, 7.009477004447248 ], [ 80.966911925333818, 7.009475417732195 ], [ 80.967032453360872, 7.009476824830612 ], [ 80.967038583714896, 7.009476896499054 ], [ 80.967044281423142, 7.009476962916948 ], [ 80.967188375035136, 7.009271461137851 ], [ 80.96744751472346, 7.008901884016004 ], [ 80.96744921396477, 7.008898290495313 ], [ 80.967532099643478, 7.008722984026678 ], [ 80.967590405711434, 7.008628998723943 ], [ 80.967779967885122, 7.008323436088431 ], [ 80.967793147824409, 7.00830500718281 ], [ 80.968081580171415, 7.00790167974213 ], [ 80.968249673941244, 7.007679234631881 ], [ 80.968388428608094, 7.007521325888575 ], [ 80.969140765814203, 7.007050150365487 ], [ 80.969919049111923, 7.007013940523777 ], [ 80.970721331795914, 7.007097353579328 ], [ 80.971200334309344, 7.007216789559026 ], [ 80.972002691353111, 7.007479649246486 ], [ 80.972793131530025, 7.007874108821172 ], [ 80.9735520954723, 7.008099149336242 ], [ 80.973553289459986, 7.008099503325817 ], [ 80.973717139435578, 7.008137959186922 ], [ 80.974083935209293, 7.008241739482163 ], [ 80.974259633208177, 7.008265283502732 ], [ 80.974278308368824, 7.008269666077795 ], [ 80.974417168623219, 7.008302255989081 ], [ 80.974417203926308, 7.008302265017317 ], [ 80.97458055436536, 7.008340603222945 ], [ 80.974731447316742, 7.008328505042064 ], [ 80.974831268452476, 7.008341879301129 ], [ 80.975003142711515, 7.008310456090759 ], [ 80.975003178913184, 7.008310449745302 ], [ 80.975039566932139, 7.008303797637717 ], [ 80.975324568990146, 7.008280945509694 ], [ 80.975527446897871, 7.008264678817302 ], [ 80.976464639486124, 7.007973200485933 ], [ 80.976660692953303, 7.007883283677598 ], [ 80.976834744439131, 7.0078260525481 ], [ 80.97716021132274, 7.007654192275222 ], [ 80.977523141787003, 7.007487742537205 ], [ 80.977643383464098, 7.007398850671199 ], [ 80.977675603231731, 7.007375032701479 ], [ 80.978398739741337, 7.006840431254126 ], [ 80.978752712053733, 7.006291367659922 ], [ 80.97893839059769, 7.006003348745063 ], [ 80.979051983971544, 7.00582714633892 ], [ 80.979490957202373, 7.005109779503027 ], [ 80.979494783085158, 7.005103527252653 ], [ 80.97992599616606, 7.00442728331163 ], [ 80.980120035580441, 7.004058043239617 ], [ 80.980317623546966, 7.003780446259769 ], [ 80.980603163158506, 7.003379282137384 ], [ 80.980768508908042, 7.003146982347866 ], [ 80.9808354904239, 7.002879903828783 ], [ 80.98080461502785, 7.002560035229527 ], [ 80.980777865093728, 7.002481512840395 ], [ 80.980705598112692, 7.002362075654609 ], [ 80.980623294012901, 7.002137288741182 ], [ 80.980521252049428, 7.002034295774727 ], [ 80.980156477970127, 7.001449729738646 ], [ 80.980079386268415, 7.001340788158842 ], [ 80.979901585180741, 7.001149539900172 ], [ 80.979716228341644, 7.000966284422257 ], [ 80.979652774863695, 7.000903552611647 ], [ 80.97965956371624, 7.000771087057386 ], [ 80.979659714502716, 7.000768151597613 ], [ 80.979673968923095, 7.000490000066789 ], [ 80.980095313665871, 7.000193127889204 ], [ 80.980869901895701, 6.999929110359203 ], [ 80.980966867326416, 6.999896059976678 ], [ 80.980752670751883, 6.999583786663022 ], [ 80.980733985725365, 6.999531040864388 ], [ 80.980674908486051, 6.999364278926018 ], [ 80.980409097312162, 6.999238806103012 ], [ 80.980157287464465, 6.999141235925737 ], [ 80.979961381826982, 6.998945960443666 ], [ 80.979765447984192, 6.998680916354436 ], [ 80.979583525746264, 6.998471682041457 ], [ 80.979163820302247, 6.998262549172801 ], [ 80.979078922122667, 6.998252423061206 ], [ 80.978814127185629, 6.998220837197228 ], [ 80.978690811120615, 6.998232794533339 ], [ 80.978380545653124, 6.99826288662432 ], [ 80.977877025018188, 6.998304963768396 ], [ 80.977597076274748, 6.997816685553346 ], [ 80.977149391821001, 6.997593609261873 ], [ 80.976757694195726, 6.997454232606178 ], [ 80.976575760969794, 6.997217090014265 ], [ 80.976421773600251, 6.996910161502741 ], [ 80.976309722531894, 6.996547400115089 ], [ 80.976071823312211, 6.996268417743863 ], [ 80.975847895626288, 6.995947564214177 ], [ 80.975518328317506, 6.995795107327018 ], [ 80.97490272945663, 6.99539069477393 ], [ 80.974566834216077, 6.994902438122877 ], [ 80.974035175096958, 6.994539850562025 ], [ 80.973573557759039, 6.994428411141675 ], [ 80.97347554341404, 6.994177276783293 ], [ 80.973489418585274, 6.993912140279559 ], [ 80.973643107399823, 6.993507402711445 ], [ 80.973642980205241, 6.99320828982262 ], [ 80.973642971052996, 6.993186456117956 ], [ 80.973433050245859, 6.992907460572549 ], [ 80.973181150899691, 6.992586617323769 ], [ 80.973129065201007, 6.992540688256648 ], [ 80.972817357037584, 6.99226582236994 ], [ 80.972243683868101, 6.99176370843857 ], [ 80.972254115445253, 6.991697619688789 ], [ 80.972285533826877, 6.991498562112918 ], [ 80.972509238697754, 6.99128915612827 ], [ 80.972677069007815, 6.991261176505454 ], [ 80.973012753784928, 6.991261036640139 ], [ 80.973530346230916, 6.991442226416401 ], [ 80.973738786335332, 6.991429141539814 ], [ 80.973754129702925, 6.991428178355251 ], [ 80.973942724445905, 6.991357530478433 ], [ 80.973977884775238, 6.991344358909411 ], [ 80.974063382991986, 6.99110759317204 ], [ 80.974189061207497, 6.99061914323638 ], [ 80.974412627987149, 6.99008878885147 ], [ 80.974285637492656, 6.989758392059047 ], [ 80.974160587970516, 6.989433045896182 ], [ 80.974118475519418, 6.989070254440495 ], [ 80.974155381472343, 6.988996539338364 ], [ 80.9742163014525, 6.988874853064543 ], [ 80.974514426041978, 6.98866875547445 ], [ 80.974579854550512, 6.988623525042104 ], [ 80.974803531709611, 6.988358300261323 ], [ 80.974904948316421, 6.988143056630793 ], [ 80.974896901308085, 6.98805496554879 ], [ 80.974845285883433, 6.987869885428017 ], [ 80.974411606888097, 6.987660753778028 ], [ 80.974356899461853, 6.98760362240224 ], [ 80.97411775485125, 6.987353885660042 ], [ 80.97389359524054, 6.987120277252059 ], [ 80.973809910419803, 6.987033066044806 ], [ 80.973432151139235, 6.986754139647058 ], [ 80.97305450882557, 6.986754296307686 ], [ 80.972632739739325, 6.986964765225239 ], [ 80.972031483009076, 6.987383641897702 ], [ 80.971709820829929, 6.987467500031967 ], [ 80.971570011044534, 6.987607100519697 ], [ 80.97126241063431, 6.987872356682924 ], [ 80.970898764951016, 6.987900416555317 ], [ 80.970423111290074, 6.987649436064503 ], [ 80.970115344631907, 6.987510020818175 ], [ 80.969961484310119, 6.987496129530091 ], [ 80.96939083961469, 6.987542389214359 ], [ 80.968847073478287, 6.987579601356267 ], [ 80.968782781915394, 6.987606381664063 ], [ 80.968735651196582, 6.987643798724315 ], [ 80.968647636317627, 6.987713676461819 ], [ 80.968503637252738, 6.987787674425462 ], [ 80.968503523285648, 6.987821131320085 ], [ 80.96862219614178, 6.988031838419553 ], [ 80.968643092542308, 6.988211724778147 ], [ 80.968668547541725, 6.988430863669834 ], [ 80.968736571898006, 6.988559582896233 ], [ 80.968725307573919, 6.988766149627851 ], [ 80.968663619475038, 6.989069354557534 ], [ 80.968659695092853, 6.98908268662649 ], [ 80.968552556328362, 6.989446721457872 ], [ 80.968441067833226, 6.989558334603504 ], [ 80.96818010005714, 6.989818993099696 ], [ 80.968169876877312, 6.989829204231172 ], [ 80.968002404264496, 6.990035083860928 ], [ 80.967934866072838, 6.990118110898598 ], [ 80.967720525882541, 6.990393369322928 ], [ 80.967692462210493, 6.990420098618411 ], [ 80.967669758656214, 6.990451932390249 ], [ 80.967410560521628, 6.990641791139137 ], [ 80.967193664253244, 6.991002891319357 ], [ 80.967085225118794, 6.991201492349715 ], [ 80.967085312870779, 6.991418100455616 ], [ 80.967083972915674, 6.991450524214271 ], [ 80.967069380312978, 6.991803429888119 ], [ 80.967071205633928, 6.991885544331601 ], [ 80.967065258454411, 6.991885766484741 ], [ 80.96705949352787, 6.991978411098057 ], [ 80.967049430308833, 6.992140139680195 ], [ 80.967031713000139, 6.992514552964101 ], [ 80.966507369166692, 6.992947979174549 ], [ 80.966398933885472, 6.993164631028217 ], [ 80.966290499411087, 6.993381281953019 ], [ 80.966290652386874, 6.993760344311248 ], [ 80.966200356771878, 6.994103342948771 ], [ 80.966182407945993, 6.994446311534805 ], [ 80.966182538109294, 6.994771224570252 ], [ 80.966092241335559, 6.99511422227588 ], [ 80.966023162989742, 6.995252239997778 ], [ 80.96598380810282, 6.995330872223332 ], [ 80.965901076997298, 6.995694833327524 ], [ 80.965893532902044, 6.995728022814158 ], [ 80.965839461129789, 6.99619736093154 ], [ 80.965800694358791, 6.996410640481708 ], [ 80.965767272924296, 6.996594504218337 ], [ 80.965514190937924, 6.996937568113662 ], [ 80.965152514199332, 6.997100167436265 ], [ 80.964772715573304, 6.997172522461748 ], [ 80.964386370093507, 6.997264700513583 ], [ 80.964282759069121, 6.997289422339614 ], [ 80.964282883456235, 6.997600762550622 ], [ 80.964282960997537, 6.997794840600513 ], [ 80.96404798621856, 6.998192047638457 ], [ 80.963867288376846, 6.99862533491819 ], [ 80.963867474597478, 6.999094650310002 ], [ 80.963883232654922, 6.999259070615385 ], [ 80.963980657246722, 6.99946427905259 ], [ 80.96420271714301, 6.999531857523551 ], [ 80.964228787224584, 6.999535832430491 ], [ 80.964248750895024, 6.999542703570922 ], [ 80.964272362388996, 6.999543524310719 ], [ 80.964296029094086, 6.999544345931597 ], [ 80.964310846580887, 6.999544861807597 ], [ 80.964592950602153, 6.999583430209846 ], [ 80.964669444777698, 6.999620140031732 ], [ 80.964694241153779, 6.999666432711622 ], [ 80.964716504216824, 6.999730897652443 ], [ 80.964730537611814, 6.999897883235536 ], [ 80.964757485249365, 6.999993451926291 ], [ 80.964758295555924, 6.999996328219255 ], [ 80.964769925065227, 7.000091084633041 ], [ 80.964800484270697, 7.000189463381871 ], [ 80.964815747070574, 7.000325430558515 ], [ 80.964831008975636, 7.000461398638313 ], [ 80.964819454960249, 7.00059116663197 ], [ 80.964807900939093, 7.000720933720495 ], [ 80.964822495597048, 7.000790912598341 ], [ 80.964823153409327, 7.00085816783877 ], [ 80.964803662832622, 7.00095013333242 ], [ 80.964803231220529, 7.000954945350079 ], [ 80.964750866060214, 7.000998026932542 ], [ 80.964694700306524, 7.001088340444423 ], [ 80.96466182847422, 7.001141197974366 ], [ 80.964616817234401, 7.001116589741463 ], [ 80.964541734839329, 7.001075541370199 ], [ 80.964472184364425, 7.001145229227259 ], [ 80.964441246007112, 7.001230304803751 ], [ 80.964472325886916, 7.001501161913395 ], [ 80.964433703797397, 7.001818392858411 ], [ 80.964472503266975, 7.001942154179033 ], [ 80.964449235208704, 7.00211228809758 ], [ 80.964364133960345, 7.002197524564236 ], [ 80.964315751817722, 7.00221534978561 ], [ 80.964217077138798, 7.002251701817785 ], [ 80.964069851267269, 7.002236217216505 ], [ 80.963734957657223, 7.00212959836309 ], [ 80.963705928379298, 7.002120356087715 ], [ 80.963585874633452, 7.002155163790143 ], [ 80.963419499309964, 7.002352624081013 ], [ 80.963280094941396, 7.002445512513725 ], [ 80.963311128054059, 7.002600221674749 ], [ 80.963357884276547, 7.003172746642961 ], [ 80.96323412174705, 7.003482239643604 ], [ 80.96323420085271, 7.00368344906157 ], [ 80.963187753163794, 7.003884535872772 ], [ 80.963187798816733, 7.003999365407704 ], [ 80.963187900854209, 7.004256010049308 ], [ 80.96309505429042, 7.004426169702018 ], [ 80.962978995144624, 7.004550135426477 ], [ 80.962975639324156, 7.004553172532689 ], [ 80.962828079042552, 7.004686607100832 ], [ 80.962816418256708, 7.004697150573509 ], [ 80.962743291071732, 7.004703297207278 ], [ 80.962723506174612, 7.004704959028086 ], [ 80.962522191222021, 7.004882934068849 ], [ 80.962289883859441, 7.00500680361538 ], [ 80.96214286568997, 7.005161584048503 ], [ 80.962096373708107, 7.005254435463574 ], [ 80.962112004044229, 7.005440096329696 ], [ 80.962081075113772, 7.005548484012685 ], [ 80.961964988752314, 7.005602646558089 ], [ 80.961864295838296, 7.005602687162124 ], [ 80.961697559337651, 7.005531895475809 ], [ 80.961500212553261, 7.005448108145216 ], [ 80.961260216490572, 7.005440431738029 ], [ 80.9611439210437, 7.005324470438238 ], [ 80.961004619147573, 7.005324525108954 ], [ 80.960903908082884, 7.005278217704774 ], [ 80.960717960887479, 7.004976477284663 ], [ 80.960477753258004, 7.004790905158022 ], [ 80.960229973319258, 7.00477545869653 ], [ 80.95999756441428, 7.004636370344706 ], [ 80.959711077583023, 7.00472931510598 ], [ 80.959494304438167, 7.004799059574621 ], [ 80.959487255161349, 7.004802856811565 ], [ 80.959091758846185, 7.005015827753676 ], [ 80.959034354362274, 7.005066856866603 ], [ 80.958882808999377, 7.005201574993348 ], [ 80.958865818958202, 7.005212383592007 ], [ 80.958542064223238, 7.005418319647926 ], [ 80.958518960925687, 7.005650480929922 ], [ 80.958457063210503, 7.005766511872586 ], [ 80.958340997370897, 7.005874931360466 ], [ 80.958265909983979, 7.005896438710562 ], [ 80.958232537879823, 7.005905918853839 ], [ 80.958131878695923, 7.005991020070701 ], [ 80.957860968570003, 7.006138216452207 ], [ 80.957840781794971, 7.006175209706283 ], [ 80.957768118788266, 7.006308376005476 ], [ 80.957961799161666, 7.006493966565326 ], [ 80.95817086970942, 7.006617663579466 ], [ 80.958317967603946, 7.006664095608691 ], [ 80.958515183618616, 7.006655774694126 ], [ 80.958689762359299, 7.006648408379296 ], [ 80.958976294818086, 7.006671611344432 ], [ 80.959266685646199, 7.006799090684229 ], [ 80.959289266553128, 7.006799827059765 ], [ 80.959386755100837, 7.006803001268126 ], [ 80.959719683418328, 7.006849217655447 ], [ 80.959831993400584, 7.006899475339206 ], [ 80.960029478066474, 7.007050306293681 ], [ 80.961021115561607, 7.008071225644384 ], [ 80.961439456687373, 7.008457795729353 ], [ 80.961679647405347, 7.00859702219631 ], [ 80.961857721241032, 7.008651070565434 ], [ 80.962306983538284, 7.00890621845253 ], [ 80.9623489679242, 7.008924225696746 ], [ 80.963217059039366, 7.009296549519061 ], [ 80.963291159274519, 7.00933651146284 ], [ 80.963554003323807, 7.009478265436082 ], [ 80.963654540419597, 7.009439510918293 ], [ 80.963786223830255, 7.009485944617728 ], [ 80.963987623668672, 7.009516810779867 ], [ 80.964049564636412, 7.009509013507306 ], [ 80.964107964199329, 7.009472545528337 ], [ 80.964173419151777, 7.009431673439408 ], [ 80.964272908381687, 7.009427639358631 ], [ 80.964367025856305, 7.009423825343116 ], [ 80.964591638681128, 7.009501024331669 ], [ 80.964723309781846, 7.009516515836927 ], [ 80.964849542857223, 7.009585825984937 ], [ 80.96500466086566, 7.009670996090398 ], [ 80.965187990285045, 7.009771655626271 ], [ 80.965397187520992, 7.009848862217817 ], [ 80.965480967496319, 7.009864593405077 ], [ 80.965521084235533, 7.009872126467307 ], [ 80.965807603214614, 7.009856469645835 ], [ 80.965989715009727, 7.009812507295766 ], [ 80.966032162475102, 7.009802259701336 ], [ 80.966062581290714, 7.009752437038167 ], [ 80.966082412435895, 7.009739304762953 ], [ 80.966118456096666, 7.009737710390108 ], [ 80.966231506082011, 7.009714322672552 ], [ 80.966245727953989, 7.00970720361506 ], [ 80.966408840723986, 7.009668445854223 ] ] ] ] } },
{ "type": "Feature", "properties": { "GND_N": "Kerklis", "PROVINCE_N": "UVA", "DISTRICT_N": "BADULLA", "DSD_N": "UVAPARANAGAMA", "Female": 936, "Male": 923, "Density": 434.441622688, "MWS_ID": "048", "GND_NO": "38E", "GND_C": "065", "PROVINCE_C": "8", "DISTRICT_C": "1", "DSD_C": "27", "Admin_Code": "8127065", "GND_NAME_G": "කර්කිල්", "AreaGND": 427.90559258500002, "MWS_ID_2": null, "AreaGND_1": 4.2790559258499998, "Total": 1859, "FP_MWS": "048" }, "geometry": { "type": "MultiPolygon", "coordinates": [ [ [ [ 80.95359398969228, 7.005845800107835 ], [ 80.953651274693129, 7.005819271323104 ], [ 80.953705743293156, 7.005819899193572 ], [ 80.954396039612703, 7.005612584469176 ], [ 80.954442575568606, 7.004614270054358 ], [ 80.954433914279193, 7.004558402189709 ], [ 80.954429600875656, 7.004530582646251 ], [ 80.954755412464976, 7.004429787595419 ], [ 80.955192865160384, 7.004339641609531 ], [ 80.95611108466889, 7.004027013795183 ], [ 80.955792339409214, 7.003446419367418 ], [ 80.9555287604434, 7.002788914525282 ], [ 80.955350597245925, 7.00249493963195 ], [ 80.955187874418215, 7.00226298921583 ], [ 80.955079313447754, 7.002023104544326 ], [ 80.954983958330502, 7.001455446723759 ], [ 80.954674858258457, 7.001340178091935 ], [ 80.954500792946618, 7.000812948294788 ], [ 80.954515210134844, 7.000461583904801 ], [ 80.954522189286806, 7.000234558084843 ], [ 80.954875004345283, 7.00013674968663 ], [ 80.955203612083395, 7.00023774617716 ], [ 80.955367904235956, 7.000288241174204 ], [ 80.955753534657859, 7.000535446568453 ], [ 80.955975716859655, 7.000777779162638 ], [ 80.956239417098857, 7.001065394613622 ], [ 80.956898064323596, 7.001370339024064 ], [ 80.957184421355805, 7.001510754801976 ], [ 80.957326318526711, 7.001580332358039 ], [ 80.958061988005198, 7.00175110882191 ], [ 80.958080380218419, 7.001757412921435 ], [ 80.958220053515788, 7.001805290274063 ], [ 80.958453947376697, 7.00188546756319 ], [ 80.958835469577608, 7.001428109457373 ], [ 80.958522668808158, 7.000811137680098 ], [ 80.958503818652005, 7.000776808225877 ], [ 80.958123603482875, 7.000084361156027 ], [ 80.957641742151964, 6.999770162598753 ], [ 80.957543951524954, 6.999557051942531 ], [ 80.957392705691802, 6.999227450173496 ], [ 80.956888434246949, 6.99854179942828 ], [ 80.956755347400374, 6.998014626177112 ], [ 80.95678715811168, 6.997779710640169 ], [ 80.95684008083235, 6.997388884410116 ], [ 80.956878645657554, 6.997018257877417 ], [ 80.95676053984424, 6.996513474148176 ], [ 80.956541813568222, 6.995799606524523 ], [ 80.955947272401858, 6.995420518532984 ], [ 80.955798172659868, 6.994541130181402 ], [ 80.955569415855521, 6.994036079787485 ], [ 80.955296326028432, 6.993874125223195 ], [ 80.955092554838288, 6.993585849686194 ], [ 80.954878981353147, 6.993670864579275 ], [ 80.9546272328745, 6.993391753214556 ], [ 80.954536641416126, 6.993291314671686 ], [ 80.954659990423309, 6.993009260756599 ], [ 80.954848586614972, 6.992758428841521 ], [ 80.955007396068055, 6.99254721071734 ], [ 80.95557169519364, 6.992320678706116 ], [ 80.955898213307975, 6.992137284630662 ], [ 80.955512064618873, 6.991789519686821 ], [ 80.955232604814015, 6.991126039082121 ], [ 80.955254130838782, 6.991101331416229 ], [ 80.955989358479869, 6.990785293902656 ], [ 80.956057574486067, 6.990712751058959 ], [ 80.95629943846906, 6.990455548198455 ], [ 80.956306183341951, 6.990382771942003 ], [ 80.956334049782384, 6.990082175810215 ], [ 80.95634757557616, 6.989936270598482 ], [ 80.955800821523781, 6.989484989769321 ], [ 80.955781671963422, 6.98948499162723 ], [ 80.955733803493644, 6.989484998075172 ], [ 80.955695506183304, 6.989485002688398 ], [ 80.954791925581148, 6.989380699120158 ], [ 80.954772881012929, 6.989380701801583 ], [ 80.954734791876376, 6.989380707162104 ], [ 80.954064633494298, 6.989318687271979 ], [ 80.953800355011055, 6.98896425258399 ], [ 80.953431450686608, 6.988865432196662 ], [ 80.953105513381928, 6.98925711569901 ], [ 80.952713581554633, 6.989746665824837 ], [ 80.952709087244045, 6.98975227786402 ], [ 80.952100800102585, 6.989786620088118 ], [ 80.951938346321313, 6.989640813049927 ], [ 80.951743244830254, 6.989560722778312 ], [ 80.951723688608851, 6.989552693416704 ], [ 80.95167954357612, 6.989516171048213 ], [ 80.951352076475686, 6.989147605922938 ], [ 80.951066090461737, 6.988996649093017 ], [ 80.950617879452111, 6.988904828106435 ], [ 80.950381241149017, 6.989136108578812 ], [ 80.950067197589235, 6.98873329212903 ], [ 80.949991194342942, 6.988635805283062 ], [ 80.949713298197878, 6.988478839088017 ], [ 80.949532980243603, 6.988376988281189 ], [ 80.949451171463664, 6.9880932248593 ], [ 80.949379175403948, 6.987843508837013 ], [ 80.948981170732438, 6.987541023398097 ], [ 80.948932481968555, 6.987522424105345 ], [ 80.948554429726073, 6.987473896580315 ], [ 80.948148695339341, 6.987153097267628 ], [ 80.948022855922062, 6.986889037392484 ], [ 80.947882740949893, 6.986595023662504 ], [ 80.947616754418462, 6.985939270459411 ], [ 80.94754369636513, 6.985956508761993 ], [ 80.946681760908959, 6.985912857373076 ], [ 80.946368871396729, 6.985869314434053 ], [ 80.946162785534426, 6.985620310795058 ], [ 80.946160856707962, 6.98561493172696 ], [ 80.946132710247653, 6.985376897556721 ], [ 80.946132611023415, 6.985103976629873 ], [ 80.946205431816139, 6.984812835583141 ], [ 80.946332896051203, 6.984394308599565 ], [ 80.946423033830797, 6.984217749583557 ], [ 80.946495859981596, 6.983944803278593 ], [ 80.946532209719706, 6.983635478716784 ], [ 80.946532137467401, 6.983435336934469 ], [ 80.946440916595549, 6.983253422783262 ], [ 80.946418160576172, 6.983238293671793 ], [ 80.946276799351438, 6.983144313114376 ], [ 80.946149122953884, 6.982980605905893 ], [ 80.946149077083092, 6.982853243276417 ], [ 80.946148991896223, 6.982616710997554 ], [ 80.946148974532861, 6.982565985331219 ], [ 80.94614886830314, 6.98227101087429 ], [ 80.946148750363193, 6.98194350463328 ], [ 80.946077708689586, 6.981745208724615 ], [ 80.945950363773662, 6.98180481890716 ], [ 80.945767157796908, 6.981935476616933 ], [ 80.945661169804453, 6.982011064617195 ], [ 80.945247085330251, 6.981598233542924 ], [ 80.945161951073516, 6.981651811114343 ], [ 80.944989170468205, 6.981823388619792 ], [ 80.944865948931778, 6.981860461539563 ], [ 80.944669413717662, 6.981902152666215 ], [ 80.944658218714409, 6.981906345437552 ], [ 80.944498369209612, 6.981844074347591 ], [ 80.944226617584832, 6.981856541125195 ], [ 80.944070474332065, 6.981819604733595 ], [ 80.943392385276866, 6.981715038668785 ], [ 80.94314978159548, 6.981677627931727 ], [ 80.942948815691381, 6.9816569077763 ], [ 80.942833483412997, 6.981555496170759 ], [ 80.942781097491633, 6.981498611579765 ], [ 80.942778924444823, 6.981493485789539 ], [ 80.942715702515756, 6.981457847343988 ], [ 80.942611716529953, 6.981511510680931 ], [ 80.942525794707407, 6.981503822597174 ], [ 80.942412057701972, 6.981496160555144 ], [ 80.942406965837677, 6.981496162345268 ], [ 80.942275310470961, 6.981491083864074 ], [ 80.942270603261235, 6.981488525404671 ], [ 80.942129543498766, 6.981465638817487 ], [ 80.942047562000312, 6.981405527084535 ], [ 80.941771660993339, 6.981421033298762 ], [ 80.941372398602056, 6.981421170241912 ], [ 80.940937629996469, 6.981416640299377 ], [ 80.940814830429986, 6.981358986025654 ], [ 80.94050950932963, 6.981353110195053 ], [ 80.940119940531048, 6.981390813341542 ], [ 80.938335243434366, 6.981513575351054 ], [ 80.937778312911419, 6.981499800685913 ], [ 80.937315304072911, 6.981486018687397 ], [ 80.936863093990823, 6.981662415274283 ], [ 80.936410616368406, 6.98179555817444 ], [ 80.936179805242787, 6.98191865019959 ], [ 80.935826868202966, 6.982195484233168 ], [ 80.935630206731247, 6.982461258923307 ], [ 80.935541801443946, 6.982587946079592 ], [ 80.935321750606036, 6.982836369311047 ], [ 80.934907367127252, 6.983068598157191 ], [ 80.934641008670184, 6.983264621665005 ], [ 80.934585540391396, 6.9834678658948 ], [ 80.93450805361995, 6.983706038491761 ], [ 80.934073747245137, 6.983231143839321 ], [ 80.9340122663058, 6.98332047716146 ], [ 80.933952329289511, 6.983534077213131 ], [ 80.933892512374271, 6.983768685341502 ], [ 80.933802916384053, 6.984058468371294 ], [ 80.934049332562495, 6.984436060329807 ], [ 80.934152235281758, 6.984923851934967 ], [ 80.93422176156686, 6.98502918762928 ], [ 80.933921502222006, 6.985262467166579 ], [ 80.933921227258779, 6.985262997186477 ], [ 80.933802002321897, 6.985491965917647 ], [ 80.933463846435274, 6.986121822200638 ], [ 80.933292878749072, 6.98646641555187 ], [ 80.933149725592656, 6.986732608222097 ], [ 80.933084880325168, 6.986853190214781 ], [ 80.932812364432479, 6.98777675271555 ], [ 80.932808192218516, 6.987790886720637 ], [ 80.93281808773817, 6.98779471682783 ], [ 80.93292912828278, 6.988143214435397 ], [ 80.933266763709653, 6.988941668636754 ], [ 80.933371430033802, 6.989783116166516 ], [ 80.933833913959589, 6.990465602467683 ], [ 80.934762846730294, 6.990951465121442 ], [ 80.936103240562431, 6.991577031624094 ], [ 80.93688906717199, 6.992704483049935 ], [ 80.937248681896207, 6.993606533760026 ], [ 80.937584414227388, 6.99544257923229 ], [ 80.937505060007723, 6.996629656395958 ], [ 80.937900933370003, 6.997634441165076 ], [ 80.938049027340583, 6.997659021163542 ], [ 80.938338545841162, 6.997947758578574 ], [ 80.93844201751422, 6.998257189037218 ], [ 80.938524750285694, 6.998380945718917 ], [ 80.938710856290569, 6.998525299593838 ], [ 80.938752273044059, 6.998731597211229 ], [ 80.938710977351576, 6.998876029403077 ], [ 80.93881655820978, 6.998828671189352 ], [ 80.939337062089677, 6.998521212041874 ], [ 80.939372362484249, 6.998448029114012 ], [ 80.939458204431176, 6.998360087477485 ], [ 80.939649078399853, 6.998164543159865 ], [ 80.940160642414043, 6.997810600891269 ], [ 80.940703037603882, 6.997702929861942 ], [ 80.941127190039865, 6.997839156730219 ], [ 80.941551938205976, 6.998096351195001 ], [ 80.9418194771104, 6.998338765234088 ], [ 80.942160121354249, 6.99837789449784 ], [ 80.942685240188496, 6.998451663261883 ], [ 80.94304028561244, 6.998629046357872 ], [ 80.943556269239295, 6.998999283816672 ], [ 80.943733887535359, 6.999126731630935 ], [ 80.943998517781012, 6.999339874602704 ], [ 80.944542222122337, 6.99977779071803 ], [ 80.944694617752091, 6.999814099622447 ], [ 80.944834985478707, 6.999847542488751 ], [ 80.945179239382114, 6.999777566476222 ], [ 80.945373641314276, 6.999390542071045 ], [ 80.945488369601634, 6.998858100081369 ], [ 80.945530032250971, 6.998456377449388 ], [ 80.945533399279611, 6.998423904162237 ], [ 80.945675046389837, 6.997931693483355 ], [ 80.945836670919149, 6.998099210944445 ], [ 80.946179002275997, 6.998454019756934 ], [ 80.94624692190709, 6.999285125067668 ], [ 80.946065370431839, 7.000126268626018 ], [ 80.946064189449999, 7.000131748284605 ], [ 80.946038745841179, 7.001469723018359 ], [ 80.946097579979039, 7.002475111622381 ], [ 80.946391143503831, 7.003760750666195 ], [ 80.94655353980491, 7.004485946435935 ], [ 80.946722210420731, 7.005297408579866 ], [ 80.947095574926593, 7.005114433896194 ], [ 80.947208473034976, 7.005079211544305 ], [ 80.947287495904988, 7.00506674041481 ], [ 80.947360768745355, 7.005047095638523 ], [ 80.947444074184162, 7.004959014233679 ], [ 80.947470203340288, 7.004930837199354 ], [ 80.947560423424889, 7.004886623286063 ], [ 80.94810691444782, 7.004554533261093 ], [ 80.94817305876208, 7.004181391453222 ], [ 80.948173650387375, 7.004178062461683 ], [ 80.948182429018573, 7.004197970418029 ], [ 80.948343085069098, 7.004562274768072 ], [ 80.948374248722104, 7.00477994052109 ], [ 80.948474988814795, 7.004911452273406 ], [ 80.948499068965475, 7.004915984926928 ], [ 80.948517171607762, 7.00495702868198 ], [ 80.948826703656323, 7.005114635661442 ], [ 80.949007373725081, 7.005206626660176 ], [ 80.949277919993662, 7.005045582283786 ], [ 80.949327287895215, 7.004914937974998 ], [ 80.949388714770549, 7.00489571683911 ], [ 80.949566882371286, 7.004825991196917 ], [ 80.949644270261302, 7.004911024181014 ], [ 80.949613319413757, 7.004965294339231 ], [ 80.949667702695621, 7.005174113591921 ], [ 80.949776071953536, 7.005282449229382 ], [ 80.94993095372935, 7.005344281494637 ], [ 80.950240812897746, 7.005351797717973 ], [ 80.950465414997467, 7.005413604043136 ], [ 80.9505659658344, 7.00541356683809 ], [ 80.950722334494259, 7.005354959212378 ], [ 80.950875780031495, 7.005297445933316 ], [ 80.95110035825877, 7.005297361708092 ], [ 80.951270657938039, 7.005366959466368 ], [ 80.951402365866073, 7.005482917538541 ], [ 80.951735443407955, 7.005552452750383 ], [ 80.952052931378233, 7.005536932994731 ], [ 80.952192240269767, 7.005560053982305 ], [ 80.952626446279439, 7.005767012609378 ], [ 80.952711212833265, 7.005807414478687 ], [ 80.953067472475837, 7.005845998089995 ], [ 80.953245547278684, 7.005907820537718 ], [ 80.953392620221749, 7.005892221914319 ], [ 80.95359398969228, 7.005845800107835 ] ] ] ] } }
]
}
