{"type":"FeatureCollection","name":"SED_PPL_MWS_103_2","crs":{"type":"name","properties":{"name":"urn:ogc:def:crs:OGC:1.3:CRS84"}},"features":[{"type":"Feature","properties":{"GND_N":"Napana","GND_NO":"633","GND_C":"205","PROVINCE_N":"CENTRAL","PROVINCE_C":"2","DISTRICT_N":"KANDY","DISTRICT_C":"1","DSD_N":"PATHADUMBARA","DSD_C":"12","Admin_Code":"2112205","GND_NO_Cen":"633","GND_NAME_C":"Napana","GND_NO_Gaz":"633","GND_NAME_G":"නාපාන","shape_1":"Polygon","Area__Ha_":50.0399871067,"MWS_ID":"103-2","Alt_MWS":null,"Total_Pop":1512.0,"Density":3021.58352204,"Area_sqkm":0.50039986946},"geometry":{"type":"MultiPolygon","coordinates":[[[[80.68471281587804,7.322916204983712],[80.68518485325157,7.32282678924896],[80.6851914858996,7.322827022093735],[80.68541115264638,7.322760907679362],[80.68543090013124,7.322748711709969],[80.68565678496915,7.322654238569424],[80.68566356890646,7.322640857148991],[80.6856907838713,7.322621117164008],[80.68592305588795,7.322544329732908],[80.68594361643663,7.322537931393533],[80.68596418876,7.322531529438371],[80.68612218960189,7.322391622880294],[80.68614975282482,7.322378450892974],[80.68620494218354,7.322372552323394],[80.68630171122726,7.322243952602578],[80.6863224779013,7.322216786956976],[80.68634888919584,7.322112379546498],[80.68639177629782,7.321725128276987],[80.68639177671159,7.321668835382845],[80.68639177771315,7.321618647441779],[80.68608191681422,7.321478615520034],[80.68637430568415,7.321110332220985],[80.68644139610551,7.32070693490191],[80.68641615822416,7.32068736344607],[80.68640943810674,7.320685355454298],[80.68634332051454,7.320677204416143],[80.68626171908886,7.320657382946375],[80.68619587765423,7.320627166935003],[80.68602552691452,7.320542036024947],[80.68595543410812,7.320493371333311],[80.68590445146292,7.320439465508719],[80.68586153246247,7.320376969510604],[80.68582971972587,7.320317998907614],[80.68581825385091,7.320296748181904],[80.68573016274267,7.32011650366781],[80.68567194425576,7.320022444377894],[80.68561742951157,7.319972244549852],[80.6855380103744,7.319911006286239],[80.68547325562528,7.319882508565978],[80.68537725753296,7.319832842918538],[80.68529050242616,7.319774226514314],[80.68523002246094,7.319724846541202],[80.68522342385836,7.319713286397818],[80.68521321690562,7.319665679983679],[80.68521009871853,7.319651134533949],[80.68520983888959,7.319588104522043],[80.68519973262237,7.31939702132122],[80.68514530970548,7.319345737194738],[80.6850913328223,7.31932366125364],[80.68498211237869,7.319272997205099],[80.68496726969278,7.319262244737112],[80.68492243373848,7.319229759383264],[80.68483368679473,7.31916381853248],[80.6848110440368,7.319161734032926],[80.68475163487524,7.319125188089951],[80.68472891862366,7.319101558538399],[80.68469476818584,7.319066035066887],[80.68467557031664,7.31904866943526],[80.6845985001151,7.319009135675386],[80.68452469287425,7.31895820834242],[80.68450350163987,7.318949070555478],[80.68443602632202,7.318946976892926],[80.68442397980486,7.318944261523755],[80.68441039686216,7.318938651164832],[80.68439192054038,7.318922913414944],[80.68433442555175,7.318831837397498],[80.68430455323423,7.318759397480776],[80.6842883533231,7.318693559964228],[80.68425756745367,7.318654939907558],[80.68422605568287,7.318609537423333],[80.68421375578771,7.318521907889106],[80.6842160398233,7.318430211066941],[80.68422683273097,7.318353801428495],[80.68432179791903,7.318142394655776],[80.6843507030609,7.318076928978167],[80.6843508100831,7.31800105792623],[80.68436912269365,7.317918226549557],[80.6844241122386,7.317854937424615],[80.68446623990498,7.317803309377648],[80.68447856551005,7.317765422473547],[80.68448202069457,7.317695338742072],[80.68445939107512,7.317633842383551],[80.68443141484218,7.31757740722469],[80.68441367414695,7.317521246348369],[80.68438035224466,7.317482988407121],[80.6843463078484,7.317425738130678],[80.68432059891157,7.317363698553754],[80.68430121772838,7.31734850138859],[80.68427374030126,7.317333215754777],[80.68424950771374,7.317319733964161],[80.68424335140564,7.317311413111986],[80.6842353832458,7.317300650269426],[80.68423338956585,7.317297123981856],[80.68419779351196,7.317311404699688],[80.68418493027416,7.317316557503399],[80.68415612922726,7.317316279414974],[80.68408820096512,7.317311383173421],[80.68406048442303,7.317309386219756],[80.6839692823741,7.317292820579251],[80.68387364327475,7.317271458487388],[80.68377627882516,7.317267460459249],[80.68371371016458,7.317264901078933],[80.68370291493777,7.317264459367486],[80.68365609078123,7.317251610432735],[80.68362122420297,7.317242106260753],[80.68357675642632,7.317222023373761],[80.68354985999407,7.317204834256589],[80.68353673008954,7.317189912350446],[80.6835116346095,7.31715340315484],[80.68350558257545,7.317144599416069],[80.68347344049256,7.317090967585334],[80.68344981011782,7.317047466612564],[80.68343659092142,7.317026393611718],[80.68341358878892,7.317006402852601],[80.68337718407105,7.316984963345201],[80.68330799518189,7.316944708454217],[80.68323744614675,7.316912047613519],[80.68317595320369,7.316884905791323],[80.68308710868087,7.316847450142577],[80.6830476659855,7.316827034555874],[80.68300967772731,7.316807373456297],[80.68295788076246,7.316757535591874],[80.68292130284323,7.316698114354831],[80.68287630307262,7.316632181285692],[80.68280603687002,7.316542188490021],[80.68276946401886,7.31645862233424],[80.68273397877905,7.31640196305206],[80.68271939336321,7.316378673298114],[80.68269395282505,7.316329563418227],[80.6826702283343,7.316299263409613],[80.68264442183849,7.316276470495664],[80.68258918108221,7.316236940934313],[80.68250831088187,7.316181309424111],[80.68246746939376,7.316154352667398],[80.68244220283626,7.316139698587317],[80.6824294098501,7.316138143231506],[80.68242771915693,7.316136764720322],[80.68242508966983,7.316137618739141],[80.6824034380503,7.316134987223156],[80.68224375805092,7.316145805545093],[80.682145118178,7.31617408963676],[80.68204728955766,7.316229502985628],[80.68196249685334,7.316306984052477],[80.68186076927955,7.316382834709371],[80.68174744511737,7.316465825097947],[80.68162017228069,7.316551255048721],[80.68156778693438,7.316590825400734],[80.68152741337059,7.316621319066387],[80.68143003836789,7.316668050154587],[80.68134307677848,7.316725999494981],[80.68121796906523,7.316855649327342],[80.68111768442198,7.316946872372973],[80.68104194636653,7.317000977118213],[80.68100707980584,7.31702588511324],[80.68092011613331,7.317093057361308],[80.68076993355815,7.317161660357143],[80.68065787888116,7.317240130119782],[80.6805402172646,7.317278358057366],[80.68045796978386,7.317310624195472],[80.6804432061615,7.317316409499845],[80.68034882400197,7.317339176942745],[80.68031670748837,7.317341342234903],[80.68021649588437,7.317348101330153],[80.6800813607642,7.317361999652586],[80.68006659481195,7.317361724301676],[80.6799685981724,7.317357815746178],[80.679856380001,7.317353268398165],[80.67971391658243,7.317321226420928],[80.67968339511307,7.317310459565188],[80.67965622547494,7.317300866308493],[80.67960650801032,7.31727372743314],[80.67955597825683,7.31722913441526],[80.67944685204158,7.317162644646404],[80.6793829627634,7.317127080919295],[80.67932740061681,7.317096153532169],[80.6792782267855,7.317068289486508],[80.67924272481322,7.317057339762973],[80.67917923543868,7.31704900648144],[80.67913920160696,7.317053067211026],[80.67907924328145,7.317050611745947],[80.67902471807851,7.317053765937119],[80.67895126065491,7.317064782565581],[80.67891117570768,7.317078998592396],[80.67888704086192,7.317087557126309],[80.67884897826522,7.317110692730681],[80.6788471828851,7.317111784740804],[80.67879979297251,7.317214955513844],[80.67876798047277,7.317310262214948],[80.67874704549,7.317373195395726],[80.67866775980768,7.317529351426937],[80.67861274716198,7.317691120295214],[80.67857249745022,7.317858589471659],[80.67855054336972,7.318017650784321],[80.67854646282842,7.318052071306019],[80.67853076313024,7.318184491385122],[80.67850383720167,7.318303311013192],[80.67849857772873,7.318327906925003],[80.67846958136714,7.318388217666315],[80.67844765567146,7.318420948686771],[80.6784212040462,7.318441288860457],[80.67839859280028,7.318461149682517],[80.67834864241252,7.318505026473192],[80.67831675223697,7.318544538499093],[80.6782742569278,7.318617143911264],[80.67824934372999,7.318647523081969],[80.67816490823385,7.318743179084793],[80.67814099193349,7.318770756030103],[80.67813147830613,7.318786759222268],[80.67812549736666,7.318801137247013],[80.67807774506257,7.318894902193046],[80.6780653306795,7.318913710804326],[80.6780476651055,7.318935681522611],[80.67795154907816,7.319019759849779],[80.67788151867916,7.319104657732313],[80.67786077120981,7.319129342487963],[80.67785287546916,7.319139959996402],[80.6778254627945,7.319176826972629],[80.67782545638514,7.319177142573119],[80.67779647725402,7.319216057452036],[80.67772486630945,7.319338024168118],[80.67771416968587,7.319379169439249],[80.67769503481146,7.31948849552954],[80.67769331208092,7.319496904269487],[80.67766176595113,7.319622956347268],[80.67764706600828,7.319742322982052],[80.67764604432747,7.319853642504867],[80.67764241663292,7.319879504786553],[80.67762665185683,7.319906810388878],[80.67756631282258,7.319986374950973],[80.67754638016224,7.320016485689406],[80.67751556947604,7.320080503607566],[80.67750080253985,7.320100756762074],[80.67748657907002,7.320116759809549],[80.67741945604129,7.320155357014523],[80.67732724376425,7.320196392121018],[80.67730903735881,7.320206155498024],[80.67728131531256,7.320232555962877],[80.67723619770545,7.320292318678749],[80.67717830926674,7.3203440320864],[80.67716743942054,7.320353074534666],[80.6771583800815,7.320358225259852],[80.67714822035221,7.32036305290615],[80.6771203363506,7.320376303850018],[80.67708908668236,7.320385339996705],[80.67708455670919,7.320387237130939],[80.67707740105124,7.320393115333956],[80.67707377638735,7.320396912608976],[80.67706770579949,7.320406857703193],[80.67704025075557,7.32046264716589],[80.6770234002969,7.320504768612205],[80.6770391644627,7.32050914258699],[80.6781101331353,7.320806289224904],[80.67824884879231,7.320784107966531],[80.67830074276782,7.320791710895389],[80.67833801357605,7.320791708157399],[80.67841253979464,7.320791705381716],[80.67845762205863,7.320806315162135],[80.6786386842916,7.320879509916054],[80.67868385441692,7.320894170334025],[80.67888778502744,7.320952949021933],[80.67936672889782,7.320916281644157],[80.67945582790325,7.320880568180758],[80.68031001227698,7.323120846246271],[80.68035175329337,7.323124097980983],[80.68048933788113,7.323112370451758],[80.68057266804352,7.323096291589136],[80.68067692609753,7.323059056461206],[80.68085436632614,7.323027444423668],[80.68100508760077,7.322994649254863],[80.68111178903055,7.322971341718642],[80.68121305785264,7.322930940771356],[80.68133207432047,7.322921469817536],[80.68146730434644,7.322903411367834],[80.68160144602058,7.322887976936652],[80.68171321801314,7.322867472760342],[80.68184328616985,7.322849685307472],[80.68196329417206,7.322854142475019],[80.68207596774037,7.322849010650398],[80.68221708522918,7.322838459829986],[80.6823376400085,7.322827000368299],[80.68246852085397,7.322816537761456],[80.68259623481451,7.322795132385983],[80.68268665855041,7.322761741719024],[80.68278150895178,7.322913445676165],[80.68287750691421,7.323061132935728],[80.68288467183478,7.323067162509711],[80.68301084247751,7.32331572923742],[80.68301931846513,7.32332824836215],[80.68319567480496,7.323535043006301],[80.68321956015247,7.323555991614624],[80.68329445568561,7.323677262429518],[80.68349573325887,7.323885884278628],[80.68348286634087,7.324065409353398],[80.6835994271397,7.324102057672759],[80.68370964691918,7.324142955787156],[80.68374840370036,7.324150373623938],[80.68375980842215,7.324165106167517],[80.68376471349404,7.324171442725814],[80.68382343635267,7.324029531622176],[80.68399705957647,7.323775464359633],[80.68412389748777,7.32357095683266],[80.68413100472945,7.323553669816455],[80.68424490152273,7.323335150132296],[80.68432191585786,7.323213307381455],[80.6844861362722,7.323051049205588],[80.68454679948118,7.322923699485873],[80.68471281587804,7.322916204983712]]]]}},{"type":"Feature","properties":{"GND_N":"Thalkotuwa","GND_NO":"645","GND_C":"200","PROVINCE_N":"CENTRAL","PROVINCE_C":"2","DISTRICT_N":"KANDY","DISTRICT_C":"1","DSD_N":"PATHADUMBARA","DSD_C":"12","Admin_Code":"2112200","GND_NO_Cen":"645","GND_NAME_C":"Thalkotuwa","GND_NO_Gaz":"645","GND_NAME_G":"තල්කොටුuw","shape_1":"Polygon","Area__Ha_":44.0994615575,"MWS_ID":"103-2","Alt_MWS":null,"Total_Pop":1281.0,"Density":2904.79738043,"Area_sqkm":0.44099461416},"geometry":{"type":"MultiPolygon","coordinates":[[[[80.69082704819111,7.322494960818011],[80.69085999108701,7.322487905368026],[80.69089281795901,7.322500343061815],[80.69107002691028,7.322503814826659],[80.69114200946372,7.322502583230105],[80.69116822955549,7.322502622555398],[80.69144350639198,7.322508686365735],[80.6914762043383,7.322508499010247],[80.69168965285779,7.322529978429426],[80.69268327707412,7.32257259772654],[80.69316093441402,7.321985146597527],[80.6933248322036,7.321388152851135],[80.69336124115449,7.321391233291372],[80.69343225224831,7.32138690752471],[80.69354175415351,7.321387922410453],[80.69359066364109,7.32138322902349],[80.69365986501765,7.321369404986542],[80.69381936489337,7.321366812673425],[80.694128399006,7.32137573138718],[80.69432294984742,7.321382819535918],[80.6945290914634,7.321389277598773],[80.69467174463152,7.321392197270491],[80.69476013983203,7.32141057156646],[80.69482035764202,7.321484191892392],[80.69483615071145,7.321505150181808],[80.6948820554774,7.321537637462169],[80.69492080267968,7.321542777299159],[80.69495845607376,7.321446282240258],[80.69508222521422,7.321271546092642],[80.69519970039413,7.321101465938656],[80.69540903716184,7.320892809302346],[80.69552923441661,7.320669215562817],[80.69582942806214,7.320421187165412],[80.69593545709841,7.32030633330634],[80.69610941940974,7.320227041521375],[80.69632839024374,7.320070607893714],[80.69632444696776,7.320053851347844],[80.6962947796387,7.31992779245456],[80.69606869023839,7.319960388531835],[80.69594442612184,7.320000207275195],[80.69583076543711,7.320049677705729],[80.69582745775239,7.320054510618086],[80.6957967439354,7.320062537151608],[80.6949596681109,7.319791888585005],[80.69475832031732,7.320064612778338],[80.69477165439103,7.320309242023084],[80.6945679126965,7.320833898379998],[80.694502675483,7.320859469279707],[80.69441563006052,7.320815629082165],[80.69431641920416,7.320799748627539],[80.694317020854,7.320634856185351],[80.69430660136238,7.320446365736532],[80.6942474792288,7.320306034148676],[80.69412523791497,7.320169722418563],[80.69412490286447,7.320169343454099],[80.69410561784223,7.320145872345815],[80.69403903899294,7.320192975311515],[80.6939811526593,7.320243697072122],[80.69388487030724,7.320271441576127],[80.69378632164157,7.320300088139025],[80.69373085640169,7.320315709761054],[80.69372246347422,7.320318072071139],[80.69364656020018,7.320334970426326],[80.69348561002086,7.320345700244633],[80.69344303799478,7.320350625385834],[80.69341850752446,7.320216527094092],[80.69325833941579,7.319985381950588],[80.69326075501687,7.319882498854918],[80.69310992585258,7.319662316445973],[80.69309377953921,7.319656846040916],[80.69294409934687,7.319590782468656],[80.69293236436224,7.319578139033109],[80.69292011495916,7.31957505760984],[80.69277219965707,7.319472366388543],[80.69247804258158,7.319109445354911],[80.6924540041148,7.319068294152446],[80.69224523880628,7.318824909787897],[80.69220905126424,7.318811122344138],[80.69243700716872,7.318482243360982],[80.69238698183241,7.318449790331935],[80.69221134085842,7.318347548622454],[80.6920447439871,7.318257905489408],[80.69203583895441,7.318252752004006],[80.69197267677616,7.318163804612507],[80.69176055191426,7.31857426177111],[80.69153722424802,7.318651087403822],[80.69128084197435,7.31829786412607],[80.69098435055584,7.318137429762015],[80.69071789709506,7.317951786213095],[80.69056563526935,7.317493946222326],[80.69007744018221,7.316488871250488],[80.68971955300916,7.316273727482764],[80.68863376343887,7.315423230381057],[80.68854821776318,7.315573735091488],[80.68845675919599,7.315910874275778],[80.68833329407605,7.31610024032756],[80.68818525952922,7.31654242768941],[80.6879730890324,7.317111443674502],[80.68788995065088,7.317259771151453],[80.68789016216454,7.317275726728047],[80.68783747467396,7.317453621860645],[80.68766098901172,7.317650417897846],[80.68761849225078,7.317655889609845],[80.68763025223784,7.317747264581535],[80.68763059298425,7.317760036129912],[80.68764339021457,7.317859652224864],[80.68765045103383,7.317892818049226],[80.68765078303228,7.317904026959011],[80.68765111773881,7.317915281988793],[80.68765138404824,7.317924319652422],[80.68763821086426,7.318045149214398],[80.68759051100875,7.318099335642874],[80.68756982829596,7.318092586365826],[80.68753025085982,7.318078653191313],[80.68747627232523,7.318065077989522],[80.68737537653531,7.318055019396854],[80.68726315874689,7.318051740820332],[80.68714813122102,7.318049368676082],[80.68703745192148,7.318047808525016],[80.68687214867481,7.318085485183845],[80.68674778476219,7.318124797673466],[80.68666907204117,7.318155347473731],[80.68658229951099,7.318180108110534],[80.68656871196751,7.318188424996321],[80.68644171022498,7.318279010892448],[80.68637231979811,7.318338140304868],[80.6863006649478,7.318402238402132],[80.68624087487117,7.318458384606334],[80.68621830895444,7.318488751129531],[80.68617066213604,7.318552870285967],[80.68608642117252,7.318599335524093],[80.68602935107783,7.318641283772801],[80.68597762918867,7.318917720826597],[80.68585503255025,7.318954514029454],[80.68581178879845,7.319056930383847],[80.68574012689216,7.319114634055421],[80.68564549395425,7.319225920312766],[80.68554103022691,7.319274385309118],[80.68550577762693,7.319282705931932],[80.68546341701892,7.319379803314499],[80.685456704034,7.319396368801607],[80.68535222920248,7.319521668809386],[80.68532399831544,7.319545235586087],[80.68529623861069,7.319563317854985],[80.68521791026494,7.319657371287835],[80.68521321690562,7.319665679983679],[80.68522342385836,7.319713286397818],[80.68523002246094,7.319724846541202],[80.68529050242616,7.319774226514314],[80.68537725753296,7.319832842918538],[80.68547325562528,7.319882508565978],[80.6855380103744,7.319911006286239],[80.68561742951157,7.319972244549852],[80.68567194425576,7.320022444377894],[80.68573016274267,7.32011650366781],[80.68581825385091,7.320296748181904],[80.68582971972587,7.320317998907614],[80.68586153246247,7.320376969510604],[80.68590445146292,7.320439465508719],[80.68595543410812,7.320493371333311],[80.68602552691452,7.320542036024947],[80.68619587765423,7.320627166935003],[80.68626171908886,7.320657382946375],[80.68634332051454,7.320677204416143],[80.68640943810674,7.320685355454298],[80.68641615822416,7.32068736344607],[80.68644139610551,7.32070693490191],[80.68637430568415,7.321110332220985],[80.68637850897626,7.321111363966892],[80.68641293484703,7.321111710862295],[80.68644744949893,7.321111961012292],[80.68647869476183,7.321160469570192],[80.68648715410946,7.32119305512381],[80.68651650033686,7.321213042470558],[80.68652207106682,7.321219689308651],[80.68656502571089,7.321263332330325],[80.68664617807059,7.321260227753089],[80.68673647702369,7.321263607933773],[80.68675266607033,7.321263607538169],[80.68676503157741,7.321270382327771],[80.68682532907971,7.321287385279524],[80.68687922417149,7.321307918256486],[80.68690140982415,7.321318238054838],[80.68695491557308,7.321356386778597],[80.68696426507009,7.321449219010969],[80.68733921713127,7.321358614249908],[80.68794481767885,7.321215130151074],[80.68813176931455,7.321171127232605],[80.68823671313658,7.321146311986948],[80.68845081089053,7.321825878285509],[80.68904886676327,7.321944272125277],[80.6893273072373,7.323831107437815],[80.6893747948091,7.323911629469667],[80.68956679561376,7.324216236850543],[80.6895747549727,7.324203548294155],[80.6896705789115,7.324050803671918],[80.68978653583633,7.323699160437464],[80.68985851439295,7.323447124082174],[80.68987556837969,7.323396035113345],[80.69008369447104,7.322978067966678],[80.69009177710709,7.322950546132479],[80.69020699148253,7.32279304122638],[80.69022896366407,7.32274604244377],[80.69024314317727,7.322725925306004],[80.69033943238274,7.32265213083789],[80.69040735566139,7.322612004486801],[80.6904478449208,7.322591956569608],[80.6904613199026,7.322585281762914],[80.69074788190407,7.32250281140493],[80.69082704819111,7.322494960818011]]]]}},{"type":"Feature","properties":{"GND_N":"Walala","GND_NO":"643","GND_C":"190","PROVINCE_N":"CENTRAL","PROVINCE_C":"2","DISTRICT_N":"KANDY","DISTRICT_C":"1","DSD_N":"PATHADUMBARA","DSD_C":"12","Admin_Code":"2112190","GND_NO_Cen":"643","GND_NAME_C":"Walala","GND_NO_Gaz":"643","GND_NAME_G":"වලල","shape_1":"Polygon","Area__Ha_":65.1457007543,"MWS_ID":"103-2","Alt_MWS":"107-3","Total_Pop":964.0,"Density":1479.75997177,"Area_sqkm":0.65145700545},"geometry":{"type":"MultiPolygon","coordinates":[[[[80.68535370265666,7.330338193609918],[80.68538076020444,7.330337792147034],[80.68555080194288,7.330378644943696],[80.68559588311022,7.330377756973919],[80.68563122296301,7.330403594618896],[80.6859260902967,7.330522796844539],[80.6859621148346,7.330522140327481],[80.68671109068723,7.330798071949144],[80.68676503204128,7.330796729859774],[80.68680095792126,7.330795836328695],[80.68685510574464,7.330803776037317],[80.68689097818614,7.330802880679815],[80.68691997186765,7.330618274762325],[80.68691044785373,7.330600353196664],[80.68729534119207,7.330298824566213],[80.68800220681939,7.329869721980588],[80.68834641773634,7.329754211366824],[80.6883482784146,7.329743605158129],[80.68837791447802,7.329651462454732],[80.68839413929807,7.329590695545067],[80.68839677077563,7.32956619034584],[80.68839659512629,7.329542767952987],[80.68839750266643,7.329533633763271],[80.68846914676773,7.329527409882678],[80.68857213144842,7.329526434353743],[80.68862376317352,7.329510257398216],[80.68865221306051,7.329462245347135],[80.68869679130282,7.329383309265594],[80.68872052690229,7.329357720299195],[80.68882524443968,7.329286120772582],[80.68893249557618,7.32923179119307],[80.68897253029388,7.329228363523428],[80.68901854165253,7.329226926477806],[80.689062198797,7.329226391465345],[80.68910033186462,7.32923010741121],[80.6891684398185,7.329242780862567],[80.68923989670073,7.329281497982474],[80.68927207887171,7.329304588363466],[80.68927494425873,7.329306644399527],[80.6893330897858,7.329319948005486],[80.68937620416811,7.329320589356195],[80.68939613314699,7.329307571241821],[80.68942439816038,7.329278277278388],[80.68945230274028,7.329244011384006],[80.68947060358099,7.329214895448845],[80.68950819985062,7.329174933407519],[80.68954434452408,7.329142655852197],[80.68958230284875,7.329108570037108],[80.68959163500037,7.32909799239283],[80.68961428400783,7.329065804467477],[80.6896567761275,7.329005494724283],[80.68970606598992,7.32891643034533],[80.68973886483127,7.328855848339887],[80.68978860699077,7.328774290659835],[80.6898026656316,7.32875739193589],[80.68991589300275,7.328621306108677],[80.68997975546287,7.328587950486112],[80.69003157073753,7.328549075388303],[80.69009706319203,7.328517436429265],[80.69015973984021,7.32851319821637],[80.69022305044797,7.328523428969465],[80.69028046891395,7.32855391498109],[80.69030848861057,7.328584707348107],[80.69031388391062,7.328590635184058],[80.69037927122675,7.328630166644767],[80.69042672260133,7.328676295180592],[80.69050569830989,7.328709227803937],[80.69052426492252,7.328715471039602],[80.69053748872075,7.328716014335733],[80.69055866212709,7.328712507868704],[80.69045617389148,7.328122866254038],[80.69070417949123,7.328071778798156],[80.69075757898842,7.32790849076302],[80.69075760012115,7.327868950102138],[80.6907737108866,7.327829516496788],[80.69078177078649,7.327797986779732],[80.6908220202969,7.327569913747291],[80.69069696254843,7.327502499459895],[80.69074277018392,7.327044209025848],[80.69099438005067,7.326274220756756],[80.69107160955645,7.326114240607768],[80.69107167955912,7.326108105826426],[80.6911843705208,7.325547721268847],[80.69118516753232,7.325500221975298],[80.69118649310775,7.325421369675764],[80.69105428549302,7.325004030282694],[80.69100069031532,7.324912885320296],[80.6909728368652,7.32491374003003],[80.69050901717856,7.324666403474902],[80.69003874457334,7.324621781112281],[80.68998553988325,7.324578405936856],[80.6899176239108,7.324550649773107],[80.689634662673,7.324435776837081],[80.68961022449066,7.324391324707533],[80.6895747549727,7.324203548294155],[80.68956679561376,7.324216236850543],[80.6893747948091,7.323911629469667],[80.6893273072373,7.323831107437815],[80.68904886676327,7.321944272125277],[80.68845081089053,7.321825878285509],[80.68823671313658,7.321146311986948],[80.68813176931455,7.321171127232605],[80.68794481767885,7.321215130151074],[80.68733921713127,7.321358614249908],[80.68696426507009,7.321449219010969],[80.68695491557308,7.321356386778597],[80.68690140982415,7.321318238054838],[80.68687922417149,7.321307918256486],[80.68682532907971,7.321287385279524],[80.68676503157741,7.321270382327771],[80.68675266607033,7.321263607538169],[80.68673647702369,7.321263607933773],[80.68664617807059,7.321260227753089],[80.68656502571089,7.321263332330325],[80.68652207106682,7.321219689308651],[80.68651650033686,7.321213042470558],[80.68648715410946,7.32119305512381],[80.68647869476183,7.321160469570192],[80.68644744949893,7.321111961012292],[80.68641293484703,7.321111710862295],[80.68637850897626,7.321111363966892],[80.68637430568415,7.321110332220985],[80.68608191681422,7.321478615520034],[80.68639177771315,7.321618647441779],[80.68639177671159,7.321668835382845],[80.68639177629782,7.321725128276987],[80.68634888919584,7.322112379546498],[80.6863224779013,7.322216786956976],[80.68630171122726,7.322243952602578],[80.68620494218354,7.322372552323394],[80.68614975282482,7.322378450892974],[80.68612218960189,7.322391622880294],[80.68596418876,7.322531529438371],[80.68594361643663,7.322537931393533],[80.68592305588795,7.322544329732908],[80.6856907838713,7.322621117164008],[80.68566356890646,7.322640857148991],[80.68565678496915,7.322654238569424],[80.68543090013124,7.322748711709969],[80.68541115264638,7.322760907679362],[80.6851914858996,7.322827022093735],[80.68518485325157,7.32282678924896],[80.68471281587804,7.322916204983712],[80.68454679948118,7.322923699485873],[80.6844861362722,7.323051049205588],[80.68432191585786,7.323213307381455],[80.68424490152273,7.323335150132296],[80.68413100472945,7.323553669816455],[80.68412389748777,7.32357095683266],[80.68399705957647,7.323775464359633],[80.68382343635267,7.324029531622176],[80.68376471349404,7.324171442725814],[80.68375980842215,7.324165106167517],[80.68375630022359,7.324205952828619],[80.6837557258062,7.324219991115799],[80.68363060225879,7.324458809055405],[80.68358718627441,7.324780251008781],[80.68357821741844,7.324847077176299],[80.68356369157038,7.324902124551275],[80.68356175798577,7.32494510659402],[80.68351209807072,7.325348071996599],[80.68351040487808,7.325380472834804],[80.68350718557758,7.325600752316174],[80.68336956924361,7.325692368713051],[80.68327669328752,7.325869032289985],[80.68321240552504,7.326100677072041],[80.68320702911798,7.326143945062054],[80.68317054025512,7.326419439826751],[80.68311800258537,7.326602988940025],[80.68301052933252,7.326797336693694],[80.68300067471175,7.326811067398327],[80.68278913638842,7.327025285452224],[80.68275702346155,7.32706775208732],[80.68258384872806,7.327389563874596],[80.68235862943048,7.327734101612929],[80.68230331779321,7.327818715650234],[80.68239807553365,7.327906936658706],[80.68248736651437,7.327980835961698],[80.68255814729251,7.32800911924062],[80.6825616323083,7.328010512594037],[80.68262919697898,7.328029246654113],[80.68269802971915,7.328039208322923],[80.68281713049036,7.328066181334624],[80.6828929352763,7.328095406080956],[80.68302878330907,7.328161538843387],[80.68307550914442,7.328212641663286],[80.68317883231063,7.328320455108513],[80.68329130284692,7.328431708583053],[80.68336338824213,7.328489508461757],[80.68341156423081,7.32854070107263],[80.68345212799555,7.328602293401593],[80.68348979307841,7.328674102850055],[80.68350092457773,7.328714075347954],[80.68349710460792,7.32879491835859],[80.68348286885225,7.328865542401592],[80.68348605643051,7.328881805143455],[80.68352053867063,7.328927730966602],[80.68354552849085,7.328952729253674],[80.68366270955408,7.329062084570355],[80.6837297277607,7.329092029904728],[80.68379040412148,7.329138614006759],[80.68385533504554,7.329197136681562],[80.68394009549351,7.329282157695168],[80.68399252559924,7.329343752412682],[80.68405455797595,7.329394494743632],[80.68410663423872,7.329415125346539],[80.68417546355415,7.329451763734101],[80.68421005500315,7.329495719954673],[80.6842498020998,7.329565539394241],[80.68429136580728,7.329614922855023],[80.68430286187485,7.329631066114724],[80.68434288894913,7.32968727855372],[80.68438435865943,7.329744619854421],[80.6844290873991,7.329823393801951],[80.68443374582823,7.329835853338443],[80.68443696399983,7.329844465674949],[80.68445497996838,7.329885614245059],[80.6844980805947,7.329944764474642],[80.68454815962683,7.329992612335144],[80.68461126937727,7.330090652576886],[80.6846680415342,7.330180280594332],[80.68467282160897,7.330187015009879],[80.68471521840442,7.33024675648933],[80.68478337529268,7.330325943918844],[80.68486390725066,7.330419508658101],[80.68492430676011,7.330488247978411],[80.68496206498031,7.33054052437351],[80.68496332985751,7.330551647559062],[80.68496176599074,7.330674270745724],[80.68495804006432,7.330739289383358],[80.68497605996797,7.330761538901747],[80.68503383468976,7.330825755253835],[80.68510051676628,7.330853474827548],[80.68510130560864,7.330853802345337],[80.68515247428306,7.330888990115931],[80.6852161956583,7.330969278925644],[80.6852452899931,7.331005936226037],[80.6852935529025,7.331073044387831],[80.68534163680528,7.33112966440063],[80.68537840384136,7.331152640234576],[80.68542323484901,7.331179778394705],[80.68545610914899,7.331197418951143],[80.68548880400274,7.331215602050822],[80.68553564244324,7.331236916893318],[80.68552816761589,7.331212879006889],[80.68536892085206,7.330700760756518],[80.68535370265666,7.330338193609918]]]]}},{"type":"Feature","properties":{"GND_N":"Ketakahala","GND_NO":"644","GND_C":"195","PROVINCE_N":"CENTRAL","PROVINCE_C":"2","DISTRICT_N":"KANDY","DISTRICT_C":"1","DSD_N":"PATHADUMBARA","DSD_C":"12","Admin_Code":"2112195","GND_NO_Cen":"644","GND_NAME_C":"Ketakahala","GND_NO_Gaz":"644","GND_NAME_G":"කැටකහල","shape_1":"Polygon","Area__Ha_":91.3144502698,"MWS_ID":"103-2","Alt_MWS":null,"Total_Pop":1580.0,"Density":1730.28474726,"Area_sqkm":0.91314449977},"geometry":{"type":"MultiPolygon","coordinates":[[[[80.6880288681116,7.332721592866915],[80.6881208054209,7.332705333461052],[80.68832595882456,7.332710166478036],[80.68840720440114,7.332713347437383],[80.68845937768322,7.332708745693155],[80.68853510348411,7.332670869284004],[80.68856014259285,7.33265481917588],[80.68858220954596,7.33264067385283],[80.68860838661432,7.332636791362729],[80.6887233242036,7.332655080700713],[80.68874618977193,7.332660776840322],[80.6888181511957,7.33267870238758],[80.68888671190581,7.332708555924541],[80.6889495672447,7.332729278497632],[80.68908008234307,7.332746033457241],[80.68917727000029,7.33274985038381],[80.68921947680253,7.332747597807088],[80.68932283229381,7.332701950515396],[80.68937825577709,7.332672141843259],[80.68949612305099,7.332608750368625],[80.68954793897093,7.332573853368748],[80.68962357403568,7.332550266555824],[80.68971858950957,7.332540789689562],[80.68980165008718,7.332525793348562],[80.6899767408947,7.332481788357241],[80.69001804450957,7.332470763790965],[80.69013308314697,7.332430001791071],[80.69022438852141,7.33240216584723],[80.69042194224033,7.332361329140233],[80.69049938681027,7.332347779385744],[80.69066025026467,7.332339762676772],[80.69073388804898,7.332339867134468],[80.69079176375475,7.332345484830637],[80.69084429203714,7.332374069899313],[80.69091157940328,7.332422643771454],[80.69096564880354,7.332449060599848],[80.6910138571946,7.332460572488505],[80.69104329812082,7.332454298593743],[80.69155054693348,7.332343447393242],[80.69159604181517,7.332344715665351],[80.69196915976082,7.332278439826191],[80.69203844388022,7.332276939923512],[80.69217868928594,7.331937854295028],[80.69244275864564,7.331450703939192],[80.69307606360695,7.331176392743127],[80.69347793630024,7.330790972428023],[80.69387584083817,7.330480919269535],[80.69412568125007,7.330194254735788],[80.69430207435818,7.329955881836987],[80.69445263316426,7.329709483894759],[80.6945235440376,7.329397919069214],[80.69452394996956,7.329382170699498],[80.69453590983733,7.329191518589989],[80.69469273398711,7.329060762206064],[80.69485222183121,7.329009833632361],[80.69516732784086,7.328934202223412],[80.6952134021046,7.32893527399701],[80.69543996741886,7.328890760679875],[80.69563411203151,7.328772693528976],[80.69571382234275,7.328520568128922],[80.69571667401642,7.328473099038953],[80.6958460254838,7.328195494712599],[80.69607454799845,7.327901270674812],[80.69638227421167,7.327595451150487],[80.69637446481497,7.327240278228987],[80.69644167973881,7.327013356106859],[80.69651479905812,7.326766494222071],[80.69655503653398,7.326466969800592],[80.69664758351034,7.326206788226913],[80.69664795032583,7.326191551681151],[80.69685741729981,7.325896804758252],[80.6971327502582,7.325546203262682],[80.69732288659492,7.325147004733329],[80.69747676642622,7.324744607568983],[80.69767366225359,7.324331547984447],[80.69771479819212,7.324083287644799],[80.69771539629409,7.324065984802852],[80.69776138115948,7.323628326130056],[80.69798681534208,7.323472943659727],[80.69834253013207,7.323246355282802],[80.69837973801896,7.323208380068523],[80.69876938370295,7.322841851698171],[80.69877193117246,7.322812516523813],[80.69877636451447,7.322761454872577],[80.69890745383577,7.322580100334563],[80.69906099792813,7.322367676829682],[80.69907529870223,7.32234057097051],[80.6992201464103,7.321897847774609],[80.69922279162488,7.321852926032718],[80.6992239207447,7.321833759507309],[80.69933042842726,7.321312270257768],[80.69924901756099,7.321191312924056],[80.69923558445956,7.321171356255652],[80.69918542174551,7.321090413374535],[80.69913824195507,7.321039131260261],[80.69908416941428,7.320993958339252],[80.6990795599047,7.320990107926908],[80.69903137562117,7.320981238382601],[80.69896969694499,7.32097706798997],[80.69892151349106,7.320958159757394],[80.69886590918152,7.320919445084821],[80.69880613497276,7.320896013326201],[80.6987502234261,7.320889960231874],[80.69868313989714,7.320882698862507],[80.69849828036517,7.320876427243483],[80.69841730987378,7.32087089607954],[80.69832346974128,7.320907686802456],[80.69827328880966,7.320927390118714],[80.69806234574682,7.320917497486288],[80.69798698981782,7.3209123307512],[80.69788247153126,7.320894678625899],[80.69779851407188,7.32086771483015],[80.6977861073808,7.320862467703651],[80.69772433938823,7.320835779056191],[80.69765931231547,7.32081578439181],[80.69754338893786,7.320762951872762],[80.69747818804706,7.320691048305145],[80.69743210061864,7.320604768743402],[80.69742499706906,7.320588775789953],[80.69739462002816,7.32052039334114],[80.69735160877369,7.320453103785876],[80.6973248035689,7.320433204398894],[80.69726313203591,7.320419865038284],[80.69725325180268,7.320417727337383],[80.69723069911775,7.320428033343235],[80.69717987678494,7.320484543398916],[80.69711791674516,7.320530381608522],[80.69704364730678,7.320527836484158],[80.69693070786722,7.32050394205526],[80.69687419308487,7.320488198102787],[80.6968211242309,7.320449032379173],[80.69675787226343,7.320389429392394],[80.69673464054718,7.320367538420848],[80.69665649085185,7.320284147787175],[80.69655652325983,7.320143601274167],[80.6965206682595,7.32008183187409],[80.69652330506972,7.320024498575766],[80.69632444696776,7.320053851347844],[80.69632839024374,7.320070607893714],[80.69610941940974,7.320227041521375],[80.69593545709841,7.32030633330634],[80.69582942806214,7.320421187165412],[80.69552923441661,7.320669215562817],[80.69540903716184,7.320892809302346],[80.69519970039413,7.321101465938656],[80.69508222521422,7.321271546092642],[80.69495845607376,7.321446282240258],[80.69492080267968,7.321542777299159],[80.6948820554774,7.321537637462169],[80.69483615071145,7.321505150181808],[80.69482035764202,7.321484191892392],[80.69476013983203,7.32141057156646],[80.69467174463152,7.321392197270491],[80.6945290914634,7.321389277598773],[80.69432294984742,7.321382819535918],[80.694128399006,7.32137573138718],[80.69381936489337,7.321366812673425],[80.69365986501765,7.321369404986542],[80.69359066364109,7.32138322902349],[80.69354175415351,7.321387922410453],[80.69343225224831,7.32138690752471],[80.69336124115449,7.321391233291372],[80.6933248322036,7.321388152851135],[80.69316093441402,7.321985146597527],[80.69268327707412,7.32257259772654],[80.69168965285779,7.322529978429426],[80.6914762043383,7.322508499010247],[80.69144350639198,7.322508686365735],[80.69116822955549,7.322502622555398],[80.69114200946372,7.322502583230105],[80.69107002691028,7.322503814826659],[80.69089281795901,7.322500343061815],[80.69085999108701,7.322487905368026],[80.69082704819111,7.322494960818011],[80.69074788190407,7.32250281140493],[80.6904613199026,7.322585281762914],[80.6904478449208,7.322591956569608],[80.69040735566139,7.322612004486801],[80.69033943238274,7.32265213083789],[80.69024314317727,7.322725925306004],[80.69022896366407,7.32274604244377],[80.69020699148253,7.32279304122638],[80.69009177710709,7.322950546132479],[80.69008369447104,7.322978067966678],[80.68987556837969,7.323396035113345],[80.68985851439295,7.323447124082174],[80.68978653583633,7.323699160437464],[80.6896705789115,7.324050803671918],[80.6895747549727,7.324203548294155],[80.68961022449066,7.324391324707533],[80.689634662673,7.324435776837081],[80.6899176239108,7.324550649773107],[80.68998553988325,7.324578405936856],[80.69003874457334,7.324621781112281],[80.69050901717856,7.324666403474902],[80.6909728368652,7.32491374003003],[80.69100069031532,7.324912885320296],[80.69105428549302,7.325004030282694],[80.69118649310775,7.325421369675764],[80.69118516753232,7.325500221975298],[80.6911843705208,7.325547721268847],[80.69107167955912,7.326108105826426],[80.69107160955645,7.326114240607768],[80.69099438005067,7.326274220756756],[80.69074277018392,7.327044209025848],[80.69069696254843,7.327502499459895],[80.6908220202969,7.327569913747291],[80.69078177078649,7.327797986779732],[80.6907737108866,7.327829516496788],[80.69075760012115,7.327868950102138],[80.69075757898842,7.32790849076302],[80.69070417949123,7.328071778798156],[80.69045617389148,7.328122866254038],[80.69055866212709,7.328712507868704],[80.69053748872075,7.328716014335733],[80.69052426492252,7.328715471039602],[80.69050569830989,7.328709227803937],[80.69042672260133,7.328676295180592],[80.69037927122675,7.328630166644767],[80.69031388391062,7.328590635184058],[80.69030848861057,7.328584707348107],[80.69028046891395,7.32855391498109],[80.69022305044797,7.328523428969465],[80.69015973984021,7.32851319821637],[80.69009706319203,7.328517436429265],[80.69003157073753,7.328549075388303],[80.68997975546287,7.328587950486112],[80.68991589300275,7.328621306108677],[80.6898026656316,7.32875739193589],[80.68978860699077,7.328774290659835],[80.68973886483127,7.328855848339887],[80.68970606598992,7.32891643034533],[80.6896567761275,7.329005494724283],[80.68961428400783,7.329065804467477],[80.68959163500037,7.32909799239283],[80.68958230284875,7.329108570037108],[80.68954434452408,7.329142655852197],[80.68950819985062,7.329174933407519],[80.68947060358099,7.329214895448845],[80.68945230274028,7.329244011384006],[80.68942439816038,7.329278277278388],[80.68939613314699,7.329307571241821],[80.68937620416811,7.329320589356195],[80.6893330897858,7.329319948005486],[80.68927494425873,7.329306644399527],[80.68927207887171,7.329304588363466],[80.68923989670073,7.329281497982474],[80.6891684398185,7.329242780862567],[80.68910033186462,7.32923010741121],[80.689062198797,7.329226391465345],[80.68901854165253,7.329226926477806],[80.68897253029388,7.329228363523428],[80.68893249557618,7.32923179119307],[80.68882524443968,7.329286120772582],[80.68872052690229,7.329357720299195],[80.68869679130282,7.329383309265594],[80.68865221306051,7.329462245347135],[80.68862376317352,7.329510257398216],[80.68857213144842,7.329526434353743],[80.68846914676773,7.329527409882678],[80.68839750266643,7.329533633763271],[80.68839659512629,7.329542767952987],[80.68839677077563,7.32956619034584],[80.68839413929807,7.329590695545067],[80.68837791447802,7.329651462454732],[80.6883482784146,7.329743605158129],[80.68834641773634,7.329754211366824],[80.68800220681939,7.329869721980588],[80.68729534119207,7.330298824566213],[80.68691044785373,7.330600353196664],[80.68691997186765,7.330618274762325],[80.68689097818614,7.330802880679815],[80.68685510574464,7.330803776037317],[80.68680095792126,7.330795836328695],[80.68676503204128,7.330796729859774],[80.68671109068723,7.330798071949144],[80.6859621148346,7.330522140327481],[80.6859260902967,7.330522796844539],[80.68563122296301,7.330403594618896],[80.68559588311022,7.330377756973919],[80.68555080194288,7.330378644943696],[80.68538076020444,7.330337792147034],[80.68535370265666,7.330338193609918],[80.68536892085206,7.330700760756518],[80.68552816761589,7.331212879006889],[80.68553564244324,7.331236916893318],[80.68554586019201,7.331241567074634],[80.68556469754579,7.33125730665642],[80.6856524496636,7.331332562382467],[80.68569464885756,7.331371817646684],[80.68577724374319,7.331424282966013],[80.68585231759664,7.331484162946615],[80.68596190016464,7.331555354545647],[80.68603118062558,7.331593981304548],[80.68611133464749,7.331623659442758],[80.68618224343659,7.331681483051853],[80.68619175318513,7.331689237549214],[80.68634253858747,7.331796336340211],[80.68642893641267,7.331851154394209],[80.68651796393269,7.331895574375567],[80.68655502737579,7.331918041050495],[80.68668659470455,7.331997793379823],[80.68681066578749,7.332078934996441],[80.6868620583372,7.332114728501414],[80.6868914468587,7.332135198728658],[80.68693853886579,7.332175719970324],[80.68699133075661,7.332239122112891],[80.68706214267523,7.332338700856636],[80.68707198216154,7.332350931701336],[80.68712915188677,7.332422000474366],[80.68716971874254,7.33247237730091],[80.68718321264511,7.332481603868772],[80.68719933372122,7.332488389338742],[80.68722904239475,7.332493279369289],[80.68724778891199,7.33250178353382],[80.68726273310958,7.332510105179273],[80.68728473677814,7.3325319945779],[80.68732349391772,7.332587163838629],[80.68735237592992,7.332640795634763],[80.6874010025932,7.332698498890875],[80.68746050281892,7.332747253499455],[80.68750660098604,7.332771226642905],[80.68756511197681,7.332775126704059],[80.68773584440767,7.332782484336603],[80.68780830365722,7.33278367420564],[80.68794471894516,7.332749247100199],[80.6880288681116,7.332721592866915]]]]}},{"type":"Feature","properties":{"GND_N":"Hamindagoda","GND_NO":"634","GND_C":"260","PROVINCE_N":"CENTRAL","PROVINCE_C":"2","DISTRICT_N":"KANDY","DISTRICT_C":"1","DSD_N":"PATHADUMBARA","DSD_C":"12","Admin_Code":"2112260","GND_NO_Cen":"634","GND_NAME_C":"Hamindagoda","GND_NO_Gaz":"634","GND_NAME_G":"හමින්දගgo","shape_1":"Polygon","Area__Ha_":66.3167679811,"MWS_ID":"103-2","Alt_MWS":null,"Total_Pop":1309.0,"Density":1973.85977038,"Area_sqkm":0.66316767768},"geometry":{"type":"MultiPolygon","coordinates":[[[[80.68687214867481,7.318085485183845],[80.68703745192148,7.318047808525016],[80.68714813122102,7.318049368676082],[80.68726315874689,7.318051740820332],[80.68737537653531,7.318055019396854],[80.68747627232523,7.318065077989522],[80.68753025085982,7.318078653191313],[80.68756982829596,7.318092586365826],[80.68759051100875,7.318099335642874],[80.68763821086426,7.318045149214398],[80.68765138404824,7.317924319652422],[80.68765111773881,7.317915281988793],[80.68765078303228,7.317904026959011],[80.68765045103383,7.317892818049226],[80.68764339021457,7.317859652224864],[80.68763059298425,7.317760036129912],[80.68763025223784,7.317747264581535],[80.68761849225078,7.317655889609845],[80.68761793065669,7.317651533468248],[80.68740052770615,7.317510427354152],[80.6857402079444,7.317272117199289],[80.68571477684705,7.317255118408871],[80.68543000094034,7.317166333462804],[80.68540779254455,7.317166631922073],[80.68500094913263,7.3171119803115],[80.68485797064764,7.317099221415276],[80.6848541741926,7.317084232715247],[80.68478049331598,7.31705461174766],[80.68470681154383,7.317024988959306],[80.68466475593684,7.317008079871401],[80.68446608862828,7.316984447923458],[80.68446612640594,7.316976878005192],[80.6844768051642,7.316696540618829],[80.68460213955936,7.316627396874718],[80.68469073925817,7.316573443351144],[80.68469072910794,7.31656992289482],[80.6847651787665,7.316506712737684],[80.68477571803834,7.316478630824396],[80.68478545989647,7.316461284642227],[80.68484257279387,7.316359585591263],[80.68484253164911,7.316352595315298],[80.68490556121205,7.31623054700654],[80.68512439171867,7.316310503780024],[80.68524708149012,7.316244401395147],[80.68525052423759,7.316230510177583],[80.6852574913477,7.316220094007382],[80.68527147326884,7.316209681063716],[80.68532680333044,7.316149364335051],[80.6853821324718,7.316089045790449],[80.68539950810232,7.316007166404384],[80.68542314196986,7.315895385668727],[80.68542964868452,7.315881878492529],[80.6854363813678,7.315875124702128],[80.68553328695255,7.315858146046526],[80.68564619715184,7.315973061483377],[80.68566336598597,7.315973117388785],[80.68581413006497,7.315957183128715],[80.68581381080266,7.315950421585497],[80.686029154319,7.315841175173642],[80.68603255076928,7.31584118580179],[80.68604944131309,7.315837876722393],[80.68618781197895,7.31581481303481],[80.6863310083342,7.315710278830108],[80.68658779659947,7.315523287482355],[80.68671816411269,7.31549612644406],[80.68673020145995,7.315489937974612],[80.68692927844458,7.315318354229761],[80.68696291285859,7.315224725670948],[80.6869921167445,7.315143426412848],[80.68699853912963,7.315121010899431],[80.68712559316319,7.314880621480754],[80.68723133326056,7.314715488493417],[80.68723764516726,7.314688318124641],[80.68724952814995,7.314661129866865],[80.68734938402474,7.31443492171771],[80.68734948742407,7.314429605335878],[80.68738147933314,7.314117865563251],[80.6873390220436,7.31369261281317],[80.68718849945179,7.313344626827877],[80.68716895372648,7.313319170424193],[80.68668960542786,7.312566353577022],[80.68668471605096,7.312463617351689],[80.6867299801973,7.312276454435129],[80.68676004749938,7.312152123145416],[80.68678078455525,7.312116542002732],[80.68679677937966,7.312098712307176],[80.68682163192138,7.312045290967986],[80.68698551508754,7.311859394979904],[80.68701255874203,7.311836710449904],[80.68702220388107,7.311808335303738],[80.68715329510042,7.311620234389366],[80.68715802243095,7.311608996635226],[80.68716710141078,7.311580999372539],[80.68718532995561,7.311525291524817],[80.68718713317001,7.311511888288312],[80.6872141786615,7.311310810800614],[80.6872125382122,7.311289014038005],[80.68721049216764,7.311261826639269],[80.68719771431618,7.311234805319068],[80.68717919711975,7.311202481833573],[80.68715496955633,7.311164889647067],[80.68687587119761,7.310909178573418],[80.68685736839089,7.310877548678661],[80.68683474674816,7.310866984630634],[80.68681247456902,7.31086167917842],[80.68676799360918,7.310851082752201],[80.68647604879368,7.310633013245423],[80.68721025475514,7.310024728794942],[80.68739217440516,7.309375525070643],[80.6872338040774,7.308480443492682],[80.68744718740389,7.30811431569934],[80.68746061845242,7.308062161703672],[80.68750044717439,7.30800999934364],[80.68772517132518,7.307776934755763],[80.68772747528516,7.307736347327013],[80.6877692463025,7.307640138478542],[80.687788638039,7.307595650523668],[80.68785639530768,7.307541766391888],[80.68790394976327,7.307511753726247],[80.68792921973697,7.307507508451067],[80.68795131841254,7.307514656784982],[80.68796582814643,7.307526663361256],[80.68797296121639,7.307532565343295],[80.6880196902629,7.307554820377877],[80.68807412308881,7.307559353458787],[80.68812620328504,7.307548058942155],[80.68814531542866,7.307534318161382],[80.68815329092634,7.30750728102738],[80.68817169318842,7.307423274771158],[80.68821944371146,7.307321549887558],[80.688251245298,7.307268020390174],[80.68828848716784,7.307178863273363],[80.6883052537275,7.307127051727078],[80.68831668153103,7.307036351346676],[80.68832005007108,7.306951889091615],[80.68831562928098,7.306864262060238],[80.68830748994343,7.306803038175708],[80.68828323201039,7.30672698236481],[80.6882611429706,7.306675432714631],[80.68822789683745,7.306627249417011],[80.68816154403056,7.306531086310127],[80.68811119921084,7.306464248387489],[80.68807438015982,7.306425070344885],[80.6880723518112,7.306422914086837],[80.68807160105091,7.30642257573018],[80.68795190591018,7.306368904447314],[80.68790580741037,7.306350988381016],[80.68786016757767,7.306317339316018],[80.68782965301835,7.306283422827509],[80.68780693412253,7.306206642040519],[80.68779870523626,7.306145238171831],[80.68777634588997,7.30608238554654],[80.68776105282818,7.306019533403296],[80.68776178641947,7.305973684420976],[80.68779150437288,7.305917985117454],[80.68785152798317,7.305825374443084],[80.68792359560184,7.30571418176519],[80.68799235965709,7.305605226580781],[80.68803512055943,7.305544827431917],[80.688060398515,7.30549473392593],[80.68806285110729,7.305485723918713],[80.68806674933339,7.305471401407083],[80.6880807008314,7.305420132800801],[80.68808021884291,7.305388622226181],[80.68807998542867,7.305373470563406],[80.68802541281651,7.305168905365384],[80.68802454479297,7.305166145258982],[80.68800866874805,7.305115640377275],[80.68779618764394,7.305127264250595],[80.68765676885971,7.305113449844875],[80.68758696165708,7.305106534467919],[80.68762020380518,7.305160234973163],[80.687642382266,7.305221461633479],[80.6876503422943,7.305268216630346],[80.68764751270972,7.305379355061134],[80.68762997750684,7.305484727469278],[80.68762982970446,7.305485606423885],[80.68759628831745,7.305640145414358],[80.68757929322773,7.305730035333287],[80.68755585277822,7.305854005398793],[80.68755277417897,7.305868391368144],[80.68752140436787,7.306014965666041],[80.68750942516337,7.30613622959271],[80.6875080473197,7.306233894171674],[80.687518350524,7.306344220404413],[80.68753626528805,7.306436011708287],[80.68757401998973,7.306621471123023],[80.6875767118433,7.30663469438807],[80.68758952313176,7.306679916638071],[80.68759897479545,7.306713282799278],[80.68763708414559,7.306822893766611],[80.6876849587376,7.306969575885272],[80.6876860530717,7.306972926547204],[80.68767461365267,7.307108118671738],[80.68767189978296,7.307114655352856],[80.68762586003874,7.307225531168273],[80.6876202456335,7.307239050315003],[80.68756398169295,7.307339145711095],[80.68751289412702,7.307410200392131],[80.68750411091594,7.307422417619506],[80.68746568674138,7.307475857135987],[80.68739718233384,7.307643683379452],[80.68736682354015,7.307714843411757],[80.68735069814518,7.307752641950484],[80.68730594446302,7.307844680423587],[80.68729850831718,7.307859972546413],[80.68722893306436,7.307951022227086],[80.68714604490818,7.308027962119821],[80.687067595961,7.308103004741255],[80.68694566145135,7.308236816687151],[80.68692316685508,7.308257537972732],[80.68681992648892,7.308352632193165],[80.68672571811537,7.308427854293591],[80.6866839091204,7.308467762869121],[80.68663839054602,7.308511211957444],[80.68662030165437,7.308539111564944],[80.68654634337979,7.308653169374996],[80.68648599961759,7.308767370052005],[80.6864329934596,7.308879041940317],[80.68638388485553,7.308980042907192],[80.6863687542462,7.309015601644582],[80.6863435619303,7.309074806828032],[80.68630682052232,7.30919034332318],[80.68629815831561,7.30921758646511],[80.68628093514852,7.309286581422227],[80.68626625025011,7.309371253899816],[80.68626597278376,7.30937284994098],[80.68623697172391,7.309473763570124],[80.68619473777832,7.309608676381971],[80.6861576778633,7.30969069024844],[80.68610127485279,7.309767531238987],[80.68608719448123,7.309786713230038],[80.68602858340978,7.309845120436411],[80.68598292792,7.309883814595838],[80.68594172525849,7.309911651665296],[80.68590076897797,7.309939323292713],[80.68579270781349,7.309994011091027],[80.68575112483622,7.310039309271794],[80.68557494039699,7.310162890382847],[80.68551478571162,7.310190763386134],[80.68542258583142,7.310233486730244],[80.68539442642135,7.310246921720769],[80.6852943249948,7.310294681321677],[80.68516208029696,7.310345025231674],[80.68514641538017,7.310348328198722],[80.68501679916844,7.310375652636076],[80.68486680497752,7.310418304470992],[80.68469688719327,7.310455346426199],[80.68453692491086,7.31051915683618],[80.6844424476512,7.310576471361809],[80.68439516004649,7.310623119281365],[80.68439118358457,7.310625048254964],[80.68438981708985,7.310628391187861],[80.68437205977618,7.310645907550016],[80.68432847777345,7.310730632838776],[80.68431855767409,7.310756463159658],[80.68429177874276,7.31082620936646],[80.68423541637017,7.310949996155569],[80.68419960532027,7.311030260277905],[80.6841783303555,7.311077944395177],[80.6841063877862,7.311219814058408],[80.68408150075783,7.311281062894065],[80.68406869114852,7.311312588827326],[80.68404493484404,7.311438010912515],[80.68405787305385,7.311508007585636],[80.68409815859425,7.311598807939689],[80.68411557819414,7.311642746203134],[80.68412006548637,7.311654065388412],[80.68415392097747,7.311742511423044],[80.68416631636319,7.311805273550471],[80.68415703304986,7.311852673452168],[80.6841526248594,7.311875174343722],[80.68412055156664,7.311937926471275],[80.68408422004853,7.311998508299852],[80.6840817897844,7.312004071984099],[80.68408062630104,7.312006741250941],[80.6840524136543,7.312071386871201],[80.68403571554543,7.312104121060242],[80.68399125429184,7.312191285940234],[80.68396961207242,7.312275980412465],[80.68396179400419,7.312306576835078],[80.68395440471997,7.3123573384167],[80.68394537740366,7.312419341063308],[80.68392923577642,7.312520620688008],[80.68392521002986,7.312555112723654],[80.68392178583042,7.312584453967947],[80.68392074695396,7.312593370190693],[80.68391408273783,7.312650475610918],[80.68388068778056,7.312806327334219],[80.6838674842725,7.312867950217792],[80.6838520444523,7.312894852801214],[80.6838339608064,7.31292636136506],[80.68381874044259,7.312947518045843],[80.68377951612081,7.312980879707192],[80.68369943313812,7.31307156402132],[80.68366319318766,7.313122199392466],[80.6835309167117,7.313321479825474],[80.68344742480062,7.313423871411226],[80.68343905567613,7.313434137151313],[80.6833913350814,7.313487852903998],[80.68332001598105,7.313568130417616],[80.68323826592716,7.313704236575022],[80.68322687623795,7.313723198376263],[80.68313310976374,7.313842910620116],[80.683042521324,7.313923735726849],[80.68298083309226,7.313966678284175],[80.68293707697075,7.314014778176882],[80.68291560383071,7.314055918642004],[80.68288071280362,7.314147787763452],[80.68284729803061,7.314213788675193],[80.68281538373417,7.314276819257781],[80.68274154446364,7.314397348518893],[80.68264768282758,7.314533426723973],[80.68253135437489,7.314701873399994],[80.68246874097493,7.314837144195359],[80.68244263223897,7.314947826432922],[80.68243019999557,7.315062127829325],[80.68242264153645,7.315258178389676],[80.68242282740711,7.315330869975807],[80.68242306100274,7.315422218260869],[80.68243018472657,7.315572696781796],[80.68242827130534,7.315631595489775],[80.68242434964125,7.315752381609108],[80.6824127227984,7.315908823719072],[80.68240934686935,7.315966596263101],[80.6824053028457,7.316035790022803],[80.68235158275822,7.31599234963625],[80.68220614979859,7.315726593261251],[80.68211885330687,7.315685563034443],[80.68210208391808,7.315685460958211],[80.68200199119578,7.315671417879329],[80.68194760186137,7.31567108636452],[80.68187547927377,7.315693035880503],[80.68178527198609,7.315814774210659],[80.6817306604161,7.315957838955977],[80.68158788837621,7.316046342087263],[80.6814237389021,7.316026011344564],[80.68126099895194,7.315940527571839],[80.68129103657225,7.315712286767734],[80.68133628121892,7.315616682477383],[80.6815179806524,7.315529879569151],[80.68155590420001,7.315507712214361],[80.68173031644025,7.315380723144125],[80.68176066481585,7.315365784088839],[80.68179861556362,7.315343358992315],[80.68180621250265,7.315335875664791],[80.68203428962887,7.315216322967618],[80.68208030545046,7.31512641315964],[80.6820804331174,7.315096388495435],[80.68199777699736,7.314825657940712],[80.68198270605369,7.314803088790752],[80.68193818474725,7.314629792270034],[80.68185507115275,7.314493768478372],[80.68183997195874,7.31446349736297],[80.68165753227534,7.314227377020627],[80.68149934246784,7.314038340663975],[80.68149987902332,7.313521731050321],[80.68129898526792,7.313275969511224],[80.68121158505502,7.3132397942959],[80.6811070362472,7.313036011785473],[80.68110666307797,7.313014715353461],[80.68105101118047,7.312887772804496],[80.68105070960613,7.31286201364846],[80.68104422145767,7.312719247130556],[80.68103452995354,7.312703872821904],[80.68103441888044,7.312693778055604],[80.68103082776746,7.312667952189598],[80.6808254353535,7.312544382627769],[80.68058034189858,7.312327799612046],[80.68037496890047,7.312106146351907],[80.6802484619547,7.311858958714121],[80.67996000819898,7.311692998990213],[80.67994143461108,7.311702138434154],[80.67989961262263,7.311730861028154],[80.67987605611897,7.311734310428307],[80.67984845367145,7.311738351280189],[80.67984976051514,7.31174724900466],[80.6798789252688,7.311747651331413],[80.67978499126322,7.311936742840536],[80.67949784651002,7.312198892252506],[80.67900845994433,7.312704227513437],[80.67888444470267,7.312714108267893],[80.67886674869064,7.312706535419424],[80.67851289453925,7.312676427736759],[80.67849272847813,7.312673816251962],[80.6781883278293,7.312728228940163],[80.67813835285564,7.312729978734099],[80.67812691491991,7.312728475097863],[80.67801671091811,7.312734093022053],[80.67794033925796,7.312688729143644],[80.67793296588542,7.312688519544071],[80.67771379149126,7.312472741858752],[80.67750416214871,7.31217674538051],[80.67740233146844,7.312001929277223],[80.67728793282087,7.311968551625524],[80.67726782718331,7.311987836004871],[80.67708873209368,7.312153556376783],[80.67687696185037,7.312215182305071],[80.67668222991155,7.31223150628673],[80.67647825924467,7.31225388878058],[80.67637129985789,7.312266528036296],[80.67631802168866,7.312272824639581],[80.67622619081993,7.312283675791922],[80.67617129556983,7.312324176399835],[80.67611575083868,7.312438105407952],[80.67605558306613,7.312565328451807],[80.67602077914839,7.312675102263691],[80.67598605546388,7.312831086909423],[80.67594695325755,7.31293559399681],[80.67592542786879,7.312993124615021],[80.67590076447443,7.313118184309088],[80.67587346764168,7.313269829035545],[80.67584336458832,7.313414693569279],[80.6757858178781,7.313565608098808],[80.67575241169254,7.313641416552514],[80.6757041713839,7.313750881678972],[80.67567280423295,7.313890046993732],[80.67564478156451,7.314046756541662],[80.67564346571491,7.3140783833605],[80.67563949994802,7.314173720485934],[80.67563539976835,7.314286846136083],[80.67563924942445,7.314479193265941],[80.67563695789198,7.314608781260386],[80.67564006857157,7.314639122243661],[80.67565105537606,7.314746235835657],[80.67565231982005,7.314758084303132],[80.67566191844632,7.314766948622442],[80.67567504926666,7.314780334343995],[80.67567894362587,7.314785399313744],[80.67568129655426,7.314790010883067],[80.67571496289752,7.314907759626659],[80.67575297163081,7.315044137085069],[80.67578365338463,7.315146963243959],[80.67580726950024,7.31524635237503],[80.67582419554127,7.315295097206576],[80.67584140090406,7.31531391146187],[80.67585851709701,7.31532241573221],[80.67587490808855,7.315333721372509],[80.6758831667582,7.315336338459616],[80.67593232572462,7.315351912480366],[80.6761008756532,7.315388104967443],[80.67618021197589,7.3154051406981],[80.67628082737964,7.315442058636533],[80.67633987675134,7.315457987487709],[80.67637528757007,7.315466584420184],[80.67642871987728,7.315489747346073],[80.67653621789269,7.315547014487663],[80.67661581594218,7.315609246386077],[80.67676071232094,7.315694103007949],[80.67685570865679,7.31575597835448],[80.67695169870969,7.315829610750495],[80.67701219245005,7.315867514408577],[80.67702668123758,7.31587990656082],[80.67705067901167,7.315897183142964],[80.67708372910295,7.315940687424737],[80.67710817269528,7.315944768504998],[80.67719385886215,7.315959069034539],[80.6773357858198,7.315964886882484],[80.67734974887696,7.315962767550146],[80.67744220974755,7.315948724126764],[80.67759393394556,7.315880120766811],[80.6777255531908,7.315802018672066],[80.67782174867632,7.315757366216639],[80.67786350641741,7.315743087349214],[80.67789665581637,7.315742914636862],[80.67790795888683,7.31574436670495],[80.67801439613737,7.315758041311804],[80.67817434231969,7.315776433550829],[80.67828755076114,7.315806661941],[80.67831191167787,7.315820231795327],[80.67838417248412,7.315892140548959],[80.6784483723012,7.31596449878718],[80.67852679798212,7.316013347308134],[80.67855079534907,7.316032795948169],[80.67857270607587,7.316064089606466],[80.67859714975506,7.316117810541442],[80.67855963548296,7.316193672565197],[80.67851410707355,7.316295870686172],[80.67851097446318,7.316302901870344],[80.67851929885381,7.316315811706696],[80.67855343846053,7.316368744387393],[80.67859989421859,7.316404384028009],[80.67863367308809,7.316425280766953],[80.67870739562343,7.31644419669363],[80.67874470545803,7.316467173183359],[80.67876833911798,7.316497473375605],[80.67878816542591,7.316534734070919],[80.67879694228532,7.316574526231603],[80.67879818475323,7.316592047381773],[80.67880028412915,7.316621642074042],[80.67879420486888,7.316667759334052],[80.67877325848224,7.316775005197695],[80.67876327716937,7.316867874104423],[80.67876879488344,7.316896813916811],[80.67879604764688,7.316944659283959],[80.6788471828851,7.317111784740804],[80.67884897826522,7.317110692730681],[80.67888704086192,7.317087557126309],[80.67891117570768,7.317078998592396],[80.67895126065491,7.317064782565581],[80.67902471807851,7.317053765937119],[80.67907924328145,7.317050611745947],[80.67913920160696,7.317053067211026],[80.67917923543868,7.31704900648144],[80.67924272481322,7.317057339762973],[80.6792782267855,7.317068289486508],[80.67932740061681,7.317096153532169],[80.6793829627634,7.317127080919295],[80.67944685204158,7.317162644646404],[80.67955597825683,7.31722913441526],[80.67960650801032,7.31727372743314],[80.67965622547494,7.317300866308493],[80.67968339511307,7.317310459565188],[80.67971391658243,7.317321226420928],[80.679856380001,7.317353268398165],[80.6799685981724,7.317357815746178],[80.68006659481195,7.317361724301676],[80.6800813607642,7.317361999652586],[80.68021649588437,7.317348101330153],[80.68031670748837,7.317341342234903],[80.68034882400197,7.317339176942745],[80.6804432061615,7.317316409499845],[80.68045796978386,7.317310624195472],[80.6805402172646,7.317278358057366],[80.68065787888116,7.317240130119782],[80.68076993355815,7.317161660357143],[80.68092011613331,7.317093057361308],[80.68100707980584,7.31702588511324],[80.68104194636653,7.317000977118213],[80.68111768442198,7.316946872372973],[80.68121796906523,7.316855649327342],[80.68134307677848,7.316725999494981],[80.68143003836789,7.316668050154587],[80.68152741337059,7.316621319066387],[80.68156778693438,7.316590825400734],[80.68162017228069,7.316551255048721],[80.68174744511737,7.316465825097947],[80.68186076927955,7.316382834709371],[80.68196249685334,7.316306984052477],[80.68204728955766,7.316229502985628],[80.682145118178,7.31617408963676],[80.68224375805092,7.316145805545093],[80.6824034380503,7.316134987223156],[80.68242508966983,7.316137618739141],[80.68242771915693,7.316136764720322],[80.6824294098501,7.316138143231506],[80.68244220283626,7.316139698587317],[80.68246746939376,7.316154352667398],[80.68250831088187,7.316181309424111],[80.68258918108221,7.316236940934313],[80.68264442183849,7.316276470495664],[80.6826702283343,7.316299263409613],[80.68269395282505,7.316329563418227],[80.68271939336321,7.316378673298114],[80.68273397877905,7.31640196305206],[80.68276946401886,7.31645862233424],[80.68280603687002,7.316542188490021],[80.68287630307262,7.316632181285692],[80.68292130284323,7.316698114354831],[80.68295788076246,7.316757535591874],[80.68300967772731,7.316807373456297],[80.6830476659855,7.316827034555874],[80.68308710868087,7.316847450142577],[80.68317595320369,7.316884905791323],[80.68323744614675,7.316912047613519],[80.68330799518189,7.316944708454217],[80.68337718407105,7.316984963345201],[80.68341358878892,7.317006402852601],[80.68343659092142,7.317026393611718],[80.68344981011782,7.317047466612564],[80.68347344049256,7.317090967585334],[80.68350558257545,7.317144599416069],[80.6835116346095,7.31715340315484],[80.68353673008954,7.317189912350446],[80.68354985999407,7.317204834256589],[80.68357675642632,7.317222023373761],[80.68362122420297,7.317242106260753],[80.68365609078123,7.317251610432735],[80.68370291493777,7.317264459367486],[80.68371371016458,7.317264901078933],[80.68377627882516,7.317267460459249],[80.68387364327475,7.317271458487388],[80.6839692823741,7.317292820579251],[80.68406048442303,7.317309386219756],[80.68408820096512,7.317311383173421],[80.68415612922726,7.317316279414974],[80.68418493027416,7.317316557503399],[80.68419779351196,7.317311404699688],[80.68423338956585,7.317297123981856],[80.6842353832458,7.317300650269426],[80.68424335140564,7.317311413111986],[80.68424950771374,7.317319733964161],[80.68427374030126,7.317333215754777],[80.68430121772838,7.31734850138859],[80.68432059891157,7.317363698553754],[80.6843463078484,7.317425738130678],[80.68438035224466,7.317482988407121],[80.68441367414695,7.317521246348369],[80.68443141484218,7.31757740722469],[80.68445939107512,7.317633842383551],[80.68448202069457,7.317695338742072],[80.68447856551005,7.317765422473547],[80.68446623990498,7.317803309377648],[80.6844241122386,7.317854937424615],[80.68436912269365,7.317918226549557],[80.6843508100831,7.31800105792623],[80.6843507030609,7.318076928978167],[80.68432179791903,7.318142394655776],[80.68422683273097,7.318353801428495],[80.6842160398233,7.318430211066941],[80.68421375578771,7.318521907889106],[80.68422605568287,7.318609537423333],[80.68425756745367,7.318654939907558],[80.6842883533231,7.318693559964228],[80.68430455323423,7.318759397480776],[80.68433442555175,7.318831837397498],[80.68439192054038,7.318922913414944],[80.68441039686216,7.318938651164832],[80.68442397980486,7.318944261523755],[80.68443602632202,7.318946976892926],[80.68450350163987,7.318949070555478],[80.68452469287425,7.31895820834242],[80.6845985001151,7.319009135675386],[80.68467557031664,7.31904866943526],[80.68469476818584,7.319066035066887],[80.68472891862366,7.319101558538399],[80.68475163487524,7.319125188089951],[80.6848110440368,7.319161734032926],[80.68483368679473,7.31916381853248],[80.68492243373848,7.319229759383264],[80.68496726969278,7.319262244737112],[80.68498211237869,7.319272997205099],[80.6850913328223,7.31932366125364],[80.68514530970548,7.319345737194738],[80.68519973262237,7.31939702132122],[80.68520983888959,7.319588104522043],[80.68521009871853,7.319651134533949],[80.68521321690562,7.319665679983679],[80.68521791026494,7.319657371287835],[80.68529623861069,7.319563317854985],[80.68532399831544,7.319545235586087],[80.68535222920248,7.319521668809386],[80.685456704034,7.319396368801607],[80.68546341701892,7.319379803314499],[80.68550577762693,7.319282705931932],[80.68554103022691,7.319274385309118],[80.68564549395425,7.319225920312766],[80.68574012689216,7.319114634055421],[80.68581178879845,7.319056930383847],[80.68585503255025,7.318954514029454],[80.68597762918867,7.318917720826597],[80.68602935107783,7.318641283772801],[80.68608642117252,7.318599335524093],[80.68617066213604,7.318552870285967],[80.68621830895444,7.318488751129531],[80.68624087487117,7.318458384606334],[80.6863006649478,7.318402238402132],[80.68637231979811,7.318338140304868],[80.68644171022498,7.318279010892448],[80.68656871196751,7.318188424996321],[80.68658229951099,7.318180108110534],[80.68666907204117,7.318155347473731],[80.68674778476219,7.318124797673466],[80.68687214867481,7.318085485183845]]],[[[80.6781868019419,7.31098136612583],[80.6781691396792,7.31098136228016],[80.6781476741962,7.310986150415357],[80.67812683945266,7.311001700805861],[80.67812255909038,7.311005724025065],[80.67809704541214,7.311029704218643],[80.6780271898814,7.311095364050217],[80.67800635470873,7.311116973269955],[80.67793657495098,7.311217003879898],[80.67792854754843,7.311250480356244],[80.677960038031,7.311334097344037],[80.67799779311618,7.311352475607679],[80.67800219147519,7.311355589180581],[80.67806634113927,7.311393157094695],[80.67810732547319,7.311393232945604],[80.67816524927632,7.311285752786864],[80.67825305784874,7.311215826718762],[80.67831865606789,7.31110657939028],[80.6783606899781,7.311053183060799],[80.67836233900901,7.31104610543369],[80.67833451379651,7.311033487061207],[80.67830071999387,7.311020675676736],[80.67823045442981,7.310994036784338],[80.6781868019419,7.31098136612583]]]]}}]}