{"type":"FeatureCollection","name":"SED_PPL_MWS_100_2","crs":{"type":"name","properties":{"name":"urn:ogc:def:crs:OGC:1.3:CRS84"}},"features":[{"type":"Feature","properties":{"GND_N":"Udugoda","GND_NO":"726","GND_C":"060","PROVINCE_N":"CENTRAL","PROVINCE_C":"2","DISTRICT_N":"KANDY","DISTRICT_C":"1","DSD_N":"PANVILA","DSD_C":"15","Admin_Code":"2115060","GND_NO_Cen":"726","GND_NAME_C":"Udugoda","GND_NO_Gaz":"726","GND_NAME_G":"උඩුගොඩ","shape_1":"Polygon","Area__Ha_":210.967831302,"MWS_ID":"100-2","Alt_MWS":null,"Area":2.10967831302,"Total_Pop":1250.0,"Density":592.507394272},"geometry":{"type":"MultiPolygon","coordinates":[[[[80.69846975969142,7.366508791683512],[80.69911695973079,7.365927491872306],[80.69941048484164,7.36603401944975],[80.6997820626395,7.366111118829987],[80.70027879423652,7.366157781388525],[80.70078141760268,7.36620333300409],[80.70144393852722,7.366433706767562],[80.70192878666897,7.366488845151464],[80.70231485597874,7.366564628180426],[80.7028171965965,7.366703090887734],[80.70322121601977,7.366729372782081],[80.70366817149102,7.366694865056891],[80.70436774719438,7.366629053558964],[80.70468518860051,7.366595274544702],[80.70484577830517,7.366551048199139],[80.70508411249872,7.36645892786961],[80.70529588972559,7.366366447807247],[80.70544863683622,7.366332589631324],[80.70548917562773,7.365896017069278],[80.70552884256588,7.365341911301097],[80.7055574580059,7.364813098004088],[80.70559168579666,7.363947360662369],[80.70558187908766,7.363915096322711],[80.70556037743083,7.363870968402207],[80.70552940727332,7.36382105687505],[80.70549562040698,7.363785881409055],[80.70548339912231,7.363774393932906],[80.70542763192621,7.363732000460067],[80.70531548044868,7.363660201888563],[80.70523496058796,7.363602765919234],[80.7051760072885,7.363585530501363],[80.70513430594515,7.363581217585163],[80.7050897279335,7.363586952813654],[80.70504514650389,7.363602736643423],[80.704988099647,7.363649771167272],[80.70495741836217,7.363674500751691],[80.70492578129829,7.363683109185962],[80.70485100352434,7.36369314766907],[80.70473308681801,7.363716097200473],[80.70460653809937,7.36374191828611],[80.70449005755188,7.363761996823799],[80.7043361979059,7.363734696547191],[80.70430025105003,7.363714592649241],[80.704231234921,7.363670079021008],[80.70415934726921,7.363592545228708],[80.70412340577542,7.363539423435426],[80.70409321688037,7.363493479109622],[80.70408603256824,7.363450411462187],[80.70408891853126,7.363388681546161],[80.70409036624075,7.363337000908386],[80.70410763230224,7.363268094960702],[80.7041220216697,7.363209238058761],[80.7041522302388,7.363144642291621],[80.70420689193644,7.363036982163745],[80.70431908382596,7.362861860390053],[80.70444610751065,7.362658271723988],[80.7044644892386,7.362624461004793],[80.70448945450266,7.362567698341292],[80.70449313409016,7.362521653669559],[80.70449170422337,7.362462795119399],[80.7044816478167,7.362406806344761],[80.70445002029459,7.362362296937918],[80.70438963641132,7.362291944281591],[80.70434506502295,7.362251741787968],[80.70428611452836,7.362207227976573],[80.7041998467844,7.362144049481157],[80.70409488145066,7.362085173336676],[80.7040042970126,7.362042092225204],[80.70387919785605,7.362007616279134],[80.70372677430697,7.361987494380482],[80.70357147481207,7.361967370154248],[80.70345787483163,7.361967352587834],[80.70332845265867,7.361985994499299],[80.70319615350392,7.362021861052693],[80.70306097372737,7.362074956766105],[80.70291716528826,7.362138097821757],[80.70285820687816,7.36214813856779],[80.70280644075442,7.3621409517207],[80.70275611267421,7.362125151625089],[80.70270579114518,7.36208064083324],[80.70267272472188,7.362034695937862],[80.70264685477873,7.361957170372661],[80.70258090952778,7.36173885553017],[80.70251173407604,7.361652804295925],[80.7024484758258,7.361575273458632],[80.70236364266201,7.361532192061205],[80.70229893773688,7.361499161677759],[80.70214510024469,7.36134409450518],[80.70209621643906,7.361293839754871],[80.70202146070376,7.361178980971284],[80.70196683668756,7.36106412642223],[80.70190070620016,7.360970802295542],[80.70185182629497,7.36089757824139],[80.70179719300853,7.360838711735919],[80.70173824458178,7.360789891303394],[80.70163759710327,7.360719531569979],[80.7015599512034,7.360690807018027],[80.70148086706857,7.36066638849971],[80.70140897604058,7.360614695605642],[80.70131408242686,7.36053859353851],[80.70129396573027,7.360449583313304],[80.70121920696033,7.360354823416736],[80.70112574569733,7.360304561083148],[80.70104091145107,7.360270093819592],[80.70092156776998,7.360224134284267],[80.70068719280232,7.360133654591849],[80.70056928306178,7.360109229355343],[80.7004715004059,7.360106340742626],[80.70038091703961,7.360056079646046],[80.700257267011,7.35995843923366],[80.700188255051,7.3598952619945],[80.7001197059807,7.359800238010108],[80.69999231715815,7.359632204190333],[80.69989162167701,7.359485592384869],[80.69983124300614,7.359396575221331],[80.69978715460921,7.359338188647528],[80.69964434513929,7.359172592804754],[80.69953603513306,7.35907112690727],[80.69947469173734,7.35900412296081],[80.69935391401097,7.358940935805301],[80.69921683853309,7.358870090893522],[80.69908552010135,7.358780104661538],[80.69891872987793,7.358697768991267],[80.69880084130453,7.358554190616188],[80.69873471318932,7.358447945350673],[80.69869062086954,7.358413483794294],[80.69860147748,7.358352216325605],[80.69848836787517,7.358288075324865],[80.69838004715398,7.358250731414931],[80.69826021802326,7.358240181759755],[80.69809437184404,7.35823632491983],[80.69802727408852,7.358200902529081],[80.69798701075422,7.358197066674816],[80.69789689705937,7.358204708541087],[80.69756040920265,7.358223789069499],[80.69747701082824,7.35819219254669],[80.69744633924155,7.358172088124993],[80.69743100380528,7.358147203547222],[80.69743004884401,7.358128062012408],[80.69743101361261,7.358091693856911],[80.69743882522774,7.358061260938614],[80.6974960314821,7.357886460329473],[80.69749529276424,7.357812245013492],[80.69748571169117,7.357783531729414],[80.69743299427188,7.35773471273294],[80.69729401301002,7.357611228367036],[80.6971387304503,7.357505924788417],[80.69702583477303,7.357422895295716],[80.69697833803318,7.357392031187981],[80.69694670483958,7.357380540945734],[80.69691595168547,7.357366231242596],[80.69683935087174,7.357303001503012],[80.6968134728391,7.357278113224893],[80.69675884336809,7.357193882235619],[80.69670229950651,7.357101995075952],[80.69665534332906,7.35700149703845],[80.69662851671819,7.356922055638845],[80.69661032189339,7.356810077166632],[80.69660937414388,7.356750740296229],[80.6966036421077,7.356639720791738],[80.69659502418871,7.356579423995779],[80.69658161115606,7.356538267713904],[80.6965509404754,7.356503808335786],[80.69643590561273,7.356410879820167],[80.69635530902352,7.356350502359041],[80.69632727181656,7.356329680314952],[80.69629779980944,7.356298810309508],[80.69626860255336,7.356241060868286],[80.69621109735908,7.356172141848621],[80.69613250263922,7.356091735312662],[80.69601364573475,7.356007494541972],[80.69587562206088,7.355898364803223],[80.69570310011244,7.355708836338113],[80.69563794432442,7.355536555917391],[80.69557523931958,7.355331209207524],[80.69552610183499,7.35509868250856],[80.69548899086438,7.3548953018287],[80.69547583802859,7.354738580235389],[80.69546772953602,7.354602214493309],[80.695460322453,7.354394038223013],[80.69546035770801,7.354194253411181],[80.69547357507952,7.353999255639454],[80.69547360841841,7.353815022112546],[80.69545684387353,7.353755203100115],[80.69543528577455,7.353685812989364],[80.69534304322215,7.353544630203977],[80.69530949455478,7.353518305324195],[80.69522678435078,7.353488735052728],[80.69512017766256,7.3534429028889],[80.69504708736402,7.353416570825284],[80.69500754803704,7.353393834013257],[80.69491169680778,7.353323233098601],[80.6948410043035,7.353281349243741],[80.69466846974896,7.353173648890038],[80.69445879033549,7.353056372360543],[80.69441325923042,7.353033633497919],[80.69430661737233,7.35299293938174],[80.69424191352057,7.352969001506048],[80.69416163358565,7.352940274293961],[80.69412209412646,7.352918732892086],[80.69397831933537,7.352808646570919],[80.69382256295442,7.352692573325677],[80.69366559873063,7.352618373528344],[80.6933983103263,7.352462349181688],[80.69329703986114,7.352398358276514],[80.69327683304846,7.35238559030519],[80.69306000394951,7.352579891917267],[80.69267337085398,7.352903613564876],[80.69228632613088,7.353250549137896],[80.69182572324694,7.353695900200512],[80.69179419238424,7.353835057345036],[80.69178249173231,7.353837513032317],[80.69170576959908,7.353847989368054],[80.69169453818701,7.353850247099383],[80.69168212619472,7.353854224590594],[80.6916642831604,7.353857565331231],[80.69164109415912,7.353860637387803],[80.6916364743859,7.353861720773581],[80.69163149133604,7.353863077189978],[80.69163294088392,7.35386642247821],[80.6916346592134,7.353871035649095],[80.69164380596727,7.353885324449787],[80.69165449069749,7.353899976166026],[80.69165621318191,7.353901785096038],[80.6916575712101,7.353905312131696],[80.69165974287972,7.353917158902523],[80.69166680131903,7.353948176901646],[80.69166797357839,7.353976031443771],[80.6916652557199,7.353983265349204],[80.69166371389574,7.353988869923921],[80.6916570059704,7.35401536561987],[80.69164830508072,7.354047738000101],[80.6916420494698,7.354077308409099],[80.69164122680107,7.354107058896225],[80.69165063181126,7.354192517243397],[80.69166129733425,7.354318125947206],[80.69166670419649,7.35446073634923],[80.69166727473512,7.35447568186145],[80.69167265390261,7.35461627747165],[80.69166411843239,7.354726872936739],[80.69165342283628,7.35476944818209],[80.69164535422777,7.354801563858601],[80.69164317564922,7.354821367667527],[80.69164308282376,7.354833214010201],[80.69164444114331,7.354839996534117],[80.69164933013258,7.354847503166882],[80.69166662629517,7.354871831261733],[80.69168709376459,7.354900411984211],[80.69174396480423,7.354965260290508],[80.69179901849402,7.355060584138724],[80.69180433845385,7.355184023309878],[80.69179513295528,7.355197591534085],[80.69175396280905,7.355258256121322],[80.69167750243828,7.355320095963991],[80.69160049906947,7.355369729418326],[80.6915360801316,7.355456709306973],[80.69152192829515,7.355573906013014],[80.69153449596699,7.355690110328397],[80.69155367560134,7.355808396693118],[80.69156515893968,7.355925143382831],[80.69159603368145,7.355984653214008],[80.69166802811621,7.356078171672997],[80.6917209932137,7.356211385397178],[80.6911367393489,7.357329797990057],[80.69087506579709,7.357671575293923],[80.69075522451891,7.357641174200159],[80.69066672779432,7.357634105542342],[80.68999474269091,7.358786153347012],[80.68956449111937,7.359295412957159],[80.68917588048235,7.359544614719748],[80.68918245561396,7.35959172290181],[80.68916106048005,7.359688750349963],[80.68918658957827,7.359759561263352],[80.68919743398507,7.359889240286813],[80.68913772393837,7.359977218162068],[80.68908281752921,7.360055158307405],[80.68902817578817,7.360169181052591],[80.68896556613588,7.360257337389669],[80.6889324878191,7.360340256337103],[80.68888582177384,7.360416749372046],[80.68881951064668,7.360455440548487],[80.68871669725786,7.36047043276827],[80.68864541443142,7.360452152823682],[80.6886381684596,7.360449528025075],[80.6886280249586,7.360441478655561],[80.68772647881106,7.360960831764458],[80.68754786263139,7.361311680929195],[80.68747296959123,7.362133000118351],[80.68758115209184,7.362856341014408],[80.68765070647083,7.363492482334582],[80.68792299732426,7.364052698733444],[80.68812799860406,7.365005211352197],[80.68832355533009,7.365913833511053],[80.68869474155083,7.367719738164626],[80.68927359022298,7.36955833718517],[80.68984071586314,7.370616688095389],[80.69023410110991,7.371480792525146],[80.69049656973677,7.371368971814943],[80.6909785457917,7.371163635648112],[80.69174910318277,7.371044746975618],[80.69244512777058,7.370813116370927],[80.69296812748807,7.370583415703677],[80.69361538616663,7.370220276038739],[80.69421318727194,7.369537487323814],[80.69465702658891,7.369062284727453],[80.69504393228891,7.368679286606091],[80.69526607452323,7.3685211916449],[80.69562728671448,7.367996089063887],[80.6961066836032,7.367728921503459],[80.6966262902351,7.367391782989483],[80.69704564027467,7.367146712079212],[80.69846975969142,7.366508791683512]]]]}},{"type":"Feature","properties":{"GND_N":"Pitawala1","GND_NO":"727","GND_C":"065","PROVINCE_N":"CENTRAL","PROVINCE_C":"2","DISTRICT_N":"KANDY","DISTRICT_C":"1","DSD_N":"PANVILA","DSD_C":"15","Admin_Code":"2115065","GND_NO_Cen":"727","GND_NAME_C":"Pitawala","GND_NO_Gaz":"727","GND_NAME_G":"පිටවල","shape_1":"Polygon","Area__Ha_":136.351031471,"MWS_ID":"100-2","Alt_MWS":null,"Area":1.36351031471,"Total_Pop":982.0,"Density":720.199905645},"geometry":{"type":"MultiPolygon","coordinates":[[[[80.70769552318691,7.364254029548024],[80.70773329617289,7.364251864107507],[80.7077528744018,7.364258690067243],[80.70775891792961,7.364176799190504],[80.70775738778251,7.363901191142436],[80.7077589674363,7.363848747279343],[80.70775665700594,7.36381135131422],[80.70775731002418,7.363800061200539],[80.70773627213967,7.363784069009687],[80.70774298292349,7.363739669701088],[80.70776097292493,7.363736699110752],[80.70777194618074,7.363546879606897],[80.70777481393263,7.363523728099286],[80.70778959642406,7.363308453067162],[80.70779299677997,7.363297187789865],[80.70782692962159,7.36319668973125],[80.7078717686458,7.363142352543053],[80.70787513267037,7.363013604827422],[80.70787426167537,7.363005088879562],[80.7078527030027,7.362894491221061],[80.70784960845238,7.362878619338205],[80.70784359346155,7.36285742699821],[80.70783837261352,7.362843820971576],[80.70780475425973,7.36277233163563],[80.7077954553463,7.362753374227663],[80.70775686500507,7.36265226460926],[80.70774648887046,7.362528577976355],[80.70769446226078,7.362353107323046],[80.70769030980514,7.362342621301226],[80.70765973552291,7.362238625464412],[80.70765937942532,7.362233468173666],[80.70763808057276,7.362153841991956],[80.70761279068047,7.361986147001499],[80.7075645625295,7.361873621780992],[80.70748617142513,7.361892103624093],[80.70741954766453,7.361893521270699],[80.70740415783013,7.361893849876961],[80.70742925407548,7.361736993456093],[80.70738556081642,7.361563779374608],[80.70737613962153,7.361545076047394],[80.70730142636026,7.361404183275624],[80.70729009874577,7.361395186434109],[80.7072450281514,7.36115552670054],[80.70724137515211,7.361119485166598],[80.70723710923508,7.361110657613208],[80.70718216749195,7.360927304543308],[80.70717881045655,7.360892834731767],[80.70717469031996,7.360884386102911],[80.70711919543834,7.360699357266234],[80.7071138857977,7.360674517972448],[80.70702717813492,7.360521134881927],[80.70714214481767,7.3604848422018],[80.70712018251277,7.36031541866129],[80.70711903867866,7.360284881097164],[80.70708444955199,7.36012610466739],[80.70707703210398,7.360118748829287],[80.70702394120076,7.359853156046156],[80.70701648867033,7.359838428328377],[80.7069859412324,7.35963949696518],[80.70697841852781,7.359610053522598],[80.70697830058108,7.359587960492051],[80.70697081749405,7.359565888928725],[80.70690851807325,7.359324820286741],[80.70681330012489,7.35910510162913],[80.70681403959166,7.359068093166811],[80.70680745897377,7.359038487092572],[80.70677469781504,7.358874900026523],[80.7067368573052,7.358749459262498],[80.70660168486644,7.358648555168327],[80.70646499770338,7.358560991066939],[80.70614165182523,7.358484772941283],[80.70616575704429,7.358410623012033],[80.70620689094,7.358345339719308],[80.7062562661688,7.358306915494467],[80.7063073579608,7.358279612643923],[80.70631538120689,7.358276330375565],[80.70637321434043,7.358252675622646],[80.70643128169415,7.35822564694623],[80.7064569212038,7.358192553475407],[80.70646553467205,7.358139472263977],[80.70646037880455,7.358087473163919],[80.70645749556198,7.35807628197127],[80.70644779754775,7.358038640677163],[80.7064432805031,7.357973619720742],[80.70647863158638,7.357816095742217],[80.70654742292687,7.357573212622587],[80.70658357945274,7.35748947893706],[80.7066021399355,7.357439654758272],[80.70660406014137,7.357434500532847],[80.70660261757149,7.357385667973555],[80.70657861853987,7.357354917953479],[80.70651974858306,7.357319369697533],[80.70645869627187,7.357279820459342],[80.70645607604422,7.357278121770658],[80.70641849376467,7.357228832326737],[80.70641469912441,7.357172402354296],[80.70642766198114,7.357109465826651],[80.70642758252288,7.357107852538585],[80.7064251337684,7.357058099241267],[80.7063927154443,7.357009171417139],[80.70635058013421,7.356962996578733],[80.70634801557722,7.356958653717572],[80.70634391939836,7.356953717394767],[80.7063389606615,7.356950264897593],[80.70633502471236,7.356945952568456],[80.70627344018071,7.35689855658894],[80.70625443572003,7.356891415957738],[80.70625430166899,7.356891365295836],[80.70623361341843,7.356883592292982],[80.70619445781992,7.356868881303268],[80.70614808135205,7.356864442960124],[80.70604056375295,7.356861712296573],[80.7059871230707,7.356850580085849],[80.70594310372731,7.356827512555564],[80.70590289721419,7.356768093563643],[80.70589194809797,7.356697647581436],[80.70588246053741,7.356560914645438],[80.70587314380103,7.356478259026146],[80.70584472929991,7.356319820755729],[80.70580183526492,7.356214909488163],[80.70578116830274,7.356164360245272],[80.70570292928757,7.356028881593987],[80.70568029880025,7.35593103430105],[80.70567479078214,7.355832642603283],[80.70571439430529,7.355717712895662],[80.70578977132288,7.355638509670736],[80.70583056668782,7.355622073156312],[80.70586224004961,7.355609311193859],[80.70592746244888,7.355585269708732],[80.7059903283396,7.355564481524843],[80.7060112519858,7.355561047554075],[80.70606093016409,7.355558449145557],[80.70608643113556,7.355535750627133],[80.70615438035354,7.355474697336372],[80.7061788533013,7.3553707995152],[80.7061783737227,7.355344569239745],[80.70617826681284,7.355338962547048],[80.70617657448379,7.355248540163463],[80.70617615429603,7.355224807580886],[80.70617234221109,7.355210533472311],[80.70615333224342,7.355117825917428],[80.7061520607905,7.355110207873384],[80.7060765676932,7.354978143453772],[80.70593193575588,7.354829363890205],[80.70587054121822,7.354774012733765],[80.70629440201233,7.354288969644682],[80.70621844622549,7.354115994522068],[80.70618282249445,7.35381333604109],[80.70616361896232,7.353615391135667],[80.7061594227207,7.353607599911606],[80.70638678837466,7.35359834554133],[80.70633912757988,7.353537634074767],[80.70629603209669,7.353476405150898],[80.70628941219412,7.35346699846485],[80.70624676259506,7.353387051445222],[80.7062322063822,7.353364311383559],[80.70621017827342,7.353329893796984],[80.7061647151972,7.353279424787244],[80.7060964278719,7.353223166469435],[80.7060320319369,7.353183727876544],[80.70598149046161,7.353165452130811],[80.70596156575317,7.353153331348317],[80.70594970467911,7.3531339783139],[80.70589927374057,7.352994886836647],[80.70587890084875,7.352952923992187],[80.70582048654992,7.352892416056802],[80.70578272220419,7.352851627874536],[80.70572502881942,7.352809113854566],[80.70566801656372,7.352784039411458],[80.70564912931964,7.352775731318665],[80.70558998362444,7.352758269853505],[80.70552132560444,7.352750119387212],[80.70539886176473,7.352757515311465],[80.7052946012512,7.35276771561634],[80.7051751239663,7.352791207635597],[80.70512177059662,7.352803768067668],[80.70510437743273,7.352809914562943],[80.70504622025746,7.352836128288552],[80.70502067688501,7.352841369182006],[80.70499169035479,7.352842359303719],[80.70492367028304,7.352821186889257],[80.70489305521043,7.352816027487187],[80.70482955852343,7.352818549412976],[80.70480320102516,7.352811309883328],[80.7047789317729,7.352767716814568],[80.7047612777237,7.352723042350175],[80.70475557179775,7.352713727122012],[80.70474397973761,7.352706128224751],[80.70473148015031,7.352703686420266],[80.70471807355814,7.352703139888976],[80.70470503044311,7.352706665490153],[80.70468048099222,7.352721581657149],[80.70466707485566,7.352723839366894],[80.70465194770046,7.352720492837583],[80.70463546383216,7.352710450633995],[80.70462858098196,7.352708641832334],[80.70462206000067,7.352709633713763],[80.70460547942521,7.352720845318804],[80.7045879947255,7.352738567757606],[80.70455302365181,7.352784410304658],[80.70445646204733,7.352830457299387],[80.704448577396,7.352834217030032],[80.7043651484933,7.35286594557351],[80.70430807781507,7.352894692328958],[80.70429190972708,7.352898021182344],[80.70418651596225,7.352919720159254],[80.70412455878895,7.35292423260284],[80.70406921335525,7.352932269266592],[80.70401866350295,7.352966444660187],[80.7039755392511,7.353018072478506],[80.70392806800496,7.353058939293535],[80.70387716089375,7.353067341084042],[80.70381112349465,7.353091655243496],[80.70360874969265,7.353196701523041],[80.70355349221155,7.353226169204489],[80.70354195137023,7.353237825600169],[80.70351973848751,7.35326026226248],[80.70348590775262,7.353294434883966],[80.70344821847739,7.353338738681915],[80.70342647656055,7.353350309315889],[80.70331397149997,7.353381488542224],[80.7032315411189,7.353404534825737],[80.7031238375386,7.353425405737352],[80.70308328356519,7.353428682636118],[80.70306999263002,7.353429756584515],[80.70306912577092,7.353429826074158],[80.70299711173742,7.353454682621605],[80.70296433833914,7.353475837035797],[80.70293170444523,7.353496901944452],[80.70290981919472,7.353515183359146],[80.70289057651536,7.353531258707322],[80.70280604866278,7.353634423968542],[80.70277768759554,7.353676289430001],[80.70273520101843,7.353704676653878],[80.70268320816359,7.353710636512522],[80.70262677791825,7.353704928323812],[80.70256059758509,7.353677788361343],[80.70253412110625,7.353666932372933],[80.7024879193895,7.353643230229198],[80.70246764211674,7.353632828313514],[80.70240858778777,7.353616178508257],[80.70238385815132,7.353618976863578],[80.70233439789583,7.353635971399571],[80.70231298089116,7.353648907529523],[80.70229009996996,7.353662728728882],[80.70226401226981,7.353667156406493],[80.7022396463643,7.353666880185183],[80.70218964746682,7.353654662025911],[80.702132273116,7.353645176347126],[80.70211628170209,7.353642532232363],[80.70198131752747,7.353633826756519],[80.70184499546394,7.353631180745976],[80.70173847428552,7.353633062070476],[80.70168214177583,7.353628032910554],[80.70156085007532,7.353617205377976],[80.70131401981963,7.353625479205492],[80.70126785969187,7.353635009158088],[80.70121351227732,7.353632468008024],[80.70111487050647,7.353635074850887],[80.70085861937208,7.353641361902772],[80.70077003378383,7.353633116923463],[80.70069467421717,7.353616736339691],[80.70066867036252,7.353612717752803],[80.70055451494747,7.353524852714928],[80.70054402980199,7.353506696164755],[80.70049144357122,7.353406359426558],[80.70049144345204,7.353401724875998],[80.70051251323888,7.353294685242814],[80.70051251402462,7.353290054309591],[80.700557011145,7.353173362492162],[80.7005680847078,7.353145460299592],[80.70057381598728,7.353122283993497],[80.70057391640812,7.353117663928693],[80.70060280351017,7.352992648979762],[80.70060381240116,7.352988282273084],[80.70060461146134,7.352960682189473],[80.70062961196899,7.352818479406634],[80.70063013771298,7.352800180028568],[80.70063092406114,7.352772749951405],[80.70063131768678,7.352759042599446],[80.7006319728221,7.352736206357148],[80.70063770144033,7.352717994670432],[80.70063796204313,7.352708871205741],[80.70067301005687,7.352622856242697],[80.70067183581389,7.352619468527087],[80.70066894006838,7.352597583915991],[80.70066830875214,7.352581397697572],[80.7006734760281,7.352561683868926],[80.70069848171053,7.352522441355469],[80.70072991696038,7.352497850530856],[80.70077635626409,7.352470486023549],[80.70087908193742,7.352382460421303],[80.70094402775074,7.352267769603915],[80.70103931272688,7.352187627326789],[80.70116374802451,7.352042354807847],[80.70117099861093,7.352027954099817],[80.7011996977754,7.351941836745409],[80.70112307035427,7.351823248123345],[80.70111561836453,7.351823396987682],[80.70100073177134,7.35171202730348],[80.70100055181305,7.3517049049858],[80.70090703258538,7.351584907297928],[80.70088357189553,7.351556538090859],[80.70080594441062,7.351492844032552],[80.70078272588731,7.351478725766082],[80.70067445969244,7.351422123489374],[80.70065111620117,7.35140786593244],[80.70062774463487,7.351393590283507],[80.70052386563769,7.351270522467875],[80.70050001347443,7.351248741019221],[80.70049205369742,7.351241471792927],[80.70041270258001,7.351108568381682],[80.70038908454927,7.351078959323128],[80.70038078566162,7.351041760333017],[80.70034058947556,7.350944975959557],[80.70033705027076,7.350765450485888],[80.7004512067504,7.350554524943343],[80.70042436490337,7.350531029330998],[80.70038795718973,7.350495755363824],[80.70037990116532,7.350468624919821],[80.7003768224749,7.350462747335432],[80.70036776482891,7.350450537715476],[80.70043163048567,7.350417631006819],[80.70047855738478,7.350376765369625],[80.70050410411905,7.35035651330973],[80.70051841935387,7.350334450744636],[80.70051616565988,7.350276213271704],[80.70051110981231,7.350173120103646],[80.70052153181389,7.350141201789467],[80.70053686518317,7.350124280356304],[80.70056692039587,7.350091110186214],[80.70060515051289,7.350051689045575],[80.7006042548041,7.34999752206791],[80.70060128642352,7.349875169413197],[80.70060065429888,7.349858439706695],[80.70060102178415,7.349854658879193],[80.70060192462559,7.349845327532166],[80.70060554993086,7.349838002388143],[80.70062303510092,7.349817749863831],[80.70069188335673,7.349769018660006],[80.70072268155376,7.34975030478683],[80.70077612545877,7.349741903777466],[80.70084324580476,7.349739293505203],[80.70095393202365,7.349746727402032],[80.70098127046629,7.349752667838416],[80.70098807903635,7.349754148421365],[80.70101960081469,7.34975234420544],[80.70104288220799,7.349736885442011],[80.70106970243552,7.349673497419142],[80.7010717889326,7.349665359044869],[80.70108085799764,7.349598985651952],[80.701104064901,7.349487849837011],[80.70111730560645,7.349391634248369],[80.70111646925568,7.349339622232886],[80.70111605063143,7.349313592713154],[80.70111887949345,7.34918925156288],[80.70112164400147,7.349167463756494],[80.7010913767897,7.349099247125864],[80.7009927091025,7.349014319251864],[80.70090425149243,7.348907918596064],[80.70088387632133,7.348877968280274],[80.70082049530987,7.348842364260126],[80.70081031056804,7.348842752300109],[80.70070702497736,7.348791783770839],[80.70055755794124,7.34867606838675],[80.70054901345985,7.348666499420446],[80.70040498510191,7.348549312699543],[80.70038896842728,7.348531207656205],[80.70036736419458,7.348511687336678],[80.70024290015242,7.348409701588171],[80.70023611431576,7.348402512134689],[80.70013903996647,7.348308462641826],[80.70013125688816,7.348295804698713],[80.70005995336413,7.348216202184381],[80.7000363881086,7.348149050081248],[80.70000245333424,7.348156695614477],[80.69999612590097,7.348159720334871],[80.6999293208898,7.348152385014898],[80.69988171606049,7.348154304878664],[80.69986747861267,7.348150761202721],[80.69985759431162,7.348152876490652],[80.69981027027701,7.348154789160279],[80.69978915549473,7.348149494482942],[80.69977863252197,7.34814685664496],[80.69977163018945,7.34814510019843],[80.69970546908323,7.348127865552949],[80.69968468047935,7.348122029249105],[80.69967380868788,7.348114646472577],[80.69962742311525,7.348084502655391],[80.69961928811009,7.348069480795912],[80.69958693314054,7.348039513903858],[80.69957361871299,7.348035863668802],[80.69949788045672,7.34801509876489],[80.69948484862236,7.348011527249944],[80.69943213083857,7.347980718569773],[80.69940980245063,7.347974641444794],[80.69936922607805,7.347973964397584],[80.69935100816625,7.347983563158511],[80.69929817881307,7.347980033640013],[80.69928266127505,7.347977796443262],[80.69926717453299,7.347975564677069],[80.69926408225697,7.347975118324636],[80.69921168203612,7.347967565626818],[80.69919633840536,7.347965354681753],[80.69914146934711,7.347945381857451],[80.69913847558473,7.347940947546035],[80.69908129973915,7.347924809465434],[80.69906940684426,7.347919150099541],[80.69906341974756,7.347918299023869],[80.69895815188576,7.347872113514026],[80.69894688914489,7.347862813530765],[80.69893254523046,7.347856963834934],[80.69891510565533,7.347854531868825],[80.69883273041012,7.347794034262698],[80.6988165352648,7.347781857741436],[80.69881125963043,7.347778593201324],[80.69864956417102,7.348076235467514],[80.69835789262797,7.348186947483128],[80.69823256279265,7.348066592833599],[80.69784680061372,7.347997730685393],[80.69777863665249,7.347951044979887],[80.69775924049588,7.347943954563068],[80.69774760992263,7.347940416702408],[80.69766579983252,7.347911946671816],[80.69764623340241,7.34790479563198],[80.6976307879284,7.34790488968323],[80.69754844917513,7.34787984955878],[80.69752906534254,7.347879963713899],[80.69751743051404,7.347880032205762],[80.69742733451123,7.347865899299955],[80.69741566164029,7.347865966878202],[80.69733441627858,7.347866061096379],[80.69731459762895,7.347866404858541],[80.69730249355486,7.347866750883155],[80.69727097780478,7.347881249441634],[80.69726108268955,7.347893264976439],[80.6971612546045,7.347957724153971],[80.69702891092648,7.348010060810659],[80.69691803879675,7.348027133424177],[80.69683152280427,7.348102716902096],[80.69675478756743,7.348187888610487],[80.69665323562727,7.348267629177913],[80.69654054913646,7.348299893659827],[80.69642444925002,7.348308918735276],[80.69639082055402,7.34831153250907],[80.69625431780716,7.348315577526784],[80.6960625686096,7.348283260558829],[80.69591619151807,7.348289382698727],[80.69580387094734,7.348316400296595],[80.69571908241396,7.348349755645708],[80.69570902781783,7.348356806495289],[80.69570322791421,7.348372721179627],[80.69569878498537,7.348393066286455],[80.69569696792517,7.348428516432373],[80.69569777554905,7.348460527987021],[80.69570139580237,7.348481598889395],[80.69570492577084,7.348501042030751],[80.69571289247916,7.348519401710521],[80.69572792562323,7.348535590524889],[80.69582754541179,7.348628751585392],[80.69591648306216,7.348692973024503],[80.69599948115182,7.348764120340735],[80.69597147600231,7.348794442922568],[80.69591988710907,7.348878780698119],[80.69566793946704,7.349155469250195],[80.69561283660211,7.349191404462932],[80.69540062623129,7.34949934818266],[80.69529430847223,7.349653629235278],[80.69484364081954,7.350177621675952],[80.69483596962895,7.350177913276202],[80.69468624330186,7.350173546298166],[80.69462944810869,7.350185291889258],[80.69460036786155,7.350209251513094],[80.69458668417852,7.350243429847345],[80.69460051955451,7.350375370110942],[80.69462187317986,7.350441918913244],[80.69439225295748,7.350716182727268],[80.69411884266428,7.351065335439147],[80.69384345170484,7.351543049582054],[80.69359173032738,7.351781186533771],[80.69350917718293,7.351854698319336],[80.69331651610375,7.352057835040426],[80.69328652719483,7.35224731250129],[80.69329164485602,7.3523208531324],[80.69329494581517,7.352368292545494],[80.69329504970548,7.35236977833364],[80.69329703986114,7.352398358276514],[80.6933983103263,7.352462349181688],[80.69366559873063,7.352618373528344],[80.69382256295442,7.352692573325677],[80.69397831933537,7.352808646570919],[80.69412209412646,7.352918732892086],[80.69416163358565,7.352940274293961],[80.69424191352057,7.352969001506048],[80.69430661737233,7.35299293938174],[80.69441325923042,7.353033633497919],[80.69445879033549,7.353056372360543],[80.69466846974896,7.353173648890038],[80.6948410043035,7.353281349243741],[80.69491169680778,7.353323233098601],[80.69500754803704,7.353393834013257],[80.69504708736402,7.353416570825284],[80.69512017766256,7.3534429028889],[80.69522678435078,7.353488735052728],[80.69530949455478,7.353518305324195],[80.69534304322215,7.353544630203977],[80.69543528577455,7.353685812989364],[80.69545684387353,7.353755203100115],[80.69547360841841,7.353815022112546],[80.69547357507952,7.353999255639454],[80.69546035770801,7.354194253411181],[80.695460322453,7.354394038223013],[80.69546772953602,7.354602214493309],[80.69547583802859,7.354738580235389],[80.69548899086438,7.3548953018287],[80.69552610183499,7.35509868250856],[80.69557523931958,7.355331209207524],[80.69563794432442,7.355536555917391],[80.69570310011244,7.355708836338113],[80.69587562206088,7.355898364803223],[80.69601364573475,7.356007494541972],[80.69613250263922,7.356091735312662],[80.69621109735908,7.356172141848621],[80.69626860255336,7.356241060868286],[80.69629779980944,7.356298810309508],[80.69632727181656,7.356329680314952],[80.69635530902352,7.356350502359041],[80.69643590561273,7.356410879820167],[80.6965509404754,7.356503808335786],[80.69658161115606,7.356538267713904],[80.69659502418871,7.356579423995779],[80.6966036421077,7.356639720791738],[80.69660937414388,7.356750740296229],[80.69661032189339,7.356810077166632],[80.69662851671819,7.356922055638845],[80.69665534332906,7.35700149703845],[80.69670229950651,7.357101995075952],[80.69675884336809,7.357193882235619],[80.6968134728391,7.357278113224893],[80.69683935087174,7.357303001503012],[80.69691595168547,7.357366231242596],[80.69694670483958,7.357380540945734],[80.69697833803318,7.357392031187981],[80.69702583477303,7.357422895295716],[80.6971387304503,7.357505924788417],[80.69729401301002,7.357611228367036],[80.69743299427188,7.35773471273294],[80.69748571169117,7.357783531729414],[80.69749529276424,7.357812245013492],[80.6974960314821,7.357886460329473],[80.69743882522774,7.358061260938614],[80.69743101361261,7.358091693856911],[80.69743004884401,7.358128062012408],[80.69743100380528,7.358147203547222],[80.69744633924155,7.358172088124993],[80.69747701082824,7.35819219254669],[80.69756040920265,7.358223789069499],[80.69789689705937,7.358204708541087],[80.69798701075422,7.358197066674816],[80.69802727408852,7.358200902529081],[80.69809437184404,7.35823632491983],[80.69826021802326,7.358240181759755],[80.69838004715398,7.358250731414931],[80.69848836787517,7.358288075324865],[80.69860147748,7.358352216325605],[80.69869062086954,7.358413483794294],[80.69873471318932,7.358447945350673],[80.69880084130453,7.358554190616188],[80.69891872987793,7.358697768991267],[80.69908552010135,7.358780104661538],[80.69921683853309,7.358870090893522],[80.69935391401097,7.358940935805301],[80.69947469173734,7.35900412296081],[80.69953603513306,7.35907112690727],[80.69964434513929,7.359172592804754],[80.69978715460921,7.359338188647528],[80.69983124300614,7.359396575221331],[80.69989162167701,7.359485592384869],[80.69999231715815,7.359632204190333],[80.7001197059807,7.359800238010108],[80.700188255051,7.3598952619945],[80.700257267011,7.35995843923366],[80.70038091703961,7.360056079646046],[80.7004715004059,7.360106340742626],[80.70056928306178,7.360109229355343],[80.70068719280232,7.360133654591849],[80.70092156776998,7.360224134284267],[80.70104091145107,7.360270093819592],[80.70112574569733,7.360304561083148],[80.70121920696033,7.360354823416736],[80.70129396573027,7.360449583313304],[80.70131408242686,7.36053859353851],[80.70140897604058,7.360614695605642],[80.70148086706857,7.36066638849971],[80.7015599512034,7.360690807018027],[80.70163759710327,7.360719531569979],[80.70173824458178,7.360789891303394],[80.70179719300853,7.360838711735919],[80.70185182629497,7.36089757824139],[80.70190070620016,7.360970802295542],[80.70196683668756,7.36106412642223],[80.70202146070376,7.361178980971284],[80.70209621643906,7.361293839754871],[80.70214510024469,7.36134409450518],[80.70229893773688,7.361499161677759],[80.70236364266201,7.361532192061205],[80.7024484758258,7.361575273458632],[80.70251173407604,7.361652804295925],[80.70258090952778,7.36173885553017],[80.70264685477873,7.361957170372661],[80.70267272472188,7.362034695937862],[80.70270579114518,7.36208064083324],[80.70275611267421,7.362125151625089],[80.70280644075442,7.3621409517207],[80.70285820687816,7.36214813856779],[80.70291716528826,7.362138097821757],[80.70306097372737,7.362074956766105],[80.70319615350392,7.362021861052693],[80.70332845265867,7.361985994499299],[80.70345787483163,7.361967352587834],[80.70357147481207,7.361967370154248],[80.70372677430697,7.361987494380482],[80.70387919785605,7.362007616279134],[80.7040042970126,7.362042092225204],[80.70409488145066,7.362085173336676],[80.7041998467844,7.362144049481157],[80.70428611452836,7.362207227976573],[80.70434506502295,7.362251741787968],[80.70438963641132,7.362291944281591],[80.70445002029459,7.362362296937918],[80.7044816478167,7.362406806344761],[80.70449170422337,7.362462795119399],[80.70449313409016,7.362521653669559],[80.70448945450266,7.362567698341292],[80.7044644892386,7.362624461004793],[80.70444610751065,7.362658271723988],[80.70431908382596,7.362861860390053],[80.70420689193644,7.363036982163745],[80.7041522302388,7.363144642291621],[80.7041220216697,7.363209238058761],[80.70410763230224,7.363268094960702],[80.70409036624075,7.363337000908386],[80.70408891853126,7.363388681546161],[80.70408603256824,7.363450411462187],[80.70409321688037,7.363493479109622],[80.70412340577542,7.363539423435426],[80.70415934726921,7.363592545228708],[80.704231234921,7.363670079021008],[80.70430025105003,7.363714592649241],[80.7043361979059,7.363734696547191],[80.70449005755188,7.363761996823799],[80.70460653809937,7.36374191828611],[80.70473308681801,7.363716097200473],[80.70485100352434,7.36369314766907],[80.70492578129829,7.363683109185962],[80.70495741836217,7.363674500751691],[80.704988099647,7.363649771167272],[80.70504514650389,7.363602736643423],[80.7050897279335,7.363586952813654],[80.70513430594515,7.363581217585163],[80.7051760072885,7.363585530501363],[80.70523496058796,7.363602765919234],[80.70531548044868,7.363660201888563],[80.70542763192621,7.363732000460067],[80.70548339912231,7.363774393932906],[80.7055170197929,7.363766609592269],[80.70557849290456,7.363762323875064],[80.70571294042178,7.363752953017704],[80.70573704359782,7.36375127300791],[80.70580191812574,7.363746520272021],[80.70582550770995,7.363744792248526],[80.70583804437538,7.363743874547141],[80.705901854187,7.36375299633822],[80.7059146766568,7.36375483047132],[80.7059902147091,7.363783056574473],[80.70606394558949,7.36380025079844],[80.7060995725534,7.363804522886189],[80.70613485531368,7.363808753319278],[80.70614474394304,7.363809940409721],[80.70625217585722,7.363826753747389],[80.70633505074643,7.363839723553634],[80.70636485017629,7.363858175976838],[80.70638139377581,7.363871416642145],[80.70641547815849,7.363898697529823],[80.70648042126648,7.36394779590441],[80.70650233585513,7.363964364331065],[80.70654580999008,7.3639972868062],[80.70659870647935,7.364012669994414],[80.70662370711197,7.36401240259686],[80.70667760973677,7.363977054577211],[80.70668440492022,7.363972958240887],[80.70682445669229,7.363888546209408],[80.70688623562114,7.363874901736327],[80.7069171250545,7.363874093558621],[80.70694959139487,7.363885724300492],[80.70699338979846,7.363901416207855],[80.70701695998598,7.363913788903512],[80.70708685900841,7.363950485452672],[80.70723223393934,7.364031494508312],[80.7072924625124,7.364073826048764],[80.7073310068192,7.364103685720521],[80.70739181983186,7.364150797479346],[80.70746037983189,7.364201113460236],[80.70747522180554,7.36421200535064],[80.70753836292242,7.364258343364932],[80.7075980836874,7.364292868849441],[80.70760171479235,7.364294971005272],[80.70763708750307,7.36431542180337],[80.70765838002922,7.364283775395901],[80.70767556281714,7.364270013646848],[80.70769552318691,7.364254029548024]]]]}},{"type":"Feature","properties":{"GND_N":"Angammana","GND_NO":"728","GND_C":"055","PROVINCE_N":"CENTRAL","PROVINCE_C":"2","DISTRICT_N":"KANDY","DISTRICT_C":"1","DSD_N":"PANVILA","DSD_C":"15","Admin_Code":"2115055","GND_NO_Cen":"728","GND_NAME_C":"Angammana","GND_NO_Gaz":"728","GND_NAME_G":"අංගම්මන","shape_1":"Polygon","Area__Ha_":547.381659371,"MWS_ID":"100-2","Alt_MWS":null,"Area":5.47381659371,"Total_Pop":2006.0,"Density":366.471905965},"geometry":{"type":"MultiPolygon","coordinates":[[[[80.71313819290498,7.373773913955044],[80.71309402386558,7.373782812372263],[80.71303105914934,7.3737820013478],[80.71271058150776,7.37357998635851],[80.71263969087255,7.373495837301222],[80.71256912630983,7.373412078033247],[80.71232840300613,7.372905028666967],[80.71226487407361,7.372778222870069],[80.71223868778607,7.372661097543634],[80.71199247072572,7.371210800516423],[80.71177821037668,7.37066024593963],[80.71161020908652,7.370218819171598],[80.71158360409855,7.370136488566116],[80.71155709509516,7.370054455488103],[80.71133906542761,7.36943785895398],[80.71131536146264,7.369339937679414],[80.71130496836525,7.369281363617979],[80.71106087465883,7.368773133805713],[80.71101207175137,7.36870236775657],[80.71096570094456,7.368613490694477],[80.71089154180783,7.368415341834446],[80.71028693631335,7.367547060562251],[80.71033583182542,7.367522951845688],[80.710360925933,7.367510580170601],[80.71044635266591,7.367460676180642],[80.71051321150753,7.367394130283985],[80.71056431467271,7.367313474043832],[80.71059967074838,7.367246516567006],[80.71061125042488,7.367224587131403],[80.7106541999826,7.367139408171812],[80.71068418052327,7.367068628317669],[80.7106866406923,7.367062820345669],[80.71075703538811,7.366986600704492],[80.7107947390603,7.366982965506545],[80.71081509775703,7.366981000725719],[80.71088454672544,7.366985119131595],[80.71090685880343,7.366986441770661],[80.71097767854664,7.366988783408703],[80.71098653475116,7.366989075887135],[80.7110654698421,7.366978599308284],[80.71110850207033,7.366946774144521],[80.71113450869107,7.366875879737707],[80.71113878127244,7.366790426515688],[80.71113453572755,7.366697100101911],[80.71112612775156,7.366604951387088],[80.71112383984325,7.366591171296811],[80.71110739549863,7.366492180364172],[80.71109947030847,7.366437383921205],[80.71109744150264,7.366423362419766],[80.7110953668041,7.366370096908585],[80.71109347247675,7.366322259949735],[80.71109737991415,7.366243677561055],[80.71110780513665,7.36618101093662],[80.71112883403656,7.366105142139754],[80.71112900804732,7.366104507344938],[80.71113499425883,7.366094654035589],[80.71114804214471,7.366073222164601],[80.71117042056308,7.366041757514091],[80.7112439839024,7.36597575596305],[80.71127162309033,7.365945908964588],[80.71128375577577,7.365932807388559],[80.71133503760339,7.365854774459393],[80.71139972534641,7.365772130623052],[80.71146985028103,7.365692470857889],[80.71151107650799,7.365608286290463],[80.71153005398428,7.36557983788077],[80.71155376178339,7.36554429499928],[80.71157169189671,7.365517415400529],[80.71161590611902,7.365447609660668],[80.71166528597459,7.365367044369767],[80.71168404129803,7.365333769659781],[80.71170243964836,7.365263506221853],[80.71171830576019,7.365183929912623],[80.71172628955736,7.365103360445418],[80.71174287796474,7.365021251288237],[80.71176462877325,7.364950717943889],[80.71179915638929,7.36484736117155],[80.71184953540875,7.364746992685551],[80.7119080647311,7.364673391809816],[80.71196242274561,7.364612267889373],[80.7119630425265,7.364610880778766],[80.71200392176284,7.364519493342635],[80.71203545976,7.364430966677602],[80.71205945450268,7.364383536754077],[80.7119128916729,7.364279316551772],[80.71162641692497,7.364194534879833],[80.71119285294718,7.364145395523424],[80.71085385277729,7.363986131897388],[80.71062594027333,7.363896643115813],[80.71057584735858,7.363634043553151],[80.71058596217655,7.363378866297265],[80.71078796716981,7.36307332130258],[80.71088874590272,7.362805744839746],[80.71089239270866,7.36245367876097],[80.71087839791048,7.362076556401016],[80.71075836609315,7.361777882127116],[80.71065999206061,7.361574099445488],[80.71024003452816,7.360990807833583],[80.71023026424264,7.360912584232785],[80.71021511550387,7.360887676603962],[80.71019440190648,7.360853619325351],[80.71014594944562,7.360808577003408],[80.71008037604146,7.36076488859776],[80.71000990823755,7.360735487436114],[80.70992141546905,7.360695412822695],[80.70982957696161,7.36063499089063],[80.7097972074913,7.36061261816312],[80.70975838749901,7.360585785359347],[80.70968430096859,7.360532510929128],[80.7096051414388,7.360470282232648],[80.70953839610178,7.360401815686813],[80.70936811994966,7.360298788408537],[80.7093307096198,7.360294982935528],[80.7093317843549,7.360370493253155],[80.70931799778504,7.360485971514369],[80.70927040617764,7.360644590791233],[80.70924159780415,7.360740611637149],[80.70920235964098,7.360850385357184],[80.70915840613483,7.360975987275089],[80.70912288037898,7.361088929314702],[80.7090781155936,7.361194002532791],[80.70903996434755,7.361285601729648],[80.7090086975908,7.361387059757877],[80.70898920536273,7.361501358839058],[80.70898620488438,7.361564208307005],[80.70898292939688,7.361660697781447],[80.70898550577498,7.361701107824402],[80.70898898402375,7.361755649535891],[80.70898843293112,7.361812054408525],[80.70898806212689,7.361850239424194],[80.70896710279959,7.36185420977658],[80.70892365780358,7.361862437816765],[80.70885191540454,7.361869117041442],[80.70880901352847,7.361867783059219],[80.7087759188566,7.361866755302275],[80.70870273039776,7.361846034827883],[80.70867133370233,7.361829897331607],[80.70834253465567,7.362420565855936],[80.70820211109755,7.362577770132613],[80.70801150271423,7.362745538907726],[80.7078527030027,7.362894491221061],[80.70787426167537,7.363005088879562],[80.70787513267037,7.363013604827422],[80.7078717686458,7.363142352543053],[80.70782692962159,7.36319668973125],[80.70779299677997,7.363297187789865],[80.70778959642406,7.363308453067162],[80.70777481393263,7.363523728099286],[80.70777194618074,7.363546879606897],[80.70776097292493,7.363736699110752],[80.70774298292349,7.363739669701088],[80.70773627213967,7.363784069009687],[80.70775731002418,7.363800061200539],[80.70775665700594,7.36381135131422],[80.7077589674363,7.363848747279343],[80.70775738778251,7.363901191142436],[80.70775891792961,7.364176799190504],[80.7077528744018,7.364258690067243],[80.70773329617289,7.364251864107507],[80.70769552318691,7.364254029548024],[80.70767556281714,7.364270013646848],[80.70765838002922,7.364283775395901],[80.70763708750307,7.36431542180337],[80.70760171479235,7.364294971005272],[80.7075980836874,7.364292868849441],[80.70753836292242,7.364258343364932],[80.70747522180554,7.36421200535064],[80.70746037983189,7.364201113460236],[80.70739181983186,7.364150797479346],[80.7073310068192,7.364103685720521],[80.7072924625124,7.364073826048764],[80.70723223393934,7.364031494508312],[80.70708685900841,7.363950485452672],[80.70701695998598,7.363913788903512],[80.70699338979846,7.363901416207855],[80.70694959139487,7.363885724300492],[80.7069171250545,7.363874093558621],[80.70688623562114,7.363874901736327],[80.70682445669229,7.363888546209408],[80.70668440492022,7.363972958240887],[80.70667760973677,7.363977054577211],[80.70662370711197,7.36401240259686],[80.70659870647935,7.364012669994414],[80.70654580999008,7.3639972868062],[80.70650233585513,7.363964364331065],[80.70648042126648,7.36394779590441],[80.70641547815849,7.363898697529823],[80.70638139377581,7.363871416642145],[80.70636485017629,7.363858175976838],[80.70633505074643,7.363839723553634],[80.70625217585722,7.363826753747389],[80.70614474394304,7.363809940409721],[80.70613485531368,7.363808753319278],[80.7060995725534,7.363804522886189],[80.70606394558949,7.36380025079844],[80.7059902147091,7.363783056574473],[80.7059146766568,7.36375483047132],[80.705901854187,7.36375299633822],[80.70583804437538,7.363743874547141],[80.70582550770995,7.363744792248526],[80.70580191812574,7.363746520272021],[80.70573704359782,7.36375127300791],[80.70571294042178,7.363752953017704],[80.70557849290456,7.363762323875064],[80.7055170197929,7.363766609592269],[80.70548339912231,7.363774393932906],[80.70549562040698,7.363785881409055],[80.70552940727332,7.36382105687505],[80.70556037743083,7.363870968402207],[80.70558187908766,7.363915096322711],[80.70559168579666,7.363947360662369],[80.7055574580059,7.364813098004088],[80.70552884256588,7.365341911301097],[80.70548917562773,7.365896017069278],[80.70544863683622,7.366332589631324],[80.70529588972559,7.366366447807247],[80.70508411249872,7.36645892786961],[80.70484577830517,7.366551048199139],[80.70468518860051,7.366595274544702],[80.70436774719438,7.366629053558964],[80.70366817149102,7.366694865056891],[80.70322121601977,7.366729372782081],[80.7028171965965,7.366703090887734],[80.70231485597874,7.366564628180426],[80.70192878666897,7.366488845151464],[80.70144393852722,7.366433706767562],[80.70078141760268,7.36620333300409],[80.70027879423652,7.366157781388525],[80.6997820626395,7.366111118829987],[80.69941048484164,7.36603401944975],[80.69911695973079,7.365927491872306],[80.69846975969142,7.366508791683512],[80.69704564027467,7.367146712079212],[80.6966262902351,7.367391782989483],[80.6961066836032,7.367728921503459],[80.69562728671448,7.367996089063887],[80.69526607452323,7.3685211916449],[80.69504393228891,7.368679286606091],[80.69465702658891,7.369062284727453],[80.69421318727194,7.369537487323814],[80.69361538616663,7.370220276038739],[80.69296812748807,7.370583415703677],[80.69244512777058,7.370813116370927],[80.69174910318277,7.371044746975618],[80.6909785457917,7.371163635648112],[80.69049656973677,7.371368971814943],[80.69104092124641,7.37240977516142],[80.69193023359291,7.373397754985841],[80.69282860652511,7.374656089241158],[80.69436705468135,7.376002573236238],[80.69558332840826,7.377048649118498],[80.69674300557315,7.378249253129732],[80.69754666110518,7.379367702635515],[80.69865136285073,7.381719271419779],[80.69919883735835,7.384507339909952],[80.6991111825633,7.386523163200329],[80.69910282430746,7.386715377299578],[80.69910215219048,7.386730834403233],[80.69909731185217,7.386842168412882],[80.69947731657308,7.386968718596157],[80.69953900243674,7.386989261369154],[80.69953665281535,7.386998641281003],[80.69952695246974,7.387037353649576],[80.69944266337407,7.387373682200498],[80.69951520727761,7.387397868467707],[80.6995281384903,7.387445227135347],[80.69956956654694,7.387596973280735],[80.69958706679121,7.387661070441865],[80.6995933607601,7.38768202508565],[80.69960060353253,7.387706140424921],[80.69965211596279,7.387877657221781],[80.69965892960637,7.387900346403351],[80.6997214447554,7.388713482095778],[80.69972850467786,7.388805324127312],[80.69973067119516,7.388833487148278],[80.69975003669387,7.389150121551517],[80.69976292626586,7.389360860278479],[80.69976293078244,7.389360934431958],[80.69980237642274,7.390005890525854],[80.69977871112977,7.390318189545845],[80.69976978794881,7.390435937957255],[80.6998253544012,7.390697710984894],[80.69986204137905,7.390887106844922],[80.6998654972164,7.391124555179882],[80.70039277105478,7.392205440457554],[80.70056957865472,7.392318947629373],[80.70127010810462,7.392768672731505],[80.7017828986786,7.392882517971284],[80.7020319331808,7.392937805073063],[80.70346504782918,7.392978916769017],[80.70354179339891,7.392981118610806],[80.70388689847437,7.393024238505845],[80.70391302863334,7.393073527153356],[80.70396129745465,7.393034322686323],[80.70453395188672,7.393239662612567],[80.7051113240663,7.393646648120118],[80.70929766416639,7.391491639238395],[80.71238340126338,7.38952097043434],[80.7128481301417,7.388841093525232],[80.71284080576027,7.38883775832441],[80.71279064664219,7.388814079290594],[80.7127377248161,7.388789092237803],[80.71264615079832,7.388730208260101],[80.71262350792317,7.388709677388534],[80.71261164169158,7.388692493065047],[80.71260874631776,7.388675039635959],[80.71261228198993,7.388661928675669],[80.71261907735249,7.388652524007526],[80.71261954934155,7.388652304329677],[80.71263339103592,7.388645835124877],[80.71268919327082,7.388634448888084],[80.71276483621351,7.388626774010142],[80.7128074123735,7.388618098778725],[80.71284156705622,7.38860038023634],[80.71286102397445,7.388582971585497],[80.71286521324558,7.388579222947821],[80.71289619974033,7.388538624222385],[80.71295228705048,7.388452724466318],[80.71296889228374,7.388428962688661],[80.71300365934343,7.388379212058021],[80.71303990313758,7.388328215506597],[80.71311736244968,7.388274782272888],[80.71317099021599,7.388272078768928],[80.71322941718167,7.388257226648202],[80.71323712186607,7.388255268116268],[80.71325602221,7.388246651891165],[80.71403906740872,7.387448771040426],[80.71432919612538,7.387217104991847],[80.71478955844657,7.38652653469119],[80.71498779264248,7.38585443899896],[80.71514622484527,7.38533123008169],[80.71515460179135,7.384576831247021],[80.71509152023881,7.384222422303457],[80.71508101780418,7.384215091499075],[80.71506965850891,7.384207162833597],[80.71482773766755,7.383985300793871],[80.71464317259691,7.383644534509681],[80.71464157943836,7.383636219236695],[80.7145654011571,7.383238803432789],[80.71451699367341,7.382986272325747],[80.71453264334995,7.382979116944156],[80.71461076670879,7.382943399694457],[80.71486854371904,7.382825545057235],[80.71493889971828,7.382793378777347],[80.7149836337465,7.382772926908212],[80.71499986621289,7.38251347234355],[80.7150000686656,7.38251022954574],[80.71497295226604,7.382428412749666],[80.71478058701922,7.381847976558918],[80.71472570674732,7.38174948964047],[80.71470484363961,7.381680166615681],[80.71469483854793,7.381646933054006],[80.71466966284947,7.381563285294105],[80.71466879547505,7.381560151769151],[80.71466864875897,7.381559918439065],[80.71453961275189,7.381356000480862],[80.71451608903595,7.381326996272317],[80.7145013976968,7.381308881076996],[80.71448327828918,7.381286541413578],[80.71446525319462,7.381250426535217],[80.71443990178813,7.381199631112301],[80.71440477078302,7.3810902952682],[80.71438883588357,7.381031933950859],[80.71437662305387,7.380987201879515],[80.71436864564711,7.380957990924838],[80.71436456779306,7.380942843306232],[80.71430970962632,7.380739141741131],[80.71429790054478,7.38067689792111],[80.71428771446813,7.380623206307047],[80.71428621225323,7.380612441291164],[80.71428541680238,7.38060674769728],[80.71427232943603,7.38051296889022],[80.71424825250114,7.38039160825817],[80.71421945833897,7.380319079260258],[80.7141850812735,7.380241127290858],[80.71417101151401,7.380209199866454],[80.71414113365066,7.380113068437874],[80.71407078129019,7.379888608243487],[80.71406061200507,7.379838237220953],[80.71405349151495,7.37980297027028],[80.71404698383246,7.379719139689694],[80.71404356375126,7.379573727496034],[80.71404387165391,7.379561392863416],[80.71404664457275,7.379450493303224],[80.7140475728224,7.379413395358386],[80.71407530257528,7.379336532670865],[80.71411635003054,7.379260306655461],[80.71416582009468,7.379190321489717],[80.71426113874583,7.379036241721886],[80.71426589815773,7.379016165075452],[80.71427192378313,7.378990757745973],[80.71427628435659,7.378907563494423],[80.71426773464005,7.378838318112978],[80.7142666036056,7.378829158283382],[80.71424243631375,7.378706801089502],[80.7142199602294,7.378630086047572],[80.7142172657072,7.378620890732719],[80.71416176244344,7.378459554675112],[80.7141163019839,7.378372190988954],[80.71407120189618,7.378299027598954],[80.71404891803654,7.378253733443814],[80.71401478453727,7.378184352461787],[80.71399468692013,7.37810368503578],[80.71398734000154,7.378029577383983],[80.71398555076122,7.378011536313754],[80.71398366433192,7.377911248982146],[80.71399201109037,7.377825069281204],[80.7140107057407,7.377599992074598],[80.71400882114646,7.377480081392223],[80.71400132750942,7.377308714249474],[80.71399915696702,7.377290267094045],[80.71399110678142,7.377212134294234],[80.71396929877132,7.377061745859059],[80.71396702590722,7.377049509433935],[80.71394558351128,7.376934053323062],[80.7139150842528,7.376826765408893],[80.71391226574752,7.37681685115431],[80.71386491491117,7.376665553938172],[80.71379555957286,7.376441638200153],[80.71375318515435,7.376318737648843],[80.7136979512541,7.376171146946504],[80.7136676199934,7.376074562353022],[80.71364082272662,7.375963058176286],[80.71363318602678,7.375921156278368],[80.71363156038754,7.375912242346869],[80.71361647707157,7.37582949028011],[80.71359149927362,7.375669333105158],[80.71357467340977,7.375520301793935],[80.71354915622943,7.375337538800359],[80.71353335326481,7.375270794579952],[80.71352172736992,7.3752216929713],[80.71347926635774,7.37507184327579],[80.71345690032807,7.37497489263729],[80.713448578024,7.374938816151101],[80.71343016964707,7.374848127453771],[80.71343011261945,7.374847841686335],[80.7134303014212,7.374793764458808],[80.71341862506651,7.374736519600821],[80.71339734788062,7.37467167815938],[80.71333216354473,7.374473547281474],[80.71331984307739,7.374436095689973],[80.71331162036248,7.374406947975868],[80.713271497295,7.374264722755396],[80.71321364668144,7.374047862085703],[80.7131990719925,7.373994868839032],[80.71317097657432,7.373892034889396],[80.71316772810998,7.373880147381546],[80.71315108924114,7.373819245720921],[80.71313819290498,7.373773913955044]]]]}}]}