{"type":"FeatureCollection","name":"SED_PPL_MWS_158","crs":{"type":"name","properties":{"name":"urn:ogc:def:crs:OGC:1.3:CRS84"}},"features":[{"type":"Feature","properties":{"GND_N":"Great Western","GND_NO":"475Z","GND_C":"025","PROVINCE_N":"CENTRAL","PROVINCE_C":"2","DISTRICT_N":"NUWARA ELIYA","DISTRICT_C":"3","DSD_N":"THALAWAKELE","DSD_C":"12","Admin_Code":"2312025","GND_NO_Cen":"475Z","GND_NAME_C":"Great Western","GND_NO_Gaz":"475Z","GND_NAME_G":"ග්‍රේට්","shape_1":"Polygon","Area__Ha_":896.821783207,"MWS_ID":"158","Alt_MWS":null,"Area":8.96821783207,"Tot_Pop":0.0,"PopDensity":0.0},"geometry":{"type":"MultiPolygon","coordinates":[[[[80.67092422894358,6.977258004604545],[80.67378843892942,6.975263736594522],[80.67634469874368,6.973701168778939],[80.67976045293517,6.973220477886715],[80.68241083702208,6.972540045582142],[80.68588163981786,6.97237606732982],[80.68763012984792,6.972120143302894],[80.68919244192742,6.971788383938861],[80.69136252170863,6.970570561617123],[80.6932326490057,6.969601512873414],[80.69449807344468,6.969166193260017],[80.69433774041713,6.968262041382182],[80.69472805152247,6.963859030794092],[80.69470506793735,6.962905632647455],[80.69464524877793,6.960424169689204],[80.69503386702414,6.955986069454656],[80.69489987117258,6.95550127491984],[80.69489969595426,6.955473024897869],[80.6947640831656,6.953700916950435],[80.69456724306995,6.953171775423151],[80.69437607784302,6.952611161806971],[80.69423078243369,6.952076314677783],[80.69414762535051,6.951845948676468],[80.69411877050372,6.951766012780894],[80.69398334232048,6.95147297834749],[80.69396028829912,6.951425891906529],[80.693790665036,6.950960346426229],[80.69365529800513,6.950687469157564],[80.69372535816558,6.950603516368514],[80.6935787597079,6.950379813032626],[80.69346296410751,6.950279470389686],[80.69332399278167,6.950094342910193],[80.69312339776292,6.949747275511985],[80.69310461407001,6.94972378886844],[80.692999976448,6.949592954466286],[80.69293822610867,6.949353864438582],[80.6929460432092,6.949130189028244],[80.69298397207572,6.949026034532563],[80.69303870858869,6.948875723878119],[80.69303873310245,6.948736826926178],[80.69286922749433,6.948476155316407],[80.69288811230116,6.948408551815818],[80.69288253409563,6.948397132004102],[80.69289218382688,6.948245108760411],[80.6930429268191,6.948008895754982],[80.69326043693182,6.947967260328736],[80.69328380479787,6.947967800695473],[80.69356688812685,6.948046016906716],[80.69400565636231,6.948224475741868],[80.69416098683422,6.948301892523007],[80.6942429199025,6.948089177630747],[80.69398824924396,6.948081361623218],[80.69387244465766,6.948035137099825],[80.6937798405924,6.947942570286771],[80.69371043162566,6.947819203715278],[80.69366406895445,6.947718870534753],[80.6935482708211,6.947641701969443],[80.69327917747158,6.947556731140007],[80.69325501085606,6.947549099872917],[80.69320100920326,6.947464308728209],[80.69319281209552,6.947410892820414],[80.69318561477033,6.947363983658578],[80.6932396372185,6.947325418554162],[80.69333225823591,6.947325435728864],[80.69350985443589,6.947379443828781],[80.69364094279159,6.947340890364984],[80.69388038974125,6.947086450674127],[80.6939266722516,6.946831979035547],[80.69397750550044,6.946730432940437],[80.69398848873827,6.946708493376882],[80.6941583394709,6.946577396764565],[80.69423554869036,6.946569780443709],[80.69428180951724,6.946438662308539],[80.69437445180364,6.946315181944466],[80.69439282862307,6.94625789836792],[80.69443627830559,6.946122460703236],[80.69441693790448,6.945948940354335],[80.69421250844945,6.945705869320516],[80.69401951238667,6.945574709592963],[80.69394232887092,6.945435940245853],[80.693942345926,6.945343387780053],[80.69388073098588,6.945127332655755],[80.69378036389178,6.944949981918104],[80.69355022583657,6.944796612688783],[80.69350253470017,6.944764831109865],[80.69339450803717,6.944726236665367],[80.69332790578773,6.944732866294833],[80.69332879454404,6.944737707267389],[80.69332371469575,6.944733284258639],[80.69324009195839,6.944741613719495],[80.69313967854433,6.944834144918158],[80.69307021717317,6.945011465014314],[80.69296216596686,6.945111768349527],[80.69283094792688,6.945073168783396],[80.69276765035559,6.945009897816882],[80.69271515649947,6.944957426314132],[80.6926419170667,6.944922794241339],[80.69255563064316,6.944861113491196],[80.69240016494086,6.945002453499987],[80.69229317145896,6.945021812233465],[80.6920170384222,6.94507177369851],[80.69154293494006,6.945074081760581],[80.69110477074989,6.944944797608253],[80.69065943986683,6.944717413106403],[80.6902380310981,6.944628807432957],[80.68982615882055,6.944765114341423],[80.68941907242203,6.94491338680408],[80.68905271047083,6.944963565073791],[80.68872467236568,6.944944361814865],[80.68861214938572,6.94485581181252],[80.6882913357799,6.944614093028256],[80.68806392642874,6.94427189728417],[80.68764626254519,6.94377825487577],[80.68729543878491,6.943561127253576],[80.68707036919372,6.943510838200564],[80.68683329264111,6.943639997891422],[80.6866991707749,6.943809853217568],[80.68660090198163,6.944321867753622],[80.6865145746339,6.944984623527896],[80.68642825249303,6.945623453718165],[80.68645268127905,6.946278092521706],[80.68640234495011,6.946499367811122],[80.6863221087913,6.946618986610456],[80.68610297114827,6.946842661415112],[80.68586993574341,6.947011896213979],[80.6855545770166,6.947153605739878],[80.68536420374872,6.947219366440699],[80.68521334175692,6.947265994785712],[80.68479429470796,6.947340984015041],[80.68455782821287,6.947400755208453],[80.68382745307916,6.947705680088069],[80.68349220484323,6.947816275790782],[80.68321083275143,6.947917909223064],[80.68283227877109,6.948176694664116],[80.68257320086882,6.948429217586458],[80.6823876218925,6.948465071325493],[80.68207934861456,6.948387248572213],[80.68172607630295,6.948295315587245],[80.6810095470671,6.948273753816852],[80.68085215508545,6.94827402500892],[80.68038229513975,6.948216428841854],[80.6799542864437,6.948192414451763],[80.67946636759523,6.948407656379091],[80.67919992705927,6.94867079623211],[80.67906520517046,6.948829283718979],[80.6789993007147,6.949095455238304],[80.67891840698286,6.949487240649922],[80.6787837353814,6.949834360633095],[80.6787032525433,6.949970726010813],[80.6784848232361,6.950219041813409],[80.6782922383587,6.950547755823621],[80.67812119388546,6.950916671151148],[80.67793271681488,6.95118205014432],[80.67781583839594,6.951198704133978],[80.6776973139171,6.951184323372288],[80.6775595782628,6.951099586258271],[80.67661667021571,6.951116054879887],[80.67590018003615,6.95112637882116],[80.6751651669863,6.951040228713768],[80.67449711005148,6.951004194717332],[80.67408406395528,6.950986160283199],[80.67375734817149,6.950888186263318],[80.67364772880791,6.950779645244025],[80.67345607079731,6.950975061002172],[80.67317863896353,6.951257930813936],[80.67305435742189,6.951353261267675],[80.6727927997558,6.951553889330619],[80.67241714793144,6.951750187625931],[80.67241647996072,6.951750537450035],[80.67241591222951,6.95175186848083],[80.67232108079476,6.951725308615038],[80.67225928185232,6.951740694639313],[80.67238651316553,6.951920247773577],[80.67238922314995,6.951959534641229],[80.67238722108539,6.952013832145686],[80.6723827854109,6.952134100895753],[80.67235179323757,6.952242046997948],[80.67220510054061,6.952481235658613],[80.67202754990365,6.952866803874024],[80.67201194519811,6.953090477058912],[80.67204289479196,6.953167633936121],[80.67211231084904,6.953244798390559],[80.67189046793337,6.953290431927957],[80.67178541008902,6.953560023752655],[80.67156877046374,6.953704984911226],[80.67150154967383,6.953812525918901],[80.6715037148199,6.953965690663236],[80.67151756887,6.954131977838151],[80.67153449822078,6.954249059967638],[80.67171826787148,6.954223789740412],[80.67173638295337,6.954221954368271],[80.67179562689705,6.954208815082603],[80.67183233438823,6.954211560570267],[80.6721044572673,6.954231915360451],[80.67230511929237,6.954208927510578],[80.67236676877877,6.954224343414152],[80.67238231390684,6.954270551131097],[80.67205025523823,6.954424778059018],[80.6714558921973,6.954540371135954],[80.67117418626572,6.954636675320318],[80.6713401643939,6.954794825814054],[80.67148678705264,6.954872007504569],[80.67156397137404,6.95497997752712],[80.67160241038452,6.955087938951232],[80.6715869423314,6.955334786167834],[80.67165648429769,6.955473698416522],[80.6718030997668,6.955584510672451],[80.67190834702326,6.955552931665223],[80.67191114305466,6.955550905707654],[80.67212723177049,6.955473802470184],[80.67228801722082,6.955485720634993],[80.6723995472288,6.955584641344563],[80.67251704584471,6.955716447037278],[80.67259729107747,6.955796584481078],[80.6726218774246,6.955813665201838],[80.67266321119412,6.955842381832507],[80.6727529887538,6.955845214854887],[80.67278175529383,6.955846122765098],[80.67278974188123,6.955846811796772],[80.6727959941169,6.955853205787442],[80.6728921555187,6.955951522547149],[80.67294624868296,6.955953223652378],[80.6729459569086,6.956925205736163],[80.67233252534477,6.957818878551367],[80.67221025286597,6.958000171777966],[80.67202629580264,6.958272925770284],[80.67155381378765,6.959183176689397],[80.67155071570815,6.959188143417258],[80.67039505584619,6.961041320048145],[80.66998214730917,6.961703443355264],[80.66899556706542,6.962752649411648],[80.66865511221373,6.963114715618532],[80.66817473985046,6.963625577513016],[80.66771438515681,6.964115149546711],[80.66722005305442,6.963368831976349],[80.66667888487083,6.962551797172389],[80.6665367960515,6.962337278220862],[80.66610485334283,6.96168514685881],[80.66400086942521,6.958508593459944],[80.66372201066751,6.958096134925022],[80.66344849462284,6.957691577617633],[80.66342814801284,6.957661483409979],[80.66342530183975,6.957657274037624],[80.662484459056,6.958155330614148],[80.66245578743471,6.958165654622528],[80.66209120209116,6.958214812994538],[80.66188427900553,6.95829676276829],[80.66184539209621,6.958304745700316],[80.66177562055998,6.958320204364775],[80.66161348068765,6.958356130614026],[80.66160955331613,6.958406562520628],[80.66124985397921,6.958666812545609],[80.6607060182255,6.958613542073735],[80.6603989573828,6.958613780613979],[80.66029822236429,6.958629307421686],[80.66022185587069,6.958641077334777],[80.65990079578619,6.958745640454007],[80.6597005428696,6.95892323780425],[80.65953735377666,6.959152658883244],[80.65949333303297,6.959206338201848],[80.65940384033082,6.959315467119357],[80.65935929268076,6.959544917483413],[80.65934049178719,6.959796711751943],[80.65924788017118,6.960292485101436],[80.65918108140355,6.960544134517992],[80.65911427888273,6.960810587588536],[80.65881314377522,6.961674386795188],[80.65872896967505,6.961858069675371],[80.65860937428826,6.962057762777465],[80.65874452183135,6.962147457661306],[80.65876292969975,6.962159671427119],[80.65889917337786,6.962299864498559],[80.65891011625841,6.962331662096783],[80.6590955695912,6.962476609585226],[80.65907421295877,6.962537853663205],[80.6590085914603,6.962930275608461],[80.65905948386664,6.963213714715951],[80.65913222909401,6.963446287802142],[80.65933057243352,6.963638205902844],[80.65956672001577,6.963880599578676],[80.65982253510985,6.964188494043075],[80.66009805036143,6.964437446234205],[80.66020298479837,6.964624971303564],[80.66030789805909,6.964902518370094],[80.66034721365865,6.96511866698469],[80.66033420150987,6.96536346686606],[80.66028600316147,6.96547016439889],[80.66026179678971,6.965596764605007],[80.66014667889095,6.965749869664871],[80.66028861091567,6.965814145440598],[80.66036847418393,6.965878049625757],[80.66046914342542,6.966014855881406],[80.66057471344286,6.966229149700356],[80.66064282110955,6.966378815453827],[80.66068708175519,6.966511467868294],[80.66071409254883,6.966577505888303],[80.66073363406635,6.966625282112972],[80.66078648617824,6.966754504740083],[80.66091648253918,6.9669795558835],[80.66104356614994,6.967302689377625],[80.66102093105752,6.967503078626753],[80.66100239282332,6.967678473559951],[80.66093761517786,6.96784001028616],[80.6608404946855,6.967899991553354],[80.6606740287765,6.967899951679001],[80.66052140393855,6.968019923395856],[80.6602855658116,6.96806140794596],[80.659952604943,6.968167488186586],[80.65960117172351,6.968176631725151],[80.65940694857564,6.968222742665331],[80.6591869298004,6.968226174226537],[80.65911563077104,6.968227286913401],[80.65922391993276,6.968301021038447],[80.65924986946887,6.968310601479392],[80.65925002870196,6.968310815841971],[80.65925073369895,6.968310921821957],[80.65943329539098,6.968378318788408],[80.65969681312355,6.968410965635382],[80.65982529877719,6.968435262912125],[80.65992946906769,6.968476885384102],[80.66003015819143,6.968553172145852],[80.66012389444673,6.968664121440066],[80.66019680005672,6.968750800963559],[80.66024540749699,6.968792410589438],[80.66030097306319,6.968785491768186],[80.66035654711193,6.968740442430267],[80.66040865022926,6.968688458836757],[80.66042950651787,6.968608733073324],[80.66044341834728,6.968522074919698],[80.66047592244351,6.968464428193401],[80.66050595379903,6.968411164080449],[80.66055458258738,6.968369578353871],[80.66062056852924,6.968352262409329],[80.660710858585,6.96835228364194],[80.6607768309123,6.968390430319228],[80.66086015872855,6.968459781065993],[80.6608981271559,6.968617236415257],[80.66092954165106,6.968747515441274],[80.6609885034264,6.969052578485242],[80.66101625051611,6.969191243239955],[80.66095369294086,6.969388814803527],[80.6608840659211,6.969527856348175],[80.66089202633972,6.969595547302089],[80.66096379742727,6.969715016952307],[80.66106345865998,6.969965891520866],[80.66106905660186,6.970068311269825],[80.66107934427113,6.970256563568777],[80.66106734183798,6.970399902959866],[80.66114310445657,6.970511410144741],[80.66128269642648,6.970599041751865],[80.66150006767937,6.970705198198355],[80.66160374695882,6.970840603247838],[80.66172338993361,6.970944155792918],[80.66183781783913,6.970963223974306],[80.66184305329257,6.970964095197953],[80.66201058340384,6.970984045274641],[80.66216613252793,6.971067699689947],[80.66232170002729,6.971075700738062],[80.66242140754075,6.971139432131462],[80.66255301627628,6.971246970874151],[80.66256769454351,6.971264480176908],[80.66269657706908,6.971418219759221],[80.66280824824251,6.971497881683705],[80.66289894526291,6.971505449127934],[80.66299971430394,6.971513855468516],[80.66307746960332,6.971602602081293],[80.66311137406113,6.971641297793309],[80.6631498679313,6.971766851504433],[80.66310043615175,6.971835140863164],[80.66310420265414,6.97197932601062],[80.66306463223938,6.972325800896717],[80.66299004934254,6.972461182681768],[80.66299002284715,6.972571221727955],[80.6629545433792,6.972638472648634],[80.66295199360921,6.972643304703342],[80.66282274317531,6.972677422406742],[80.66276499965042,6.972691817881754],[80.66268589034591,6.972711540050605],[80.66255280108254,6.972901225430292],[80.66251021857212,6.97295041901643],[80.66252166813847,6.972954834845364],[80.66260053485941,6.973115230803419],[80.66393231253008,6.975823711504964],[80.66525596480885,6.976127064532527],[80.6656430265446,6.976272616732754],[80.66711781917981,6.976827202008233],[80.66879834687664,6.977183521230369],[80.66886640121282,6.977176781513437],[80.67028523662118,6.977702909774758],[80.67092422894358,6.977258004604545]]]]}},{"type":"Feature","properties":{"GND_N":"Watagoda","GND_NO":"475D","GND_C":"015","PROVINCE_N":"CENTRAL","PROVINCE_C":"2","DISTRICT_N":"NUWARA ELIYA","DISTRICT_C":"3","DSD_N":"THALAWAKELE","DSD_C":"12","Admin_Code":"2312015","GND_NO_Cen":"475D","GND_NAME_C":"Watagoda","GND_NO_Gaz":"475D","GND_NAME_G":"වටගොඩ","shape_1":"Polygon","Area__Ha_":557.930705643,"MWS_ID":"158","Alt_MWS":null,"Area":5.57930705643,"Tot_Pop":0.0,"PopDensity":0.0},"geometry":{"type":"MultiPolygon","coordinates":[[[[80.65665500972304,6.973293277654645],[80.65690955015174,6.97328652998112],[80.6574171196796,6.973344241523088],[80.65747511632755,6.973145531712989],[80.65771851356651,6.972916824465985],[80.65786170843386,6.972864763702113],[80.65791066995483,6.972913569299186],[80.65803582655752,6.972925499712618],[80.65818485192017,6.972818449734537],[80.65835174716042,6.972759001067405],[80.65853055196139,6.972735247782425],[80.65866388891804,6.972665172134342],[80.65875424867761,6.972617682792702],[80.65911010696017,6.972675169268256],[80.65911464286198,6.972675901987936],[80.65923383470361,6.972711626784523],[80.65932917609517,6.972783042622109],[80.65943646150224,6.972759271240503],[80.65953882311358,6.972682157506579],[80.65972855499756,6.972539222984462],[80.65975913828781,6.972458710205171],[80.65980814618192,6.972397591427271],[80.65986530605716,6.972397604645177],[80.65988258220688,6.972409549507378],[80.65997143965097,6.972470989908637],[80.66002932514763,6.972490264323324],[80.66006941984327,6.972503614688617],[80.66013474494113,6.972507706546278],[80.66022865988405,6.972458826052454],[80.66029399703287,6.972414010644779],[80.66033853263978,6.972383862646677],[80.6604083349514,6.972336607570822],[80.66041087901085,6.972333011729455],[80.66050635635582,6.972198067758361],[80.66059212383392,6.972079899168001],[80.66065337233218,6.972055461478364],[80.66067360187697,6.97207015525444],[80.66069827529982,6.972088075816604],[80.66078400860468,6.972112548648532],[80.66080975438143,6.972112555861161],[80.66086158170664,6.97211256855581],[80.66092282919658,6.972092206585597],[80.66100041327837,6.972047395883674],[80.66115560623288,6.971859962662284],[80.6613026209126,6.971721434640926],[80.66140470277698,6.971668479240305],[80.66153944743326,6.971623683279314],[80.66163335493209,6.971611479770038],[80.66163444085862,6.971611991877372],[80.6617803179184,6.971680796997087],[80.66195583835787,6.971852008648946],[80.66204561583763,6.972031349163095],[80.66209050686565,6.972121018509895],[80.6621558183443,6.972169940674881],[80.66220824326662,6.97218008261674],[80.66228238008246,6.972194423121014],[80.66235586076334,6.972231120874264],[80.66236950222854,6.972243421972928],[80.66243116118922,6.972299024308448],[80.66251504122465,6.972439006547167],[80.66252318091628,6.972544969999486],[80.662429235859,6.972707963941563],[80.66236654924728,6.972863236226138],[80.66236652811725,6.972950508195622],[80.66240453083678,6.972988460694892],[80.66248055556717,6.97298468545207],[80.66251021857212,6.97295041901643],[80.66255280108254,6.972901225430292],[80.66268589034591,6.972711540050605],[80.66276499965042,6.972691817881754],[80.66282274317531,6.972677422406742],[80.66295199360921,6.972643304703342],[80.6629545433792,6.972638472648634],[80.66299002284715,6.972571221727955],[80.66299004934254,6.972461182681768],[80.66306463223938,6.972325800896717],[80.66310420265414,6.97197932601062],[80.66310043615175,6.971835140863164],[80.6631498679313,6.971766851504433],[80.66311137406113,6.971641297793309],[80.66307746960332,6.971602602081293],[80.66299971430394,6.971513855468516],[80.66289894526291,6.971505449127934],[80.66280824824251,6.971497881683705],[80.66269657706908,6.971418219759221],[80.66256769454351,6.971264480176908],[80.66255301627628,6.971246970874151],[80.66242140754075,6.971139432131462],[80.66232170002729,6.971075700738062],[80.66216613252793,6.971067699689947],[80.66201058340384,6.970984045274641],[80.66184305329257,6.970964095197953],[80.66183781783913,6.970963223974306],[80.66172338993361,6.970944155792918],[80.66160374695882,6.970840603247838],[80.66150006767937,6.970705198198355],[80.66128269642648,6.970599041751865],[80.66114310445657,6.970511410144741],[80.66106734183798,6.970399902959866],[80.66107934427113,6.970256563568777],[80.66106905660186,6.970068311269825],[80.66106345865998,6.969965891520866],[80.66096379742727,6.969715016952307],[80.66089202633972,6.969595547302089],[80.6608840659211,6.969527856348175],[80.66095369294086,6.969388814803527],[80.66101625051611,6.969191243239955],[80.6609885034264,6.969052578485242],[80.66092954165106,6.968747515441274],[80.6608981271559,6.968617236415257],[80.66086015872855,6.968459781065993],[80.6607768309123,6.968390430319228],[80.660710858585,6.96835228364194],[80.66062056852924,6.968352262409329],[80.66055458258738,6.968369578353871],[80.66050595379903,6.968411164080449],[80.66047592244351,6.968464428193401],[80.66044341834728,6.968522074919698],[80.66042950651787,6.968608733073324],[80.66040865022926,6.968688458836757],[80.66035654711193,6.968740442430267],[80.66030097306319,6.968785491768186],[80.66024540749699,6.968792410589438],[80.66019680005672,6.968750800963559],[80.66012389444673,6.968664121440066],[80.66003015819143,6.968553172145852],[80.65992946906769,6.968476885384102],[80.65982529877719,6.968435262912125],[80.65969681312355,6.968410965635382],[80.65943329539098,6.968378318788408],[80.65925073369895,6.968310921821957],[80.65925002870196,6.968310815841971],[80.65924986946887,6.968310601479392],[80.65922391993276,6.968301021038447],[80.65911563077104,6.968227286913401],[80.6591869298004,6.968226174226537],[80.65940694857564,6.968222742665331],[80.65960117172351,6.968176631725151],[80.659952604943,6.968167488186586],[80.6602855658116,6.96806140794596],[80.66052140393855,6.968019923395856],[80.6606740287765,6.967899951679001],[80.6608404946855,6.967899991553354],[80.66093761517786,6.96784001028616],[80.66100239282332,6.967678473559951],[80.66102093105752,6.967503078626753],[80.66104356614994,6.967302689377625],[80.66091648253918,6.9669795558835],[80.66078648617824,6.966754504740083],[80.66073363406635,6.966625282112972],[80.66071409254883,6.966577505888303],[80.66068708175519,6.966511467868294],[80.66064282110955,6.966378815453827],[80.66057471344286,6.966229149700356],[80.66046914342542,6.966014855881406],[80.66036847418393,6.965878049625757],[80.66028861091567,6.965814145440598],[80.66014667889095,6.965749869664871],[80.66026179678971,6.965596764605007],[80.66028600316147,6.96547016439889],[80.66033420150987,6.96536346686606],[80.66034721365865,6.96511866698469],[80.66030789805909,6.964902518370094],[80.66020298479837,6.964624971303564],[80.66009805036143,6.964437446234205],[80.65982253510985,6.964188494043075],[80.65956672001577,6.963880599578676],[80.65933057243352,6.963638205902844],[80.65913222909401,6.963446287802142],[80.65905948386664,6.963213714715951],[80.6590085914603,6.962930275608461],[80.65907421295877,6.962537853663205],[80.6590955695912,6.962476609585226],[80.65891011625841,6.962331662096783],[80.65889917337786,6.962299864498559],[80.65876292969975,6.962159671427119],[80.65874452183135,6.962147457661306],[80.65860937428826,6.962057762777465],[80.65855179139152,6.962013556261105],[80.65849868406796,6.961957615534702],[80.6584367604353,6.961871030728477],[80.65842854370477,6.961693770813595],[80.65842858089813,6.96154503963429],[80.65842859512189,6.961491778990683],[80.65840014115753,6.961408688676022],[80.65839902479445,6.961403329415361],[80.65839748052315,6.961400918120885],[80.65837494923848,6.961335120726874],[80.65830064304322,6.961223800646525],[80.65826532103138,6.961194401517973],[80.65820155194838,6.961141327490155],[80.65815613428893,6.96111246118369],[80.65802057091936,6.960975571540315],[80.65797722850739,6.960899814192968],[80.65787971696383,6.960697799715451],[80.65777856817793,6.960585954646979],[80.6575617730467,6.960539010442439],[80.65738610978471,6.960407896353233],[80.65731812824313,6.960343235943274],[80.65728256409183,6.960129897719995],[80.65719195229634,6.959923010572425],[80.6571887376378,6.959822810543812],[80.65721465281479,6.959787263860533],[80.6572368263056,6.959774526722173],[80.65732152220403,6.959725877733007],[80.65736703655519,6.959725888294078],[80.6574154243441,6.959725900478507],[80.65752551801175,6.959719465029474],[80.65759352146608,6.959696855215245],[80.65774248912447,6.959619317619692],[80.65786880766346,6.959477133721436],[80.65799187489876,6.959383428500367],[80.65814407650242,6.959322052633272],[80.65825741379552,6.959289759784514],[80.65835289574053,6.9591606345182],[80.65843950912996,6.959039655818152],[80.65847238144481,6.958955435937313],[80.65854687682568,6.958764583043935],[80.65871691352248,6.958658955063488],[80.65864893109142,6.958569091525948],[80.65862282089391,6.958534578092691],[80.65860624442738,6.958404695049461],[80.65858966546973,6.958277574692953],[80.6585343268444,6.958167025325058],[80.65842232480927,6.958014387558893],[80.6583035177879,6.95795313834424],[80.65805440401532,6.957815331382317],[80.6580544443072,6.957654630641279],[80.65814268327546,6.957337074668358],[80.65814190359376,6.957306412699934],[80.65835871686811,6.957275142245757],[80.65877868101114,6.957097243859096],[80.65908360615484,6.956884859368343],[80.65938856660759,6.956528922482735],[80.65957272907393,6.956172960078428],[80.65965332129998,6.955931809457454],[80.65967637809315,6.955742324536359],[80.65961889344139,6.955581656593824],[80.65952509543736,6.955358012971319],[80.65921800294896,6.955027560980402],[80.6590843248931,6.954935681770168],[80.65897853726301,6.954862972833213],[80.65875275381353,6.954828658473212],[80.65861175218426,6.954807228136602],[80.65862737494226,6.954529577723752],[80.65856182617867,6.95427126671189],[80.65855791393949,6.954082207381346],[80.65848852479164,6.953920259437693],[80.65831875528934,6.953673367434362],[80.65817219116877,6.953372645360374],[80.65795272378244,6.953124836485037],[80.65793299749602,6.953102563638768],[80.65780950752954,6.953264460635287],[80.65773228984234,6.953303015823733],[80.6575546812122,6.953302971234171],[80.6574743718881,6.953266462756784],[80.65738487056353,6.953225777625292],[80.65731546456219,6.953125579901881],[80.65723069396337,6.952840133446378],[80.65705317319286,6.952493056976195],[80.65701770196898,6.952315667114291],[80.65699235312962,6.95218889805447],[80.65697606281246,6.952107431240936],[80.65704568578263,6.95190680252629],[80.65710735388802,6.951845213277867],[80.65721545679897,6.951582986719665],[80.65724044266504,6.95143386205866],[80.65711059061722,6.951388322287085],[80.6570219144299,6.951367964540743],[80.6567723985573,6.951310686275687],[80.656750511135,6.951310319014611],[80.6567016682401,6.951331133086653],[80.65667645754304,6.951341874518437],[80.65653329005738,6.951122338778877],[80.65650873388252,6.950882653224388],[80.65636120806087,6.95089132439808],[80.65628894249829,6.950895570820339],[80.65607652640632,6.950921000513946],[80.65597416020732,6.950933255100886],[80.65560191529099,6.950901377087009],[80.65558219849981,6.950895853909712],[80.65529469222882,6.950766871808056],[80.65529052172369,6.950764327800748],[80.65526692294539,6.950749932265207],[80.65514368626995,6.950576177752039],[80.65528757838348,6.950055695942811],[80.65535168884077,6.949535700996784],[80.65530331156583,6.94921619966705],[80.65519306291904,6.949201210422125],[80.65507926861537,6.949185737337416],[80.65493780220936,6.949166501495499],[80.6549649237767,6.94938980698997],[80.65498279316685,6.949734356440117],[80.65492878506576,6.949989308491241],[80.65474126469348,6.950188154944949],[80.65444696480434,6.95043958065849],[80.65424219534633,6.950597444230821],[80.65413083718161,6.950651249472497],[80.65381472880544,6.950791139709047],[80.65351661088616,6.95080541932681],[80.65331907258765,6.950776655920055],[80.6529647551613,6.950623687012705],[80.65258777267707,6.950430876744792],[80.65199842004309,6.949825861546632],[80.65184283636056,6.949604498957051],[80.65160940187826,6.949496765852769],[80.65118044169412,6.949555188102482],[80.65091091430499,6.949777590480588],[80.6505852300372,6.950222466902454],[80.6502261084344,6.951384322824025],[80.64989395265256,6.951974037817967],[80.64985683764694,6.95203431147128],[80.64908342855556,6.952534898435506],[80.64836952908882,6.952468510694849],[80.64823821689963,6.952343185653259],[80.64807597132827,6.951536189849566],[80.64792745763324,6.951062983800423],[80.64770511712015,6.950874643694703],[80.64718532454785,6.950728312891644],[80.64673973427414,6.95073059198032],[80.64597526663084,6.951158453877482],[80.64582624206398,6.951241858620747],[80.64510776766902,6.951696269850334],[80.64447309152983,6.952180610893355],[80.64382046019846,6.952646998951693],[80.64362885067933,6.952820414874793],[80.64346277518862,6.953118133511635],[80.6433054510087,6.953328767942327],[80.64288036871595,6.953532025369237],[80.64156937174407,6.953555580863597],[80.64059351714756,6.953884293923495],[80.64042583181778,6.954129494601911],[80.64018714660371,6.954917358749472],[80.64013022936444,6.955021732133681],[80.63995427441205,6.955482674835952],[80.6397578502482,6.955741026566129],[80.63946563788406,6.956023278696862],[80.63889558295868,6.956568642187428],[80.638464479104,6.956884350047903],[80.6378705099025,6.957314857993811],[80.63694597191422,6.958171163685734],[80.63573254746788,6.958886502706388],[80.63525040991945,6.958960243447263],[80.63489123824999,6.958936209678178],[80.63452364618931,6.958810297371814],[80.63439652920017,6.958810515129437],[80.63423598990482,6.958810789723423],[80.63383768252923,6.958811473721979],[80.6332873126689,6.958975267190977],[80.63312263037541,6.959123892306287],[80.63309292398733,6.959148007743257],[80.63289276270801,6.959500170910787],[80.63280167056493,6.960054154406157],[80.6328492994823,6.960915531717989],[80.63284910386405,6.961561553319937],[80.63247232228709,6.962124899023011],[80.63238896312325,6.962128372425938],[80.63204473142312,6.962227768379467],[80.6317164995086,6.962238600275196],[80.63057607689015,6.962304177987229],[80.62980166046925,6.962397953773839],[80.62931044318096,6.96278733789118],[80.62915309392169,6.963123216889981],[80.62921436311147,6.963744376136488],[80.62940994443065,6.964593577782424],[80.62935575175932,6.964926082341517],[80.62924065094539,6.965442863845099],[80.62914003169983,6.965595964789436],[80.62880472130405,6.96582555541768],[80.62859444507656,6.965980272336538],[80.62906173889193,6.966037755566492],[80.63089618159343,6.96626341476764],[80.63098086978763,6.966345997643964],[80.63108905397863,6.966353740232782],[80.63127872855523,6.966430681668792],[80.63155301240188,6.966700500653584],[80.63161893028816,6.966748130377996],[80.6316751103873,6.966788724245688],[80.6316751190591,6.966763419684634],[80.63176600957352,6.966639776921219],[80.6319147414544,6.966433710793272],[80.63192993748318,6.96639057867446],[80.63193629633561,6.966372529572039],[80.63198313324555,6.966397123199156],[80.63213392080178,6.966476299627456],[80.6323127979594,6.966490089886364],[80.63236086035977,6.966493795964072],[80.63259653162748,6.966502579959348],[80.63263834281686,6.966512744537632],[80.63275800000373,6.966541835708463],[80.63288014890911,6.966716133596879],[80.6329717899622,6.966742301590013],[80.63310270378665,6.966798975012887],[80.63326849670199,6.966968929050271],[80.63336013038611,6.967025590496422],[80.63349978741462,6.967029990674533],[80.63373544711875,6.967077982525536],[80.63401475201317,6.967117275242572],[80.63425916228573,6.967091209621825],[80.63431896868322,6.967091228523577],[80.63438136438086,6.967091247292143],[80.6344816371941,6.967176564369553],[80.63449917044092,6.967191481806836],[80.63472737358303,6.967453924909798],[80.6347805460261,6.967601920392473],[80.63483754105918,6.967681618560559],[80.63489834911184,6.967715786465861],[80.63493647940989,6.967711792675756],[80.63497057403266,6.967708219989333],[80.63508462495233,6.967658927322425],[80.63519487243225,6.96761722250884],[80.63527849849291,6.967617247508453],[80.63538112663647,6.967632455301681],[80.63547994275989,6.967678017106032],[80.63548521889997,6.967678720429705],[80.63559397526134,6.967693228256726],[80.6357194284141,6.967647733344636],[80.63577644421197,6.96765533934655],[80.63579163294426,6.967708464288908],[80.6357878091659,6.967784350626033],[80.63586760696737,6.967875439895493],[80.63604241267551,6.968042443069928],[80.6361260004273,6.968171475804414],[80.63616777896988,6.968289115293389],[80.63617706982926,6.96842377972918],[80.63617151352426,6.968512984317734],[80.63620190557984,6.968573702780319],[80.63624752187494,6.968562332795396],[80.6362755968458,6.968450197821801],[80.63631222669751,6.968281569153839],[80.63640531621529,6.968067307358462],[80.63646057559419,6.967940119952324],[80.63654430527372,6.967591063445976],[80.63646455265585,6.967344405738402],[80.63642144006747,6.967123226223764],[80.63638859666582,6.966954734290595],[80.63636608956881,6.966771328728039],[80.6363555000691,6.966685042091071],[80.63638396609643,6.96659042471968],[80.63654040916471,6.966486385213438],[80.63673479460387,6.966297192014997],[80.63686652393821,6.966091760413904],[80.6368839338226,6.966025153641583],[80.63693400069467,6.965833589989837],[80.63698121886252,6.965625455707421],[80.63699504130119,6.965564535113527],[80.63707682335242,6.965451570383822],[80.63719002662347,6.965407665758793],[80.6372755148836,6.965383039291657],[80.63730691485289,6.965373994527182],[80.63743196569622,6.965431901230797],[80.63768761056194,6.965893079885027],[80.6379555669111,6.966265408440623],[80.63812626773303,6.966218876226259],[80.63847687968541,6.966141621744633],[80.63876103083655,6.966224607814246],[80.63920507631511,6.966436738542497],[80.63974282492242,6.966389068794566],[80.63976150041006,6.966426023648771],[80.63973968820694,6.966532275380299],[80.6397396597906,6.966630317702993],[80.63976953077619,6.96670705937301],[80.63979012108122,6.966732368997574],[80.63982502662324,6.96677527984783],[80.63984208442285,6.966860540986247],[80.63984206343389,6.966933008347671],[80.63977827113312,6.967049047105673],[80.63976942701088,6.967065134138036],[80.63968396158658,6.967256934730248],[80.63966257294219,6.967384815102694],[80.63965826870405,6.967499910679365],[80.63966252291361,6.967551064547553],[80.63974365543488,6.967576665709592],[80.63976950768361,6.967658053494645],[80.63973933885737,6.967734387123015],[80.63965391780881,6.967772727999518],[80.63953004745446,6.967866474201809],[80.63950439530552,6.96796877384402],[80.63942424593992,6.968113310033882],[80.63941197441139,6.96819481609176],[80.63941195309359,6.968268174198999],[80.63948541329353,6.968370081172619],[80.63955072102736,6.968431230963286],[80.63955478025936,6.968508666909431],[80.63951790589743,6.968553939843128],[80.63950168457991,6.968573856316697],[80.63948119091451,6.968583290528429],[80.63939551867595,6.968622731833307],[80.63937990196702,6.96866426434273],[80.63937605983169,6.968674484711123],[80.63937100400916,6.968687932230922],[80.63937506321408,6.968765364559995],[80.63941996199728,6.968806132397069],[80.639468950512,6.968822449616588],[80.63955805084609,6.968811801809349],[80.63957102409154,6.968810252858959],[80.63963226520364,6.968810269699786],[80.63969758483591,6.968830666474299],[80.63979394446251,6.968929330823204],[80.63981592095047,6.969046697500939],[80.63978729062072,6.969226009648398],[80.639815853358,6.969283073920536],[80.63996687903995,6.96941353171092],[80.6400403398089,6.969511363751329],[80.64015870723618,6.969629585694885],[80.6402281113558,6.969637755416181],[80.64030160344564,6.969633701762639],[80.64035551392392,6.969592724659369],[80.64037662404584,6.969576679134126],[80.64038736015381,6.969568518062954],[80.64044045492277,6.969503326749845],[80.64053436482081,6.969482977739814],[80.64066501546043,6.969478938668044],[80.64086915842621,6.969466771874205],[80.64092787095254,6.969457335911893],[80.64099573021242,6.969446430339495],[80.6410928399997,6.969382961635366],[80.6411141531137,6.969369032234036],[80.64128158914356,6.969222363957187],[80.64134284666234,6.969165325475348],[80.6414224430446,6.96914583671757],[80.64151310474962,6.969163100703052],[80.6415196979331,6.969169475301943],[80.64164690742399,6.96929242897885],[80.64173323029759,6.969382957560521],[80.64183683207708,6.969439014003681],[80.64192317223018,6.96946920478174],[80.64200518986613,6.969512324224273],[80.64201256170678,6.969568385778377],[80.64194038929516,6.969654523936168],[80.64192392335673,6.969675570818495],[80.64180218201912,6.969831180664562],[80.64169765560878,6.970039706014961],[80.64168122430313,6.970072487302388],[80.64167731085283,6.970177173423115],[80.6416768730967,6.970188847113406],[80.64168116672651,6.97027073053525],[80.64181497435376,6.970387129759646],[80.64196577139526,6.970579888802883],[80.6419889058588,6.97064712766852],[80.64200600328218,6.970696823796679],[80.64209383498985,6.970762617891708],[80.64210790477959,6.970768864388529],[80.64215971360717,6.970791865935196],[80.64221096374207,6.970780918390632],[80.64222196305438,6.970722462010139],[80.64228425253955,6.970499595661473],[80.64230990527689,6.970393639721239],[80.64248202396604,6.97011965189329],[80.64265411134497,6.969955279752018],[80.64278227048445,6.969798200177239],[80.64287014160772,6.969721495633619],[80.64294335521376,6.96970689987798],[80.64310498530222,6.969741518454414],[80.64314832588057,6.969750801739353],[80.64332127128814,6.969706747937947],[80.64345178554443,6.969682661179139],[80.64352898650615,6.969656010113267],[80.64357747413293,6.969639271303636],[80.64361265504836,6.969603006370205],[80.64364985749582,6.9695646575539],[80.64358718843633,6.969470402050171],[80.64346152347952,6.96943659228013],[80.6434450955594,6.969432214380866],[80.64331652377017,6.969397949787187],[80.64330206186241,6.969258023594283],[80.64332142296969,6.969166356721535],[80.64338910940666,6.969113298772804],[80.64354862359927,6.969098871919408],[80.64361630728233,6.969055465702425],[80.64367916847239,6.96896863376411],[80.64382739328538,6.968883029441037],[80.64386287649674,6.968862537653209],[80.644012740608,6.968785380043317],[80.64408530134651,6.968587576708111],[80.64412886194755,6.968380117990375],[80.64413374448363,6.968206421023599],[80.64414816906682,6.968183396653323],[80.64418210227865,6.968129236714721],[80.64422670423666,6.968129248298676],[80.64435973214151,6.968037526367198],[80.64474137852547,6.967894202971245],[80.64529048514808,6.967835274983282],[80.6458212521861,6.967834548501966],[80.64614841410975,6.967847993811684],[80.64603515455622,6.968056879498648],[80.64587650535213,6.968759970460057],[80.64588828299262,6.969013477057979],[80.64574470454458,6.969244237821846],[80.64551694790264,6.969629795939683],[80.64555457813113,6.969637632324064],[80.64555373783118,6.969639160385452],[80.64556025963434,6.96963881493584],[80.64568250155085,6.969664272747852],[80.64609641755597,6.969643728087258],[80.64664141429407,6.969588790893206],[80.64696213823166,6.9696117075074],[80.64702836583753,6.969616441672374],[80.64709004889666,6.969638943492352],[80.64717947585842,6.969671569485679],[80.64737261960452,6.969719825087954],[80.64759268722095,6.969768701086208],[80.64771872252152,6.96979669059017],[80.64786868993677,6.969853975572117],[80.64798338130673,6.969862814829402],[80.64807162070053,6.969809996917443],[80.64814221035229,6.96977919248478],[80.64824366583869,6.969796833409209],[80.64826498722687,6.969844987707277],[80.64834506299387,6.970025835609092],[80.64839932662942,6.9700751030074],[80.64840190642768,6.970163461733183],[80.64843961007065,6.970284573464497],[80.64849591687182,6.970352184556137],[80.64860992029263,6.970398671066033],[80.64876744642595,6.970350805729924],[80.6489816065225,6.970255269229071],[80.64915025163346,6.970154728534635],[80.64931189550201,6.970133935735981],[80.64947535425488,6.96999108780266],[80.64962856096959,6.969863787679652],[80.64988334627226,6.969585419766724],[80.64992850174703,6.969536760659844],[80.6499455102593,6.96951605727761],[80.65005186912329,6.969476826675008],[80.65024845033894,6.969495031594914],[80.65042924051943,6.969489317574149],[80.65052108547127,6.969544093908254],[80.65052138320392,6.969598399991557],[80.65052213923597,6.96973610224796],[80.65056550902153,6.969995864204379],[80.65061789046709,6.970255127565269],[80.65062081495294,6.970450649667046],[80.65061141487791,6.970523072045006],[80.65064789246551,6.970642002070887],[80.65064777055039,6.970708831011951],[80.65064761441067,6.970795380368863],[80.65061455487684,6.970931740644762],[80.6505999840238,6.970937362512453],[80.65053004247646,6.970964346747148],[80.650385305286,6.97095865976208],[80.6502822004851,6.971005233445373],[80.65022942556308,6.971090310977137],[80.65029683205731,6.971225891426513],[80.65039775347257,6.971265689308338],[80.65044733276903,6.971285240296401],[80.65069944676071,6.971366217599026],[80.65071860195057,6.971366304993784],[80.65054590923707,6.971453821198992],[80.65040509924185,6.971636275546716],[80.65028042007917,6.971682139002469],[80.65024527019439,6.971695068563352],[80.6501148507463,6.971685303235905],[80.65007244230866,6.971766135946754],[80.65013904593836,6.971973150851958],[80.65021733092412,6.972116330476331],[80.65028146809979,6.972294117200768],[80.65037919541327,6.972413326763101],[80.65041397005976,6.972561691836707],[80.65050368555642,6.972550521253502],[80.6506977084695,6.972481056388098],[80.65080713887062,6.972505912626842],[80.6509066307849,6.972500975307732],[80.65098623803561,6.972441410173795],[80.65103104616863,6.972297423286277],[80.65105594896697,6.972183223804442],[80.65111068679971,6.972108756143221],[80.65127006856903,6.972101920207079],[80.65125269917452,6.972281735269224],[80.65124280426679,6.972384172684279],[80.65125365080105,6.972498165527434],[80.65128397051951,6.972491974480603],[80.65175109773722,6.972620262340179],[80.65197830423409,6.97266280528014],[80.6521675303441,6.97272339278638],[80.65238289089986,6.972848062416526],[80.6525053194197,6.97291885371251],[80.65270999527077,6.973015649362279],[80.65283155725467,6.97292965541893],[80.6530077300343,6.972956022557634],[80.65325721984787,6.972950426723729],[80.65338395144462,6.972978367890255],[80.65356341424022,6.97301119973318],[80.65384643985698,6.973015153760134],[80.65398527089792,6.973005408718414],[80.65426039709756,6.973065925432943],[80.65463478713096,6.973185245466808],[80.6548257424426,6.973144161886629],[80.65498911480586,6.973109505341617],[80.65528113921725,6.973142228033013],[80.65549051549013,6.9732255701806],[80.65573755459863,6.973301135707226],[80.65596172605686,6.973450768724804],[80.6562884816345,6.973438415875454],[80.6563292197649,6.973437653055641],[80.65663795775409,6.973293277847581],[80.65665500972304,6.973293277654645]]]]}},{"type":"Feature","properties":{"GND_N":"Hollyrood","GND_NO":"475S","GND_C":"020","PROVINCE_N":"CENTRAL","PROVINCE_C":"2","DISTRICT_N":"NUWARA ELIYA","DISTRICT_C":"3","DSD_N":"THALAWAKELE","DSD_C":"12","Admin_Code":"2312020","GND_NO_Cen":"475S","GND_NAME_C":"Hollyrood","GND_NO_Gaz":"475S","GND_NAME_G":"හොලිරූඩ","shape_1":"Polygon","Area__Ha_":370.435681642,"MWS_ID":"158","Alt_MWS":null,"Area":3.70435681642,"Tot_Pop":4376.0,"PopDensity":1181.31168699},"geometry":{"type":"MultiPolygon","coordinates":[[[[80.67238231390684,6.954270551131097],[80.67236676877877,6.954224343414152],[80.67230511929237,6.954208927510578],[80.6721044572673,6.954231915360451],[80.67183233438823,6.954211560570267],[80.67179562689705,6.954208815082603],[80.67173638295337,6.954221954368271],[80.67171826787148,6.954223789740412],[80.67153449822078,6.954249059967638],[80.67151756887,6.954131977838151],[80.6715037148199,6.953965690663236],[80.67150154967383,6.953812525918901],[80.67156877046374,6.953704984911226],[80.67178541008902,6.953560023752655],[80.67189046793337,6.953290431927957],[80.67211231084904,6.953244798390559],[80.67204289479196,6.953167633936121],[80.67201194519811,6.953090477058912],[80.67202754990365,6.952866803874024],[80.67220510054061,6.952481235658613],[80.67235179323757,6.952242046997948],[80.6723827854109,6.952134100895753],[80.67238722108539,6.952013832145686],[80.67238922314995,6.951959534641229],[80.67238651316553,6.951920247773577],[80.67225928185232,6.951740694639313],[80.67232108079476,6.951725308615038],[80.67241591222951,6.95175186848083],[80.67241647996072,6.951750537450035],[80.67241714793144,6.951750187625931],[80.6727927997558,6.951553889330619],[80.67305435742189,6.951353261267675],[80.67317863896353,6.951257930813936],[80.67345607079731,6.950975061002172],[80.67364772880791,6.950779645244025],[80.67363760412292,6.950623463755149],[80.6736523837298,6.950523584166691],[80.67369291904627,6.950455858665015],[80.67382554082913,6.950197499438668],[80.6740107106408,6.949896636853343],[80.67422180377724,6.949617577463353],[80.67425803347983,6.949480374955531],[80.67415485254696,6.94917922388704],[80.6741031820124,6.948951428628463],[80.67437714565422,6.948790701874056],[80.67454151066703,6.948560163363716],[80.6748561821458,6.948136167409369],[80.67498946588347,6.947941577739887],[80.67513977021149,6.947761951802572],[80.67518385536674,6.947630904771478],[80.67518986242075,6.947535197571876],[80.6751918134684,6.947366753407192],[80.67512482397525,6.947108329332226],[80.67503293466069,6.946836501539957],[80.67484240294064,6.946690303028262],[80.67441043043476,6.94656073172101],[80.67410969428727,6.946518555457148],[80.6736595638462,6.946378725485081],[80.67331862383429,6.946231262018067],[80.67308109349149,6.946227382257971],[80.67287420505471,6.946257962688012],[80.67265004571064,6.946424444653949],[80.67255231571052,6.946583297404112],[80.67250438743852,6.946763216298105],[80.67247752425426,6.946969936557021],[80.67243150204183,6.947190053690341],[80.67227821618567,6.9473680367688],[80.6720981394766,6.94742350686168],[80.67196404883053,6.947423476389799],[80.67180314035976,6.947419613785748],[80.67165948952892,6.947341100798459],[80.67156372716563,6.947268341699479],[80.67144116955225,6.94709029957835],[80.67141489746315,6.946866450676263],[80.67146951978008,6.946656752388373],[80.67155289238397,6.946457221375498],[80.67176127807544,6.946155790520485],[80.67180153243851,6.9460280301547],[80.67177718307914,6.945694963599213],[80.67173701047396,6.945449466780163],[80.67158045910081,6.945238397812337],[80.6714957298286,6.945080461631324],[80.67138370297107,6.944928261799883],[80.67125587130579,6.944784672964935],[80.67105908492334,6.944608049401071],[80.6708280222018,6.944419052472695],[80.67055081999644,6.944256691752696],[80.67023119154985,6.944116648066691],[80.66990438433362,6.943955068935258],[80.669581153032,6.943865270619481],[80.66940553940425,6.943698799407723],[80.66931543077723,6.943581678013842],[80.66910222947374,6.942896943550845],[80.669086005218,6.942863409575718],[80.66902177372968,6.942719778482277],[80.66889184188904,6.942576656976333],[80.6685147671399,6.942350462824249],[80.66815921190191,6.942257066952272],[80.66783238534961,6.942192389494195],[80.66740499955799,6.942088209782606],[80.66712846693217,6.941980477081357],[80.66689862613134,6.941865574731729],[80.666625724645,6.941581978976207],[80.66657170975846,6.941273728798938],[80.66654760783362,6.941057074866984],[80.66652931980886,6.940827601765388],[80.66656176733699,6.940565441193892],[80.66669968138469,6.939714590444341],[80.66682880234022,6.939265369619416],[80.66730629115632,6.938762851699078],[80.66763212752898,6.938384394440467],[80.6680129844886,6.937759992197753],[80.6681046948358,6.937325548007191],[80.66816450848076,6.936707852718543],[80.66818942666707,6.936349062052743],[80.66817841739577,6.935930525731584],[80.66812823090818,6.935492229244938],[80.66807003361478,6.935062155689876],[80.6679631025538,6.934723880978922],[80.66780083211042,6.93427340475945],[80.6674745207143,6.93450720468537],[80.66632931003264,6.934602254464158],[80.66462597168531,6.934716897037238],[80.66363479954741,6.934961665641131],[80.66264824981087,6.935176769827438],[80.66237047490638,6.935277197256074],[80.66223154900422,6.935482935055944],[80.66200160502304,6.935813067831148],[80.66189619880943,6.93602359835629],[80.66192482992655,6.936444717203131],[80.66197747500404,6.936583504735166],[80.6621211147321,6.93668403171323],[80.66239883931435,6.936803732609202],[80.6628250179295,6.936928254584899],[80.66302134031098,6.937009653118714],[80.66305005980645,6.93706229852631],[80.66304734769807,6.937481325355091],[80.66310240654677,6.938445279930624],[80.66313093232569,6.939311436092723],[80.6633127038897,6.940168059329983],[80.6633078318885,6.940522174563672],[80.66327899135567,6.940967206896071],[80.66318793831495,6.941235163451947],[80.66274250287604,6.941522178603169],[80.66178691049878,6.942009469699807],[80.66103749646015,6.942182146318692],[80.66067830892811,6.942268194972958],[80.66023242966737,6.942579877393439],[80.65992627101,6.943004955399328],[80.65993096385012,6.943392570601178],[80.66004371048358,6.944303046287992],[80.66016041990918,6.945072287480247],[80.66020814264641,6.945747034934941],[80.65970507195824,6.94669441169681],[80.65931283371697,6.947106632979354],[80.65892912439774,6.947249319701616],[80.65865136217228,6.94726360673664],[80.65849334037588,6.947210930706304],[80.65829222565645,6.947124742531596],[80.65802230685034,6.946840024929035],[80.65736765343165,6.946274883055319],[80.65707834229958,6.945872857414618],[80.65693558890561,6.945452773202625],[80.65644584872578,6.944917073721257],[80.65582814515247,6.944653721597281],[80.65536364505412,6.944557895582705],[80.65497095238861,6.944557795966583],[80.65442014146467,6.944887843314038],[80.65421890913446,6.945270618830274],[80.65414694457456,6.945773064304063],[80.65404618651789,6.946509982753209],[80.65403165623127,6.94714164554142],[80.65411770851853,6.947715911060603],[80.65434744176378,6.948242359865302],[80.65459637445645,6.948606110544765],[80.65483574625054,6.948902864103841],[80.65493266453613,6.949124211589608],[80.65493780220936,6.949166501495499],[80.65507926861537,6.949185737337416],[80.65519306291904,6.949201210422125],[80.65530331156583,6.94921619966705],[80.65535168884077,6.949535700996784],[80.65528757838348,6.950055695942811],[80.65514368626995,6.950576177752039],[80.65526692294539,6.950749932265207],[80.65529052172369,6.950764327800748],[80.65529469222882,6.950766871808056],[80.65558219849981,6.950895853909712],[80.65560191529099,6.950901377087009],[80.65597416020732,6.950933255100886],[80.65607652640632,6.950921000513946],[80.65628894249829,6.950895570820339],[80.65636120806087,6.95089132439808],[80.65650873388252,6.950882653224388],[80.65653329005738,6.951122338778877],[80.65667645754304,6.951341874518437],[80.6567016682401,6.951331133086653],[80.656750511135,6.951310319014611],[80.6567723985573,6.951310686275687],[80.6570219144299,6.951367964540743],[80.65711059061722,6.951388322287085],[80.65724044266504,6.95143386205866],[80.65721545679897,6.951582986719665],[80.65710735388802,6.951845213277867],[80.65704568578263,6.95190680252629],[80.65697606281246,6.952107431240936],[80.65699235312962,6.95218889805447],[80.65701770196898,6.952315667114291],[80.65705317319286,6.952493056976195],[80.65723069396337,6.952840133446378],[80.65731546456219,6.953125579901881],[80.65738487056353,6.953225777625292],[80.6574743718881,6.953266462756784],[80.6575546812122,6.953302971234171],[80.65773228984234,6.953303015823733],[80.65780950752954,6.953264460635287],[80.65793299749602,6.953102563638768],[80.65795272378244,6.953124836485037],[80.65817219116877,6.953372645360374],[80.65831875528934,6.953673367434362],[80.65848852479164,6.953920259437693],[80.65855791393949,6.954082207381346],[80.65856182617867,6.95427126671189],[80.65862737494226,6.954529577723752],[80.65861175218426,6.954807228136602],[80.65875275381353,6.954828658473212],[80.65897853726301,6.954862972833213],[80.6590843248931,6.954935681770168],[80.65921800294896,6.955027560980402],[80.65952509543736,6.955358012971319],[80.65961889344139,6.955581656593824],[80.65967637809315,6.955742324536359],[80.65965332129998,6.955931809457454],[80.65957272907393,6.956172960078428],[80.65938856660759,6.956528922482735],[80.65908360615484,6.956884859368343],[80.65877868101114,6.957097243859096],[80.65835871686811,6.957275142245757],[80.65814190359376,6.957306412699934],[80.65814268327546,6.957337074668358],[80.6580544443072,6.957654630641279],[80.65805440401532,6.957815331382317],[80.6583035177879,6.95795313834424],[80.65842232480927,6.958014387558893],[80.6585343268444,6.958167025325058],[80.65858966546973,6.958277574692953],[80.65860624442738,6.958404695049461],[80.65862282089391,6.958534578092691],[80.65864893109142,6.958569091525948],[80.65871691352248,6.958658955063488],[80.65854687682568,6.958764583043935],[80.65847238144481,6.958955435937313],[80.65843950912996,6.959039655818152],[80.65835289574053,6.9591606345182],[80.65825741379552,6.959289759784514],[80.65814407650242,6.959322052633272],[80.65799187489876,6.959383428500367],[80.65786880766346,6.959477133721436],[80.65774248912447,6.959619317619692],[80.65759352146608,6.959696855215245],[80.65752551801175,6.959719465029474],[80.6574154243441,6.959725900478507],[80.65736703655519,6.959725888294078],[80.65732152220403,6.959725877733007],[80.6572368263056,6.959774526722173],[80.65721465281479,6.959787263860533],[80.6571887376378,6.959822810543812],[80.65719195229634,6.959923010572425],[80.65728256409183,6.960129897719995],[80.65731812824313,6.960343235943274],[80.65738610978471,6.960407896353233],[80.6575617730467,6.960539010442439],[80.65777856817793,6.960585954646979],[80.65787971696383,6.960697799715451],[80.65797722850739,6.960899814192968],[80.65802057091936,6.960975571540315],[80.65815613428893,6.96111246118369],[80.65820155194838,6.961141327490155],[80.65826532103138,6.961194401517973],[80.65830064304322,6.961223800646525],[80.65837494923848,6.961335120726874],[80.65839748052315,6.961400918120885],[80.65839902479445,6.961403329415361],[80.65840014115753,6.961408688676022],[80.65842859512189,6.961491778990683],[80.65842858089813,6.96154503963429],[80.65842854370477,6.961693770813595],[80.6584367604353,6.961871030728477],[80.65849868406796,6.961957615534702],[80.65855179139152,6.962013556261105],[80.65860937428826,6.962057762777465],[80.65872896967505,6.961858069675371],[80.65881314377522,6.961674386795188],[80.65911427888273,6.960810587588536],[80.65918108140355,6.960544134517992],[80.65924788017118,6.960292485101436],[80.65934049178719,6.959796711751943],[80.65935929268076,6.959544917483413],[80.65940384033082,6.959315467119357],[80.65949333303297,6.959206338201848],[80.65953735377666,6.959152658883244],[80.6597005428696,6.95892323780425],[80.65990079578619,6.958745640454007],[80.66022185587069,6.958641077334777],[80.66029822236429,6.958629307421686],[80.6603989573828,6.958613780613979],[80.6607060182255,6.958613542073735],[80.66124985397921,6.958666812545609],[80.66160955331613,6.958406562520628],[80.66161348068765,6.958356130614026],[80.66177562055998,6.958320204364775],[80.66184539209621,6.958304745700316],[80.66188427900553,6.95829676276829],[80.66209120209116,6.958214812994538],[80.66245578743471,6.958165654622528],[80.662484459056,6.958155330614148],[80.66342530183975,6.957657274037624],[80.66342814801284,6.957661483409979],[80.66344849462284,6.957691577617633],[80.66372201066751,6.958096134925022],[80.66400086942521,6.958508593459944],[80.66610485334283,6.96168514685881],[80.6665367960515,6.962337278220862],[80.66667888487083,6.962551797172389],[80.66722005305442,6.963368831976349],[80.66771438515681,6.964115149546711],[80.66817473985046,6.963625577513016],[80.66865511221373,6.963114715618532],[80.66899556706542,6.962752649411648],[80.66998214730917,6.961703443355264],[80.67039505584619,6.961041320048145],[80.67155071570815,6.959188143417258],[80.67155381378765,6.959183176689397],[80.67202629580264,6.958272925770284],[80.67221025286597,6.958000171777966],[80.67233252534477,6.957818878551367],[80.6729459569086,6.956925205736163],[80.67294624868296,6.955953223652378],[80.6728921555187,6.955951522547149],[80.6727959941169,6.955853205787442],[80.67278974188123,6.955846811796772],[80.67278175529383,6.955846122765098],[80.6727529887538,6.955845214854887],[80.67266321119412,6.955842381832507],[80.6726218774246,6.955813665201838],[80.67259729107747,6.955796584481078],[80.67251704584471,6.955716447037278],[80.6723995472288,6.955584641344563],[80.67228801722082,6.955485720634993],[80.67212723177049,6.955473802470184],[80.67191114305466,6.955550905707654],[80.67190834702326,6.955552931665223],[80.6718030997668,6.955584510672451],[80.67165648429769,6.955473698416522],[80.6715869423314,6.955334786167834],[80.67160241038452,6.955087938951232],[80.67156397137404,6.95497997752712],[80.67148678705264,6.954872007504569],[80.6713401643939,6.954794825814054],[80.67117418626572,6.954636675320318],[80.6714558921973,6.954540371135954],[80.67205025523823,6.954424778059018],[80.67238231390684,6.954270551131097]]]]}}]}