{"type":"FeatureCollection","name":"SED_PPL_MWS_155","crs":{"type":"name","properties":{"name":"urn:ogc:def:crs:OGC:1.3:CRS84"}},"features":[{"type":"Feature","properties":{"GND_N":"Drayton","GND_NO":"475N","GND_C":"120","PROVINCE_N":"CENTRAL","PROVINCE_C":"2","DISTRICT_N":"NUWARA ELIYA","DISTRICT_C":"3","DSD_N":"THALAWAKELE","DSD_C":"12","Admin_Code":"2312120","GND_NO_Cen":"475N","GND_NAME_C":"Drayton","GND_NO_Gaz":"475N","GND_NAME_G":"ඩ්‍රේටෝ","shape_1":"Polygon","Area__Ha_":521.322665442,"MWS_ID":"155","Alt_MWS":null,"Area":5.21322665442,"Tot_Pop":4503.0,"PopDensity":863.764478029},"geometry":{"type":"MultiPolygon","coordinates":[[[[80.63192381478278,6.939282454803539],[80.63194055251593,6.93902699944343],[80.6318942415106,6.938803309794377],[80.63187109141695,6.93867231696447],[80.63187115030041,6.938479443380761],[80.631801876766,6.93797032080466],[80.63180191444025,6.937846965664759],[80.63183276423048,6.937769826894828],[80.63190235787651,6.937692697218143],[80.63197179528039,6.937661915532066],[80.63201758270827,6.937664466989842],[80.63212857170336,6.937670652841102],[80.63224964649757,6.937677400600612],[80.63261250010125,6.937631304701943],[80.63276678462985,6.93758500793416],[80.63285943016218,6.937500255373365],[80.63287216864359,6.937449398636776],[80.63289807779226,6.93734596709067],[80.6328749564844,6.937122283628646],[80.6327824101639,6.936883176816649],[80.6326049968031,6.936728823973899],[80.6324613798162,6.93669363683882],[80.63265888554106,6.936617892377628],[80.6332203346602,6.936465199196532],[80.63322038313201,6.936310871187916],[80.6332188691166,6.936125275946605],[80.63322734962487,6.936113309871465],[80.63321872950176,6.936108140001772],[80.63320334953553,6.936000182516995],[80.63326175918658,6.936018360643295],[80.63326601832766,6.935834604714028],[80.63321799326691,6.935526076139945],[80.63350263952232,6.935286984599617],[80.63369756412366,6.935137144596593],[80.63396759112331,6.934930727671731],[80.63415982634618,6.934746112958758],[80.63429171205371,6.934614350082082],[80.63446719022762,6.934424885790184],[80.63472952898746,6.934220754937718],[80.63484283825159,6.934076270747893],[80.63499518932086,6.933896518947521],[80.63526617438811,6.933726325766838],[80.635465124838,6.933573678297941],[80.6356429979199,6.93342581465736],[80.63535358038224,6.93315648996458],[80.63528204368386,6.933037523852752],[80.63528563023377,6.933033943823447],[80.63537704469476,6.932942687417958],[80.63549289152262,6.932811595843225],[80.63557778588905,6.9326341487955],[80.63565501473529,6.932549391971425],[80.63574764277944,6.932518473703421],[80.63585570890586,6.932395151429681],[80.63591753982291,6.932264043740782],[80.63595620010864,6.932071323476831],[80.63578661811468,6.931261344110389],[80.63563235743929,6.930759966583044],[80.63568644299166,6.930520904642125],[80.6356943448169,6.930104355825976],[80.63574074839677,6.930019590735881],[80.63572521540237,6.929950206003419],[80.63577165790744,6.929734174739171],[80.6358102791753,6.929672437583855],[80.63532416644622,6.929124757247294],[80.63528849396839,6.929045162197264],[80.63526235774819,6.929051431293943],[80.63510666564099,6.929282138726943],[80.63500563186882,6.929289262697607],[80.6349034823922,6.929420297680972],[80.63473332305718,6.929427658713137],[80.63461269476277,6.929375168676416],[80.63449055179713,6.929325012199611],[80.6343670179514,6.929163045484954],[80.63430537445724,6.929139855714883],[80.6341278824372,6.928784999086385],[80.63376886413079,6.9284988802116],[80.63363409010682,6.928391473725964],[80.6335723241372,6.928306674496761],[80.63357241620108,6.927998075338497],[80.63354161561938,6.927921057122262],[80.63352623584986,6.927812959445387],[80.63346447744891,6.927697358251947],[80.63321751999378,6.927481236106084],[80.63319434906917,6.927419621596436],[80.63324857104861,6.927195961385537],[80.6332100251086,6.927010847760955],[80.63314047614284,6.926949078187048],[80.63310466907186,6.926939287190984],[80.6330132262668,6.92691427963004],[80.63294773300639,6.926973316292617],[80.63285495598976,6.927056944842867],[80.63271595724235,6.927072304231869],[80.6326180767644,6.926981006379009],[80.63236576776237,6.927272662676624],[80.63233224529549,6.927276118755103],[80.63228538645339,6.927291562031046],[80.63201979015436,6.927403048778629],[80.63182575333076,6.927416301288821],[80.63153029395399,6.927217484804745],[80.63121541094552,6.92656314041032],[80.63119351865316,6.926538212541171],[80.6311570127813,6.926532189476109],[80.63101679569068,6.926480902527814],[80.6309564428873,6.926408508823148],[80.63082660498326,6.926353633954404],[80.6305820671972,6.926250278666068],[80.63056290212563,6.92603818506013],[80.63058611291574,6.92596881206117],[80.63071739527439,6.925760576322298],[80.63076371261597,6.925498339415075],[80.63083316670907,6.925413439885609],[80.63090274444353,6.925382658348417],[80.6308255889624,6.925220704935811],[80.63076392486457,6.924804133961688],[80.63084887480696,6.924449357421658],[80.63083753416927,6.924082963440775],[80.63105743777298,6.923986664904107],[80.63111144774683,6.924002083758847],[80.63118484207432,6.923975117751995],[80.63124267263528,6.923979091814686],[80.63148972293834,6.923894246410082],[80.63183707431195,6.923639871892762],[80.63196830526206,6.923593564635444],[80.63205328639054,6.923593590463588],[80.63207382074125,6.923602083721305],[80.63248134008549,6.923770618385806],[80.63256649790216,6.923805836593781],[80.632619729135,6.923831914231794],[80.63282297911955,6.923646778724602],[80.63298310345485,6.923500925416029],[80.63299654077088,6.923474920397702],[80.63397292634716,6.922579779710448],[80.63417607965188,6.922722693797764],[80.6342334068401,6.922745127177793],[80.63424756191324,6.922754623129951],[80.63428091920844,6.922763718787305],[80.63435351290954,6.922792126119431],[80.63468535625675,6.922853974730251],[80.63509837767434,6.922865683861461],[80.6351793814273,6.922923498359855],[80.63533377452444,6.922969889597716],[80.63566563694845,6.922962218120659],[80.63554591066195,6.922732719288088],[80.63560270827863,6.922728535567743],[80.63602237869821,6.922610375909429],[80.63604785183487,6.922598989032978],[80.63606258935813,6.92258831791681],[80.63608312724256,6.922581910562089],[80.6363716948191,6.922503860844367],[80.63637549257999,6.92248036688733],[80.63641396792073,6.922242249687983],[80.63702239232029,6.921887626748128],[80.63707568765366,6.921865046192084],[80.63705520257983,6.921852010776133],[80.63743352719241,6.921559067473348],[80.63751842097884,6.921373990213731],[80.63750307791808,6.921134905828808],[80.63737197384158,6.920749119914687],[80.63728728222746,6.920247763985815],[80.63729501761543,6.919908364040958],[80.63736462013551,6.919306872013388],[80.63744186680549,6.919152594474371],[80.63748825407794,6.919121806064119],[80.63748832180725,6.918890356794544],[80.6375423855727,6.918720671927086],[80.63753478986946,6.918103754939701],[80.63753979093268,6.918062280767137],[80.63603730410621,6.917683428671822],[80.63546274162883,6.917511384063963],[80.635443421368,6.917516886536233],[80.63530839170687,6.917505260366366],[80.63522310719459,6.917439627700521],[80.63477205642779,6.917092506832232],[80.63442761872174,6.916999768516091],[80.63439442740317,6.916969578808087],[80.63424757847946,6.91643820392888],[80.63425311507278,6.916413375730626],[80.63380433817353,6.916241426421797],[80.63368813355106,6.916199190670344],[80.6336819633962,6.916194171663689],[80.63367483333936,6.916188371038315],[80.63310565121309,6.915855651488951],[80.63313518367761,6.91579297850502],[80.632327782052,6.916519149509244],[80.6320130714053,6.916807767427567],[80.63182506135385,6.916853443456616],[80.63175063121686,6.916808761997512],[80.63172419380588,6.916828488879285],[80.63159990967327,6.916813897865821],[80.63132989394184,6.916644114028692],[80.63118326796621,6.916644070179652],[80.63106747974668,6.916590057894683],[80.63105219288369,6.916181272701649],[80.63082856961341,6.915502400849666],[80.6307362632961,6.915355784500227],[80.63069741801291,6.915294083666531],[80.63051372232916,6.915171621629244],[80.63041963300863,6.915108897320244],[80.6303424573772,6.915024093844847],[80.63023444190635,6.91498548518466],[80.63021839156433,6.914989859862689],[80.6300646105377,6.915031779246446],[80.6299795852368,6.915185911208901],[80.62996409720492,6.915432758936785],[80.62981744273355,6.915517490828141],[80.62966304156083,6.915509814393688],[80.62951840042851,6.915445516170347],[80.6290380153191,6.915231966702382],[80.62894455448611,6.915223742810822],[80.6289007035892,6.915178772872304],[80.62889807828743,6.915152831707116],[80.62871995244016,6.915139866396718],[80.62853375812507,6.915301605439076],[80.62832693752249,6.915524279042048],[80.62803610974555,6.915799309850219],[80.62801873459863,6.915812162016905],[80.62798665810614,6.915940117465039],[80.627892877817,6.916041540864312],[80.62781468535306,6.916049287242196],[80.62771733594785,6.916035059936783],[80.62743971901627,6.915994487673173],[80.62732249200471,6.91602582081295],[80.6272442756719,6.916103791867029],[80.62726767097674,6.916345847022796],[80.62723863338057,6.916412148806462],[80.62721291112597,6.916470879777559],[80.62703314957818,6.916619187488846],[80.62696836202674,6.91663206812865],[80.62654225470911,6.917033117306724],[80.62592330168843,6.917539767349457],[80.62560058297649,6.917840717800186],[80.62540280888895,6.91778293064705],[80.62531677068176,6.917786594740043],[80.62467637622606,6.917481199993208],[80.62465932931363,6.917480228742662],[80.62431425865016,6.917267358850968],[80.62431375131155,6.917266324149651],[80.62413791950357,6.917059405284366],[80.62401205612134,6.917099477772546],[80.62395436861763,6.917117844958856],[80.62361049247441,6.917117734595254],[80.62345026318904,6.917199778822672],[80.62329797659473,6.917211316834534],[80.62309479581846,6.91718793626565],[80.62289162701411,6.917133186655409],[80.62271191191427,6.917133128607328],[80.62269814399298,6.916898900548517],[80.62268595339684,6.916896697308559],[80.62255666238848,6.916784854750809],[80.62252790934292,6.916772414702562],[80.62205808345692,6.916569142841824],[80.62196968274704,6.916444546244974],[80.62184485340985,6.916268606936419],[80.62175919260287,6.916147871722231],[80.62159192036437,6.916162866953392],[80.62127657397026,6.916057381398033],[80.62123089545234,6.916021691180569],[80.62106968764063,6.915921936674519],[80.62091953426295,6.915798270153815],[80.62091616267192,6.915767263629262],[80.62099602901397,6.915586160403356],[80.6210076143222,6.915571291786162],[80.6210744502147,6.915509911376367],[80.62125905305655,6.915438193245842],[80.62149355326484,6.915235221496345],[80.62148580174832,6.915157081433075],[80.62142195473186,6.915102646957361],[80.62122019268257,6.914930631569918],[80.62112955420805,6.914779523122895],[80.62110303965012,6.914735318671077],[80.62089216325022,6.914469747640134],[80.62064217793132,6.914032485399169],[80.62060321256922,6.913852880642507],[80.6206032791511,6.913649831577211],[80.62063454087468,6.913602932159067],[80.62043363224198,6.913425232187882],[80.62043141671124,6.913423272710212],[80.62032211745006,6.913423237772498],[80.62010321695239,6.913485620782269],[80.62004202662186,6.913479671068363],[80.61998540423443,6.913474165963864],[80.61998218640531,6.913473853820811],[80.61993127856981,6.913493335067787],[80.61979073537016,6.913477746325524],[80.61963439470216,6.913352786009024],[80.61957522504709,6.913256530869218],[80.61957193015667,6.913251171703053],[80.61956422971554,6.913024805877079],[80.61960732593829,6.912685134974673],[80.61952537647093,6.912501561385538],[80.61933783368228,6.912235996469232],[80.61938487303651,6.911939282858289],[80.61936141573166,6.911900276431763],[80.61928927014618,6.911887388704613],[80.61914269146652,6.911861206423399],[80.61906721951567,6.911820578533038],[80.61904104645137,6.911806488753894],[80.61890837742969,6.9115018047663],[80.6188536910696,6.911400332205651],[80.61876774199041,6.911337849780399],[80.6185412523804,6.911267549947038],[80.61853756947629,6.911267114653156],[80.61827558196543,6.911236234772983],[80.61782240804492,6.911251623785524],[80.61768170446909,6.911298490153611],[80.61743114525211,6.911227217766727],[80.61734498551596,6.911159423963215],[80.61727103344576,6.91113159148649],[80.61716886613814,6.911137878494878],[80.61714561268883,6.911139309483596],[80.61695764750927,6.911121485760999],[80.61694053383506,6.911120653481658],[80.61681487940291,6.911069682929774],[80.61680120191639,6.911065609820097],[80.61677933096091,6.911054267772828],[80.6166259396827,6.911011414064101],[80.61661343395897,6.911007694930493],[80.61653733979158,6.911018148607196],[80.61646745998375,6.911116640551205],[80.61618699046409,6.911126185341417],[80.61610315882812,6.911121510732999],[80.6160954607358,6.911110452861788],[80.61613468036438,6.910954331172092],[80.61631727511872,6.910790909237701],[80.61633384895072,6.910511036749699],[80.61626671692925,6.910353145691327],[80.61617947658083,6.910190057074367],[80.61606328301632,6.910089411747401],[80.61590053456091,6.910104759233804],[80.61581769285557,6.910165087239329],[80.61580212704449,6.910168409875626],[80.61562945218888,6.910189870721609],[80.61531175293658,6.910151046780633],[80.6151258086907,6.91018192955622],[80.6148624250319,6.910081234051786],[80.61469205830966,6.910042459674086],[80.61439751271587,6.910104250092403],[80.61402560119961,6.910235814571116],[80.61364609259564,6.910251228370168],[80.61363062706334,6.910241778393443],[80.61350656626502,6.910165976784019],[80.61323567039643,6.909709061852291],[80.61321741364699,6.909687773393808],[80.61309616908567,6.909546378902699],[80.6127630534259,6.909523091391167],[80.6127088832503,6.909569560097236],[80.61246079740584,6.909801771201328],[80.61225164043749,6.90990230350577],[80.61211981647278,6.910033809046201],[80.61207340079001,6.910142170007862],[80.61206423949479,6.910204560205295],[80.61204263333941,6.910351705940506],[80.61207160014524,6.91044539686417],[80.61206379712024,6.910523533499104],[80.61212623002577,6.910703147001526],[80.6122924718921,6.91089194979542],[80.61229809922409,6.91089834073592],[80.61235016437972,6.910913216613427],[80.61236017005399,6.910916075895277],[80.61240752735267,6.910929606328855],[80.61270431468847,6.910929708490675],[80.61277471886646,6.910960958768837],[80.61282488971047,6.911042522810145],[80.61289964088884,6.911164050734084],[80.61289940691263,6.911168150827542],[80.61288675696859,6.911389084718596],[80.61288399392483,6.911437318235484],[80.61246974138894,6.911749588350045],[80.6121179601131,6.912132106206547],[80.61171146092485,6.912506692077094],[80.61171144018648,6.912569146916238],[80.6117583589502,6.912639530771584],[80.61198484001841,6.912733289085305],[80.61203955292407,6.912756765065363],[80.61203951424206,6.912865989366404],[80.61190273582444,6.913010491751779],[80.61186752100537,6.913029976651555],[80.61182846440543,6.91312364676968],[80.6118361340768,6.913436062910761],[80.61175014051682,6.91350625880145],[80.61155883878196,6.913486692778002],[80.61146892989699,6.913435934865076],[80.61138296157696,6.913435905962694],[80.61130473676937,6.913529559734777],[80.61132358345098,6.913608552030307],[80.61134384700732,6.913693479848682],[80.61148976732261,6.913825567957592],[80.6115078141135,6.913841901655035],[80.61155561906442,6.913917013604989],[80.61156250364427,6.913927830716745],[80.6115413744067,6.914019142226668],[80.61153899720743,6.914029418060839],[80.61144523012244,6.91409183859343],[80.61136717443065,6.914107355828447],[80.61103039991117,6.913964072860489],[80.61099988292482,6.913951091634842],[80.61074991219137,6.913904093229815],[80.61067171985789,6.913904066904342],[80.61053101031521,6.913966471805955],[80.61042972504748,6.913966436484949],[80.61030449531522,6.913966393688384],[80.61023420103571,6.914028964150815],[80.61016372740693,6.914192846969582],[80.610054246748,6.91430994577415],[80.60974950633454,6.914403520024445],[80.60962446332721,6.914544068540336],[80.60957747978243,6.914653420147432],[80.60956963518024,6.914848550884784],[80.60961652736162,6.914996932260085],[80.60971335733383,6.915093898111166],[80.6097180133871,6.915098561495882],[80.609827434117,6.915153142788363],[80.6101399164372,6.915161163067292],[80.61022588053133,6.915176736502148],[80.6101086135442,6.915317287855466],[80.60986630785858,6.915582705085061],[80.61005375183822,6.915723364808878],[80.6101514480155,6.915750668638062],[80.61021387501948,6.915799464780813],[80.61036630936397,6.915918608401642],[80.61024128797342,6.915996702240384],[80.61010836750715,6.916020112862912],[80.61003809940392,6.916004403820596],[80.60989744388468,6.915910672809145],[80.60980364063258,6.916074546481092],[80.60978012734857,6.916191675304229],[80.60978505123798,6.916237717605793],[80.60980352192551,6.916410415123348],[80.60994409727623,6.916738422059719],[80.61016667043036,6.917093726391018],[80.61021738503698,6.917230380954384],[80.61026390440793,6.917398005991807],[80.61037343125648,6.917792665472418],[80.61042032486627,6.91793327416065],[80.61038096528968,6.918487720530117],[80.61025587131167,6.918768723101211],[80.6101190550949,6.919014676548025],[80.60998225886523,6.919198034059725],[80.60990798412494,6.919319103294514],[80.60995093730764,6.91940898480475],[80.61009933538409,6.919604171094782],[80.61022426114766,6.919807262810877],[80.61033791877377,6.91987554859316],[80.61030239891788,6.919963424913604],[80.6103022901461,6.919963935814534],[80.61040247667083,6.920128488619854],[80.6104856549643,6.920347128074588],[80.61048919191495,6.920356243916773],[80.61050216179702,6.920573066502823],[80.61053592169425,6.920694557853882],[80.6106516712812,6.92079544581448],[80.61074878013017,6.921025547771912],[80.61075334480688,6.921038117555566],[80.61076160344146,6.921079284023413],[80.61074149782735,6.921243972069179],[80.61079204959434,6.921527388956668],[80.61097292795998,6.92194874865227],[80.61100332745816,6.92199649901193],[80.61146616251617,6.922711438964628],[80.61147803274622,6.922737378885118],[80.61177270618037,6.922990682483316],[80.61178602052513,6.92298591230406],[80.6117988993295,6.923013198189309],[80.61191869615499,6.923267001767983],[80.61212953633968,6.923630782711232],[80.61224288618969,6.923778619776684],[80.61245759118712,6.924005621312052],[80.61262165299412,6.924302406784327],[80.61280907127103,6.924524594123836],[80.61301998266077,6.924685182902141],[80.61319966830648,6.924778926438997],[80.61330906298002,6.924919556303375],[80.61337547446243,6.925051835403806],[80.61341846103656,6.925047892864249],[80.61360592405738,6.925141640727957],[80.614465160333,6.926094575016728],[80.61471126793622,6.926293889760158],[80.61472303227238,6.926211800805721],[80.61470985683358,6.92617525198135],[80.61470395377901,6.925678958287147],[80.61507327848966,6.925379126548024],[80.61542059862563,6.925295881752514],[80.61560524902778,6.925287091935903],[80.61596443254237,6.925550169692118],[80.61600032894911,6.925725199652789],[80.61600103726582,6.925728649860191],[80.61596755655899,6.925916367464804],[80.6159062226073,6.92607626068154],[80.61605444235789,6.926410738808109],[80.61626042576188,6.926583969576037],[80.61640594221684,6.926643918747581],[80.61670633770164,6.926632740306751],[80.61673152470723,6.926631867066285],[80.61674826435046,6.926629823512072],[80.61705179598958,6.926606392415359],[80.61726244227896,6.92656897007271],[80.61743981902818,6.926528083820585],[80.6175019169535,6.926517534042198],[80.61752030547362,6.926712520828889],[80.6175905493071,6.926806224301396],[80.6176608157688,6.926829703055834],[80.61753636028689,6.926961057756174],[80.61752403495571,6.926974065846281],[80.6179340267248,6.92759507232666],[80.61801289275385,6.927681984483726],[80.61808639981699,6.927762987844654],[80.6181918491806,6.927868431953931],[80.61836375464878,6.92797785454858],[80.6185200036569,6.927969993754387],[80.61869193259662,6.928009191524753],[80.61877453935207,6.928040677419966],[80.61885593543835,6.928071701697784],[80.61903941218968,6.928313961167482],[80.61907472629598,6.928360588588604],[80.61922308076322,6.928704278078764],[80.61926204419487,6.928782213234912],[80.61934022612614,6.928938591848101],[80.61937139511359,6.929180648857261],[80.61935561063045,6.929446145595],[80.6192383160038,6.929672608268113],[80.61924129268817,6.929699098497923],[80.61924620932076,6.929742838306375],[80.61931646261317,6.929813086270377],[80.61951476664721,6.929862729201738],[80.61953519083964,6.929867841723228],[80.61967584297577,6.929992797827597],[80.61977728183737,6.930250561564194],[80.61985091329699,6.930324188188481],[80.6199257045585,6.93039897451794],[80.62011266874292,6.930465317100586],[80.62016803692873,6.930484962617105],[80.62024418218142,6.93054299145052],[80.62033202026011,6.930609927114624],[80.62051800028735,6.930837703312013],[80.6206330562621,6.930978614635282],[80.62064453020173,6.930992668769155],[80.62073826618483,6.931031698177748],[80.62075289001962,6.931038362361748],[80.62082422487919,6.931070866996625],[80.62087872986505,6.931297245276018],[80.62090722764287,6.931339991715883],[80.62098812152527,6.931461329582982],[80.62108980586494,6.931406679743],[80.62130078680006,6.931375522681701],[80.62142578154554,6.931383335210674],[80.6217149271213,6.931445883459365],[80.62203571837915,6.931603223263933],[80.62211332934575,6.931641289488764],[80.62228521935965,6.931805251842076],[80.6225740930309,6.932266123877349],[80.62269136936449,6.932447579569808],[80.62281633324534,6.932640927678288],[80.62287879914301,6.932742543353942],[80.62311311880924,6.933125258119052],[80.62334732201171,6.933429834343186],[80.62363640022576,6.933703200261611],[80.62390203242737,6.933890649288612],[80.62408950606239,6.933968848806464],[80.62438636484077,6.934234445078104],[80.62465213159938,6.934613922679959],[80.62465985018459,6.9346249415352],[80.62466484758409,6.934641420688613],[80.6247652241437,6.934972431797835],[80.62504931435362,6.934820170478465],[80.62516244597913,6.934912819445208],[80.62550857301673,6.935256702061407],[80.62578158270242,6.935522761945752],[80.62622658843392,6.935845297390361],[80.62643131379984,6.936000779850187],[80.62654025862108,6.935953433514451],[80.62663265715834,6.936002539065689],[80.62670484477135,6.936183883692393],[80.62691122381831,6.936499948707587],[80.62716719637613,6.93671644588438],[80.62730940548151,6.936786847360129],[80.6274309255824,6.936921845779021],[80.62766117761566,6.937085764873762],[80.62773936451518,6.937204813752165],[80.62772220773955,6.93725747397158],[80.62761271697079,6.937405802737288],[80.62761271310163,6.937418115912648],[80.6276127022739,6.937452573993835],[80.62759523763877,6.937488414724294],[80.62747191384246,6.937741487022065],[80.62747967740631,6.937788260720635],[80.6276126007544,6.937772759957489],[80.62770782982759,6.937824088099618],[80.62771007612345,6.937840922659706],[80.62773928208861,6.937879528054788],[80.62785273422882,6.938114145175888],[80.62796516903917,6.938346657606379],[80.62801729489695,6.938314790428239],[80.62807032453915,6.938278044738253],[80.62809061289711,6.938261795991982],[80.62813470550222,6.938177106956709],[80.62818708320377,6.938173222110168],[80.62819164206589,6.938229475652543],[80.62819183213566,6.938249633835947],[80.62827680941787,6.938281869439784],[80.62828886644178,6.938281856024346],[80.62838835892325,6.938249621072933],[80.62845076283337,6.938193758297246],[80.62858749822037,6.938154474922318],[80.62870832586084,6.938158801749128],[80.62890134315796,6.938178974742566],[80.62887161077678,6.938293025154789],[80.62880636955875,6.938404802815626],[80.6287882104991,6.938546283845591],[80.62879032253487,6.938671678869396],[80.6289094966663,6.93876684826984],[80.6290676323521,6.938887058524681],[80.62907520794886,6.938892818663473],[80.62906646344913,6.939011031845753],[80.62906353961901,6.9390948466282],[80.62912320386081,6.939141857985743],[80.62913736623486,6.939143642984876],[80.6291849934393,6.939149647971035],[80.6293873091382,6.939072966818329],[80.6294088628543,6.939064796669808],[80.62951689622001,6.939057198625082],[80.62957829467811,6.93907427667518],[80.62965574247248,6.939095817967113],[80.62968667559832,6.939203780352266],[80.6299074656404,6.939150025506213],[80.63005666366725,6.939265882911697],[80.63016746936412,6.93934799922351],[80.63033498459232,6.939281127809933],[80.63049707339509,6.939150053601059],[80.63061289224618,6.939119145320737],[80.63071328555887,6.939126946977475],[80.6308367026325,6.939219535381758],[80.63096009897204,6.939373873211161],[80.63103725489353,6.939535825648243],[80.63115301696381,6.939690161087243],[80.63123779978255,6.93988291957116],[80.63127073873248,6.940206413713046],[80.63127628766067,6.940260906827148],[80.63146147219629,6.940438434750329],[80.63153635967096,6.940366795966499],[80.63164294614562,6.940264833354607],[80.6316932603954,6.939883059736373],[80.63183997632001,6.939620991895097],[80.63190662207944,6.939376982322294],[80.63191364892968,6.939327628660688],[80.63192381478278,6.939282454803539]]]]}},{"type":"Feature","properties":{"GND_N":"Kotagala","GND_NO":"475","GND_C":"115","PROVINCE_N":"CENTRAL","PROVINCE_C":"2","DISTRICT_N":"NUWARA ELIYA","DISTRICT_C":"3","DSD_N":"THALAWAKELE","DSD_C":"12","Admin_Code":"2312115","GND_NO_Cen":"475","GND_NAME_C":"Kotagala","GND_NO_Gaz":"475","GND_NAME_G":"කොටගල","shape_1":"Polygon","Area__Ha_":280.411445745,"MWS_ID":"155","Alt_MWS":null,"Area":2.80411445745,"Tot_Pop":8106.0,"PopDensity":2890.75218683},"geometry":{"type":"MultiPolygon","coordinates":[[[[80.60789612346358,6.940585084421443],[80.60824015694759,6.940186883506333],[80.60838864736778,6.940140166748944],[80.60848241455292,6.940093287682662],[80.60869338900525,6.940093362362647],[80.60899807625987,6.940195065413558],[80.60925598469996,6.940226383346328],[80.6094357314366,6.940156080964416],[80.60959198994706,6.940140590781919],[80.60956858721642,6.93993753650214],[80.60947489819834,6.939765682601309],[80.60906883412912,6.939234537832134],[80.60900156819224,6.93906750141208],[80.60900567799744,6.939064099922349],[80.60931692472087,6.938812307081681],[80.6095233333241,6.938652260688071],[80.60953281615087,6.938643224483271],[80.60993670549814,6.938258292433875],[80.61035785274827,6.937889544275713],[80.61037319776254,6.937875967726401],[80.61077897897184,6.937516946946817],[80.61127322265534,6.937041212118452],[80.61132834506166,6.936988157901293],[80.61187970329225,6.936512312058486],[80.61233111157652,6.936122726252145],[80.6132686518649,6.935313581716269],[80.61330846162777,6.935279225962251],[80.61376490495857,6.934846533503183],[80.61355042017438,6.934587068563403],[80.61342269244642,6.93443255392096],[80.61314878183187,6.934137725898649],[80.61291192536258,6.933754132859582],[80.61289385014109,6.933741845111988],[80.61263133628964,6.933502646123817],[80.61249238759248,6.933256445973098],[80.6123414883965,6.933079793519399],[80.61216722729742,6.932927489788494],[80.61214871917747,6.932900619763681],[80.61208145246253,6.932802964683495],[80.61191543682239,6.932660730566292],[80.61194683344078,6.932239104889608],[80.61187662157916,6.932051717072662],[80.61168921953812,6.931778379446217],[80.61152515950337,6.931473680028794],[80.61159545890511,6.931403479761775],[80.61167194864433,6.931313886760335],[80.61177249902856,6.931353399574848],[80.61196463441735,6.93142706938678],[80.6120177956389,6.931320057443625],[80.6120657228803,6.931209413755652],[80.61226629441185,6.931086858764994],[80.61262845879428,6.931048101875727],[80.613002580447,6.931051222290702],[80.61338272547536,6.930946673857593],[80.61350243868999,6.930964659306983],[80.61365207354658,6.931006582294368],[80.61390942737056,6.93113228634444],[80.61419374202688,6.93118920902661],[80.61430449288976,6.931153357256234],[80.61437636003885,6.931051693220315],[80.61436143135141,6.930947008975552],[80.61425971711682,6.930809394252484],[80.61416916999971,6.930696105819744],[80.61405641721056,6.93054243476037],[80.61406829744256,6.930426501838543],[80.6141461295904,6.930381665309722],[80.61430178235624,6.930330874198954],[80.61429179710373,6.930256489856325],[80.61429389486429,6.93017692971496],[80.61429580835186,6.930104313756524],[80.6143448755525,6.930098494955182],[80.6145262996578,6.930076979863022],[80.6149169993794,6.930045885070635],[80.61519840398176,6.929991298501722],[80.6153820597817,6.929929430522941],[80.61582360553065,6.929780690695325],[80.61604342403464,6.92973571466003],[80.61612834511764,6.929718339765254],[80.61657377878956,6.92964826342422],[80.6169332148381,6.929656155993954],[80.61706608163179,6.929382926980856],[80.61715993236736,6.929078458786541],[80.61727728373721,6.928688087458561],[80.61734774326054,6.928563061256609],[80.6176915978875,6.928227448753962],[80.61794184424785,6.927899575552406],[80.61808639981699,6.927762987844654],[80.61801289275385,6.927681984483726],[80.6179340267248,6.92759507232666],[80.61752403495571,6.926974065846281],[80.61753636028689,6.926961057756174],[80.6176608157688,6.926829703055834],[80.6175905493071,6.926806224301396],[80.61752030547362,6.926712520828889],[80.6175019169535,6.926517534042198],[80.61743981902818,6.926528083820585],[80.61726244227896,6.92656897007271],[80.61705179598958,6.926606392415359],[80.61674826435046,6.926629823512072],[80.61673152470723,6.926631867066285],[80.61670633770164,6.926632740306751],[80.61640594221684,6.926643918747581],[80.61626042576188,6.926583969576037],[80.61605444235789,6.926410738808109],[80.6159062226073,6.92607626068154],[80.61596755655899,6.925916367464804],[80.61600103726582,6.925728649860191],[80.61600032894911,6.925725199652789],[80.61596443254237,6.925550169692118],[80.61560524902778,6.925287091935903],[80.61542059862563,6.925295881752514],[80.61507327848966,6.925379126548024],[80.61470395377901,6.925678958287147],[80.61470985683358,6.92617525198135],[80.61472303227238,6.926211800805721],[80.61471126793622,6.926293889760158],[80.614465160333,6.926094575016728],[80.61360592405738,6.925141640727957],[80.61341846103656,6.925047892864249],[80.61337547446243,6.925051835403806],[80.61330906298002,6.924919556303375],[80.61319966830648,6.924778926438997],[80.61301998266077,6.924685182902141],[80.61280907127103,6.924524594123836],[80.61262165299412,6.924302406784327],[80.61245759118712,6.924005621312052],[80.61224288618969,6.923778619776684],[80.61212953633968,6.923630782711232],[80.61191869615499,6.923267001767983],[80.6117988993295,6.923013198189309],[80.61178602052513,6.92298591230406],[80.61177270618037,6.922990682483316],[80.61147803274622,6.922737378885118],[80.61146616251617,6.922711438964628],[80.61100332745816,6.92199649901193],[80.61097292795998,6.92194874865227],[80.61079204959434,6.921527388956668],[80.61074149782735,6.921243972069179],[80.61076160344146,6.921079284023413],[80.61075334480688,6.921038117555566],[80.61074878013017,6.921025547771912],[80.6106516712812,6.92079544581448],[80.61053592169425,6.920694557853882],[80.61053093250571,6.920700408850373],[80.61043643575434,6.92081121343711],[80.6102670365715,6.920813917852799],[80.610329109655,6.921126102413043],[80.61037889685728,6.921488657629069],[80.61035357353887,6.92153590565645],[80.61027991991534,6.921673329714101],[80.60986275510061,6.921380352444231],[80.60976278166348,6.921299466074681],[80.60974714323203,6.921286813724081],[80.60931132384677,6.920934200612923],[80.60887816175244,6.920620823632677],[80.60858205743465,6.92107023596353],[80.6085547565677,6.92111262610996],[80.60791970558277,6.921563916727741],[80.6072605487864,6.922237452643616],[80.60721697194984,6.922283285072704],[80.60691987503624,6.922595760713361],[80.60635830139232,6.923223837537756],[80.60606634841044,6.923517404287436],[80.60628455309315,6.924030297653201],[80.60644067600204,6.924366080063702],[80.60652656977,6.924584843200728],[80.60631567036192,6.924397264085703],[80.60607351945421,6.924217584636573],[80.60601881676659,6.924162882823563],[80.60574543780255,6.923928650885896],[80.6057249968294,6.923905935256609],[80.60569277736789,6.923927573919178],[80.60567533909294,6.923942380355072],[80.60542187938154,6.924192498164388],[80.60536274802978,6.924260579133433],[80.6053593955368,6.924264636498108],[80.60534001843791,6.924288076634933],[80.60476722367704,6.92495907890848],[80.60421280622306,6.925552111528471],[80.60417772143929,6.925598848339842],[80.6041307266808,6.92566769588177],[80.60409102462572,6.925729890296794],[80.60379788790509,6.926192097425965],[80.60375456462518,6.926260407287982],[80.60354104955478,6.926171712983225],[80.6033691378825,6.926145343835317],[80.6032206618634,6.926160975089757],[80.60304874351762,6.926098456691553],[80.60293151257768,6.926129642642863],[80.60286587796476,6.926172075406141],[80.60279870726953,6.92621550325065],[80.60255649010068,6.92621541376042],[80.60246258206827,6.926269922302777],[80.6023409166405,6.926276818361167],[80.60238282397451,6.926415423772272],[80.60239166028593,6.926804236799273],[80.60238951771407,6.927212696585427],[80.60245564393264,6.927636514052359],[80.60240352819692,6.927671589657691],[80.602290227872,6.927776957921806],[80.60212602493975,6.927886263862595],[80.60195405927445,6.927948655500447],[80.60165828067376,6.928097759798789],[80.60131998674487,6.928455851025045],[80.60121902490779,6.928593579089184],[80.60049492643422,6.929339479629561],[80.60034193851601,6.929492947726678],[80.59997299797577,6.929863041299521],[80.59965839798363,6.930157858752418],[80.59947813759851,6.930401088732125],[80.59946467931998,6.930407532392291],[80.5993392906355,6.930511512704761],[80.59902919413022,6.93088046900669],[80.59864760094482,6.931231418715919],[80.5983064139559,6.931673550039368],[80.5980315340946,6.931798016307234],[80.5979309821923,6.931878467125784],[80.59795178598483,6.931968547500527],[80.59793602244746,6.932155904021374],[80.59787353372721,6.93212465359719],[80.59780732497696,6.93197740519668],[80.59681533158252,6.932771094144321],[80.59643559810137,6.933023202794111],[80.59616038171013,6.933205922010845],[80.59616412853035,6.93323379624707],[80.59628680527928,6.93342810517248],[80.59634913884764,6.93386545038668],[80.59633345543179,6.934478275537281],[80.59633334980927,6.934482356672985],[80.59637629969967,6.934579869936467],[80.59657304202734,6.934782081663999],[80.59666139507056,6.934872890331969],[80.596661331981,6.935036797489764],[80.59655183718358,6.935169578235285],[80.5965283323482,6.93525547838969],[80.59654170142132,6.935422487012358],[80.5965439540727,6.935450620216056],[80.59664935099647,6.935680977553644],[80.59675482179074,6.935723971585239],[80.59691175043622,6.935835603619093],[80.59710639185631,6.935974062811218],[80.59736406530632,6.936247434319437],[80.59750199345412,6.936459717442385],[80.59751555732153,6.936488123489349],[80.59753687876751,6.936532915040225],[80.59774670700004,6.936973716780469],[80.5979657433162,6.937156215034994],[80.59802952474986,6.937243397854527],[80.59805882684813,6.937315688095476],[80.59826001278225,6.937741247745154],[80.59840190091924,6.938119936995967],[80.59841273263267,6.938143873769694],[80.59848842591244,6.938302428670509],[80.59850637096923,6.938284831998077],[80.59876311180156,6.938060783704492],[80.59888537973758,6.937956366580982],[80.59896040629422,6.938071147770836],[80.59897558426033,6.938168547321762],[80.59911783047379,6.938146209668172],[80.59904525148633,6.937858361520448],[80.59916946214913,6.937819612820605],[80.59920953281605,6.937807112067102],[80.5993876208137,6.937841965779971],[80.59940726826919,6.937833546701063],[80.5994135981929,6.937832146470048],[80.5994535870697,6.937835080522368],[80.59953447081236,6.937828548076231],[80.59956485504208,6.937834281010935],[80.59962558793653,6.937839205947185],[80.59964032484008,6.937843309798004],[80.59977564900802,6.937880992402208],[80.6001589857566,6.938000589670853],[80.60031902126474,6.938050518502805],[80.6009844145176,6.93818858278704],[80.60158414037066,6.938346198567489],[80.60149152795123,6.938409373363356],[80.60148080531724,6.938420437326613],[80.60134198669547,6.938453844872414],[80.60122333926905,6.9385381357183],[80.60121208074133,6.938549572959569],[80.6011091540491,6.938642509413905],[80.60107317391498,6.938737944809644],[80.60106322558183,6.93886968272406],[80.60107326671299,6.938978573262454],[80.60114289657064,6.939118080632057],[80.6011049838184,6.93926119263662],[80.60109480770625,6.939397058664899],[80.60115513127613,6.939535344477903],[80.60120028091666,6.939603184827684],[80.6013485099332,6.939635661098252],[80.60147055288448,6.939689109591196],[80.60150389724238,6.939761537671558],[80.6015627588041,6.939793709606958],[80.6016705328457,6.939783841657015],[80.60176790552488,6.939753054841634],[80.60187153213094,6.939671730825102],[80.60190533458427,6.939640723434811],[80.60194240325693,6.939560181550665],[80.60201358587999,6.939494721725874],[80.6020874197051,6.93953103363392],[80.60217776098742,6.939511543570145],[80.60231141701794,6.939465679657777],[80.60242887492836,6.939414556594679],[80.60242654101297,6.939325827910315],[80.60242786540681,6.939319786663804],[80.6024813532168,6.939076031740202],[80.6024664080666,6.939049857173385],[80.6025515589637,6.938994021591656],[80.60283354994893,6.938722992987016],[80.60304109601067,6.938509581690786],[80.60317800101907,6.938395633690018],[80.60318493706835,6.938404693849272],[80.60338006265702,6.938818629666545],[80.60353639467365,6.938982734969828],[80.60367692101846,6.939060924478651],[80.60368731852488,6.939000805743989],[80.60377483703033,6.938494773521792],[80.60406787127317,6.938748653697338],[80.6042005672072,6.938975206759158],[80.60429147097466,6.939197828025418],[80.60431372992589,6.939252333784546],[80.60444263212986,6.939412472459925],[80.60462223560441,6.939740493974841],[80.60464956958461,6.940009961912744],[80.60472379983479,6.940029487652807],[80.60482529091688,6.940131118832879],[80.60496590722641,6.940349760885375],[80.60515334816606,6.940513734037483],[80.60525103815158,6.940513768412154],[80.6053421365637,6.940698265411792],[80.60655033045576,6.941245166074154],[80.60665207246613,6.94130503566442],[80.60669739725905,6.941328758529984],[80.60684882054994,6.941170255427161],[80.60700510000049,6.941092315878995],[80.60716535966425,6.940955735536267],[80.6073881246814,6.940803494782443],[80.6074193941254,6.940748821956345],[80.60756011852554,6.940670875769134],[80.60789612346358,6.940585084421443]]]]}},{"type":"Feature","properties":{"GND_N":"Dimbula","GND_NO":"475B","GND_C":"100","PROVINCE_N":"CENTRAL","PROVINCE_C":"2","DISTRICT_N":"NUWARA ELIYA","DISTRICT_C":"3","DSD_N":"THALAWAKELE","DSD_C":"12","Admin_Code":"2312100","GND_NO_Cen":"475B","GND_NAME_C":"Dimbula","GND_NO_Gaz":"475B","GND_NAME_G":"දිඹුල","shape_1":"Polygon","Area__Ha_":564.631285089,"MWS_ID":"155","Alt_MWS":null,"Area":5.64631285089,"Tot_Pop":4649.0,"PopDensity":823.369183177},"geometry":{"type":"MultiPolygon","coordinates":[[[[80.63423598990482,6.958810789723423],[80.63426769620622,6.958504451301381],[80.63431940991451,6.958458858562476],[80.63437546116828,6.958392836809328],[80.63448180995357,6.958289506306844],[80.63451630997316,6.958220607766872],[80.63453932287725,6.958138784907775],[80.63456093307113,6.957939242263936],[80.63455956927179,6.957698060720279],[80.6345546485478,6.957340114604182],[80.63455671191772,6.956846267218756],[80.63448399400278,6.956593578536351],[80.63436158436137,6.95596570394169],[80.63428508266857,6.95555414199355],[80.6341510559582,6.955337803717081],[80.63403429660355,6.955029591159998],[80.63382182283084,6.95450505264593],[80.63360358850503,6.954024538935707],[80.63337383295328,6.953639726342826],[80.63309233251539,6.953331463720579],[80.63289707090422,6.952902637417912],[80.63252748387262,6.952494814164917],[80.63216554995174,6.952123360947857],[80.63190321385159,6.951794048275631],[80.63171939328717,6.951545154097991],[80.63142252436396,6.951388103774379],[80.63127987332085,6.951346666782554],[80.63131415684182,6.951133780427054],[80.63133414028725,6.951009680889466],[80.63140669279271,6.950696088015625],[80.63160466939954,6.95037625755344],[80.6316415213303,6.950333954956997],[80.63185076668337,6.950085160976601],[80.63202146240123,6.949934239254554],[80.63230718193016,6.949681617799788],[80.63255565071522,6.949380636471251],[80.63284563644132,6.949054347636253],[80.63294242120303,6.948924169868863],[80.63305660756195,6.94874211038097],[80.63309969344446,6.948641158294692],[80.63314072622036,6.948545018354971],[80.63320275038068,6.94846087690176],[80.6332703487393,6.948297887958074],[80.6333348454554,6.948195274759175],[80.63344531916557,6.948106068362422],[80.63353612556098,6.948202163125903],[80.63363160225407,6.948317660487753],[80.63371054410389,6.948402119416966],[80.63377121339184,6.948449869333397],[80.63387805726319,6.948360247565835],[80.634051361249,6.948231952766572],[80.63405572457047,6.948224843437275],[80.63419694237147,6.948109682271778],[80.63420287010014,6.948103666729608],[80.63443330169703,6.947894392015311],[80.63464366277738,6.94768281873227],[80.63471241308845,6.947370180883934],[80.63471347156609,6.947365365714651],[80.63481399944193,6.94686341956864],[80.6349947756634,6.9463158167022],[80.63498270583874,6.946327677732885],[80.63495855687383,6.946379512282703],[80.635071319969,6.946082786291453],[80.63500849386686,6.945639784392255],[80.63495815536862,6.94529219795101],[80.63495624073926,6.945278981694893],[80.63481790333643,6.945008267521292],[80.63498593691463,6.94481357853703],[80.63507261556536,6.944802939799148],[80.635018857289,6.944560823698273],[80.63492972929222,6.944415747396841],[80.63483760309676,6.944331224136155],[80.63480803253655,6.944304093935188],[80.63468182834833,6.944254998822138],[80.634583603671,6.944181998301065],[80.6345637164377,6.944167215811641],[80.63445877249893,6.94399386755527],[80.63445378914797,6.943914043832138],[80.63442945260242,6.943677460948874],[80.63444215276617,6.943588464612778],[80.63436347580458,6.943299110311384],[80.6343122305233,6.943077317589533],[80.63434576844445,6.942893465577071],[80.63430282876897,6.942748362308816],[80.63429666295875,6.942742790772627],[80.63427810412838,6.942737665868988],[80.63422661972388,6.942679508280492],[80.63410055992931,6.942537108370014],[80.63398491043142,6.942475327779347],[80.63373788750755,6.94244444972854],[80.63363748553373,6.942459820003839],[80.63360846640269,6.942495304788538],[80.6336028298787,6.942502198505255],[80.63346762222814,6.942583123931624],[80.63339052925161,6.942675651159382],[80.63325153574854,6.94265257714515],[80.63302003552093,6.942721886330074],[80.63273443523025,6.942606075314317],[80.63260324036291,6.942513483223066],[80.63254149534316,6.942351534815258],[80.6325261613697,6.942089279211173],[80.63230242353468,6.941742036798274],[80.63210955746828,6.941256192722774],[80.63192441093521,6.940955309923154],[80.63146147219629,6.940438434750329],[80.63127628766067,6.940260906827148],[80.63127073873248,6.940206413713046],[80.63123779978255,6.93988291957116],[80.63115301696381,6.939690161087243],[80.63103725489353,6.939535825648243],[80.63096009897204,6.939373873211161],[80.6308367026325,6.939219535381758],[80.63071328555887,6.939126946977475],[80.63061289224618,6.939119145320737],[80.63049707339509,6.939150053601059],[80.63033498459232,6.939281127809933],[80.63016746936412,6.93934799922351],[80.63005666366725,6.939265882911697],[80.6299074656404,6.939150025506213],[80.62968667559832,6.939203780352266],[80.62965574247248,6.939095817967113],[80.62957829467811,6.93907427667518],[80.62951689622001,6.939057198625082],[80.6294088628543,6.939064796669808],[80.6293873091382,6.939072966818329],[80.6291849934393,6.939149647971035],[80.62913736623486,6.939143642984876],[80.62912320386081,6.939141857985743],[80.62906353961901,6.9390948466282],[80.62906646344913,6.939011031845753],[80.62907520794886,6.938892818663473],[80.6290676323521,6.938887058524681],[80.6289094966663,6.93876684826984],[80.62879032253487,6.938671678869396],[80.6287882104991,6.938546283845591],[80.62880636955875,6.938404802815626],[80.62887161077678,6.938293025154789],[80.62890134315796,6.938178974742566],[80.62870832586084,6.938158801749128],[80.62858749822037,6.938154474922318],[80.62845076283337,6.938193758297246],[80.62838835892325,6.938249621072933],[80.62828886644178,6.938281856024346],[80.62827680941787,6.938281869439784],[80.62819183213566,6.938249633835947],[80.62819164206589,6.938229475652543],[80.62818708320377,6.938173222110168],[80.62813470550222,6.938177106956709],[80.62809061289711,6.938261795991982],[80.62807032453915,6.938278044738253],[80.62801729489695,6.938314790428239],[80.62796516903917,6.938346657606379],[80.62785273422882,6.938114145175888],[80.62773928208861,6.937879528054788],[80.62771007612345,6.937840922659706],[80.62770782982759,6.937824088099618],[80.6276126007544,6.937772759957489],[80.62747967740631,6.937788260720635],[80.62747191384246,6.937741487022065],[80.62759523763877,6.937488414724294],[80.6276127022739,6.937452573993835],[80.62761271310163,6.937418115912648],[80.62761271697079,6.937405802737288],[80.62772220773955,6.93725747397158],[80.62773936451518,6.937204813752165],[80.62766117761566,6.937085764873762],[80.6274309255824,6.936921845779021],[80.62730940548151,6.936786847360129],[80.62716719637613,6.93671644588438],[80.62691122381831,6.936499948707587],[80.62670484477135,6.936183883692393],[80.62663265715834,6.936002539065689],[80.62654025862108,6.935953433514451],[80.62643131379984,6.936000779850187],[80.62622658843392,6.935845297390361],[80.62578158270242,6.935522761945752],[80.62550857301673,6.935256702061407],[80.62516244597913,6.934912819445208],[80.62504931435362,6.934820170478465],[80.6247652241437,6.934972431797835],[80.62466484758409,6.934641420688613],[80.62465985018459,6.9346249415352],[80.62465213159938,6.934613922679959],[80.62438636484077,6.934234445078104],[80.62408950606239,6.933968848806464],[80.62390203242737,6.933890649288612],[80.62363640022576,6.933703200261611],[80.62334732201171,6.933429834343186],[80.62311311880924,6.933125258119052],[80.62287879914301,6.932742543353942],[80.62281633324534,6.932640927678288],[80.62269136936449,6.932447579569808],[80.6225740930309,6.932266123877349],[80.62228521935965,6.931805251842076],[80.62211332934575,6.931641289488764],[80.62203571837915,6.931603223263933],[80.6217149271213,6.931445883459365],[80.62142578154554,6.931383335210674],[80.62130078680006,6.931375522681701],[80.62108980586494,6.931406679743],[80.62098812152527,6.931461329582982],[80.62090722764287,6.931339991715883],[80.62087872986505,6.931297245276018],[80.62082422487919,6.931070866996625],[80.62075289001962,6.931038362361748],[80.62073826618483,6.931031698177748],[80.62064453020173,6.930992668769155],[80.6206330562621,6.930978614635282],[80.62051800028735,6.930837703312013],[80.62033202026011,6.930609927114624],[80.62024418218142,6.93054299145052],[80.62016803692873,6.930484962617105],[80.62011266874292,6.930465317100586],[80.6199257045585,6.93039897451794],[80.61985091329699,6.930324188188481],[80.61977728183737,6.930250561564194],[80.61967584297577,6.929992797827597],[80.61953519083964,6.929867841723228],[80.61951476664721,6.929862729201738],[80.61931646261317,6.929813086270377],[80.61924620932076,6.929742838306375],[80.61924129268817,6.929699098497923],[80.6192383160038,6.929672608268113],[80.61935561063045,6.929446145595],[80.61937139511359,6.929180648857261],[80.61934022612614,6.928938591848101],[80.61926204419487,6.928782213234912],[80.61922308076322,6.928704278078764],[80.61907472629598,6.928360588588604],[80.61903941218968,6.928313961167482],[80.61885593543835,6.928071701697784],[80.61877453935207,6.928040677419966],[80.61869193259662,6.928009191524753],[80.6185200036569,6.927969993754387],[80.61836375464878,6.92797785454858],[80.6181918491806,6.927868431953931],[80.61808639981699,6.927762987844654],[80.61794184424785,6.927899575552406],[80.6176915978875,6.928227448753962],[80.61734774326054,6.928563061256609],[80.61727728373721,6.928688087458561],[80.61715993236736,6.929078458786541],[80.61706608163179,6.929382926980856],[80.6169332148381,6.929656155993954],[80.61657377878956,6.92964826342422],[80.61612834511764,6.929718339765254],[80.61604342403464,6.92973571466003],[80.61582360553065,6.929780690695325],[80.6153820597817,6.929929430522941],[80.61519840398176,6.929991298501722],[80.6149169993794,6.930045885070635],[80.6145262996578,6.930076979863022],[80.6143448755525,6.930098494955182],[80.61429580835186,6.930104313756524],[80.61429389486429,6.93017692971496],[80.61429179710373,6.930256489856325],[80.61430178235624,6.930330874198954],[80.6141461295904,6.930381665309722],[80.61406829744256,6.930426501838543],[80.61405641721056,6.93054243476037],[80.61416916999971,6.930696105819744],[80.61425971711682,6.930809394252484],[80.61436143135141,6.930947008975552],[80.61437636003885,6.931051693220315],[80.61430449288976,6.931153357256234],[80.61419374202688,6.93118920902661],[80.61390942737056,6.93113228634444],[80.61365207354658,6.931006582294368],[80.61350243868999,6.930964659306983],[80.61338272547536,6.930946673857593],[80.613002580447,6.931051222290702],[80.61262845879428,6.931048101875727],[80.61226629441185,6.931086858764994],[80.6120657228803,6.931209413755652],[80.6120177956389,6.931320057443625],[80.61196463441735,6.93142706938678],[80.61177249902856,6.931353399574848],[80.61167194864433,6.931313886760335],[80.61159545890511,6.931403479761775],[80.61152515950337,6.931473680028794],[80.61168921953812,6.931778379446217],[80.61187662157916,6.932051717072662],[80.61194683344078,6.932239104889608],[80.61191543682239,6.932660730566292],[80.61208145246253,6.932802964683495],[80.61214871917747,6.932900619763681],[80.61216722729742,6.932927489788494],[80.6123414883965,6.933079793519399],[80.61249238759248,6.933256445973098],[80.61263133628964,6.933502646123817],[80.61289385014109,6.933741845111988],[80.61291192536258,6.933754132859582],[80.61314878183187,6.934137725898649],[80.61342269244642,6.93443255392096],[80.61355042017438,6.934587068563403],[80.61376490495857,6.934846533503183],[80.61330846162777,6.935279225962251],[80.6132686518649,6.935313581716269],[80.61233111157652,6.936122726252145],[80.61187970329225,6.936512312058486],[80.61132834506166,6.936988157901293],[80.61127322265534,6.937041212118452],[80.61077897897184,6.937516946946817],[80.61037319776254,6.937875967726401],[80.61035785274827,6.937889544275713],[80.60993670549814,6.938258292433875],[80.60953281615087,6.938643224483271],[80.6095233333241,6.938652260688071],[80.60931692472087,6.938812307081681],[80.60900567799744,6.939064099922349],[80.60900156819224,6.93906750141208],[80.60906883412912,6.939234537832134],[80.60947489819834,6.939765682601309],[80.60956858721642,6.93993753650214],[80.60959198994706,6.940140590781919],[80.6094357314366,6.940156080964416],[80.60925598469996,6.940226383346328],[80.60899807625987,6.940195065413558],[80.60869338900525,6.940093362362647],[80.60848241455292,6.940093287682662],[80.60838864736778,6.940140166748944],[80.60824015694759,6.940186883506333],[80.60789612346358,6.940585084421443],[80.60756011852554,6.940670875769134],[80.6074193941254,6.940748821956345],[80.6073881246814,6.940803494782443],[80.60716535966425,6.940955735536267],[80.60700510000049,6.941092315878995],[80.60684882054994,6.941170255427161],[80.60669739725905,6.941328758529984],[80.60688607432415,6.941427513112064],[80.6070619445932,6.94157055100302],[80.60744009138958,6.94181009901712],[80.60770719084788,6.942130415972847],[80.608031475897,6.942478327496665],[80.60833388569303,6.942837598295913],[80.6085363732753,6.943243932092971],[80.60881733371616,6.943795437139686],[80.6089223197287,6.944160416286283],[80.60933725275487,6.943682498977377],[80.60936470983054,6.943670364601193],[80.60974076390895,6.944209428502677],[80.60982490505647,6.944490008481289],[80.61011693692903,6.944909427798272],[80.61019572319256,6.9450906812191],[80.61019983794087,6.945091369038278],[80.61038719575691,6.945505300243662],[80.61066279178345,6.946070768596372],[80.61069170540277,6.946130092778794],[80.61083230793997,6.946403413489153],[80.61096897905378,6.946594780984417],[80.6110432315447,6.946551851917331],[80.61113893739554,6.946546289414262],[80.6111761550803,6.946544125710553],[80.61141834730029,6.946645805481729],[80.61148082890833,6.946700368330786],[80.61148038574734,6.946702144252525],[80.61182727863952,6.946743945729098],[80.61192273336015,6.946921912048877],[80.61210420829089,6.947108979389052],[80.61201491581126,6.947588973652048],[80.61203550734764,6.947598852309351],[80.61221067523776,6.947682895967806],[80.61244254935089,6.948022546851146],[80.61257695084613,6.948219418583273],[80.61286066860796,6.948683545456296],[80.6132585578352,6.949210641940704],[80.61326603332229,6.949220544964641],[80.6132955436237,6.94919658172251],[80.61341016489018,6.94915300333517],[80.61368372144861,6.948926594373367],[80.6136993544333,6.948881724886435],[80.61374628507531,6.948747025096609],[80.61384836024715,6.948790222235625],[80.61394945546799,6.948833005744511],[80.61406667619426,6.948848729495241],[80.61448091787895,6.948661365983216],[80.6148259328594,6.948610420744649],[80.61490289316342,6.948599056238026],[80.61506691403855,6.948622567390622],[80.61513732216926,6.948661590897979],[80.61526225393587,6.948872452049666],[80.61528496073414,6.94902792793827],[80.61535578900158,6.949512852485014],[80.61549243269582,6.949790126891973],[80.61562910757625,6.949981493081762],[80.6157307496476,6.950067438490604],[80.61593376920099,6.950184644275926],[80.61610980939669,6.950228585838016],[80.61612139965816,6.9502314781469],[80.61617610466678,6.950286179735992],[80.61615667694772,6.950355816326318],[80.61651468949276,6.950656032762917],[80.61665974122019,6.950800703530238],[80.61694562867122,6.951017223486689],[80.61711080177648,6.951083355645539],[80.61737991811782,6.951342873534114],[80.61750891221206,6.951422176516111],[80.61777933318956,6.951616641760452],[80.6177751858293,6.951629324303759],[80.61780888916444,6.951653233951561],[80.61794161532112,6.951817184739648],[80.6180777808526,6.952161310710448],[80.61829557162477,6.952178258051397],[80.61856027702275,6.95221927935921],[80.61876409539872,6.952250049718405],[80.61896869420386,6.952274525307689],[80.61915095225967,6.952325706875632],[80.619377782624,6.952377204302538],[80.61952129045221,6.952446957465261],[80.6197974742851,6.952720111628152],[80.61989679366981,6.952833341315582],[80.62003572257734,6.953039252028918],[80.62016921391621,6.953290197643801],[80.620359222896,6.953525206114837],[80.62045773567844,6.953714108569327],[80.6205371502212,6.953743748366398],[80.62070476336301,6.954003409111977],[80.62085966380253,6.954151092331138],[80.62105608421187,6.954318318739911],[80.62128957477863,6.954405727840284],[80.62156833533375,6.954461340526522],[80.62170096034939,6.954465203742119],[80.62191880082598,6.954458440104277],[80.62211765497594,6.954507551469053],[80.62235388214647,6.954576892711621],[80.62260627049103,6.954634013645337],[80.62278886838342,6.954696216652881],[80.62299160302683,6.954749294339384],[80.62320072472001,6.954765010388663],[80.62345669621212,6.954713112229705],[80.62364631827519,6.954693399723443],[80.62383520972634,6.954652061998651],[80.6239759228168,6.954622504574518],[80.62411772177113,6.954534398426703],[80.6243816781911,6.954456407391657],[80.62459157917657,6.954415335650585],[80.62474735232588,6.95434090524243],[80.62501196608005,6.954272639075843],[80.62543065275342,6.954210415756175],[80.62574292558101,6.954143079550631],[80.62598127737078,6.954118075995043],[80.62620985318578,6.95408186202703],[80.62649757433427,6.954050138534233],[80.6265884017794,6.954007502576389],[80.6267074537575,6.953998910370948],[80.62682727123992,6.954042172765015],[80.62693048544719,6.95408836167659],[80.62708155818379,6.954143548244761],[80.6270317886174,6.954333885639827],[80.62696649390647,6.954451682028734],[80.62691964172043,6.954600032031157],[80.62691958242715,6.954787393636013],[80.62694045356199,6.954822316777068],[80.62695463388714,6.954846044179654],[80.62682958654956,6.954978685002855],[80.62672047638257,6.955245496966751],[80.62671623130947,6.955255878979957],[80.62664544297986,6.95537366091694],[80.62657545687739,6.955490108325691],[80.62651062468424,6.955484228722922],[80.62649434993274,6.955561040687668],[80.62660022984508,6.955709463442261],[80.62675814972708,6.955698128090424],[80.62680963491663,6.955712368362058],[80.62681186466872,6.955712984906418],[80.62693871712368,6.955745189718299],[80.6269526363428,6.955733284274585],[80.62700670698008,6.955602179151361],[80.62740164390479,6.954832964988173],[80.62754645752675,6.954553305618087],[80.62763912527815,6.954483485393102],[80.62771083870767,6.954481790641807],[80.62781002026257,6.954479447070102],[80.62793370028818,6.954540819330756],[80.6281281072287,6.954721919861962],[80.62819847398576,6.954812699074454],[80.62826161538085,6.954894158845475],[80.62832404364688,6.955125736663509],[80.62841067987361,6.955222278718077],[80.62855998638507,6.955419730371914],[80.62867331046607,6.955542666854395],[80.62881606119268,6.955783857245822],[80.62888853721002,6.955899767055101],[80.62897114850821,6.956111281594744],[80.62905751007797,6.95641906444565],[80.62917049628217,6.95644837053411],[80.62931406679006,6.956566812787042],[80.62947851812841,6.957193305340713],[80.6294781255143,6.957213144104141],[80.62947673688898,6.95729274428387],[80.62931858640566,6.957694150849282],[80.62893178872477,6.958165488291695],[80.62943920816569,6.958599771307656],[80.63062131234867,6.959771120693211],[80.63066054102651,6.959807188771769],[80.63096919022043,6.960395674314098],[80.6316535167745,6.962083282811445],[80.63165865071004,6.962095940285522],[80.6317164995086,6.962238600275196],[80.63204473142312,6.962227768379467],[80.63238896312325,6.962128372425938],[80.63247232228709,6.962124899023011],[80.63284910386405,6.961561553319937],[80.6328492994823,6.960915531717989],[80.63280167056493,6.960054154406157],[80.63289276270801,6.959500170910787],[80.63309292398733,6.959148007743257],[80.63312263037541,6.959123892306287],[80.6332873126689,6.958975267190977],[80.63383768252923,6.958811473721979],[80.63423598990482,6.958810789723423]]]]}}]}