{
"type": "FeatureCollection",
"name": "SED_PPL_MWS_034_2",
"crs": { "type": "name", "properties": { "name": "urn:ogc:def:crs:OGC:1.3:CRS84" } },
"features": [
{ "type": "Feature", "properties": { "GND_N": "Hathkinda", "PROVINCE_N": "UVA", "DISTRICT_N": "BADULLA", "DSD_N": "UVAPARANAGAMA", "Female": 289, "Male": 281, "Density": 310.37273444700003, "MWS_ID": "034-2", "GND_NO": "38B", "GND_C": "040", "PROVINCE_C": "8", "DISTRICT_C": "1", "DSD_C": "27", "Admin_Code": "8127040", "GND_NAME_G": "හත්කිඳ", "AreaGND": 183.65015245800001, "MWS_ID_2": null, "AreaGND_1": 1.83650152458, "Total": 570, "FP_MWS": "034_2" }, "geometry": { "type": "MultiPolygon", "coordinates": [ [ [ [ 80.956527561153848, 7.02176208265188 ], [ 80.956721539966409, 7.021754829756833 ], [ 80.956927509377394, 7.021785855304627 ], [ 80.956996312467453, 7.021790670526709 ], [ 80.957097548378712, 7.021797753025984 ], [ 80.957360982016667, 7.021802435363034 ], [ 80.957507084030183, 7.021843055867648 ], [ 80.957689126733158, 7.021931514102018 ], [ 80.957916667020399, 7.022010383438464 ], [ 80.958079545263971, 7.022084493883362 ], [ 80.958223254309544, 7.022132290799816 ], [ 80.958381453134777, 7.022115643518198 ], [ 80.958519825565531, 7.022112298161407 ], [ 80.958750061327592, 7.021976563844287 ], [ 80.958917641184655, 7.021828153628297 ], [ 80.958979832743225, 7.02163671651074 ], [ 80.959013270320469, 7.021402222727325 ], [ 80.95916645287565, 7.021182038288112 ], [ 80.959573507084528, 7.021004823570219 ], [ 80.959832093134224, 7.020861161332389 ], [ 80.960205619729535, 7.020683958270443 ], [ 80.960585414576329, 7.020524120667261 ], [ 80.960859228112497, 7.020435923280226 ], [ 80.961035159119277, 7.020385818571869 ], [ 80.961278381198994, 7.020362919747252 ], [ 80.961300487629671, 7.020359230494388 ], [ 80.961565742138035, 7.020314953962448 ], [ 80.961843547614407, 7.020324414656785 ], [ 80.962078266073533, 7.020386530393271 ], [ 80.962317801134461, 7.020515640022994 ], [ 80.962420990321363, 7.020596258314203 ], [ 80.962423316331439, 7.020598075058801 ], [ 80.962538193556767, 7.020687824951242 ], [ 80.962582644256074, 7.020730019683755 ], [ 80.962701259779095, 7.020842615481615 ], [ 80.962840960286101, 7.020975227948476 ], [ 80.962972030897674, 7.020897619416052 ], [ 80.963101321319016, 7.020822918012906 ], [ 80.963336915827711, 7.020674956684116 ], [ 80.963568182892303, 7.020491109364707 ], [ 80.963825302802803, 7.02027710368042 ], [ 80.963825403225925, 7.020276986984169 ], [ 80.964070901511192, 7.019994192122848 ], [ 80.964071088795791, 7.019993997621022 ], [ 80.964469187992862, 7.019579254048423 ], [ 80.964469375277076, 7.019579059546452 ], [ 80.964625023370246, 7.019416298894255 ], [ 80.965164492770498, 7.018627728963343 ], [ 80.96544440762149, 7.017931351720065 ], [ 80.965544640561944, 7.017062773547804 ], [ 80.965644680199972, 7.015720451014857 ], [ 80.965658453325503, 7.014241779396388 ], [ 80.965884210101123, 7.012929719470258 ], [ 80.965968913454688, 7.012507577059369 ], [ 80.966158018949528, 7.011990736388436 ], [ 80.966461860683182, 7.01116449057903 ], [ 80.966690958351975, 7.010609291614764 ], [ 80.966871203826983, 7.010018439947716 ], [ 80.967044281423142, 7.009476962916948 ], [ 80.967038583714896, 7.009476896499054 ], [ 80.967032453360872, 7.009476824830612 ], [ 80.966911925333818, 7.009475417732195 ], [ 80.966888238286245, 7.009477004447248 ], [ 80.966824712352988, 7.009493294221468 ], [ 80.96681819803257, 7.009494964410084 ], [ 80.966802883919243, 7.009502610236218 ], [ 80.966714102172801, 7.009540095531468 ], [ 80.966650061287041, 7.009612394037489 ], [ 80.966569259183061, 7.009666021659245 ], [ 80.96655555219786, 7.009672823104762 ], [ 80.966448904194323, 7.009665138874185 ], [ 80.966408840723986, 7.009668445854223 ], [ 80.966245727953989, 7.00970720361506 ], [ 80.966231506082011, 7.009714322672552 ], [ 80.966118456096666, 7.009737710390108 ], [ 80.966082412435895, 7.009739304762953 ], [ 80.966062581290714, 7.009752437038167 ], [ 80.966032162475102, 7.009802259701336 ], [ 80.965989715009727, 7.009812507295766 ], [ 80.965807603214614, 7.009856469645835 ], [ 80.965521084235533, 7.009872126467307 ], [ 80.965480967496319, 7.009864593405077 ], [ 80.965397187520992, 7.009848862217817 ], [ 80.965187990285045, 7.009771655626271 ], [ 80.96500466086566, 7.009670996090398 ], [ 80.964849542857223, 7.009585825984937 ], [ 80.964723309781846, 7.009516515836927 ], [ 80.964591638681128, 7.009501024331669 ], [ 80.964367025856305, 7.009423825343116 ], [ 80.964272908381687, 7.009427639358631 ], [ 80.964173419151777, 7.009431673439408 ], [ 80.964107964199329, 7.009472545528337 ], [ 80.964049564636412, 7.009509013507306 ], [ 80.963987623668672, 7.009516810779867 ], [ 80.963786223830255, 7.009485944617728 ], [ 80.963654540419597, 7.009439510918293 ], [ 80.963554003323807, 7.009478265436082 ], [ 80.963291159274519, 7.00933651146284 ], [ 80.963217059039366, 7.009296549519061 ], [ 80.9623489679242, 7.008924225696746 ], [ 80.962306983538284, 7.00890621845253 ], [ 80.961857721241032, 7.008651070565434 ], [ 80.961679647405347, 7.00859702219631 ], [ 80.961439456687373, 7.008457795729353 ], [ 80.961021115561607, 7.008071225644384 ], [ 80.960029478066474, 7.007050306293681 ], [ 80.959831993400584, 7.006899475339206 ], [ 80.959719683418328, 7.006849217655447 ], [ 80.959386755100837, 7.006803001268126 ], [ 80.959289266553128, 7.006799827059765 ], [ 80.959266685646199, 7.006799090684229 ], [ 80.958976294818086, 7.006671611344432 ], [ 80.958689762359299, 7.006648408379296 ], [ 80.958515183618616, 7.006655774694126 ], [ 80.958317967603946, 7.006664095608691 ], [ 80.95817086970942, 7.006617663579466 ], [ 80.957961799161666, 7.006493966565326 ], [ 80.957768118788266, 7.006308376005476 ], [ 80.95772164467428, 7.006447714080351 ], [ 80.957737255386718, 7.006586888056535 ], [ 80.957892203471857, 7.006818980644777 ], [ 80.957946428531486, 7.006973683031063 ], [ 80.957938682067194, 7.007058888513612 ], [ 80.957830415145835, 7.007221283270433 ], [ 80.957815222385648, 7.007266803165869 ], [ 80.957776171415532, 7.00738379734534 ], [ 80.957783982828602, 7.007468997730316 ], [ 80.957849919943158, 7.007557849918332 ], [ 80.957872425586558, 7.00754642158163 ], [ 80.957881139241053, 7.007589018561508 ], [ 80.957909053952577, 7.007725461274515 ], [ 80.957913087532063, 7.007862333705707 ], [ 80.957859253922436, 7.008022881653908 ], [ 80.957805449878123, 7.008187422122886 ], [ 80.95777338304913, 7.008298376417516 ], [ 80.957745677047143, 7.008414065815963 ], [ 80.957659881287583, 7.008516386547188 ], [ 80.957605649177168, 7.008587571390124 ], [ 80.957521062053161, 7.008618128125931 ], [ 80.957393587897755, 7.008751625648887 ], [ 80.957380529074555, 7.008836472342899 ], [ 80.957370101636954, 7.008900783806215 ], [ 80.957359739024142, 7.008954818640154 ], [ 80.957351876330932, 7.00900886155508 ], [ 80.957338931518649, 7.009065475576091 ], [ 80.957446530600308, 7.009183566280619 ], [ 80.957588205855387, 7.009267644405613 ], [ 80.957701499020587, 7.009357382666995 ], [ 80.957878645589346, 7.00945513107705 ], [ 80.957957587392102, 7.009489434627525 ], [ 80.958025889335701, 7.009487948693814 ], [ 80.95811231624424, 7.009521755572481 ], [ 80.958128874093688, 7.009528038665431 ], [ 80.958144679300716, 7.009547072850089 ], [ 80.958179195614647, 7.009630801528146 ], [ 80.958214361532072, 7.009716143244789 ], [ 80.958214514556246, 7.009720972212493 ], [ 80.958227534828453, 7.009779959077071 ], [ 80.95825249718078, 7.009850656686897 ], [ 80.958286931024219, 7.00999240153194 ], [ 80.958312802341283, 7.010019264063791 ], [ 80.9584662024088, 7.010060210729444 ], [ 80.958502086935894, 7.010114869736634 ], [ 80.958535699372547, 7.010178182079146 ], [ 80.958564562881207, 7.010255994190363 ], [ 80.958586163393065, 7.010421467703123 ], [ 80.958646937090393, 7.010598085243014 ], [ 80.958773859603482, 7.010621577084005 ], [ 80.958885013034418, 7.010872741906128 ], [ 80.958885052149796, 7.010973345704473 ], [ 80.958676005597709, 7.01128287153263 ], [ 80.958629687533573, 7.011460926829779 ], [ 80.958730444910032, 7.011986943264994 ], [ 80.95873831580866, 7.01222686504613 ], [ 80.958595276247209, 7.012720664924429 ], [ 80.958583663749394, 7.012760752151059 ], [ 80.958336065340632, 7.01321724166456 ], [ 80.958220072638014, 7.01351910068134 ], [ 80.958210437726393, 7.013610439016415 ], [ 80.958204571469409, 7.013666057377923 ], [ 80.958123370199118, 7.013971719106835 ], [ 80.958133607911421, 7.014258809787058 ], [ 80.958135094891773, 7.014300516984806 ], [ 80.958057723044021, 7.01431399401783 ], [ 80.957957052205558, 7.014331528644655 ], [ 80.957732510726274, 7.014439992609027 ], [ 80.957546678293042, 7.014440064277085 ], [ 80.957207984305427, 7.014440195612837 ], [ 80.957190427650474, 7.014440200558629 ], [ 80.9570147341107, 7.014352560700464 ], [ 80.956896064305951, 7.014293363907187 ], [ 80.956824948804567, 7.014290841959344 ], [ 80.956679256569572, 7.014285675468355 ], [ 80.95657854987607, 7.014254770339311 ], [ 80.95648560694913, 7.014185144996664 ], [ 80.956284211412424, 7.014169679714271 ], [ 80.956230028450236, 7.014123353551806 ], [ 80.956183602415251, 7.014022767499008 ], [ 80.956043975987953, 7.013550883012438 ], [ 80.955977262946988, 7.013320922039743 ], [ 80.955971955561211, 7.013302627120257 ], [ 80.955965239761241, 7.013279477486951 ], [ 80.955944244849334, 7.013263584082744 ], [ 80.955865437662396, 7.013203922344132 ], [ 80.955582998403045, 7.012990102398929 ], [ 80.955462916519963, 7.012955389112394 ], [ 80.955455587680618, 7.012948046176523 ], [ 80.955424292071214, 7.012916687507851 ], [ 80.955160962337885, 7.012924559384536 ], [ 80.955137759774217, 7.012901254135554 ], [ 80.954858877856083, 7.012924674169914 ], [ 80.954502814448574, 7.013040815291027 ], [ 80.954308314052298, 7.013023773934818 ], [ 80.954239471983016, 7.013017741998212 ], [ 80.954045826332731, 7.012924982146295 ], [ 80.954038357317856, 7.012917892448097 ], [ 80.953905296936554, 7.012916375540858 ], [ 80.953717558147133, 7.012952813315397 ], [ 80.953460507465309, 7.013129406643573 ], [ 80.953371413695962, 7.013131544530487 ], [ 80.953241662374367, 7.01313964536042 ], [ 80.953138102369621, 7.013171417532634 ], [ 80.953056301605898, 7.013179597040984 ], [ 80.952978701511583, 7.01317337378411 ], [ 80.952892148253383, 7.013139024338435 ], [ 80.952843262233543, 7.013070327618388 ], [ 80.952758135928661, 7.013003477532034 ], [ 80.952700668192293, 7.012958041119235 ], [ 80.952642380018219, 7.012940428887514 ], [ 80.952574192276472, 7.012941358761053 ], [ 80.952451004974947, 7.013021988184441 ], [ 80.952403950485859, 7.01305328415977 ], [ 80.952362501879605, 7.013071383211069 ], [ 80.952332816085629, 7.013091568626314 ], [ 80.952302113029603, 7.013124080197209 ], [ 80.952299675115512, 7.013130187026246 ], [ 80.952292459294284, 7.013146542405975 ], [ 80.95229410931168, 7.013187544212929 ], [ 80.952300126253775, 7.013191582428668 ], [ 80.952331302321568, 7.013230500501261 ], [ 80.952335372497146, 7.013232514689937 ], [ 80.952388609181156, 7.013252433038034 ], [ 80.952402908712656, 7.013258437743406 ], [ 80.95244524623196, 7.013291185122931 ], [ 80.952474632510928, 7.013343550075223 ], [ 80.952455863899033, 7.013406171688765 ], [ 80.952434154191721, 7.013448551372418 ], [ 80.952419024206293, 7.013467880383744 ], [ 80.952395372867045, 7.013483339415857 ], [ 80.952388764878179, 7.013496196689355 ], [ 80.952377829457689, 7.013511336258575 ], [ 80.952360386207062, 7.013528859318203 ], [ 80.952349412914316, 7.013541970528495 ], [ 80.952323186422433, 7.013562049748263 ], [ 80.95230133838875, 7.013573514657742 ], [ 80.952290408093049, 7.013578193138469 ], [ 80.952272936583526, 7.013583124561141 ], [ 80.952248507572889, 7.013590907169984 ], [ 80.952162877875381, 7.01373390645163 ], [ 80.952074797241409, 7.013778290474264 ], [ 80.95203471634413, 7.013818543733747 ], [ 80.95202383057871, 7.013862410565129 ], [ 80.952023994623545, 7.013935529578647 ], [ 80.952013108434315, 7.013983109516087 ], [ 80.952009451305045, 7.013986776060279 ], [ 80.951988283590424, 7.014031283368265 ], [ 80.951971056864821, 7.014061526389677 ], [ 80.951967728436728, 7.014072830632358 ], [ 80.951895255185079, 7.014118410623166 ], [ 80.951851568965907, 7.014126728520867 ], [ 80.951785800237815, 7.014131964620661 ], [ 80.951738076305546, 7.014133122765565 ], [ 80.951700329070519, 7.014130622858476 ], [ 80.951697551182036, 7.014130437606281 ], [ 80.951696491014602, 7.014134560761489 ], [ 80.951682368077741, 7.014189425230316 ], [ 80.951637684137197, 7.014238224116275 ], [ 80.951570638999726, 7.014284218017736 ], [ 80.951549852241087, 7.014284965492543 ], [ 80.951522159493678, 7.014285965130024 ], [ 80.951465966201084, 7.014221328640069 ], [ 80.9514017034316, 7.014133970683508 ], [ 80.951371304083509, 7.014058948496122 ], [ 80.951341144021256, 7.013982367182784 ], [ 80.951314887264502, 7.013921455242667 ], [ 80.951299866038156, 7.01390249107308 ], [ 80.951235722703572, 7.01389497116496 ], [ 80.95116752100779, 7.013895282293359 ], [ 80.951101758565059, 7.013934352236241 ], [ 80.951032117303271, 7.013950566212704 ], [ 80.950993839160304, 7.013939362439324 ], [ 80.950951785232618, 7.01392431673762 ], [ 80.950913303968065, 7.013916962690642 ], [ 80.950893897327973, 7.013917155280122 ], [ 80.950847218570104, 7.013917618434093 ], [ 80.950762680000935, 7.013926786072242 ], [ 80.950705310881787, 7.013937078531757 ], [ 80.950691770623877, 7.013940488289231 ], [ 80.950671332575439, 7.013954026189483 ], [ 80.950611051398184, 7.013987950303626 ], [ 80.950592569053484, 7.013998350416052 ], [ 80.950578881274879, 7.014001805440598 ], [ 80.950484861644824, 7.014067375791901 ], [ 80.950477678835497, 7.014077774427291 ], [ 80.950467158273611, 7.014091522063135 ], [ 80.95041189151145, 7.0141598036433 ], [ 80.950398056371057, 7.014173503672029 ], [ 80.95038767390632, 7.014183780504195 ], [ 80.950321853373268, 7.014225143697673 ], [ 80.95022166140869, 7.014368280057532 ], [ 80.950133403009445, 7.01446874019782 ], [ 80.950105303322189, 7.014517213588644 ], [ 80.950028710068551, 7.014698301505337 ], [ 80.949977007408521, 7.014844483707047 ], [ 80.94986769641379, 7.015091299155791 ], [ 80.949803453962986, 7.015180871492547 ], [ 80.94974966934376, 7.015270580131372 ], [ 80.949715626488441, 7.015328756250376 ], [ 80.949691025607635, 7.015351886781524 ], [ 80.949642439111201, 7.015397573374886 ], [ 80.949607021109927, 7.015420785660551 ], [ 80.949545154015084, 7.015499189734241 ], [ 80.949561267227665, 7.015597753842542 ], [ 80.949585371342764, 7.015680380116756 ], [ 80.949580500282764, 7.015764602328981 ], [ 80.949542161504255, 7.015846910689366 ], [ 80.949526302010341, 7.015896258527243 ], [ 80.949532628387104, 7.015961242793519 ], [ 80.949569676701159, 7.016007044316224 ], [ 80.949588332062149, 7.016026154602906 ], [ 80.949617835335118, 7.01610402400892 ], [ 80.949613585280119, 7.016151715390428 ], [ 80.949586207947476, 7.016208124729164 ], [ 80.949593310046822, 7.016268249837412 ], [ 80.949611895279631, 7.016357226413732 ], [ 80.949599603903707, 7.016431402640968 ], [ 80.949572165911817, 7.016463303328744 ], [ 80.949568202268523, 7.016475305014074 ], [ 80.949497334185949, 7.016555440539901 ], [ 80.94948802444668, 7.01657612830535 ], [ 80.949479513278675, 7.016595041515665 ], [ 80.949456540992031, 7.016646095695095 ], [ 80.949551184165358, 7.016720690100946 ], [ 80.949691942805984, 7.016891114634388 ], [ 80.949793802177993, 7.017106417317272 ], [ 80.949898654903748, 7.017321717963929 ], [ 80.949982537396082, 7.017492164305625 ], [ 80.950054434021467, 7.017632707646137 ], [ 80.950165270187981, 7.017839033424544 ], [ 80.95028808867248, 7.018060308443713 ], [ 80.950473760363678, 7.018254644188033 ], [ 80.950614517791692, 7.018422078758343 ], [ 80.950794202323422, 7.018616415682417 ], [ 80.951066677331397, 7.018783800277713 ], [ 80.951347700280849, 7.018923672349657 ], [ 80.95135392800394, 7.018939350802164 ], [ 80.951603273330406, 7.019069518585864 ], [ 80.951696056454793, 7.019117677468983 ], [ 80.951962567230552, 7.01925601091695 ], [ 80.952167364244346, 7.019360014303441 ], [ 80.952461981128437, 7.019499875173911 ], [ 80.952745838785944, 7.019682808659657 ], [ 80.953097967144018, 7.019915959858094 ], [ 80.953428554108058, 7.020181420926817 ], [ 80.953734012666743, 7.020486370788173 ], [ 80.953877773358784, 7.020672944754441 ], [ 80.953985601659895, 7.020834407765845 ], [ 80.954032356494281, 7.020977950502332 ], [ 80.954018031458389, 7.021096391845509 ], [ 80.953967791107601, 7.021232793746946 ], [ 80.953917555257178, 7.021376372260569 ], [ 80.953957143291845, 7.021570162183997 ], [ 80.954108087121597, 7.021753144129725 ], [ 80.954312896595297, 7.0218858593309 ], [ 80.954481773562009, 7.021993465383312 ], [ 80.954654239903448, 7.022090302368351 ], [ 80.954891002243841, 7.022230964021642 ], [ 80.954913406002092, 7.022239932606079 ], [ 80.954994809022125, 7.022267072596437 ], [ 80.955017379352725, 7.022276102605659 ], [ 80.955109221922115, 7.02231901794035 ], [ 80.955217127229361, 7.022369436543317 ], [ 80.955307581686043, 7.022268617430751 ], [ 80.95534947352985, 7.022221923600378 ], [ 80.955450024918861, 7.022140535177201 ], [ 80.955564951706194, 7.022071104387726 ], [ 80.955720582377481, 7.021982514647696 ], [ 80.956031410928603, 7.021873922709775 ], [ 80.956189357095397, 7.021821536053766 ], [ 80.956527561153848, 7.02176208265188 ] ] ] ] } },
{ "type": "Feature", "properties": { "GND_N": "Wethalawa", "PROVINCE_N": "UVA", "DISTRICT_N": "BADULLA", "DSD_N": "UVAPARANAGAMA", "Female": 396, "Male": 351, "Density": 205.91283823200001, "MWS_ID": "034-2", "GND_NO": "37A", "GND_C": "015", "PROVINCE_C": "8", "DISTRICT_C": "1", "DSD_C": "27", "Admin_Code": "8127015", "GND_NAME_G": "වෑතලාව", "AreaGND": 362.77485484300001, "MWS_ID_2": null, "AreaGND_1": 3.6277485484300001, "Total": 747, "FP_MWS": "034_2" }, "geometry": { "type": "MultiPolygon", "coordinates": [ [ [ [ 80.940988656325672, 7.044738337580258 ], [ 80.941128915866841, 7.044699358516282 ], [ 80.941162250084062, 7.044699357632557 ], [ 80.941313021166025, 7.044672333429517 ], [ 80.941444114453574, 7.044586291700387 ], [ 80.941458165527891, 7.044578449075861 ], [ 80.941538746403296, 7.04450626019799 ], [ 80.941601158037031, 7.044417521584083 ], [ 80.941713836458135, 7.044258041710311 ], [ 80.941770580514017, 7.044176474458857 ], [ 80.941860865323719, 7.044034197948356 ], [ 80.941920738980144, 7.043971768423568 ], [ 80.94199500300401, 7.04387056324821 ], [ 80.942057953412487, 7.043775191258701 ], [ 80.942178127914261, 7.043665858127277 ], [ 80.942275047387909, 7.04361257882438 ], [ 80.942300459615822, 7.043600455658945 ], [ 80.942413631320193, 7.043571983068408 ], [ 80.942539693122782, 7.04355215651998 ], [ 80.942597204932113, 7.04350730756669 ], [ 80.942681939468741, 7.043364354639734 ], [ 80.942771564366652, 7.043223191400785 ], [ 80.942780045164255, 7.043210985605442 ], [ 80.942866722253143, 7.043086229417603 ], [ 80.942996791328497, 7.042856287237091 ], [ 80.942996846125723, 7.042850036615789 ], [ 80.943104721999021, 7.042625356354654 ], [ 80.943172313380728, 7.042404654020727 ], [ 80.943173747318923, 7.042399968271386 ], [ 80.943272729150891, 7.042125744811056 ], [ 80.943400833067415, 7.041729875602073 ], [ 80.944498093296062, 7.040375805291385 ], [ 80.945644496748429, 7.039543401244809 ], [ 80.946766181558232, 7.038391229828366 ], [ 80.946930093165335, 7.038083437462164 ], [ 80.947342152518729, 7.037309672196589 ], [ 80.94756754397271, 7.036875453399351 ], [ 80.947736080984782, 7.036550766525577 ], [ 80.94820460765358, 7.035847067631749 ], [ 80.9483723709901, 7.035667979512506 ], [ 80.948948067064293, 7.035010914785973 ], [ 80.949233547208195, 7.034621582098468 ], [ 80.949815006203764, 7.033855840371488 ], [ 80.950560792135249, 7.033041433781226 ], [ 80.950912610345981, 7.032869886135943 ], [ 80.951214584212067, 7.033045408104152 ], [ 80.95130535484104, 7.033685691044336 ], [ 80.951576516556628, 7.034314885701799 ], [ 80.951641218283513, 7.034964539701299 ], [ 80.951681009264419, 7.035802713045134 ], [ 80.951777235922833, 7.036228830190979 ], [ 80.951898501178746, 7.036613214805156 ], [ 80.952045223233313, 7.03711245456202 ], [ 80.952263772303368, 7.037827863723131 ], [ 80.952745409605683, 7.038162101489976 ], [ 80.9536195696747, 7.038379543264443 ], [ 80.953849229092754, 7.038491620746012 ], [ 80.954396447002466, 7.038743149826393 ], [ 80.954819923337624, 7.039139340141732 ], [ 80.955043822354241, 7.039297348271382 ], [ 80.95512192396194, 7.039436698141158 ], [ 80.955225113661697, 7.039607653133563 ], [ 80.955453556374152, 7.039986119520131 ], [ 80.955749431299964, 7.04040260251378 ], [ 80.956030117847945, 7.040856497954062 ], [ 80.956508574425712, 7.041424821923814 ], [ 80.956964678331317, 7.042022220346514 ], [ 80.957595655924891, 7.042760943243595 ], [ 80.958032085445097, 7.0431363226392 ], [ 80.95845239193936, 7.043326461608774 ], [ 80.958520550344005, 7.043394568582534 ], [ 80.959106714075233, 7.043360327179151 ], [ 80.959331251624675, 7.043205376243829 ], [ 80.959524843358253, 7.043128009997208 ], [ 80.959927475726303, 7.043050420675869 ], [ 80.960353384359607, 7.042818242598642 ], [ 80.960995903091273, 7.042423341190143 ], [ 80.961105568854322, 7.042345605878763 ], [ 80.961121849313855, 7.042334064970551 ], [ 80.961204755581505, 7.042275298166653 ], [ 80.96116926862156, 7.042242136631944 ], [ 80.961152788564178, 7.042211304331742 ], [ 80.961082070093582, 7.042078999020041 ], [ 80.961034082044804, 7.041854107724602 ], [ 80.961023750685584, 7.041765554454139 ], [ 80.96099488738804, 7.04151815635487 ], [ 80.960995770249525, 7.041205064620413 ], [ 80.961096167776546, 7.04099938655596 ], [ 80.961190029779559, 7.040832398370489 ], [ 80.961338961502648, 7.040539558994582 ], [ 80.961550586354207, 7.040180955007048 ], [ 80.961794525276545, 7.039908507197612 ], [ 80.961992035958232, 7.039574671348229 ], [ 80.962430813572766, 7.03792971863275 ], [ 80.962797600456597, 7.036956672690104 ], [ 80.963176452481278, 7.035951612661995 ], [ 80.963238585841339, 7.035786776323465 ], [ 80.96320692521742, 7.034545408797129 ], [ 80.963167992556322, 7.034432364648865 ], [ 80.96309479709025, 7.033968349359983 ], [ 80.96296651511463, 7.033341916403093 ], [ 80.962759456492535, 7.032330786431964 ], [ 80.962479703963481, 7.031071346862122 ], [ 80.962421731232027, 7.029827185143152 ], [ 80.962459654268812, 7.028831823718535 ], [ 80.962478273394183, 7.027472784867016 ], [ 80.962132933123286, 7.026267019915049 ], [ 80.961921601706791, 7.024793223427217 ], [ 80.961844571099661, 7.023797906344777 ], [ 80.961805882620823, 7.022859998737498 ], [ 80.961786459390993, 7.022190060816142 ], [ 80.961983479930723, 7.021756522053374 ], [ 80.962067413020634, 7.021692085609334 ], [ 80.962806397455338, 7.02112474968098 ], [ 80.96283213525129, 7.021104988394335 ], [ 80.962903901061239, 7.021060459627681 ], [ 80.962898921041173, 7.021053715442321 ], [ 80.962840960286101, 7.020975227948476 ], [ 80.962701259779095, 7.020842615481615 ], [ 80.962582644256074, 7.020730019683755 ], [ 80.962538193556767, 7.020687824951242 ], [ 80.962423316331439, 7.020598075058801 ], [ 80.962420990321363, 7.020596258314203 ], [ 80.962317801134461, 7.020515640022994 ], [ 80.962078266073533, 7.020386530393271 ], [ 80.961843547614407, 7.020324414656785 ], [ 80.961565742138035, 7.020314953962448 ], [ 80.961300487629671, 7.020359230494388 ], [ 80.961278381198994, 7.020362919747252 ], [ 80.961035159119277, 7.020385818571869 ], [ 80.960859228112497, 7.020435923280226 ], [ 80.960585414576329, 7.020524120667261 ], [ 80.960205619729535, 7.020683958270443 ], [ 80.959832093134224, 7.020861161332389 ], [ 80.959573507084528, 7.021004823570219 ], [ 80.95916645287565, 7.021182038288112 ], [ 80.959013270320469, 7.021402222727325 ], [ 80.958979832743225, 7.02163671651074 ], [ 80.958917641184655, 7.021828153628297 ], [ 80.958750061327592, 7.021976563844287 ], [ 80.958519825565531, 7.022112298161407 ], [ 80.958381453134777, 7.022115643518198 ], [ 80.958223254309544, 7.022132290799816 ], [ 80.958079545263971, 7.022084493883362 ], [ 80.957916667020399, 7.022010383438464 ], [ 80.957689126733158, 7.021931514102018 ], [ 80.957507084030183, 7.021843055867648 ], [ 80.957360982016667, 7.021802435363034 ], [ 80.957097548378712, 7.021797753025984 ], [ 80.956996312467453, 7.021790670526709 ], [ 80.956927509377394, 7.021785855304627 ], [ 80.956721539966409, 7.021754829756833 ], [ 80.956527561153848, 7.02176208265188 ], [ 80.956189357095397, 7.021821536053766 ], [ 80.956031410928603, 7.021873922709775 ], [ 80.955720582377481, 7.021982514647696 ], [ 80.955564951706194, 7.022071104387726 ], [ 80.955450024918861, 7.022140535177201 ], [ 80.95534947352985, 7.022221923600378 ], [ 80.955307581686043, 7.022268617430751 ], [ 80.955217127229361, 7.022369436543317 ], [ 80.955203482044539, 7.022470816903584 ], [ 80.955150832312398, 7.022571328605174 ], [ 80.955083975471666, 7.022678866786212 ], [ 80.954984383601357, 7.022692045241705 ], [ 80.954758152240473, 7.022765283753739 ], [ 80.954602518391539, 7.022846692948082 ], [ 80.954310872236974, 7.022952581839953 ], [ 80.954200218483308, 7.023010822565136 ], [ 80.954193390438803, 7.023014061683608 ], [ 80.954138682364558, 7.023043581055173 ], [ 80.954121469911442, 7.023049872539979 ], [ 80.954097379360093, 7.023068239191192 ], [ 80.954093957591738, 7.023074495611605 ], [ 80.954024812088591, 7.023117164608244 ], [ 80.953874566942773, 7.023068888686121 ], [ 80.95372186930453, 7.0230001572029 ], [ 80.953611084611424, 7.022937391869776 ], [ 80.953473338825802, 7.022829773768888 ], [ 80.953356578010428, 7.022796918934761 ], [ 80.953236854619291, 7.022847808085601 ], [ 80.95314109537928, 7.022943551096704 ], [ 80.952988709319499, 7.023153574299595 ], [ 80.952945162772579, 7.023200834646981 ], [ 80.952624962840616, 7.023548358147877 ], [ 80.952430478516348, 7.023722904546672 ], [ 80.952094643244152, 7.024024309132145 ], [ 80.951870108242929, 7.024163714141792 ], [ 80.951657177021318, 7.024322472413927 ], [ 80.951370766946752, 7.024655196964708 ], [ 80.951284846980158, 7.024698196468735 ], [ 80.951215933259036, 7.024732686377397 ], [ 80.951045661091769, 7.024755923674979 ], [ 80.950883044718779, 7.024825642410685 ], [ 80.950464969284567, 7.025173958676037 ], [ 80.950248211080918, 7.025313218066146 ], [ 80.95018456111562, 7.025334458610596 ], [ 80.950073992489223, 7.02537135568549 ], [ 80.949884250628841, 7.025522333836845 ], [ 80.949651218302094, 7.025636597461424 ], [ 80.949489453075429, 7.025715917394041 ], [ 80.949477394326408, 7.025724592385408 ], [ 80.949295890463887, 7.025855167796492 ], [ 80.949280406208516, 7.026056382913334 ], [ 80.949282421314251, 7.02606442331273 ], [ 80.949340020860319, 7.026294096415994 ], [ 80.949348661431316, 7.026328548420282 ], [ 80.949349014958386, 7.026329957207968 ], [ 80.949389041528448, 7.026489565264346 ], [ 80.949373534283396, 7.026621120334598 ], [ 80.949311627008441, 7.026729518610441 ], [ 80.948971044227278, 7.027054490046597 ], [ 80.948613737693478, 7.027296411756558 ], [ 80.948467823482218, 7.027395205313611 ], [ 80.948343941859477, 7.02742619448418 ], [ 80.948142578603893, 7.027511330545057 ], [ 80.948018730953564, 7.027635152666674 ], [ 80.947894867167605, 7.0277126296789 ], [ 80.947499937029832, 7.027937157212126 ], [ 80.947321899672033, 7.027999109615493 ], [ 80.947159261808977, 7.028014571997518 ], [ 80.946973448354854, 7.028084299662494 ], [ 80.946856278353309, 7.028170614525603 ], [ 80.946826259884901, 7.028192728627319 ], [ 80.946624564374105, 7.028436220050574 ], [ 80.946416010621078, 7.028687989234761 ], [ 80.946245805909399, 7.028896890001598 ], [ 80.946106446388356, 7.029144636929677 ], [ 80.946077336502668, 7.029171493772453 ], [ 80.946011445410761, 7.029232281042692 ], [ 80.945912789711571, 7.029323297733122 ], [ 80.945905117494604, 7.029330376747541 ], [ 80.945843211823941, 7.029446405165068 ], [ 80.945647903622984, 7.029909608224891 ], [ 80.945634358765062, 7.029941731561894 ], [ 80.945440798903959, 7.030104155219948 ], [ 80.945375827666297, 7.030138559674172 ], [ 80.945309151434813, 7.030173863619841 ], [ 80.945115601576575, 7.030359597593488 ], [ 80.944953101278529, 7.030762075772485 ], [ 80.944968669311365, 7.030793014827345 ], [ 80.944856028687056, 7.031116055652838 ], [ 80.944852674929038, 7.031125674215602 ], [ 80.944690122159159, 7.031381059649755 ], [ 80.944519762534497, 7.031559156284833 ], [ 80.944248856404371, 7.03176809335208 ], [ 80.944221733641413, 7.031857120819652 ], [ 80.944171415274425, 7.031946016418871 ], [ 80.944156026407157, 7.032023454542498 ], [ 80.943815375319332, 7.032572944937632 ], [ 80.94370416557426, 7.0326634438727 ], [ 80.943482544977257, 7.032843792084866 ], [ 80.94320380631153, 7.032905779756971 ], [ 80.94277890174493, 7.033118284928884 ], [ 80.942723733056084, 7.033145876076608 ], [ 80.942568981158104, 7.033470776108409 ], [ 80.942553513058527, 7.033718478973518 ], [ 80.942514806194453, 7.033849900075502 ], [ 80.942332925211446, 7.034248426967843 ], [ 80.94232135986212, 7.034337449723653 ], [ 80.942398941173892, 7.034554032996544 ], [ 80.942360276318738, 7.034801602086349 ], [ 80.942228670053183, 7.034987456747436 ], [ 80.942058443838704, 7.035149868984147 ], [ 80.941849343694955, 7.035366694677473 ], [ 80.94163036416434, 7.035734016644374 ], [ 80.941609476301338, 7.035769057054358 ], [ 80.941506112345252, 7.035839337727562 ], [ 80.94148129928044, 7.035873259976968 ], [ 80.941451861898756, 7.03593588219353 ], [ 80.941434503262016, 7.035991474554425 ], [ 80.941452228243151, 7.036048026692153 ], [ 80.941436582404918, 7.036083752525006 ], [ 80.94143550428717, 7.036152816111434 ], [ 80.941403568434396, 7.036227719760852 ], [ 80.941411215531829, 7.036377243236204 ], [ 80.941312081127549, 7.036560105596211 ], [ 80.941308207951437, 7.036583286282736 ], [ 80.941184507474546, 7.036653759429739 ], [ 80.941163118044344, 7.03668614041523 ], [ 80.941124333724929, 7.036815285274747 ], [ 80.941120116145996, 7.036824402221836 ], [ 80.94109543005419, 7.036892666556082 ], [ 80.94107802110652, 7.037006090572346 ], [ 80.94107488520271, 7.037033208371759 ], [ 80.941083154978969, 7.037136499588551 ], [ 80.941084036350276, 7.037158887328654 ], [ 80.941076547650781, 7.037181299714639 ], [ 80.9410848562935, 7.03723816354379 ], [ 80.941088264324719, 7.037261510774753 ], [ 80.941133654049764, 7.037372314621569 ], [ 80.941154338944301, 7.037433991365806 ], [ 80.941154626309341, 7.037435203042685 ], [ 80.941122132682679, 7.037463683112693 ], [ 80.941068001055712, 7.037571937426705 ], [ 80.941013887581619, 7.037726677880935 ], [ 80.940990667687828, 7.038059444780414 ], [ 80.940984170845937, 7.038181594277076 ], [ 80.940973067317273, 7.038390376660097 ], [ 80.940957822868342, 7.038676980148783 ], [ 80.940944582766789, 7.038925904776611 ], [ 80.940879971692993, 7.039123957297678 ], [ 80.940879918557471, 7.039124723268465 ], [ 80.940879358646924, 7.039125832151429 ], [ 80.940828451517078, 7.039281877279799 ], [ 80.940821800524304, 7.039555220527081 ], [ 80.940820922535806, 7.039591324580759 ], [ 80.940836398414078, 7.039761583881218 ], [ 80.94095274951458, 7.040024640775425 ], [ 80.940967719260215, 7.040029788283344 ], [ 80.940958231068393, 7.04004215084721 ], [ 80.941224039326116, 7.040891130155773 ], [ 80.941216353908374, 7.041154090441641 ], [ 80.941211449605845, 7.041174435565172 ], [ 80.941162265564301, 7.041378491831345 ], [ 80.941111226993669, 7.041490717695589 ], [ 80.941084819957965, 7.041548783799136 ], [ 80.941048857338117, 7.041772279912056 ], [ 80.941007623612492, 7.042028519384678 ], [ 80.940930194167663, 7.042245158200302 ], [ 80.940984545636056, 7.042361144200959 ], [ 80.941092919013983, 7.042461711666678 ], [ 80.941317563433202, 7.042593181893528 ], [ 80.941426050792529, 7.042616316645924 ], [ 80.941929557057733, 7.043018416476538 ], [ 80.942038642285311, 7.043139477874789 ], [ 80.941064342021207, 7.043982995515123 ], [ 80.940146956522739, 7.044592878625581 ], [ 80.940147155999327, 7.044593838934782 ], [ 80.940148919553394, 7.044602327995586 ], [ 80.940153026048577, 7.04462208938571 ], [ 80.940170368722335, 7.044705557613145 ], [ 80.940204126520698, 7.044868024376954 ], [ 80.940229780143909, 7.044991491012887 ], [ 80.940344295453855, 7.044952253517746 ], [ 80.940550517311891, 7.044886862792374 ], [ 80.940575471505284, 7.044879525496518 ], [ 80.940843827087917, 7.0447712810241 ], [ 80.940988656325672, 7.044738337580258 ] ] ] ] } },
{ "type": "Feature", "properties": { "GND_N": "Yalagamuwa", "PROVINCE_N": "UVA", "DISTRICT_N": "BADULLA", "DSD_N": "UVAPARANAGAMA", "Female": 539, "Male": 486, "Density": 176.46079763099999, "MWS_ID": "034-2", "GND_NO": "37E", "GND_C": "005", "PROVINCE_C": "8", "DISTRICT_C": "1", "DSD_C": "27", "Admin_Code": "8127005", "GND_NAME_G": "යාලගමුව", "AreaGND": 580.86555980599996, "MWS_ID_2": null, "AreaGND_1": 5.8086555980599996, "Total": 1025, "FP_MWS": "034_2" }, "geometry": { "type": "MultiPolygon", "coordinates": [ [ [ [ 80.96167817348659, 7.061853898360761 ], [ 80.962008661064317, 7.061781986558138 ], [ 80.962820614040382, 7.061860621005297 ], [ 80.963359533031451, 7.061939362567013 ], [ 80.963805069147398, 7.062082743994306 ], [ 80.964333921870789, 7.062283208560826 ], [ 80.964895279948109, 7.062399787368821 ], [ 80.965091515110629, 7.062408677021641 ], [ 80.965766696303888, 7.062282935120565 ], [ 80.966176203804679, 7.062167920559285 ], [ 80.966600054988092, 7.061988298626432 ], [ 80.966751542987325, 7.061876418074347 ], [ 80.966863821611753, 7.061669383017689 ], [ 80.966871633143583, 7.061654976889645 ], [ 80.966974281490977, 7.061457740315117 ], [ 80.967046009376858, 7.061319916835067 ], [ 80.967078537825273, 7.060978413594211 ], [ 80.967061149764206, 7.060819527147583 ], [ 80.967037492317388, 7.060603349811492 ], [ 80.967015234820835, 7.060244492620977 ], [ 80.967001630183503, 7.059728304598788 ], [ 80.96687459480512, 7.059119065057963 ], [ 80.966832676642625, 7.058918026050944 ], [ 80.966754276899721, 7.058542036044435 ], [ 80.966745483186301, 7.058469810593898 ], [ 80.9666100910556, 7.057357729213244 ], [ 80.966505971996739, 7.056528347601133 ], [ 80.966499918249411, 7.056480127738173 ], [ 80.966417864936957, 7.055826506003127 ], [ 80.96632757421888, 7.05528985012642 ], [ 80.966281151786802, 7.055013939602364 ], [ 80.966224644618151, 7.054678075604086 ], [ 80.966184525985938, 7.054439637106228 ], [ 80.966165364550122, 7.054325748849785 ], [ 80.96608175013921, 7.053828773097852 ], [ 80.965834884664432, 7.052792766291579 ], [ 80.965793858258365, 7.052620597752672 ], [ 80.965410240421534, 7.051591908535441 ], [ 80.965062705272288, 7.050946032328794 ], [ 80.964882906729173, 7.05051542529756 ], [ 80.96468368088442, 7.050112903933468 ], [ 80.9646006759302, 7.049855164612941 ], [ 80.96445636821511, 7.049530604218455 ], [ 80.964415753156331, 7.049280963083691 ], [ 80.96434558203083, 7.049063073305192 ], [ 80.964212852299468, 7.047881864001095 ], [ 80.964001889776355, 7.046803609150313 ], [ 80.963722372880156, 7.045990328274737 ], [ 80.963603705264916, 7.045645053059967 ], [ 80.963206110592054, 7.044960283572001 ], [ 80.962571030824606, 7.043919728555478 ], [ 80.962163679243247, 7.043393504772878 ], [ 80.961684474519146, 7.042855345923408 ], [ 80.961509765869138, 7.042644099343166 ], [ 80.961204755581505, 7.042275298166653 ], [ 80.961121849313855, 7.042334064970551 ], [ 80.961105568854322, 7.042345605878763 ], [ 80.960995903091273, 7.042423341190143 ], [ 80.960353384359607, 7.042818242598642 ], [ 80.959927475726303, 7.043050420675869 ], [ 80.959524843358253, 7.043128009997208 ], [ 80.959331251624675, 7.043205376243829 ], [ 80.959106714075233, 7.043360327179151 ], [ 80.958520550344005, 7.043394568582534 ], [ 80.95845239193936, 7.043326461608774 ], [ 80.958032085445097, 7.0431363226392 ], [ 80.957595655924891, 7.042760943243595 ], [ 80.956964678331317, 7.042022220346514 ], [ 80.956508574425712, 7.041424821923814 ], [ 80.956030117847945, 7.040856497954062 ], [ 80.955749431299964, 7.04040260251378 ], [ 80.955453556374152, 7.039986119520131 ], [ 80.955225113661697, 7.039607653133563 ], [ 80.95512192396194, 7.039436698141158 ], [ 80.955043822354241, 7.039297348271382 ], [ 80.954819923337624, 7.039139340141732 ], [ 80.954396447002466, 7.038743149826393 ], [ 80.953849229092754, 7.038491620746012 ], [ 80.9536195696747, 7.038379543264443 ], [ 80.952745409605683, 7.038162101489976 ], [ 80.952263772303368, 7.037827863723131 ], [ 80.952045223233313, 7.03711245456202 ], [ 80.951898501178746, 7.036613214805156 ], [ 80.951777235922833, 7.036228830190979 ], [ 80.951681009264419, 7.035802713045134 ], [ 80.951641218283513, 7.034964539701299 ], [ 80.951576516556628, 7.034314885701799 ], [ 80.95130535484104, 7.033685691044336 ], [ 80.951214584212067, 7.033045408104152 ], [ 80.950912610345981, 7.032869886135943 ], [ 80.950560792135249, 7.033041433781226 ], [ 80.949815006203764, 7.033855840371488 ], [ 80.949233547208195, 7.034621582098468 ], [ 80.948948067064293, 7.035010914785973 ], [ 80.9483723709901, 7.035667979512506 ], [ 80.94820460765358, 7.035847067631749 ], [ 80.947736080984782, 7.036550766525577 ], [ 80.94756754397271, 7.036875453399351 ], [ 80.947342152518729, 7.037309672196589 ], [ 80.946930093165335, 7.038083437462164 ], [ 80.946766181558232, 7.038391229828366 ], [ 80.945644496748429, 7.039543401244809 ], [ 80.944498093296062, 7.040375805291385 ], [ 80.943400833067415, 7.041729875602073 ], [ 80.943272729150891, 7.042125744811056 ], [ 80.943173747318923, 7.042399968271386 ], [ 80.943172313380728, 7.042404654020727 ], [ 80.943104721999021, 7.042625356354654 ], [ 80.942996846125723, 7.042850036615789 ], [ 80.942996791328497, 7.042856287237091 ], [ 80.942866722253143, 7.043086229417603 ], [ 80.942780045164255, 7.043210985605442 ], [ 80.942771564366652, 7.043223191400785 ], [ 80.942681939468741, 7.043364354639734 ], [ 80.942597204932113, 7.04350730756669 ], [ 80.942539693122782, 7.04355215651998 ], [ 80.942413631320193, 7.043571983068408 ], [ 80.942300459615822, 7.043600455658945 ], [ 80.942275047387909, 7.04361257882438 ], [ 80.942178127914261, 7.043665858127277 ], [ 80.942057953412487, 7.043775191258701 ], [ 80.94199500300401, 7.04387056324821 ], [ 80.941920738980144, 7.043971768423568 ], [ 80.941860865323719, 7.044034197948356 ], [ 80.941770580514017, 7.044176474458857 ], [ 80.941713836458135, 7.044258041710311 ], [ 80.941601158037031, 7.044417521584083 ], [ 80.941538746403296, 7.04450626019799 ], [ 80.941458165527891, 7.044578449075861 ], [ 80.941444114453574, 7.044586291700387 ], [ 80.941313021166025, 7.044672333429517 ], [ 80.941162250084062, 7.044699357632557 ], [ 80.941128915866841, 7.044699358516282 ], [ 80.940988656325672, 7.044738337580258 ], [ 80.940843827087917, 7.0447712810241 ], [ 80.940575471505284, 7.044879525496518 ], [ 80.940550517311891, 7.044886862792374 ], [ 80.940344295453855, 7.044952253517746 ], [ 80.940229780143909, 7.044991491012887 ], [ 80.94025961735737, 7.045135091584382 ], [ 80.940264819174487, 7.04516013015201 ], [ 80.940320911748003, 7.045924091047993 ], [ 80.940345162632056, 7.046254385979264 ], [ 80.940352728145868, 7.046357451337107 ], [ 80.940394129298966, 7.046921323021526 ], [ 80.940396080256491, 7.046947896437172 ], [ 80.940457547135082, 7.047852697362877 ], [ 80.940484501879979, 7.048249476288837 ], [ 80.940544554266992, 7.049133453156488 ], [ 80.94075435061481, 7.050640863917359 ], [ 80.940766700644261, 7.050729601462342 ], [ 80.940953565952583, 7.051412143420394 ], [ 80.941136444731029, 7.052080122741952 ], [ 80.941295927644845, 7.052441419366518 ], [ 80.941297445064578, 7.052444857927137 ], [ 80.94134710772272, 7.052557366573613 ], [ 80.941348355178434, 7.052560193914865 ], [ 80.941512557385181, 7.052932179552852 ], [ 80.941833372962321, 7.053389024539029 ], [ 80.942029786279505, 7.053668714506521 ], [ 80.942187960467123, 7.053802907040806 ], [ 80.94218942371019, 7.053804148141024 ], [ 80.942817125868743, 7.054336678270542 ], [ 80.94304323286066, 7.054528501564864 ], [ 80.943187140956169, 7.054650589198913 ], [ 80.943230194509624, 7.054679520829473 ], [ 80.943654475694828, 7.054964628673803 ], [ 80.944296222313369, 7.055395867037683 ], [ 80.945065581345148, 7.055912856746728 ], [ 80.945085360317137, 7.055926148403433 ], [ 80.945378631577839, 7.056123216582209 ], [ 80.945501651571647, 7.056223363395889 ], [ 80.946579354349666, 7.057100686278446 ], [ 80.946856110045658, 7.057325983949378 ], [ 80.948259576289061, 7.058062167369948 ], [ 80.949506714862736, 7.058652669319939 ], [ 80.949641467064978, 7.058716472729202 ], [ 80.949932810870465, 7.058854418435462 ], [ 80.95216304153054, 7.060139284245775 ], [ 80.953632114648727, 7.060952697817203 ], [ 80.95366377207516, 7.060970226706764 ], [ 80.954099895286163, 7.061197893766348 ], [ 80.955017376503946, 7.061676842562744 ], [ 80.956306560294564, 7.062447770231125 ], [ 80.957242931459817, 7.062991396144833 ], [ 80.95741118034347, 7.063089075994704 ], [ 80.957507678295372, 7.063145100360075 ], [ 80.957601281998521, 7.062949071085596 ], [ 80.957811969714015, 7.062748004506323 ], [ 80.958219050045784, 7.062546863180119 ], [ 80.95881868019697, 7.06235748280737 ], [ 80.959379105353548, 7.062314195676154 ], [ 80.960040122368468, 7.062270866499809 ], [ 80.960643674118231, 7.062263452044967 ], [ 80.961010079781971, 7.062169992426341 ], [ 80.961354879032868, 7.061947339606456 ], [ 80.96167817348659, 7.061853898360761 ] ] ] ] } }
]
}
