{"type":"FeatureCollection","name":"MI","crs":{"type":"name","properties":{"name":"urn:ogc:def:crs:OGC:1.3:CRS84"}},"features":[
{"type":"Feature","properties":{"No":1,"GND No.":674,"Scheme":"Maharawela watagoda Canal","N":7.322194,"E":80.700382,"Observation":"Most of the canal is concreted. A 20.0m long section of the existing concrete canal has collapsed. A 60.0m long section should be newly concreted. At the end of the canal, 20.0m long, 900mm high sidewall should be constructed on the field side. Command a","Description":"Canal reservation protection by concrete lining  For  100mm thick , 0.3m  wide  and 0.3m high canal -double banking\n\nConstruction of 1.0m high 1:3:6 (40mm) cement concrete Retaining Wall \n\nStream / canal  reservation protection by earthfilling of  strip","Amount (Rs.)":"1,017,500.00","photopath":"https://raw.githubusercontent.com/MWS003-GIS/MWS003-GIS.github.io/main/IWWRMP/Data/EXD/200_photo/MWS_104/Watagoda Canal Location 1.jpg"},"geometry":{"type":"Point","coordinates":[80.700382,7.322194]}},
{"type":"Feature","properties":{"No":2,"GND No.":674,"Scheme":"Mahara Canal","N":7.323078,"E":80.701007,"Observation":"The canal is fully concreted. A 110.0m long section of the existing concrete canal has collapsed. Command area 13.0 acres,","Description":"Canal reservation protection by concrete lining  For  100mm thick , 0.3m  wide  and 0.3m high canal -double banking\n\nStream / canal  reservation protection by earthfilling of  strip   of 1.5m to 2m wide  and average Depth of 0.5m\n\nVegetative cover improv","Amount (Rs.)":"786,500.00","photopath":"https://raw.githubusercontent.com/MWS003-GIS/MWS003-GIS.github.io/main/IWWRMP/Data/EXD/200_photo/MWS_104/Maharawela Canal.jpg"},"geometry":{"type":"Point","coordinates":[80.701007,7.323078]}},
{"type":"Feature","properties":{"No":3,"GND No.":674,"Scheme":"Kurundupotha pita ela Canal","N":7.318949,"E":80.702934,"Observation":"Removal of 600mm diameter pipe culvert used to cross the road in the canal, raised by 300mm and rebuilt using existing pipes. Command area 14.0 acres,","Description":"Raising the culvert pipes\n\nDemolish existing culvert headwalls\n\nRaising the pipes by 300mm using grade 15 concrete layer, aligning & joining\n\nConstruction of 1.0m high 1:3:6 (40mm) cement concrete Retaining Wall \n\nSpreading , Leveling and Compacting Manu","Amount (Rs.)":"858,000.00","photopath":"https://raw.githubusercontent.com/MWS003-GIS/MWS003-GIS.github.io/main/IWWRMP/Data/EXD/200_photo/MWS_104/Kurundupotha Canal.jpg"},"geometry":{"type":"Point","coordinates":[80.702934,7.318949]}},
{"type":"Feature","properties":{"No":4,"GND No.":700,"Scheme":"Dodamgolla canal","N":7.291553,"E":80.708431,"Observation":"The first section of the canal is 450mm wide and 450mm high rectangular concrete lining has been constructed.  From end of the existing con. lining, there is a 600m long earthen canal. Command area 18.0 acres,","Description":"Canal reservation protection by concrete lining  For  100mm thick , 0.3m  wide  and 0.3m high canal -double banking\n\nStream / canal  reservation protection by earthfilling of  strip   of 1.5m to 2m wide  and average Depth of 0.5m\n\nVegetative cover improv","Amount (Rs.)":"1,677,500.00","photopath":"https://raw.githubusercontent.com/MWS003-GIS/MWS003-GIS.github.io/main/IWWRMP/Data/EXD/200_photo/MWS_104/Dodamgolla Canal Section 1.jpg"},"geometry":{"type":"Point","coordinates":[80.708431,7.291553]}},
{"type":"Feature","properties":{"No":5,"GND No.":700,"Scheme":"Yahampatha anicut and canal","N":7.296135,"E":80.709261,"Observation":"About 800m long earthen canal. Command area 7.0 acres,","Description":"Canal reservation protection by concrete lining  For  100mm thick , 0.3m  wide  and 0.3m high canal -double banking\n\nStream / canal  reservation protection by earthfilling of  strip   of 1.5m to 2m wide  and average Depth of 0.5m\n\nVegetative cover improv","Amount (Rs.)":"660,000.00","photopath":"https://raw.githubusercontent.com/MWS003-GIS/MWS003-GIS.github.io/main/IWWRMP/Data/EXD/200_photo/MWS_104/Yahampana Canal section 1.jpg"},"geometry":{"type":"Point","coordinates":[80.709261,7.296135]}},
{"type":"Feature","properties":{"No":6,"GND No.":700,"Scheme":"Girambe canal","N":7.292242,"E":80.709496,"Observation":"About 600m long earthen canal. Command area 9.0 acres,","Description":"Canal reservation protection by concrete lining  For  100mm thick , 0.3m  wide  and 0.3m high canal -double banking\n\nStream / canal  reservation protection by earthfilling of  strip   of 1.5m to 2m wide  and average Depth of 0.5m\n\nVegetative cover improv","Amount (Rs.)":"907,500.00","photopath":"https://raw.githubusercontent.com/MWS003-GIS/MWS003-GIS.github.io/main/IWWRMP/Data/EXD/200_photo/MWS_104/Girambe Canal.jpg"},"geometry":{"type":"Point","coordinates":[80.709496,7.292242]}},
{"type":"Feature","properties":{"No":7,"GND No.":700,"Scheme":"Thunpelawela Lower section","N":7.301723,"E":80.713264,"Observation":"About 3 acres in the lower part of the Thunpelawela are currently being cultivated using another water sourse. There is a 350m long earthen canal.","Description":"Canal reservation protection by concrete lining  For  100mm thick , 0.3m  wide  and 0.3m high canal -double banking\n\nStream / canal  reservation protection by earthfilling of  strip   of 1.5m to 2m wide  and average Depth of 0.5m\n\nVegetative cover improv","Amount (Rs.)":"352,000.00","photopath":"https://raw.githubusercontent.com/MWS003-GIS/MWS003-GIS.github.io/main/IWWRMP/Data/EXD/200_photo/MWS_104/Thunpelawela Canal Lower Section.jpg"},"geometry":{"type":"Point","coordinates":[80.713264,7.301723]}},
{"type":"Feature","properties":{"No":8,"GND No.":700,"Scheme":"Nakathkumbura Canal","N":7.303661,"E":80.714245,"Observation":"A 500m long earthen canal. Command area 9.0 acres,","Description":"Canal reservation protection by concrete lining  For  100mm thick , 0.3m  wide  and 0.3m high canal -double banking\n\nStream / canal  reservation protection by earthfilling of  strip   of 1.5m to 2m wide  and average Depth of 0.5m\n\nVegetative cover improv","Amount (Rs.)":"907,500.00","photopath":"Not_Available"},"geometry":{"type":"Point","coordinates":[80.714245,7.303661]}},
{"type":"Feature","properties":{"No":9,"GND No.":701,"Scheme":"Keramba canal section 1 (Galamuna)","N":7.305594,"E":80.716612,"Observation":"A canal was built from concrete to get water from Pathaha to paddy fields, and due to its broken and dilapitaded, now water is being obtained through a new earthen canal. The first part of the canal belongs to the Galamuna Division. Command area 26.0 acr","Description":"Canal reservation protection by concrete lining  For  100mm thick , 0.3m  wide  and 0.3m high canal -double banking\n\nStream / canal  reservation protection by earthfilling of  strip   of 1.5m to 2m wide  and average Depth of 0.5m\n\nVegetative cover improv","Amount (Rs.)":"2,513,500.00","photopath":"https://raw.githubusercontent.com/MWS003-GIS/MWS003-GIS.github.io/main/IWWRMP/Data/EXD/200_photo/MWS_104/Kiramba Canal (Galamuna).jpg"},"geometry":{"type":"Point","coordinates":[80.716612,7.305594]}},
{"type":"Feature","properties":{"No":10,"GND No.":701,"Scheme":"Keramba Canal Section 2","N":7.30277,"E":80.71862,"Observation":"600mm wide and 300mm high concrete canal has been constructed on the right side of the concreted road. Due to insufficient depth of the canal in 150m long section, water overflows across the road.","Description":"Scarifying existing rock or concrete surface\n\nSupplying and fixing M.S. dowels spliced and dovetailed with wedge at one end 16mm dia. And 600mm long, boring holes to 0.3m depth in fixing\n\nPlywood form work including making, fixing & removing for concrete","Amount (Rs.)":"698,500.00","photopath":"https://raw.githubusercontent.com/MWS003-GIS/MWS003-GIS.github.io/main/IWWRMP/Data/EXD/200_photo/MWS_104/Kiramba canal Earth Section.jpg"},"geometry":{"type":"Point","coordinates":[80.71862,7.30277]}},
{"type":"Feature","properties":{"No":11,"GND No.":701,"Scheme":"Keramba Canal Section 3","N":7.301166,"E":80.719203,"Observation":"The total length of this section of the canal is about 1200m. Some parts are concreted while the rest remain as earth canal.","Description":"Canal reservation protection by concrete lining  For  100mm thick , 0.3m  wide  and 0.3m high canal -double banking\n\nStream / canal  reservation protection by earthfilling of  strip   of 1.5m to 2m wide  and average Depth of 0.5m\n\nVegetative cover improv","Amount (Rs.)":"1,116,500.00","photopath":"Not_Available"},"geometry":{"type":"Point","coordinates":[80.719203,7.301166]}},
{"type":"Feature","properties":{"No":12,"GND No.":701,"Scheme":"Dalukgaha anga Canal","N":7.296721,"E":80.720325,"Observation":"The first section of the canal is 450mm wide and 450mm high rectangular concrete lining has been constructed. Pipe culvert should be constructed at end of concrete lining, From there, there is a 800m long earthen canal. Command area 10.0 acres,","Description":"Construction of 0.30m Dia x 3.66m long culvert\n\nSupplying of 300mm Dia x 2.44m long Hume Pipes\n\nLoading and Unloading 300mm diameter 2.44m Long Hume\nPipes\n\nLaying & Jointing 300-450 mm Dia. Available Concrete Pipes and Collars (Cement, sand & water for j","Amount (Rs.)":"1,122,000.00","photopath":"https://raw.githubusercontent.com/MWS003-GIS/MWS003-GIS.github.io/main/IWWRMP/Data/EXD/200_photo/MWS_104/Dalukgaha Anga Canal.jpg"},"geometry":{"type":"Point","coordinates":[80.720325,7.296721]}},
{"type":"Feature","properties":{"No":13,"GND No.":702,"Scheme":"Ankandurayaya Canal","N":7.289967,"E":80.727011,"Observation":"The canal is fully concreted. A 450.0m long section of the existing concrete canal has collapsed. Command area 6.0 acres,","Description":"Canal reservation protection by concrete lining  For  100mm thick , 0.3m  wide  and 0.3m high canal -double banking\n\nStream / canal  reservation protection by earthfilling of  strip   of 1.5m to 2m wide  and average Depth of 0.5m\n\nVegetative cover improv","Amount (Rs.)":"594,000.00","photopath":"https://raw.githubusercontent.com/MWS003-GIS/MWS003-GIS.github.io/main/IWWRMP/Data/EXD/200_photo/MWS_104/Ankandura Yaya Canal.jpg"},"geometry":{"type":"Point","coordinates":[80.727011,7.289967]}},
{"type":"Feature","properties":{"No":14,"GND No.":702,"Scheme":"Madawela Canal","N":7.291187,"E":80.724505,"Observation":"Most of the canal is concreted.  A 225.0m long section should be newly concreted. Command area 8.0 acres,","Description":"Canal reservation protection by concrete lining  For  100mm thick , 0.3m  wide  and 0.3m high canal -double banking\n\nStream / canal  reservation protection by earthfilling of  strip   of 1.5m to 2m wide  and average Depth of 0.5m\n\nVegetative cover improv","Amount (Rs.)":"946,000.00","photopath":"https://raw.githubusercontent.com/MWS003-GIS/MWS003-GIS.github.io/main/IWWRMP/Data/EXD/200_photo/MWS_104/Medawela Canal.jpg"},"geometry":{"type":"Point","coordinates":[80.724505,7.291187]}},
{"type":"Feature","properties":{"No":15,"GND No.":702,"Scheme":"Berawadeniya Canal","N":7.292641,"E":80.722382,"Observation":"Most of the canal is concreted.  A 200.0m long section should be newly concreted. Command area 4.0 acres,","Description":"Canal reservation protection by concrete lining  For  100mm thick , 0.3m  wide  and 0.3m high canal -double banking\n\nStream / canal  reservation protection by earthfilling of  strip   of 1.5m to 2m wide  and average Depth of 0.5m\n\nVegetative cover improv","Amount (Rs.)":"456,500.00","photopath":"https://raw.githubusercontent.com/MWS003-GIS/MWS003-GIS.github.io/main/IWWRMP/Data/EXD/200_photo/MWS_104/Berawadeniya Canal Location 1.jpg"},"geometry":{"type":"Point","coordinates":[80.722382,7.292641]}},
{"type":"Feature","properties":{"No":16,"GND No.":702,"Scheme":"Pahalawela yaya Canal","N":7.291196,"E":80.723659,"Observation":"The total length of the canal is about 1.5km. A section of about 450m should be newly concreted. At three places where the bed level of the canal is lower than the level of the paddy fields, anicuts should be constructed so that the paddy fields can get","Description":"Canal reservation protection by concrete lining  For  100mm thick , 0.3m  wide  and 0.3m high canal -double banking\n\nStream / canal  reservation protection by earthfilling of  strip   of 1.5m to 2m wide  and average Depth of 0.5m\n\nVegetative cover improv","Amount (Rs.)":"1,424,500.00","photopath":"https://raw.githubusercontent.com/MWS003-GIS/MWS003-GIS.github.io/main/IWWRMP/Data/EXD/200_photo/MWS_104/Pahalawela Canal Location 1.jpg"},"geometry":{"type":"Point","coordinates":[80.723659,7.291196]}},
{"type":"Feature","properties":{"No":17,"GND No.":704,"Scheme":"Henawala - Nikaketiya Canal","N":7.302472,"E":80.711422,"Observation":"The total length of the canal is about 1.5km. A section of about 550m should be newly concreted. 950m section should be Concreted. Command area = 15.0 acres.","Description":"Canal reservation protection by concrete lining  For  100mm thick , 0.3m  wide  and 0.3m high canal -double banking\n\nStream / canal  reservation protection by earthfilling of  strip   of 1.5m to 2m wide  and average Depth of 0.5m\n\nVegetative cover improv","Amount (Rs.)":"1,501,500.00","photopath":"https://raw.githubusercontent.com/MWS003-GIS/MWS003-GIS.github.io/main/IWWRMP/Data/EXD/200_photo/MWS_104/Nikaketiya Canal.jpg"},"geometry":{"type":"Point","coordinates":[80.711422,7.302472]}},
{"type":"Feature","properties":{"No":18,"GND No.":704,"Scheme":"Oye Yaya Anicut and Canal","N":7.300826,"E":80.712628,"Observation":"A concrete anicut has been constructed across Rathmal Oya and 15.0m long concrete side wall has been constructed on left bank of the Rathmal Oya at the Up stream of the anicut. During heavy rains, the path of the stream has been changed due to the washin","Description":"Construction of 3.0m high 1:3:6 (40mm) cement concrete Retaining Wall \n\nContigencies (10%)","Amount (Rs.)":"1,757,250.00","photopath":"https://raw.githubusercontent.com/MWS003-GIS/MWS003-GIS.github.io/main/IWWRMP/Data/EXD/200_photo/MWS_104/Oye Yaya Anicut.jpg"},"geometry":{"type":"Point","coordinates":[80.712628,7.300826]}},
{"type":"Feature","properties":{"No":19,"GND No.":704,"Scheme":"Henawela Anicut","N":7.308117,"E":80.707995,"Observation":"An anicut made of concrete is in good condition, Planks should be placed for the open place of the anicut.","Description":"75mm tk. Stop planks (kumbuk ) with 10mm dia. 2nos. M. S. Iron hooks and applies 2 coats of hot tar.\n\nMiscellaneous\n\nContigencies (10%)","Amount (Rs.)":"27,500.00","photopath":"https://raw.githubusercontent.com/MWS003-GIS/MWS003-GIS.github.io/main/IWWRMP/Data/EXD/200_photo/MWS_104/Henawala anicut.jpg"},"geometry":{"type":"Point","coordinates":[80.707995,7.308117]}},
{"type":"Feature","properties":{"No":20,"GND No.":705,"Scheme":"Udakumbura yaya ela","N":7.31135,"E":80.705847,"Observation":"The first section of the canal is 600mm wide and 600mm high rectangular concrete lining has been constructed.  From end of existing concrete lining, there is a 1000m long earthen canal. Command area 11.0 acres,","Description":"Canal reservation protection by concrete lining  For  100mm thick , 0.3m  wide  and 0.3m high canal -double banking\n\nStream / canal  reservation protection by earthfilling of  strip   of 1.5m to 2m wide  and average Depth of 0.5m\n\nVegetative cover improv","Amount (Rs.)":"1,116,500.00","photopath":"Not_Available"},"geometry":{"type":"Point","coordinates":[80.705847,7.31135]}},
{"type":"Feature","properties":{"No":21,"GND No.":705,"Scheme":"Mahakumbureyaya-Galpitayaya canal","N":7.31289,"E":80.708087,"Observation":"The first section of the canal is 600mm wide and 600mm high rectangular concrete lining has been constructed.  From end of existing concrete lining, there is a 1000m long earthen canal. Command area 11.0 acres,","Description":"Construction of 1.5m high 1:3:6 (40mm) cement concrete Retaining Wall \n\nContigencies (10%)","Amount (Rs.)":"1,188,000.00","photopath":"Not_Available"},"geometry":{"type":"Point","coordinates":[80.708087,7.31289]}},
{"type":"Feature","properties":{"No":22,"GND No.":705,"Scheme":"Galamuna Canal","N":7.309893,"E":80.705773,"Observation":"The first section of the canal is 300mm wide and 300mm high rectangular concrete lining has been constructed.  From end of existing concrete lining, there is a 300m long earthen canal. Command area 7.0 acres,","Description":"Canal reservation protection by concrete lining  For  100mm thick , 0.3m  wide  and 0.3m high canal -double banking\n\nStream / canal  reservation protection by earthfilling of  strip   of 1.5m to 2m wide  and average Depth of 0.5m\n\nVegetative cover improv","Amount (Rs.)":"660,000.00","photopath":"Not_Available"},"geometry":{"type":"Point","coordinates":[80.705773,7.309893]}},
{"type":"Feature","properties":{"No":23,"GND No.":709,"Scheme":"Liyangas wagura amuna ela","N":7.334098,"E":80.719508,"Observation":"A naturally flowing stream, Getting water for paddy cultivation also.A distance of 150m should be concreted near the house of Mr. Palitha Amarathunga. Command area 12.0 acres,","Description":"Canal reservation protection by concrete lining  For  100mm thick , 0.3m  wide  and 0.3m high canal -double banking\n\nStream / canal  reservation protection by earthfilling of  strip   of 1.5m to 2m wide  and average Depth of 0.5m\n\nVegetative cover improv","Amount (Rs.)":"1,155,000.00","photopath":"Not_Available"},"geometry":{"type":"Point","coordinates":[80.719508,7.334098]}},
{"type":"Feature","properties":{"No":24,"GND No.":709,"Scheme":"Lunukatiyamadiththa ela","N":7.325099,"E":80.723391,"Observation":"The total length of the canal is about 1.5km and currently a part is concreted. A section of about 500m should be concreted. Command area 7.0 acres,","Description":"Canal reservation protection by concrete lining  For  100mm thick , 0.3m  wide  and 0.3m high canal -double banking\n\nStream / canal  reservation protection by earthfilling of  strip   of 1.5m to 2m wide  and average Depth of 0.5m\n\nVegetative cover improv","Amount (Rs.)":"907,500.00","photopath":"Not_Available"},"geometry":{"type":"Point","coordinates":[80.723391,7.325099]}},
{"type":"Feature","properties":{"No":25,"GND No.":710,"Scheme":"Galkaduwa canal","N":7.315899,"E":80.720142,"Observation":"Earthen canal, On the left bank of the canal, nearly a 100m long section has been bank eroded. Command area 5.0 acres,","Description":"Construction of 1.8m high 1:3:6 (40mm) cement concrete Retaining Wall \n\nStream / canal  reservation protection by earthfilling of  strip   of 1.5m to 2m wide  and average Depth of 0.5m\n\nVegetative cover improving for narrow strips (1.5m-2.0m wide) with A","Amount (Rs.)":"1,177,000.00","photopath":"Not_Available"},"geometry":{"type":"Point","coordinates":[80.720142,7.315899]}},
{"type":"Feature","properties":{"No":26,"GND No.":711,"Scheme":"Udawela anicut and canal","N":7.31449,"E":80.718724,"Observation":"Existing concrete canal but it is dilapidated condition. A anicut of Construct stone and earth, Command area 15.0 acres","Description":"Construction of Anicut\n\nDemolishing and removing debris of dilapidated structure\n\nConstruction of 0.9 m high Weir across stream excluding abutments and stop planks\n\nConstruction of 1.0m high 1:3:6 (40mm) cement concrete Retaining Wall \n\nSupply & install","Amount (Rs.)":"1,765,500.00","photopath":"https://raw.githubusercontent.com/MWS003-GIS/MWS003-GIS.github.io/main/IWWRMP/Data/EXD/200_photo/MWS_104/Udawela Canal.jpg"},"geometry":{"type":"Point","coordinates":[80.718724,7.31449]}},
{"type":"Feature","properties":{"No":27,"GND No.":711,"Scheme":"Rathmal Oya near Thoragollayaya","N":7.313433,"E":80.710594,"Observation":"The right bank of Rathmal Oya has been eroded and the paddy fields have been damaged.","Description":"Construction of 2.5m high 1:3:6 (40mm) cement concrete Retaining Wall \n\nContigencies (10%)","Amount (Rs.)":"2,103,750.00","photopath":"https://raw.githubusercontent.com/MWS003-GIS/MWS003-GIS.github.io/main/IWWRMP/Data/EXD/200_photo/MWS_104/Near Thorakolayaya Rathmal Oya Side Wall.jpg"},"geometry":{"type":"Point","coordinates":[80.710594,7.313433]}},
{"type":"Feature","properties":{"No":28,"GND No.":712,"Scheme":"kanitumulla anicut","N":7.314437,"E":80.718656,"Observation":"A concrete wall 1.5m long and 0.45m wide has been constructed across Rathmal Oya.","Description":"Raising of 1.5m long existing concrete wall by 0.3m\n\nContigencies (10%)","Amount (Rs.)":"5,500.00","photopath":"https://raw.githubusercontent.com/MWS003-GIS/MWS003-GIS.github.io/main/IWWRMP/Data/EXD/200_photo/MWS_104/Kanitumulla Anicut.jpg"},"geometry":{"type":"Point","coordinates":[80.718656,7.314437]}},
{"type":"Feature","properties":{"No":29,"GND No.":712,"Scheme":"kanitumulla canal","N":7.312355,"E":80.717073,"Observation":"The first section of the canal is 600mm wide and 900mm high rectangular concrete lining has been constructed.  From end of existing concrete lining, there is a 650m long earthen canal. Command area 10.0 acres,","Description":"Canal reservation protection by concrete lining  For  100mm thick , 0.3m  wide  and 0.3m high canal -double banking\n\nStream / canal  reservation protection by earthfilling of  strip   of 1.5m to 2m wide  and average Depth of 0.5m\n\nVegetative cover improv","Amount (Rs.)":"946,000.00","photopath":"https://raw.githubusercontent.com/MWS003-GIS/MWS003-GIS.github.io/main/IWWRMP/Data/EXD/200_photo/MWS_104/Kanitumulla Anicut.jpg"},"geometry":{"type":"Point","coordinates":[80.717073,7.312355]}},
{"type":"Feature","properties":{"No":30,"GND No.":712,"Scheme":"Aswadduma canal","N":7.31016,"E":80.713324,"Observation":"The first section of the canal is 300mm wide and 300mm high rectangular concrete lining has been constructed.  From end of existing concrete lining, there is a 300m long earthen canal. Command area 15.0 acres,","Description":"Canal reservation protection by concrete lining  For  100mm thick , 0.3m  wide  and 0.3m high canal -double banking\n\nStream / canal  reservation protection by earthfilling of  strip   of 1.5m to 2m wide  and average Depth of 0.5m\n\nVegetative cover improv","Amount (Rs.)":"1,606,000.00","photopath":"https://raw.githubusercontent.com/MWS003-GIS/MWS003-GIS.github.io/main/IWWRMP/Data/EXD/200_photo/MWS_104/Aswedduma Canal.jpg"},"geometry":{"type":"Point","coordinates":[80.713324,7.31016]}},
{"type":"Feature","properties":{"No":31,"GND No.":712,"Scheme":"Pallewela anicut","N":7.313852,"E":80.717882,"Observation":"A concrete wall 7.5m long and 0.45m wide has been constructed across Rathmal Oya. The constructed concrete structure is in good condition. Planks should be placed for the 1.2m long two open spaces. Sluice gate should be installed for the canal.","Description":"75mm tk. Stop planks (kumbuk ) with 10mm dia. 2nos. M. S. Iron hooks and applies 2 coats of hot tar.\n\nSupplying & Fixing of 225mm x 225mm steel gate with lifting arrangement\n\nMiscellaneous\n\nContigencies (10%)","Amount (Rs.)":"137,500.00","photopath":"Not_Available"},"geometry":{"type":"Point","coordinates":[80.717882,7.313852]}},
{"type":"Feature","properties":{"No":32,"GND No.":712,"Scheme":"Pallewela canal","N":7.312427,"E":80.7167,"Observation":"The first section of the canal is 300mm wide and 300mm high rectangular concrete lining has been constructed.  From end of existing concrete lining, there is a 300m long earthen canal. Command area 15.0 acres,","Description":"Canal reservation protection by concrete lining  For  100mm thick , 0.3m  wide  and 0.3m high canal -double banking\n\nStream / canal  reservation protection by earthfilling of  strip   of 1.5m to 2m wide  and average Depth of 0.5m\n\nVegetative cover improv","Amount (Rs.)":"1,468,500.00","photopath":"Not_Available"},"geometry":{"type":"Point","coordinates":[80.7167,7.312427]}},
{"type":"Feature","properties":{"No":33,"GND No.":712,"Scheme":"Ibbanmada canal","N":7.311758,"E":80.716947,"Observation":"The first section of the canal is 900mm wide and 900mm high rectangular concrete lining has been constructed.  From end of existing concrete lining, there is a 450m long earthen canal. Command area 10.0 acres,","Description":"Canal reservation protection by concrete lining  For  100mm thick , 0.3m  wide  and 0.3m high canal -double banking\n\nStream / canal  reservation protection by earthfilling of  strip   of 1.5m to 2m wide  and average Depth of 0.5m\n\nVegetative cover improv","Amount (Rs.)":"907,500.00","photopath":"https://raw.githubusercontent.com/MWS003-GIS/MWS003-GIS.github.io/main/IWWRMP/Data/EXD/200_photo/MWS_104/Ibbanmada Canal.jpg"},"geometry":{"type":"Point","coordinates":[80.716947,7.311758]}},
{"type":"Feature","properties":{"No":34,"GND No.":713,"Scheme":"Gal amuna Anicut","N":7.310592,"E":80.706288,"Observation":"Up stream of the anicut, a 15.0m long section of the left bank has been eroded. Anicut has two oppenings arranged for placing planks 600mm wide and 600mm high.","Description":"Construction of 2.5m high 1:3:6 (40mm) cement concrete Retaining Wall \n\n75mm tk. Stop planks (kumbuk ) with 10mm dia. 2nos. M. S. Iron hooks and applies 2 coats of hot tar.\n\nMiscellaneous\n\nContigencies (10%)","Amount (Rs.)":"1,309,000.00","photopath":"https://raw.githubusercontent.com/MWS003-GIS/MWS003-GIS.github.io/main/IWWRMP/Data/EXD/200_photo/MWS_104/Galamuna Anicut.jpg"},"geometry":{"type":"Point","coordinates":[80.706288,7.310592]}},
{"type":"Feature","properties":{"No":35,"GND No.":713,"Scheme":"Gal amuna Canal","N":7.310564,"E":80.706273,"Observation":"The total length of the canal is about 500m. A section of about 300m should be newly concreted. Command area = 6.0 acres.","Description":"Canal reservation protection by concrete lining  For  100mm thick , 0.3m  wide  and 0.3m high canal -double banking\n\nStream / canal  reservation protection by earthfilling of  strip   of 1.5m to 2m wide  and average Depth of 0.5m\n\nVegetative cover improv","Amount (Rs.)":"594,000.00","photopath":"https://raw.githubusercontent.com/MWS003-GIS/MWS003-GIS.github.io/main/IWWRMP/Data/EXD/200_photo/MWS_104/Galamuna Canal Location 1.jpg"},"geometry":{"type":"Point","coordinates":[80.706273,7.310564]}},
{"type":"Feature","properties":{"No":36,"GND No.":713,"Scheme":"Malliya amuna","N":7.312358,"E":80.709652,"Observation":"An anicut made of concrete is in good condition, Planks should be placed for the open place of the anicut. A by road connecting the Galamuna and Heepitiya GN Divisions is connected over the anicut.","Description":"75mm tk. Stop planks (kumbuk ) with 10mm dia. 2nos. M. S. Iron hooks and applies 2 coats of hot tar.\n\nConstruction of 10.0m long x 0.8m width Foot Bridge\n\nMiscellaneous\n\nContigencies (10%)","Amount (Rs.)":"192,500.00","photopath":"Not_Available"},"geometry":{"type":"Point","coordinates":[80.709652,7.312358]}},
{"type":"Feature","properties":{"No":37,"GND No.":713,"Scheme":"Madakumbura","N":7.312098,"E":80.709834,"Observation":"A canal made of earth about 150.0m long. Command area = 6.0 acres.","Description":"Canal reservation protection by concrete lining  For  100mm thick , 0.3m  wide  and 0.3m high canal -double banking\n\nStream / canal  reservation protection by earthfilling of  strip   of 1.5m to 2m wide  and average Depth of 0.5m\n\nVegetative cover improv","Amount (Rs.)":"522,500.00","photopath":"https://raw.githubusercontent.com/MWS003-GIS/MWS003-GIS.github.io/main/IWWRMP/Data/EXD/200_photo/MWS_104/Madakumbura Canal.jpg"},"geometry":{"type":"Point","coordinates":[80.709834,7.312098]}}
]}