{
"type": "FeatureCollection",
"name": "SWC_ON",
"crs": { "type": "name", "properties": { "name": "urn:ogc:def:crs:OGC:1.3:CRS84" } },
"features": [
{ "type": "Feature", "properties": { "No.": 1, "GND No.": " ", "GND Name": "Maharathanna East", "Key Activities proposed for Soil and Water conservation": "1. Soil conservation practices (10?- 20?)", "Priority based on Soil Erosion Hazard": 1, "N": 7.318506, "E": 80.703131, "Quantity": "3 ha", "Proposed measure/s": "Lock and spills and stone terracing/Live fencing/SALT, as applied", "Uniti_Cost": "400.00 m-1", "Total_Cost": "1,200,000.00", "Contribution (Local Community, LA, and the project)": "Labour and other basic services by the Local community", "Time frame for the implementation": "0.25 Years", "photopath": "Not_Available" }, "geometry": { "type": "Point", "coordinates": [ 80.703131, 7.318506 ] } },
{ "type": "Feature", "properties": { "No.": 4, "GND No.": "699", "GND Name": "Balagolla West", "Key Activities proposed for Soil and Water conservation": "1. Soil conservation practices (10?- 20?)", "Priority based on Soil Erosion Hazard": 1, "N": 7.286724, "E": 80.707636, "Quantity": "0.5 ha", "Proposed measure/s": "Lock and spills and stone terracing/Live fencing/SALT, as applied", "Uniti_Cost": "400.00 m-1", "Total_Cost": "200,000.00", "Contribution (Local Community, LA, and the project)": "Labour and other basic services by the Local community", "Time frame for the implementation": "0.25 Years", "photopath": "https://raw.githubusercontent.com/MWS003-GIS/MWS003-GIS.github.io/main/IWWRMP/Data/EXD/200_photo/MWS_104/Pepper land.jpg" }, "geometry": { "type": "Point", "coordinates": [ 80.707636, 7.286724 ] } },
{ "type": "Feature", "properties": { "No.": 5, "GND No.": "700", "GND Name": "Kengalla", "Key Activities proposed for Soil and Water conservation": "1. Soil conservation practices (20?- 30?)", "Priority based on Soil Erosion Hazard": 1, "N": 7.304222, "E": 80.710864, "Quantity": "3 ha", "Proposed measure/s": "Lock and spills and stone terracing/Live fencing/SALT, as applied", "Uniti_Cost": "400.00 m-1", "Total_Cost": "1,200,000.00", "Contribution (Local Community, LA, and the project)": "Labour and other basic services by the Local community", "Time frame for the implementation": "0.25 Years", "photopath": "https://raw.githubusercontent.com/MWS003-GIS/MWS003-GIS.github.io/main/IWWRMP/Data/EXD/200_photo/MWS_104/Pepper Land_01.jpg" }, "geometry": { "type": "Point", "coordinates": [ 80.710864, 7.304222 ] } },
{ "type": "Feature", "properties": { "No.": 6, "GND No.": "701", "GND Name": "Ihalawela", "Key Activities proposed for Soil and Water conservation": "1. Soil conservation practices (20?- 30?)", "Priority based on Soil Erosion Hazard": 2, "N": 7.302738, "E": 80.718564, "Quantity": "5 ha", "Proposed measure/s": "Lock and spills and stone terracing/Live fencing/SALT, as applied", "Uniti_Cost": "400.00 m-1", "Total_Cost": "2,000,000.00", "Contribution (Local Community, LA, and the project)": "Labour and other basic services by the Local community", "Time frame for the implementation": "0.25 Years", "photopath": "Not_Available" }, "geometry": { "type": "Point", "coordinates": [ 80.718564, 7.302738 ] } },
{ "type": "Feature", "properties": { "No.": 8, "GND No.": "704", "GND Name": "Hurikaduwa madige", "Key Activities proposed for Soil and Water conservation": "1. Soil conservation practices (50?- 70?)", "Priority based on Soil Erosion Hazard": 2, "N": 7.305596, "E": 80.707629, "Quantity": "5 ha", "Proposed measure/s": "Live fencing/SALT and/or stone terracing/lock and spills, as applied", "Uniti_Cost": "250.00 m-1", "Total_Cost": "1,250,000.00", "Contribution (Local Community, LA, and the project)": "Labour and other basic services by the Local community", "Time frame for the implementation": "0.25 Years", "photopath": "https://raw.githubusercontent.com/MWS003-GIS/MWS003-GIS.github.io/main/IWWRMP/Data/EXD/200_photo/MWS_104/Mix Crop 2.jpg" }, "geometry": { "type": "Point", "coordinates": [ 80.707629, 7.305596 ] } },
{ "type": "Feature", "properties": { "No.": 10, "GND No.": "709", "GND Name": "Lunuketiyamadiththa", "Key Activities proposed for Soil and Water conservation": "1. Soil conservation practices (40?- 50?)", "Priority based on Soil Erosion Hazard": 3, "N": 7.334098, "E": 80.719508, "Quantity": "50 ha", "Proposed measure/s": "Live fencing/SALT and/or stone terracing/lock and spills, as applied", "Uniti_Cost": "250.00 m-1", "Total_Cost": "12,500,000.00", "Contribution (Local Community, LA, and the project)": "Labour and other basic services by the Local community", "Time frame for the implementation": "1.5 Years", "photopath": "Not_Available" }, "geometry": { "type": "Point", "coordinates": [ 80.719508, 7.334098 ] } },
{ "type": "Feature", "properties": { "No.": 11, "GND No.": "710", "GND Name": "Daliiwalathanna", "Key Activities proposed for Soil and Water conservation": "1. Soil conservation practices (30?- 40?)", "Priority based on Soil Erosion Hazard": 2, "N": 7.320032, "E": 80.719769, "Quantity": "10 ha", "Proposed measure/s": "Lock and spills and stone terracing/Live fencing/SALT, as applied", "Uniti_Cost": "400.00 m-1", "Total_Cost": "4,000,000.00", "Contribution (Local Community, LA, and the project)": "Labour and other basic services by the Local community", "Time frame for the implementation": "0.5 Years", "photopath": "Not_Available" }, "geometry": { "type": "Point", "coordinates": [ 80.719769, 7.320032 ] } },
{ "type": "Feature", "properties": { "No.": 12, "GND No.": "711", "GND Name": "Heepitiya", "Key Activities proposed for Soil and Water conservation": "1. Soil conservation practices (30?- 40?)", "Priority based on Soil Erosion Hazard": 4, "N": 7.318848, "E": 80.713736, "Quantity": "8 ha", "Proposed measure/s": "Lock and spills and stone terracing/Live fencing/SALT, as applied", "Uniti_Cost": "400.00 m-1", "Total_Cost": "3,200,000.00", "Contribution (Local Community, LA, and the project)": "Labour and other basic services by the Local community", "Time frame for the implementation": "0.5 Years", "photopath": "https://raw.githubusercontent.com/MWS003-GIS/MWS003-GIS.github.io/main/IWWRMP/Data/EXD/200_photo/MWS_104/Mix Crop 1.jpg" }, "geometry": { "type": "Point", "coordinates": [ 80.713736, 7.318848 ] } },
{ "type": "Feature", "properties": { "No.": 13, "GND No.": "712", "GND Name": "Malpana", "Key Activities proposed for Soil and Water conservation": "1. Soil conservation practices (50?- 70?)", "Priority based on Soil Erosion Hazard": 4, "N": 7.312395, "E": 80.715569, "Quantity": "5 ha", "Proposed measure/s": "Live fencing/SALT and/or stone terracing/lock and spills, as applied", "Uniti_Cost": "250.00 m-1", "Total_Cost": "1,250,000.00", "Contribution (Local Community, LA, and the project)": "Labour and other basic services by the Local community", "Time frame for the implementation": "0.25 Years", "photopath": "https://raw.githubusercontent.com/MWS003-GIS/MWS003-GIS.github.io/main/IWWRMP/Data/EXD/200_photo/MWS_104/Mix Crop Land 1.jpg" }, "geometry": { "type": "Point", "coordinates": [ 80.715569, 7.312395 ] } },
{ "type": "Feature", "properties": { "No.": 14, "GND No.": "713", "GND Name": "Galamuna", "Key Activities proposed for Soil and Water conservation": "1. Soil conservation practices (20?- 30?)", "Priority based on Soil Erosion Hazard": 1, "N": 7.309176, "E": 80.707297, "Quantity": "1 ha", "Proposed measure/s": "Live fencing/SALT and/or stone terracing/lock and spills, as applied", "Uniti_Cost": "250.00 m-1", "Total_Cost": "250,000.00", "Contribution (Local Community, LA, and the project)": "Labour and other basic services by the Local community", "Time frame for the implementation": "0.25 Years", "photopath": "https://raw.githubusercontent.com/MWS003-GIS/MWS003-GIS.github.io/main/IWWRMP/Data/EXD/200_photo/MWS_104/Mix Crop 1.jpg" }, "geometry": { "type": "Point", "coordinates": [ 80.707297, 7.309176 ] } }
]
}
