{"type":"FeatureCollection","name":"WP","crs":{"type":"name","properties":{"name":"urn:ogc:def:crs:OGC:1.3:CRS84"}},"features":[
{"type":"Feature","properties":{"No.":1,"GND No.":674,"GN Division":"Maharathanna East","Non-point sources of pollution":"Potential to add human waste - Pahalawaththa","N":7.3204555,"E":80.7030839,"Point sources of pollution":"-","Add. N ":"-","Add. E ":"-","Recommended water quality improvement measures":"-","Unit Cost (Rs.)":"-","Total Cost (Rs.)":"-","Contributions (Local Community, LA, Project)":"-","Time frame for the implementation":"-","photopath":"https://raw.githubusercontent.com/MWS003-GIS/MWS003-GIS.github.io/main/IWWRMP/Data/EXD/200_photo/MWS_104/Garbage Disposal Near Play Ground.jpg"},"geometry":{"type":"Point","coordinates":[80.7030839,7.3204555]}},
{"type":"Feature","properties":{"No.":2,"GND No.":674,"GN Division":"Maharathanna East","Non-point sources of pollution":"Potential to add human waste - Watagoda","N":7.3204555,"E":80.7030839,"Point sources of pollution":"-","Add. N ":"-","Add. E ":"-","Recommended water quality improvement measures":"-","Unit Cost (Rs.)":"-","Total Cost (Rs.)":"-","Contributions (Local Community, LA, Project)":"-","Time frame for the implementation":"-","photopath":"https://raw.githubusercontent.com/MWS003-GIS/MWS003-GIS.github.io/main/IWWRMP/Data/EXD/200_photo/MWS_104/Garbage Disposal Near Play Ground.jpg"},"geometry":{"type":"Point","coordinates":[80.7030839,7.3204555]}},
{"type":"Feature","properties":{"No.":3,"GND No.":674,"GN Division":"Maharathanna East","Non-point sources of pollution":"Informal disposal of houshold wastes/garbage","N":7.3204555,"E":80.7030839,"Point sources of pollution":"-","Add. N ":"-","Add. E ":"-","Recommended water quality improvement measures":"Preparing a separate place in homegardens for disposing houshold waste/Awareness programme on how to disposal household waste properly and converting them to usable products such as compost/Facilitating garbage collection","Unit Cost (Rs.)":"-","Total Cost (Rs.)":"50,000.00","Contributions (Local Community, LA, Project)":"Local/Central governments","Time frame for the implementation":"0.5 Years","photopath":"https://raw.githubusercontent.com/MWS003-GIS/MWS003-GIS.github.io/main/IWWRMP/Data/EXD/200_photo/MWS_104/Garbage Disposal Near Play Ground.jpg"},"geometry":{"type":"Point","coordinates":[80.7030839,7.3204555]}},
{"type":"Feature","properties":{"No.":5,"GND No.":698,"GN Division":"Balagolla East","Non-point sources of pollution":"Informal disposal of houshold wastes/garbage","N":7.2749316,"E":80.7229418,"Point sources of pollution":"-","Add. N ":"-","Add. E ":"-","Recommended water quality improvement measures":"Preparing a separate place in homegardens for disposing houshold waste/Awareness programme on how to disposal household waste properly and converting them to usable products such as compost/Facilitating garbage collection","Unit Cost (Rs.)":"-","Total Cost (Rs.)":"50,000.00","Contributions (Local Community, LA, Project)":"Local/Central governments","Time frame for the implementation":"0.5 Years","photopath":"https://raw.githubusercontent.com/MWS003-GIS/MWS003-GIS.github.io/main/IWWRMP/Data/EXD/200_photo/MWS_104/Garbage Dummping Place 1.jpg"},"geometry":{"type":"Point","coordinates":[80.7229418,7.2749316]}},
{"type":"Feature","properties":{"No.":6,"GND No.":699,"GN Division":"Balagolla West","Non-point sources of pollution":"Informal disposal of houshold wastes/garbage","N":7.2867688,"E":80.7117997,"Point sources of pollution":"-","Add. N ":"-","Add. E ":"-","Recommended water quality improvement measures":"Preparing a separate place in homegardens for disposing houshold waste/Awareness programme on how to disposal household waste properly and converting them to usable products such as compost/Facilitating garbage collection","Unit Cost (Rs.)":"-","Total Cost (Rs.)":"50,000.00","Contributions (Local Community, LA, Project)":"Local/Central governments","Time frame for the implementation":"0.5 Years","photopath":"Not_Available"},"geometry":{"type":"Point","coordinates":[80.7117997,7.2867688]}},
{"type":"Feature","properties":{"No.":7,"GND No.":700,"GN Division":"Kengalla","Non-point sources of pollution":"Potential to add human waste - Thanankumburagama","N":7.2955078,"E":80.7145245,"Point sources of pollution":"-","Add. N ":"-","Add. E ":"-","Recommended water quality improvement measures":"-","Unit Cost (Rs.)":"-","Total Cost (Rs.)":"-","Contributions (Local Community, LA, Project)":"-","Time frame for the implementation":"-","photopath":"Not_Available"},"geometry":{"type":"Point","coordinates":[80.7145245,7.2955078]}},
{"type":"Feature","properties":{"No.":8,"GND No.":701,"GN Division":"Ihalawela","Non-point sources of pollution":"Informal disposal of houshold wastes/garbage","N":7.2985019,"E":80.7215859,"Point sources of pollution":"-","Add. N ":"-","Add. E ":"-","Recommended water quality improvement measures":"Preparing a separate place in homegardens for disposing houshold waste/Awareness programme on how to disposal household waste properly and converting them to usable products such as compost/Facilitating garbage collection","Unit Cost (Rs.)":"-","Total Cost (Rs.)":"50,000.00","Contributions (Local Community, LA, Project)":"Local/Central governments","Time frame for the implementation":"0.5 Years","photopath":"Not_Available"},"geometry":{"type":"Point","coordinates":[80.7215859,7.2985019]}},
{"type":"Feature","properties":{"No.":10,"GND No.":704,"GN Division":"Hurikaduwa Madige","Non-point sources of pollution":"Informal disposal of houshold wastes/garbage","N":7.3028564,"E":80.7093466,"Point sources of pollution":"-","Add. N ":"-","Add. E ":"-","Recommended water quality improvement measures":"Preparing a separate place in homegardens for disposing houshold waste/Awareness programme on how to disposal household waste properly and converting them to usable products such as compost/Facilitating garbage collection","Unit Cost (Rs.)":"-","Total Cost (Rs.)":"50,000.00","Contributions (Local Community, LA, Project)":"Local/Central governments","Time frame for the implementation":"0.5 Years","photopath":"Not_Available"},"geometry":{"type":"Point","coordinates":[80.7093466,7.3028564]}},
{"type":"Feature","properties":{"No.":12,"GND No.":709,"GN Division":"Lunuketiyamadiththa","Non-point sources of pollution":"Potential to add human waste","N":7.3268657,"E":80.7241006,"Point sources of pollution":"-","Add. N ":"-","Add. E ":"-","Recommended water quality improvement measures":"-","Unit Cost (Rs.)":"-","Total Cost (Rs.)":"-","Contributions (Local Community, LA, Project)":"-","Time frame for the implementation":"-","photopath":"Not_Available"},"geometry":{"type":"Point","coordinates":[80.7241006,7.3268657]}},
{"type":"Feature","properties":{"No.":16,"GND No.":713,"GN Division":"Galamuna","Non-point sources of pollution":"Informal disposal of houshold wastes/garbage","N":7.3094327,"E":80.7100064,"Point sources of pollution":"-","Add. N ":"-","Add. E ":"-","Recommended water quality improvement measures":"Preparing a separate place in homegardens for disposing houshold waste/Awareness programme on how to disposal household waste properly and converting them to usable products such as compost/Facilitating garbage collection","Unit Cost (Rs.)":"-","Total Cost (Rs.)":"50,000.00","Contributions (Local Community, LA, Project)":"Local/Central governments","Time frame for the implementation":"0.5 Years","photopath":"Not_Available"},"geometry":{"type":"Point","coordinates":[80.7100064,7.3094327]}}
]}