{"type":"FeatureCollection","name":"SR","crs":{"type":"name","properties":{"name":"urn:ogc:def:crs:OGC:1.3:CRS84"}},"features":[
{"type":"Feature","properties":{"No":1,"GND No.":"62A","Scheme":"Oya from the starting point of Ohiya village to Ohiya bridge","N":6.821002,"E":80.848548,"Observation":"During the rainy season when too much water flows, Bank erosion occurs","Description":"Arrange stone packing-rubble packing-River bank\n\nVegetative cover improving along the river bank Areca nut seedling in 1.5m x 1.5m grid, Kumbuk/ Mee/ Godapara/ Kaduru/ Aththikka/ Wal Del/ Kekuna/ randomly mixed seedlings and planting at 3.5m x 3.5 m grid","Amount (Rs.)":"556,600","photopath":"https://raw.githubusercontent.com/MWS003-GIS/MWS003-GIS.github.io/main/IWWRMP/Data/EXD/200_photo/MWS_050/IMG_20250813_102117 Ohiya oya.jpg"},"geometry":{"type":"Point","coordinates":[80.848548,6.821002]}}
]}