{"type":"FeatureCollection","name":"Landslides","crs":{"type":"name","properties":{"name":"urn:ogc:def:crs:OGC:1.3:CRS84"}},"features":[
{"type":"Feature","properties":{"No.":2,"GN Division No.":947,"GN Division":"Uduwela Udagama West","Landslides":"Bank sloughing at 5th Post Estate, 60","N":7.24791,"E":80.63984,"NBRO Recommendation N/A":"Needs NBRO concern","Proposed Measures":"Establishing a retaining wall\nAdopting proper soil and water conservation methods","photopath":"Not_Available"},"geometry":{"type":"Point","coordinates":[80.63984,7.24791]}},
{"type":"Feature","properties":{"No.":4,"GN Division No.":949,"GN Division":"Uduwela Pallegama East","Landslides":"Kekiriwela G.B.B. Siriya, Soil erosion and bank sloughing, 90 slope (Ethulgama, Wedambala)","N":7.249908056,"E":80.65981861,"NBRO Recommendation N/A":"Needs NBRO concern","Proposed Measures":"Establishing a retaining wall","photopath":"Not_Available"},"geometry":{"type":"Point","coordinates":[80.65981861,7.249908056]}},
{"type":"Feature","properties":{"No.":5,"GN Division No.":949,"GN Division":"Uduwela Pallegama East","Landslides":"Kekiriwela G.B.B. Dhanapala, Soil erosion and bank sloughing, 90 slope (Ethulgama, Wedambala)","N":7.24993,"E":80.66024,"NBRO Recommendation N/A":"-","Proposed Measures":"Establishing a retaining wall","photopath":"https://raw.githubusercontent.com/MWS003-GIS/MWS003-GIS.github.io/main/IWWRMP/Data/EXD/200_photo/MWS_003/Uduwela_Pallegama_East/18.jpg"},"geometry":{"type":"Point","coordinates":[80.66024,7.24993]}},
{"type":"Feature","properties":{"No.":6,"GN Division No.":950,"GN Division":"Uduwela Pallegama West","Landslides":"Galpoththa Hena Road - Land subsidence, 45, 50 families affected","N":7.24968,"E":80.65643,"NBRO Recommendation N/A":"Needs NBRO concern","Proposed Measures":"Drainage facility should be improved for avoiding water flowing on the lands","photopath":"Not_Available"},"geometry":{"type":"Point","coordinates":[80.65643,7.24968]}},
{"type":"Feature","properties":{"No.":7,"GN Division No.":951,"GN Division":"Ratemulla","Landslides":"Nuragashanga, W.G. Premadasa, Cracks in the house, 80","N":7.24585,"E":80.64854,"NBRO Recommendation N/A":"NBRO Has visited","Proposed Measures":"Establishing a Retaining Wall, 25' (7.5 m) height, 25 m length","photopath":"https://raw.githubusercontent.com/MWS003-GIS/MWS003-GIS.github.io/main/IWWRMP/Data/EXD/200_photo/MWS_003/Ratemulla/22.jpg"},"geometry":{"type":"Point","coordinates":[80.64854,7.24585]}},
{"type":"Feature","properties":{"No.":7,"GN Division No.":951,"GN Division":"Ratemulla","Landslides":"Nuragashanga, W.G. Premadasa, Cracks in the house, 80","N":7.24585,"E":80.64854,"NBRO Recommendation N/A":"NBRO Has visited","Proposed Measures":"Establishing a Retaining Wall, 25' (7.5 m) height, 25 m length","photopath":"https://raw.githubusercontent.com/MWS003-GIS/MWS003-GIS.github.io/main/IWWRMP/Data/EXD/200_photo/MWS_003/Ratemulla/22.jpg"},"geometry":{"type":"Point","coordinates":[80.64854,7.24585]}},
{"type":"Feature","properties":{"No.":8,"GN Division No.":951,"GN Division":"Ratemulla","Landslides":"Nuragashanga, W.G. Dayawansha, 64/C/1, Cracks in the house","N":7.246,"E":80.64833,"NBRO Recommendation N/A":"NBRO Has visited","Proposed Measures":"Establishing a Retaining Wall, 25' (7.5 m) height, 25 m length","photopath":"Not_Available"},"geometry":{"type":"Point","coordinates":[80.64833,7.246]}},
{"type":"Feature","properties":{"No.":9,"GN Division No.":951,"GN Division":"Ratemulla","Landslides":"Ratemulla, Uduwela, O.W. Sumith Kumara, 69/4, 60","N":7.24539,"E":80.64867,"NBRO Recommendation N/A":"NBRO Has visited","Proposed Measures":"Establishing a Retaining Wall, 25' (7.5 m) height, 25 m length","photopath":"Not_Available"},"geometry":{"type":"Point","coordinates":[80.64867,7.24539]}},
{"type":"Feature","properties":{"No.":10,"GN Division No.":951,"GN Division":"Ratemulla","Landslides":"Nuragashanga, Ratemulla, N.K. Jayasingha, 77/1, 70","N":7.2424,"E":80.64796,"NBRO Recommendation N/A":"NBRO Has visited","Proposed Measures":"Establishing a Retaining Wall, 25' (7.5 m) height, 25 m length","photopath":"Not_Available"},"geometry":{"type":"Point","coordinates":[80.64796,7.2424]}},
{"type":"Feature","properties":{"No.":11,"GN Division No.":952,"GN Division":"Monarangala","Landslides":"Landslide area (Silverthenne Upper), 4 ac","N":7.2581,"E":80.6556,"NBRO Recommendation N/A":"Warned to remove from the lands","Proposed Measures":"Remove heavy weight structures, trees etc.","photopath":"https://raw.githubusercontent.com/MWS003-GIS/MWS003-GIS.github.io/main/IWWRMP/Data/EXD/200_photo/MWS_003/Monarangala/27.jpg"},"geometry":{"type":"Point","coordinates":[80.6556,7.2581]}},
{"type":"Feature","properties":{"No.":12,"GN Division No.":952,"GN Division":"Monarangala","Landslides":"Landslide area (Mr. Siriwardene, Hunukotuwa), 200 m, bank sloughing","N":7.2582,"E":80.6521,"NBRO Recommendation N/A":"-","Proposed Measures":"Facilitate drainage facility\nAdopting proper soil and water conservation methods","photopath":"Not_Available"},"geometry":{"type":"Point","coordinates":[80.6521,7.2582]}},
{"type":"Feature","properties":{"No.":13,"GN Division No.":953,"GN Division":"Wathuliyadda","Landslides":"M.G. Weerathunga, No. 339, Wathuliyadda, Uduwela, 65","N":7.26289,"E":80.64804,"NBRO Recommendation N/A":"Needs NBRO concern","Proposed Measures":"Establishing a Retaining Wall","photopath":"https://raw.githubusercontent.com/MWS003-GIS/MWS003-GIS.github.io/main/IWWRMP/Data/EXD/200_photo/MWS_003/Wathuliyadda/30.jpg"},"geometry":{"type":"Point","coordinates":[80.64804,7.26289]}},
{"type":"Feature","properties":{"No.":15,"GN Division No.":954,"GN Division":"Uduwela waththa","Landslides":"Cracks in the house of Mr. Chaminda Wijekoon, Uduwelawatte","N":7.25228,"E":80.645,"NBRO Recommendation N/A":"Needs NBRO concern","Proposed Measures":"Need to establish a Retaining Wall (20' x 20') just below the house","photopath":"https://raw.githubusercontent.com/MWS003-GIS/MWS003-GIS.github.io/main/IWWRMP/Data/EXD/200_photo/MWS_003/Uduwela_Udagama_West/26.jpg"},"geometry":{"type":"Point","coordinates":[80.645,7.25228]}},
{"type":"Feature","properties":{"No.":16,"GN Division No.":955,"GN Division":"Galthenna","Landslides":"1. From Galthenne  Hindu Temple to Junior School, 55, 60 families affected","N":7.2558976,"E":80.646734,"NBRO Recommendation N/A":"Needs NBRO concern","Proposed Measures":"Remove heavy weight structures, trees etc.","photopath":"https://raw.githubusercontent.com/MWS003-GIS/MWS003-GIS.github.io/main/IWWRMP/Data/EXD/200_photo/MWS_003/Galthenna/21.jpg"},"geometry":{"type":"Point","coordinates":[80.646734,7.2558976]}},
{"type":"Feature","properties":{"No.":17,"GN Division No.":953,"GN Division":"Wathuliyadda","Landslides":"2. Wathuliyadda Junior School, 65","N":7.25621,"E":80.64578,"NBRO Recommendation N/A":"-","Proposed Measures":"Facilitate drainage facility","photopath":"https://raw.githubusercontent.com/MWS003-GIS/MWS003-GIS.github.io/main/IWWRMP/Data/EXD/200_photo/MWS_003/Galthenna/22.jpg"},"geometry":{"type":"Point","coordinates":[80.64578,7.25621]}},
{"type":"Feature","properties":{"No.":18,"GN Division No.":953,"GN Division":"Wathuliyadda","Landslides":"3. Wathuliyadda Junior School, 60, Bank sloughing","N":7.2561,"E":80.64566,"NBRO Recommendation N/A":"-","Proposed Measures":"Adopting proper soil and water conservation methods","photopath":"https://raw.githubusercontent.com/MWS003-GIS/MWS003-GIS.github.io/main/IWWRMP/Data/EXD/200_photo/MWS_003/Galthenna/23.jpg"},"geometry":{"type":"Point","coordinates":[80.64566,7.2561]}},
{"type":"Feature","properties":{"No.":21,"GN Division No.":964,"GN Division":"Puliyadda","Landslides":"Gepolagedara, 30","N":7.24387,"E":80.65691,"NBRO Recommendation N/A":"Warned to remove from 5 houses","Proposed Measures":"There is no danger as it took time and seems settled","photopath":"https://raw.githubusercontent.com/MWS003-GIS/MWS003-GIS.github.io/main/IWWRMP/Data/EXD/200_photo/MWS_003/Puliyadda/22.jpg"},"geometry":{"type":"Point","coordinates":[80.65691,7.24387]}},
{"type":"Feature","properties":{"No.":22,"GN Division No.":966,"GN Division":"Ethulgama West ","Landslides":"In between W. Ela and Bangalawatte Rd., Slope 60 - 75, 6 ac, 8 families affected ","N":7.23181,"E":80.65748,"NBRO Recommendation N/A":"Warned to remove from 4 houses, Red notice issued","Proposed Measures":"Remove heavy weight structures, trees etc.","photopath":"Not_Available"},"geometry":{"type":"Point","coordinates":[80.65748,7.23181]}},
{"type":"Feature","properties":{"No.":24,"GN Division No.":967,"GN Division":"Ethulgama North","Landslides":"Just below Gedara Kubura Ela and in the Gedara Kumbura, 60 perches (50 m below from GKE)","N":7.2441368,"E":80.6707548,"NBRO Recommendation N/A":"Needs NBRO concern","Proposed Measures":"Facilitate drainage facility\nAdopting proper soil and water conservation methods","photopath":"Not_Available"},"geometry":{"type":"Point","coordinates":[80.6707548,7.2441368]}}
]}