{
"type": "FeatureCollection",
"name": "MI",
"crs": { "type": "name", "properties": { "name": "urn:ogc:def:crs:OGC:1.3:CRS84" } },
"features": [
{ "type": "Feature", "properties": { "No": 1, "GND No.": 946, "Scheme": "Ududampala anicut", "N": 7.24601, "E": 80.648576, "Observation": "1. Chip off weathered concrete surfaces     2. Drill, fix  and grout  16mm dia \"T \" shape dowels at 500mm intervals   3. Apply grade 25 concrete 125mm thick curtaining    4. Provide anicut planks   ", "Description": "Anicut restoration need", "Amount (Rs.)": "600,000", "photopath": "Not_Available" }, "geometry": { "type": "Point", "coordinates": [ 80.648576, 7.24601 ] } },
{ "type": "Feature", "properties": { "No": 2, "GND No.": 946, "Scheme": "Ududampala canal", "N": 7.24601, "E": 80.648576, "Observation": "1. Earth filling to narrow tracks to form channel bund of 1 -  1.5m wide and length of about 200 m.\n2. Protection by turfing sods with vetiver grass rows. or\n3. Cultivate edible varieties such as Mukunuwenna, Gotukola, and Thampala along the incline surface.", "Description": "Reservation, repairs & Backfilling", "Amount (Rs.)": "174,000", "photopath": "Not_Available" }, "geometry": { "type": "Point", "coordinates": [ 80.648576, 7.24601 ] } },
{ "type": "Feature", "properties": { "No": 3, "GND No.": 946, "Scheme": "Uda-assadduma canal", "N": 7.246005, "E": 80.64504, "Observation": "1. Earth filling to narrow tracks to form channel bund of 1 -  1.5m wide and length of about 200 m.\n2. Protection by turfing sods with vetiver grass rows. or\n3. Cultivate edible varieties such as Mukunuwenna, Gotukola, and Thampala along the incline surface.", "Description": "Reservation, repairs & Backfilling", "Amount (Rs.)": "174,000", "photopath": "https://raw.githubusercontent.com/MWS003-GIS/MWS003-GIS.github.io/main/IWWRMP/Data/EXD/200_photo/MWS_003/Uduwela_Udagama_East/10.jpg" }, "geometry": { "type": "Point", "coordinates": [ 80.64504, 7.246005 ] } },
{ "type": "Feature", "properties": { "No": 4, "GND No.": 946, "Scheme": "Rankiriyagolla anicut", "N": 7.24733, "E": 80.644803, "Observation": "Remove perished gates and provide new components", "Description": "Anicut gate refurbishment", "Amount (Rs.)": "150,000", "photopath": "https://raw.githubusercontent.com/MWS003-GIS/MWS003-GIS.github.io/main/IWWRMP/Data/EXD/200_photo/MWS_003/Uduwela_Udagama_East/11.jpg" }, "geometry": { "type": "Point", "coordinates": [ 80.644803, 7.24733 ] } },
{ "type": "Feature", "properties": { "No": 5, "GND No.": 946, "Scheme": "Rankiriyagolla  canal (1)", "N": 7.247344, "E": 80.644858, "Observation": "1. Earth filling to narrow tracks to form channel bund of 1 -  1.5m wide and length about 100 m.\n2. Protection by turfing sods with vetiver grass rows. or\n3. Cultivate edible varieties such as Mukunuwenna, Gotukola, and Thampala along the incline surface.", "Description": "Reservation, repairs & Backfilling", "Amount (Rs.)": "87,000", "photopath": "https://raw.githubusercontent.com/MWS003-GIS/MWS003-GIS.github.io/main/IWWRMP/Data/EXD/200_photo/MWS_003/Uduwela_Udagama_East/12.jpg" }, "geometry": { "type": "Point", "coordinates": [ 80.644858, 7.247344 ] } },
{ "type": "Feature", "properties": { "No": 6, "GND No.": 946, "Scheme": "Rankiriyagolla  canal (2)", "N": 7.248852, "E": 80.645576, "Observation": "1. Earth filling to narrow tracks to form channel bund of 1 -  1.5m wide and length about 100 m.\n2. Protection by turfing sods with vetiver grass rows. or\n3. Cultivate edible varieties such as Mukunuwenna, Gotukola, and Thampala along the incline surface.", "Description": "Reservation, repairs & Backfilling", "Amount (Rs.)": "87,000", "photopath": "https://raw.githubusercontent.com/MWS003-GIS/MWS003-GIS.github.io/main/IWWRMP/Data/EXD/200_photo/MWS_003/Uduwela_Udagama_East/13.jpg" }, "geometry": { "type": "Point", "coordinates": [ 80.645576, 7.248852 ] } },
{ "type": "Feature", "properties": { "No": 7, "GND No.": 946, "Scheme": "Rankiriyagolla  canal (3)", "N": 7.249503, "E": 80.646469, "Observation": "1. Earth filling to narrow tracks to form channel bund of 1 -  1.5m wide and length about 100 m.\n2. Protection by turfing sods with vetiver grass rows. or\n3. Cultivate edible varieties such as Mukunuwenna, Gotukola, and Thampala along the incline surface.", "Description": "Reservation, repairs & Backfilling", "Amount (Rs.)": "87,000", "photopath": "https://raw.githubusercontent.com/MWS003-GIS/MWS003-GIS.github.io/main/IWWRMP/Data/EXD/200_photo/MWS_003/Uduwela_Udagama_East/14.jpg" }, "geometry": { "type": "Point", "coordinates": [ 80.646469, 7.249503 ] } },
{ "type": "Feature", "properties": { "No": 8, "GND No.": 946, "Scheme": "Palle-assadduma canal", "N": 7.246136, "E": 80.645318, "Observation": "1. Earth filling to narrow tracks to form channel bund of 1 -  1.5m wide and length about 100 m.\n2. Protection by turfing sods with vetiver grass rows. or\n3. Cultivate edible varieties such as Mukunuwenna, Gotukola, and Thampala along the incline surface.", "Description": "Reservation, repairs & Backfilling", "Amount (Rs.)": "87,000", "photopath": "Not_Available" }, "geometry": { "type": "Point", "coordinates": [ 80.645318, 7.246136 ] } },
{ "type": "Feature", "properties": { "No": 9, "GND No.": 947, "Scheme": "Diddeniya Oya", "N": 7.24777, "E": 80.64348, "Observation": "1. Earth filling to narrow tracks to form channel bund of 1 -  1.5m wide and length about 100 m.\n2. Protection by turfing sods with vetiver grass rows. or\n3. Cultivate edible varieties such as Mukunuwenna, Gotukola, and Thampala along the incline surface.", "Description": "Reservation, tree  planting", "Amount (Rs.)": "109,700", "photopath": "https://raw.githubusercontent.com/MWS003-GIS/MWS003-GIS.github.io/main/IWWRMP/Data/EXD/200_photo/MWS_003/Uduwela_Udagama_West/25.jpg" }, "geometry": { "type": "Point", "coordinates": [ 80.64348, 7.24777 ] } },
{ "type": "Feature", "properties": { "No": 10, "GND No.": 948, "Scheme": "Kebalewa canal", "N": 7.254828056, "E": 80.65229722, "Observation": "1. Earth filling to narrow tracks to form channel bund of 1 -  1.5m wide and length about 100 m.\n2. Protection by turfing sods with vetiver grass rows. or\n3. Cultivate edible varieties such as Mukunuwenna, Gotukola, and Thampala along the incline surface.", "Description": "Leaks in the canal.", "Amount (Rs.)": "87,000", "photopath": "https://raw.githubusercontent.com/MWS003-GIS/MWS003-GIS.github.io/main/IWWRMP/Data/EXD/200_photo/MWS_003/Uduwela_Pallegama_South/3.jpg" }, "geometry": { "type": "Point", "coordinates": [ 80.65229722, 7.254828056 ] } },
{ "type": "Feature", "properties": { "No": 11, "GND No.": 948, "Scheme": "Kebalewa canal", "N": 7.254683889, "E": 80.6526775, "Observation": "1. Earth filling to narrow tracks to form channel bund of 1 -  1.5m wide and length about 100 m.\n2. Protection by turfing sods with vetiver grass rows. or\n3. Cultivate edible varieties such as Mukunuwenna, Gotukola, and Thampala along the incline surface.", "Description": "Leaks in the canal.", "Amount (Rs.)": "87,000", "photopath": "https://raw.githubusercontent.com/MWS003-GIS/MWS003-GIS.github.io/main/IWWRMP/Data/EXD/200_photo/MWS_003/Uduwela_Pallegama_South/3.jpg" }, "geometry": { "type": "Point", "coordinates": [ 80.6526775, 7.254683889 ] } },
{ "type": "Feature", "properties": { "No": 12, "GND No.": 948, "Scheme": "Kebalewa canal", "N": 7.253777778, "E": 80.65583889, "Observation": "1. Earth filling to narrow tracks to form channel bund of 1 -  1.5m wide and length about 100 m.\n2. Protection by turfing sods with vetiver grass rows. or\n3. Cultivate edible varieties such as Mukunuwenna, Gotukola, and Thampala along the incline surface.", "Description": "Leaks in the canal.", "Amount (Rs.)": "87,000", "photopath": "https://raw.githubusercontent.com/MWS003-GIS/MWS003-GIS.github.io/main/IWWRMP/Data/EXD/200_photo/MWS_003/Uduwela_Pallegama_South/3.jpg" }, "geometry": { "type": "Point", "coordinates": [ 80.65583889, 7.253777778 ] } },
{ "type": "Feature", "properties": { "No": 13, "GND No.": 948, "Scheme": "Kebalewa canal", "N": 7.254970833, "E": 80.65583889, "Observation": "1. Earth filling to narrow tracks to form channel bund of 1 -  1.5m wide and length about 100 m.\n2. Protection by turfing sods with vetiver grass rows. or\n3. Cultivate edible varieties such as Mukunuwenna, Gotukola, and Thampala along the incline surface.", "Description": "Leaks in the canal.", "Amount (Rs.)": "87,000", "photopath": "Not_Available" }, "geometry": { "type": "Point", "coordinates": [ 80.65583889, 7.254970833 ] } },
{ "type": "Feature", "properties": { "No": 14, "GND No.": 948, "Scheme": "Kebalewa canal", "N": 7.254970833, "E": 80.65583889, "Observation": "1. Earth filling to narrow tracks to form channel bund of 1 -  1.5m wide and length about 100 m.\n2. Protection by turfing sods with vetiver grass rows. or\n3. Cultivate edible varieties such as Mukunuwenna, Gotukola, and Thampala along the incline surface.", "Description": "Leaks in the canal.", "Amount (Rs.)": "87,000", "photopath": "Not_Available" }, "geometry": { "type": "Point", "coordinates": [ 80.65583889, 7.254970833 ] } },
{ "type": "Feature", "properties": { "No": 15, "GND No.": 948, "Scheme": "Kebalewa canal", "N": 7.254828056, "E": 80.65229722, "Observation": "Provide 15m long x2m high RCC retaining wall ", "Description": "Upstream embankment collapse and retaining wall required", "Amount (Rs.)": "400,000", "photopath": "Not_Available" }, "geometry": { "type": "Point", "coordinates": [ 80.65229722, 7.254828056 ] } },
{ "type": "Feature", "properties": { "No": 16, "GND No.": 948, "Scheme": "Kebalewa canal", "N": 7.254970833, "E": 80.65540556000001, "Observation": "1. Earth filling to narrow tracks to form channel bund of 1 -  1.5m wide and length about 100 m.\n2. Protection by turfing sods with vetiver grass rows. or\n3. Cultivate edible varieties such as Mukunuwenna, Gotukola, and Thampala along the incline surface.", "Description": "Leaks in the canal.", "Amount (Rs.)": "87,000", "photopath": "Not_Available" }, "geometry": { "type": "Point", "coordinates": [ 80.65540556, 7.254970833 ] } },
{ "type": "Feature", "properties": { "No": 17, "GND No.": 948, "Scheme": "Kalaldora canal", "N": 7.254043333, "E": 80.65204611, "Observation": "1. Earth filling to narrow tracks to form channel bund of 1 -  1.5m wide and length about 100 m.\n2. Protection by turfing sods with vetiver grass rows. or\n3. Cultivate edible varieties such as Mukunuwenna, Gotukola, and Thampala along the incline surface.", "Description": "Leaks in the canal.", "Amount (Rs.)": "87,000", "photopath": "https://raw.githubusercontent.com/MWS003-GIS/MWS003-GIS.github.io/main/IWWRMP/Data/EXD/200_photo/MWS_003/Uduwela_Pallegama_South/6.jpg" }, "geometry": { "type": "Point", "coordinates": [ 80.65204611, 7.254043333 ] } },
{ "type": "Feature", "properties": { "No": 18, "GND No.": 948, "Scheme": "Kalaldora canal", "N": 7.253825556, "E": 80.65213889, "Observation": "1. Earth filling to narrow tracks to form channel bund of 1 -  1.5m wide and length about 100 m.\n2. Protection by turfing sods with vetiver grass rows. or\n3. Cultivate edible varieties such as Mukunuwenna, Gotukola, and Thampala along the incline surface.", "Description": "Leaks in the canal.", "Amount (Rs.)": "87,000", "photopath": "https://raw.githubusercontent.com/MWS003-GIS/MWS003-GIS.github.io/main/IWWRMP/Data/EXD/200_photo/MWS_003/Uduwela_Pallegama_South/6.jpg" }, "geometry": { "type": "Point", "coordinates": [ 80.65213889, 7.253825556 ] } },
{ "type": "Feature", "properties": { "No": 19, "GND No.": 948, "Scheme": "Kalaldora canal", "N": 7.255235, "E": 80.65355556, "Observation": "Demolish and reconstruct   125mm thick  , 0.4m  wide  and 0.5m high and 100m long canal with grade 25 concrete  -single banking", "Description": "Leaks in the canal and overflow", "Amount (Rs.)": "690,000", "photopath": "https://raw.githubusercontent.com/MWS003-GIS/MWS003-GIS.github.io/main/IWWRMP/Data/EXD/200_photo/MWS_003/Uduwela_Pallegama_South/6.jpg" }, "geometry": { "type": "Point", "coordinates": [ 80.65355556, 7.255235 ] } },
{ "type": "Feature", "properties": { "No": 20, "GND No.": 948, "Scheme": "Kalaldora canal", "N": 7.253975, "E": 80.6526325, "Observation": "Demolish and reconstruct   125mm thick  , 0.4m  wide  and 0.5m high and 100m long canal with grade 25 concrete  -single banking", "Description": "Leaks in the canal and overflow", "Amount (Rs.)": "690,000", "photopath": "https://raw.githubusercontent.com/MWS003-GIS/MWS003-GIS.github.io/main/IWWRMP/Data/EXD/200_photo/MWS_003/Uduwela_Pallegama_South/6.jpg" }, "geometry": { "type": "Point", "coordinates": [ 80.6526325, 7.253975 ] } },
{ "type": "Feature", "properties": { "No": 21, "GND No.": 948, "Scheme": "Kalaldora canal", "N": 7.254208056, "E": 80.65297222, "Observation": "Demolish and reconstruct   125mm thick  , 0.4m  wide  and 0.5m high and 100m long canal with grade 25 concrete  -single banking", "Description": "Leaks in the canal and overflow", "Amount (Rs.)": "690,000", "photopath": "https://raw.githubusercontent.com/MWS003-GIS/MWS003-GIS.github.io/main/IWWRMP/Data/EXD/200_photo/MWS_003/Uduwela_Pallegama_South/6.jpg" }, "geometry": { "type": "Point", "coordinates": [ 80.65297222, 7.254208056 ] } },
{ "type": "Feature", "properties": { "No": 22, "GND No.": 948, "Scheme": "Kalaldora canal", "N": 7.253975, "E": 80.6526325, "Observation": "Manually drill 20-25 dia holes @300mm interval   and apply expansive mortar ", "Description": "Remove  rock obstacles", "Amount (Rs.)": "40,000", "photopath": "https://raw.githubusercontent.com/MWS003-GIS/MWS003-GIS.github.io/main/IWWRMP/Data/EXD/200_photo/MWS_003/Uduwela_Pallegama_South/6.jpg" }, "geometry": { "type": "Point", "coordinates": [ 80.6526325, 7.253975 ] } },
{ "type": "Feature", "properties": { "No": 23, "GND No.": 948, "Scheme": "Kalaldora canal", "N": 7.254415556, "E": 80.65322778, "Observation": "Demolish and reconstruct   125mm thick  , 0.4m  wide  and 0.5m high and 100m long canal with grade 25 concrete  -single banking", "Description": "Leaks in the canal and overflow", "Amount (Rs.)": "690,000", "photopath": "https://raw.githubusercontent.com/MWS003-GIS/MWS003-GIS.github.io/main/IWWRMP/Data/EXD/200_photo/MWS_003/Uduwela_Pallegama_South/6.jpg" }, "geometry": { "type": "Point", "coordinates": [ 80.65322778, 7.254415556 ] } },
{ "type": "Feature", "properties": { "No": 24, "GND No.": 948, "Scheme": "Kalaldora canal", "N": 7.254561667, "E": 80.65350278, "Observation": "Demolish and reconstruct   125mm thick  , 0.4m  wide  and 0.5m high and 100m long canal with grade 25 concrete  -single banking", "Description": "Leaks in the canal and overflow", "Amount (Rs.)": "690,000", "photopath": "https://raw.githubusercontent.com/MWS003-GIS/MWS003-GIS.github.io/main/IWWRMP/Data/EXD/200_photo/MWS_003/Uduwela_Pallegama_South/6.jpg" }, "geometry": { "type": "Point", "coordinates": [ 80.65350278, 7.254561667 ] } },
{ "type": "Feature", "properties": { "No": 25, "GND No.": 948, "Scheme": "Kalaldora canal", "N": 7.254047222, "E": 80.65529722, "Observation": "Demolish and reconstruct   125mm thick  , 0.4m  wide  and 0.5m high and 100m long canal with grade 25 concrete  -single banking", "Description": "Leaks in the canal and overflow", "Amount (Rs.)": "690,000", "photopath": "https://raw.githubusercontent.com/MWS003-GIS/MWS003-GIS.github.io/main/IWWRMP/Data/EXD/200_photo/MWS_003/Uduwela_Pallegama_South/6.jpg" }, "geometry": { "type": "Point", "coordinates": [ 80.65529722, 7.254047222 ] } },
{ "type": "Feature", "properties": { "No": 26, "GND No.": 948, "Scheme": "Bulathgamuwa canal", "N": 7.254282222, "E": 80.65575556, "Observation": " Demolish and reconstruct   100mm thick  , 0.4m  wide  and 0.3m high and 100m long canal with grade 25 concrete  -single banking", "Description": "Concrete lining to be repaired", "Amount (Rs.)": "500,000", "photopath": "https://raw.githubusercontent.com/MWS003-GIS/MWS003-GIS.github.io/main/IWWRMP/Data/EXD/200_photo/MWS_003/Uduwela_Pallegama_South/7.jpg" }, "geometry": { "type": "Point", "coordinates": [ 80.65575556, 7.254282222 ] } },
{ "type": "Feature", "properties": { "No": 27, "GND No.": 948, "Scheme": "Bulathgamuwa canal", "N": 7.253633056, "E": 80.65575556, "Observation": "Demolish and reconstruct   100mm thick  , 0.4m  wide  and 0.3m high and 100m long canal with grade 25 concrete  -single banking", "Description": "Concrete lining to be repaired", "Amount (Rs.)": "500,000", "photopath": "https://raw.githubusercontent.com/MWS003-GIS/MWS003-GIS.github.io/main/IWWRMP/Data/EXD/200_photo/MWS_003/Uduwela_Pallegama_South/7.jpg" }, "geometry": { "type": "Point", "coordinates": [ 80.65575556, 7.253633056 ] } },
{ "type": "Feature", "properties": { "No": 28, "GND No.": 948, "Scheme": "Kahatagahamula canal", "N": 7.252388889, "E": 80.653775, "Observation": "Provide 15m long x2m high RCC retaining wall ", "Description": "Retaining wall is required", "Amount (Rs.)": "400,000", "photopath": "https://raw.githubusercontent.com/MWS003-GIS/MWS003-GIS.github.io/main/IWWRMP/Data/EXD/200_photo/MWS_003/Uduwela_Pallegama_South/8.jpg" }, "geometry": { "type": "Point", "coordinates": [ 80.653775, 7.252388889 ] } },
{ "type": "Feature", "properties": { "No": 29, "GND No.": 948, "Scheme": "Kahatagahamula canal", "N": 7.250541667, "E": 80.653825, "Observation": "1. Earth filling to narrow tracks to form channel bund of 1 -  1.5m wide and length about 100 m.\n2. Protection by turfing sods with vetiver grass rows. or\n3. Cultivate edible varieties such as Mukunuwenna, Gotukola, and Thampala along the incline surface.", "Description": "Canal leak/earth filling need", "Amount (Rs.)": "87,000", "photopath": "https://raw.githubusercontent.com/MWS003-GIS/MWS003-GIS.github.io/main/IWWRMP/Data/EXD/200_photo/MWS_003/Uduwela_Pallegama_South/8.jpg" }, "geometry": { "type": "Point", "coordinates": [ 80.653825, 7.250541667 ] } },
{ "type": "Feature", "properties": { "No": 30, "GND No.": 948, "Scheme": "Kahatagahamula canal", "N": 7.255163889, "E": 80.65378611, "Observation": "1. Earth filling to narrow tracks to form channel bund of 1 -  1.5m wide and length about 100 m.\n2. Protection by turfing sods with vetiver grass rows. or\n3. Cultivate edible varieties such as Mukunuwenna, Gotukola, and Thampala along the incline surface", "Description": "Canal leak/earth filling need", "Amount (Rs.)": "87,000", "photopath": "https://raw.githubusercontent.com/MWS003-GIS/MWS003-GIS.github.io/main/IWWRMP/Data/EXD/200_photo/MWS_003/Uduwela_Pallegama_South/8.jpg" }, "geometry": { "type": "Point", "coordinates": [ 80.65378611, 7.255163889 ] } },
{ "type": "Feature", "properties": { "No": 31, "GND No.": 948, "Scheme": "Kahatagahamula canal", "N": 7.254325, "E": 80.65430833000001, "Observation": "1. Earth filling to narrow tracks to form channel bund of 1 -  1.5m wide and length about 100 m.\n2. Protection by turfing sods with vetiver grass rows. or\n3. Cultivate edible varieties such as Mukunuwenna, Gotukola, and Thampala along the incline surface.", "Description": "Canal leak/earth filling need", "Amount (Rs.)": "87,000", "photopath": "https://raw.githubusercontent.com/MWS003-GIS/MWS003-GIS.github.io/main/IWWRMP/Data/EXD/200_photo/MWS_003/Uduwela_Pallegama_South/8.jpg" }, "geometry": { "type": "Point", "coordinates": [ 80.65430833, 7.254325 ] } },
{ "type": "Feature", "properties": { "No": 32, "GND No.": 948, "Scheme": "Kahatagahamula canal", "N": 7.254486111, "E": 80.65461472, "Observation": "1. Earth filling to narrow tracks to form channel bund of 1 -  1.5m wide and length about 100 m.\n2. Protection by turfing sods with vetiver grass rows. or\n3. Cultivate edible varieties such as Mukunuwenna, Gotukola, and Thampala along the incline surface.", "Description": "Canal leak/earth filling need", "Amount (Rs.)": "87,000", "photopath": "https://raw.githubusercontent.com/MWS003-GIS/MWS003-GIS.github.io/main/IWWRMP/Data/EXD/200_photo/MWS_003/Uduwela_Pallegama_South/8.jpg" }, "geometry": { "type": "Point", "coordinates": [ 80.65461472, 7.254486111 ] } },
{ "type": "Feature", "properties": { "No": 33, "GND No.": 948, "Scheme": "Thelabu pallewaththa ", "N": 7.249980556, "E": 80.65321667000001, "Observation": "1. Earth filling to narrow tracks to form channel bund of 1 -  1.5m wide and length about 100 m.\n2. Protection by turfing sods with vetiver grass rows. or\n3. Cultivate edible varieties such as Mukunuwenna, Gotukola, and Thampala along the incline surface.", "Description": "Canal leak/earth filling need", "Amount (Rs.)": "87,000", "photopath": "https://raw.githubusercontent.com/MWS003-GIS/MWS003-GIS.github.io/main/IWWRMP/Data/EXD/200_photo/MWS_003/Uduwela_Pallegama_South/9.jpg" }, "geometry": { "type": "Point", "coordinates": [ 80.65321667, 7.249980556 ] } },
{ "type": "Feature", "properties": { "No": 34, "GND No.": 948, "Scheme": "Thelabu pallewaththa ", "N": 7.254711111, "E": 80.652515, "Observation": "1. Earth filling to narrow tracks to form channel bund of 1 -  1.5m wide and length about 100 m.\n2. Protection by turfing sods with vetiver grass rows. or\n3. Cultivate edible varieties such as Mukunuwenna, Gotukola, and Thampala along the incline surface.", "Description": "Canal leak/earth filling need", "Amount (Rs.)": "87,000", "photopath": "https://raw.githubusercontent.com/MWS003-GIS/MWS003-GIS.github.io/main/IWWRMP/Data/EXD/200_photo/MWS_003/Uduwela_Pallegama_South/9.jpg" }, "geometry": { "type": "Point", "coordinates": [ 80.652515, 7.254711111 ] } },
{ "type": "Feature", "properties": { "No": 35, "GND No.": 948, "Scheme": "Thelabu pallewaththa ", "N": 7.254975, "E": 80.65336667, "Observation": "1. Earth filling to narrow tracks to form channel bund of 1 -  1.5m wide and length about 100 m.\n2. Protection by turfing sods with vetiver grass rows. or\n3. Cultivate edible varieties such as Mukunuwenna, Gotukola, and Thampala along the incline surface.", "Description": "Canal leak/earth filling need", "Amount (Rs.)": "87,000", "photopath": "https://raw.githubusercontent.com/MWS003-GIS/MWS003-GIS.github.io/main/IWWRMP/Data/EXD/200_photo/MWS_003/Uduwela_Pallegama_South/9.jpg" }, "geometry": { "type": "Point", "coordinates": [ 80.65336667, 7.254975 ] } },
{ "type": "Feature", "properties": { "No": 36, "GND No.": 948, "Scheme": "Thelabu pallewaththa ", "N": 7.255377778, "E": 80.65359722, "Observation": "1. Earth filling to narrow tracks to form channel bund of 1 -  1.5m wide and length about 100 m.\n2. Protection by turfing sods with vetiver grass rows. or\n3. Cultivate edible varieties such as Mukunuwenna, Gotukola, and Thampala along the incline surface.", "Description": "Canal leak/earth filling need", "Amount (Rs.)": "87,000", "photopath": "https://raw.githubusercontent.com/MWS003-GIS/MWS003-GIS.github.io/main/IWWRMP/Data/EXD/200_photo/MWS_003/Uduwela_Pallegama_South/9.jpg" }, "geometry": { "type": "Point", "coordinates": [ 80.65359722, 7.255377778 ] } },
{ "type": "Feature", "properties": { "No": 37, "GND No.": 948, "Scheme": "Ginithulawa canal", "N": 7.252690556, "E": 80.65198361, "Observation": "1. Earth filling to narrow tracks to form channel bund of 1 -  1.5m wide and length about 100 m.\n2. Protection by turfing sods with vetiver grass rows. or\n3. Cultivate edible varieties such as Mukunuwenna, Gotukola, and Thampala along the incline surface.", "Description": "Canal leak/earth filling need", "Amount (Rs.)": "87,000", "photopath": "https://raw.githubusercontent.com/MWS003-GIS/MWS003-GIS.github.io/main/IWWRMP/Data/EXD/200_photo/MWS_003/Uduwela_Pallegama_South/10.jpg" }, "geometry": { "type": "Point", "coordinates": [ 80.65198361, 7.252690556 ] } },
{ "type": "Feature", "properties": { "No": 38, "GND No.": 948, "Scheme": "Ginithulawa canal", "N": 7.252661667, "E": 80.65206528, "Observation": "1. Earth filling to narrow tracks to form channel bund of 1 -  1.5m wide and length about 100 m.\n2. Protection by turfing sods with vetiver grass rows. or\n3. Cultivate edible varieties such as Mukunuwenna, Gotukola, and Thampala along the incline surface.", "Description": "Canal leak/earth filling need", "Amount (Rs.)": "87,000", "photopath": "https://raw.githubusercontent.com/MWS003-GIS/MWS003-GIS.github.io/main/IWWRMP/Data/EXD/200_photo/MWS_003/Uduwela_Pallegama_South/10.jpg" }, "geometry": { "type": "Point", "coordinates": [ 80.65206528, 7.252661667 ] } },
{ "type": "Feature", "properties": { "No": 39, "GND No.": 948, "Scheme": "Ginithulawa canal", "N": 7.252752222, "E": 80.65240889, "Observation": "1. Earth filling to narrow tracks to form channel bund of 1 -  1.5m wide and length about 100 m.\n2. Protection by turfing sods with vetiver grass rows. or\n3. Cultivate edible varieties such as Mukunuwenna, Gotukola, and Thampala along the incline surface.", "Description": "Canal leak/earth filling need", "Amount (Rs.)": "87,000", "photopath": "https://raw.githubusercontent.com/MWS003-GIS/MWS003-GIS.github.io/main/IWWRMP/Data/EXD/200_photo/MWS_003/Uduwela_Pallegama_South/10.jpg" }, "geometry": { "type": "Point", "coordinates": [ 80.65240889, 7.252752222 ] } },
{ "type": "Feature", "properties": { "No": 40, "GND No.": 948, "Scheme": "Bogahagoda canal", "N": 7.252050833, "E": 80.65794167, "Observation": "Demolish and reconstruct the anicut", "Description": "Anicut leaks and unserviceable", "Amount (Rs.)": "700,000", "photopath": "https://raw.githubusercontent.com/MWS003-GIS/MWS003-GIS.github.io/main/IWWRMP/Data/EXD/200_photo/MWS_003/Uduwela_Pallegama_South/11.jpg" }, "geometry": { "type": "Point", "coordinates": [ 80.65794167, 7.252050833 ] } },
{ "type": "Feature", "properties": { "No": 41, "GND No.": 948, "Scheme": "Bogahagoda canal", "N": 7.252084722, "E": 80.65879444, "Observation": "Manually drill 20-25 dia holes @300mm intervals and apply expansive mortar ", "Description": "Remove  rock obstacles", "Amount (Rs.)": "40,000", "photopath": "https://raw.githubusercontent.com/MWS003-GIS/MWS003-GIS.github.io/main/IWWRMP/Data/EXD/200_photo/MWS_003/Uduwela_Pallegama_South/11.jpg" }, "geometry": { "type": "Point", "coordinates": [ 80.65879444, 7.252084722 ] } },
{ "type": "Feature", "properties": { "No": 42, "GND No.": 948, "Scheme": "Kikawula Canal", "N": 7.264994444, "E": 80.65636111000001, "Observation": "1. Earth filling to narrow tracks to form channel bund of 1 -  1.5m wide and length about 100 m.\n2. Protection by turfing sods with vetiver grass rows. or\n3. Cultivate edible varieties such as Mukunuwenna, Gotukola, and Thampala along the incline surface.", "Description": "Canal leak/earth filling need", "Amount (Rs.)": "87,000", "photopath": "https://raw.githubusercontent.com/MWS003-GIS/MWS003-GIS.github.io/main/IWWRMP/Data/EXD/200_photo/MWS_003/Uduwela_Pallegama_South/12.jpg" }, "geometry": { "type": "Point", "coordinates": [ 80.65636111, 7.264994444 ] } },
{ "type": "Feature", "properties": { "No": 43, "GND No.": 948, "Scheme": "Kikawula Canal", "N": 7.262436111, "E": 80.65992222, "Observation": "1. Earth filling to narrow tracks to form channel bund of 1 -  1.5m wide and length about 100 m.\n2. Protection by turfing sods with vetiver grass rows. or\n3. Cultivate edible varieties such as Mukunuwenna, Gotukola, and Thampala along the incline surface.", "Description": "Canal leak/earth filling need", "Amount (Rs.)": "87,000", "photopath": "https://raw.githubusercontent.com/MWS003-GIS/MWS003-GIS.github.io/main/IWWRMP/Data/EXD/200_photo/MWS_003/Uduwela_Pallegama_South/12.jpg" }, "geometry": { "type": "Point", "coordinates": [ 80.65992222, 7.262436111 ] } },
{ "type": "Feature", "properties": { "No": 44, "GND No.": 948, "Scheme": "Pihillewaththa canal", "N": 7.2523775, "E": 80.65603611, "Observation": "Construct  125mm thick, 0.4m  wide  and 0.4m high and 50m long grade 25 RCC trough on piers", "Description": "Need overhead pipe or conduit with drainage undercrossing", "Amount (Rs.)": "1,400,000", "photopath": "https://raw.githubusercontent.com/MWS003-GIS/MWS003-GIS.github.io/main/IWWRMP/Data/EXD/200_photo/MWS_003/Uduwela_Pallegama_South/13.jpg" }, "geometry": { "type": "Point", "coordinates": [ 80.65603611, 7.2523775 ] } },
{ "type": "Feature", "properties": { "No": 45, "GND No.": 950, "Scheme": "Thalagolla Kekiriyawela canal", "N": 7.25049, "E": 80.65404, "Observation": "Construct  125mm thick, 0.4m  wide, and 0.4m high and 90m long concrete canal -double banking", "Description": "Canal damaged due to earth slip", "Amount (Rs.)": "1,210,000", "photopath": "https://raw.githubusercontent.com/MWS003-GIS/MWS003-GIS.github.io/main/IWWRMP/Data/EXD/200_photo/MWS_003/Uduwela_Pallegama_West/3.jpg" }, "geometry": { "type": "Point", "coordinates": [ 80.65404, 7.25049 ] } },
{ "type": "Feature", "properties": { "No": 46, "GND No.": 950, "Scheme": "Thalagolla Kekiriyawela canal", "N": 7.25156, "E": 80.65563, "Observation": "Demolish and reconstruct   125mm thick, 0.4m  wide, and 0.5m high and 100m long canal with grade 25 concrete  -single banking", "Description": "Need re-construction of  decayed concrete lining", "Amount (Rs.)": "690,000", "photopath": "https://raw.githubusercontent.com/MWS003-GIS/MWS003-GIS.github.io/main/IWWRMP/Data/EXD/200_photo/MWS_003/Uduwela_Pallegama_West/2.jpg" }, "geometry": { "type": "Point", "coordinates": [ 80.65563, 7.25156 ] } },
{ "type": "Feature", "properties": { "No": 47, "GND No.": 950, "Scheme": "Kekiriyawela anicut ", "N": 7.25049, "E": 80.65404, "Observation": "Provide 100 mm thick grade 25 concrete curtain after chipping the weathered surface", "Description": "Need rehabilitation", "Amount (Rs.)": "450,000", "photopath": "https://raw.githubusercontent.com/MWS003-GIS/MWS003-GIS.github.io/main/IWWRMP/Data/EXD/200_photo/MWS_003/Uduwela_Pallegama_West/4.jpg" }, "geometry": { "type": "Point", "coordinates": [ 80.65404, 7.25049 ] } },
{ "type": "Feature", "properties": { "No": 48, "GND No.": 950, "Scheme": "Iththagahalanda canal", "N": 7.24833, "E": 80.6565, "Observation": "1. Earth filling to narrow tracks to form channel bund of 1 -  1.5m wide and length about 100 m.\n2. Protection by turfing sods with vetiver grass rows. or\n3. Cultivate edible varieties such as Mukunuwenna, Gotukola, and Thampala along the incline surface.", "Description": "canal earthwork and reservation are need", "Amount (Rs.)": "87,000", "photopath": "https://raw.githubusercontent.com/MWS003-GIS/MWS003-GIS.github.io/main/IWWRMP/Data/EXD/200_photo/MWS_003/Uduwela_Pallegama_West/5.jpg" }, "geometry": { "type": "Point", "coordinates": [ 80.6565, 7.24833 ] } },
{ "type": "Feature", "properties": { "No": 49, "GND No.": 950, "Scheme": "Canal below the playground ", "N": 7.25109, "E": 80.65724, "Observation": "Construction of a garbage trap using 600mm dia concrete pipes and a  GI gabion box cage.", "Description": "Drainage under crossing  is required", "Amount (Rs.)": "87,000", "photopath": "https://raw.githubusercontent.com/MWS003-GIS/MWS003-GIS.github.io/main/IWWRMP/Data/EXD/200_photo/MWS_003/Uduwela_Pallegama_West/7.jpg" }, "geometry": { "type": "Point", "coordinates": [ 80.65724, 7.25109 ] } },
{ "type": "Feature", "properties": { "No": 50, "GND No.": 953, "Scheme": "Hommare canal", "N": 7.25954, "E": 80.65029, "Observation": "1. Earth filling to narrow tracks to form channel bund of 1 -  1.5m wide and length about 200 m.\n2. Protection by turfing sods with vetiver grass rows. or\n3. Cultivate edible varieties such as Mukunuwenna, Gotukola, and Thampala along the incline surface.", "Description": "no reservation & seepage in  earthen bunds ", "Amount (Rs.)": "87,000", "photopath": "https://raw.githubusercontent.com/MWS003-GIS/MWS003-GIS.github.io/main/IWWRMP/Data/EXD/200_photo/MWS_003/Wathuliyadda/19.jpg" }, "geometry": { "type": "Point", "coordinates": [ 80.65029, 7.25954 ] } },
{ "type": "Feature", "properties": { "No": 51, "GND No.": 955, "Scheme": "Booge canal", "N": 7.253145278, "E": 80.64720278, "Observation": "1. Earth filling to narrow tracks to form channel bund of 1 -  1.5m wide and length about 100 m.\n2. Protection by turfing sods with vetiver grass rows. or\n3. Cultivate edible varieties such as Mukunuwenna, Gotukola, and Thampala along the incline surface.", "Description": "No reservation boundary", "Amount (Rs.)": "261,000", "photopath": "https://raw.githubusercontent.com/MWS003-GIS/MWS003-GIS.github.io/main/IWWRMP/Data/EXD/200_photo/MWS_003/Galthenna/7.jpg" }, "geometry": { "type": "Point", "coordinates": [ 80.64720278, 7.253145278 ] } },
{ "type": "Feature", "properties": { "No": 52, "GND No.": 955, "Scheme": "Booge canal", "N": 7.253145278, "E": 80.64720278, "Observation": "1. Earth filling to narrow tracks to form channel bund of 1 -  1.5m wide and length of about 200 m.\n2. Protection by turfing sods with vetiver grass rows. or\n3. Plant two rows of areca nut trees and mixed dense plantation of Mee, Kumbuk, Godapara, Kekuna, etc., for 5m wide and 10m long reservation areas.", "Description": "Canal erosion near the anicut.", "Amount (Rs.)": "174,000", "photopath": "https://raw.githubusercontent.com/MWS003-GIS/MWS003-GIS.github.io/main/IWWRMP/Data/EXD/200_photo/MWS_003/Galthenna/8.jpg" }, "geometry": { "type": "Point", "coordinates": [ 80.64720278, 7.253145278 ] } },
{ "type": "Feature", "properties": { "No": 53, "GND No.": 955, "Scheme": "Gorakagahamadiththa ", "N": 7.2533575, "E": 80.6486, "Observation": "Provide 15m-20m  long RCC retaining wall ", "Description": "Need   d/s retaining wall ", "Amount (Rs.)": "500,000", "photopath": "https://raw.githubusercontent.com/MWS003-GIS/MWS003-GIS.github.io/main/IWWRMP/Data/EXD/200_photo/MWS_003/Galthenna/9.jpg" }, "geometry": { "type": "Point", "coordinates": [ 80.6486, 7.2533575 ] } },
{ "type": "Feature", "properties": { "No": 54, "GND No.": 955, "Scheme": "Amba kumbura canal", "N": 7.25334, "E": 80.646825, "Observation": "1. Earth filling to narrow tracks to form channel bund of 1 -  1.5m wide and length about 100 m.\n2. Protection by turfing sods with vetiver grass rows. or\n3. Cultivate edible varieties such as Mukunuwenna, Gotukola, and Thampala along the incline surface.", "Description": "Erosion of canal embankment ", "Amount (Rs.)": "261,000", "photopath": "https://raw.githubusercontent.com/MWS003-GIS/MWS003-GIS.github.io/main/IWWRMP/Data/EXD/200_photo/MWS_003/Galthenna/11.jpg" }, "geometry": { "type": "Point", "coordinates": [ 80.646825, 7.25334 ] } },
{ "type": "Feature", "properties": { "No": 55, "GND No.": 955, "Scheme": "Dungahamula canal", "N": 7.253244167, "E": 80.64509722, "Observation": "1. Earth filling to narrow tracks to form channel bund of 1 -  1.5m wide and length of about 200 m.\n2. Protection by turfing sods with vetiver grass rows. or\n3. Cultivate edible varieties such as Mukunuwenna, Gotukola, and Thampala along the incline surface", "Description": "No reservation boundary", "Amount (Rs.)": "174,000", "photopath": "https://raw.githubusercontent.com/MWS003-GIS/MWS003-GIS.github.io/main/IWWRMP/Data/EXD/200_photo/MWS_003/Galthenna/12.jpg" }, "geometry": { "type": "Point", "coordinates": [ 80.64509722, 7.253244167 ] } },
{ "type": "Feature", "properties": { "No": 56, "GND No.": 955, "Scheme": "Dungahamula canal", "N": 7.253381389, "E": 80.64510278, "Observation": "Construction of an undercrossing structure with a garbage trap using 600mm dia concrete pipes and a  GI gabion box cage.", "Description": "Need drainage under crossing", "Amount (Rs.)": "106,000", "photopath": "Not_Available" }, "geometry": { "type": "Point", "coordinates": [ 80.64510278, 7.253381389 ] } },
{ "type": "Feature", "properties": { "No": 57, "GND No.": 955, "Scheme": "Dungahamula canal", "N": 7.253563889, "E": 80.64505556, "Observation": "Construction of a garbage trap using 600mm dia concrete pipes and a  GI gabion box cage.", "Description": "Canal  seepage: debris trap need", "Amount (Rs.)": "53,000", "photopath": "Not_Available" }, "geometry": { "type": "Point", "coordinates": [ 80.64505556, 7.253563889 ] } },
{ "type": "Feature", "properties": { "No": 58, "GND No.": 955, "Scheme": "Dungahamula canal", "N": 7.253758333, "E": 80.64510556, "Observation": "1. Earth filling of 3m wide and length about 50 m area.  \n2. Construction of a garbage trap using 600mm dia concrete pipes and a  GI gabion box cage.", "Description": "Need drainage under crossing", "Amount (Rs.)": "140,000", "photopath": "https://raw.githubusercontent.com/MWS003-GIS/MWS003-GIS.github.io/main/IWWRMP/Data/EXD/200_photo/MWS_003/Galthenna/15.jpg" }, "geometry": { "type": "Point", "coordinates": [ 80.64510556, 7.253758333 ] } },
{ "type": "Feature", "properties": { "No": 59, "GND No.": 962, "Scheme": "Thibbotuwawe canal", "N": 7.25195, "E": 80.66269, "Observation": "1. Earth filling to narrow tracks to form channel bund of 1 -  1.5m wide and length about 100 m.\n2. Protection by turfing sods with vetiver grass rows. or\n3. Cultivate edible varieties such as Mukunuwenna, Gotukola, and Thampala along the incline surface", "Description": "weak L/B Embankment need earth fill", "Amount (Rs.)": "87,000", "photopath": "https://raw.githubusercontent.com/MWS003-GIS/MWS003-GIS.github.io/main/IWWRMP/Data/EXD/200_photo/MWS_003/Nehiniwela/15.jpg" }, "geometry": { "type": "Point", "coordinates": [ 80.66269, 7.25195 ] } },
{ "type": "Feature", "properties": { "No": 60, "GND No.": 962, "Scheme": "Thibbotuwawe canal", "N": 7.2528, "E": 80.663, "Observation": "Construct a silt ejector with a downstream gate", "Description": "Siltation: Need silt ejector", "Amount (Rs.)": "200,000", "photopath": "https://raw.githubusercontent.com/MWS003-GIS/MWS003-GIS.github.io/main/IWWRMP/Data/EXD/200_photo/MWS_003/Nehiniwela/16.jpg" }, "geometry": { "type": "Point", "coordinates": [ 80.663, 7.2528 ] } },
{ "type": "Feature", "properties": { "No": 61, "GND No.": 962, "Scheme": "Thibbotuwawe canal", "N": 7.25174, "E": 80.66687, "Observation": " Demolish and reconstruct a 100mm thick, 0.4m  wide  and 0.3m high and 100m long canal with grade 25 concrete  -single banking", "Description": "Canal leaks need concreting", "Amount (Rs.)": "500,000", "photopath": "https://raw.githubusercontent.com/MWS003-GIS/MWS003-GIS.github.io/main/IWWRMP/Data/EXD/200_photo/MWS_003/Nehiniwela/17.jpg" }, "geometry": { "type": "Point", "coordinates": [ 80.66687, 7.25174 ] } },
{ "type": "Feature", "properties": { "No": 62, "GND No.": 962, "Scheme": "Thibbotuwawe canal", "N": 7.25226, "E": 80.66536, "Observation": "1. Earth filling to narrow tracks to form channel bund of 1 -  1.5m wide and length of about 200 m.\n2. Protection by turfing sods with vetiver grass rows. or\n3. Cultivate edible varieties such as Mukunuwenna, Gotukola, and Thampala along the incline surface.", "Description": "weak L/B Embankment need earth fill", "Amount (Rs.)": "174,000", "photopath": "https://raw.githubusercontent.com/MWS003-GIS/MWS003-GIS.github.io/main/IWWRMP/Data/EXD/200_photo/MWS_003/Nehiniwela/18.jpg" }, "geometry": { "type": "Point", "coordinates": [ 80.66536, 7.25226 ] } },
{ "type": "Feature", "properties": { "No": 63, "GND No.": 962, "Scheme": "Imbulhitiyawa canal", "N": 7.252557222, "E": 80.66445556, "Observation": "1. Earth filling to narrow tracks to form channel bund of 1 -  1.5m wide and length of about 200 m.\n2. Protection by turfing sods with vetiver grass rows. or\n3. Cultivate edible varieties such as Mukunuwenna, Gotukola, and Thampala along the incline surface", "Description": "weak L/B Embankment, need earth fill", "Amount (Rs.)": "174,000", "photopath": "https://raw.githubusercontent.com/MWS003-GIS/MWS003-GIS.github.io/main/IWWRMP/Data/EXD/200_photo/MWS_003/Nehiniwela/19.jpg" }, "geometry": { "type": "Point", "coordinates": [ 80.66445556, 7.252557222 ] } },
{ "type": "Feature", "properties": { "No": 64, "GND No.": 962, "Scheme": "Imbulhitiyawa canal", "N": 7.252525, "E": 80.66642778000001, "Observation": "1. Earth filling to narrow tracks to form channel bund of 1 -  1.5m wide and length about 100 m.\n2. Protection by turfing sods with vetiver grass rows. or\n3. Cultivate edible varieties such as Mukunuwenna, Gotukola, and Thampala along the incline surface", "Description": "Canal damage due to overflow, need canal spill", "Amount (Rs.)": "87,000", "photopath": "https://raw.githubusercontent.com/MWS003-GIS/MWS003-GIS.github.io/main/IWWRMP/Data/EXD/200_photo/MWS_003/Nehiniwela/20.jpg" }, "geometry": { "type": "Point", "coordinates": [ 80.66642778, 7.252525 ] } },
{ "type": "Feature", "properties": { "No": 65, "GND No.": 962, "Scheme": "Imbulhitiyawa canal", "N": 7.252110278, "E": 80.66723806, "Observation": "-", "Description": "weak L/B Embankment, need earth fill & retaining wall", "Amount (Rs.)": "348,000", "photopath": "https://raw.githubusercontent.com/MWS003-GIS/MWS003-GIS.github.io/main/IWWRMP/Data/EXD/200_photo/MWS_003/Nehiniwela/22.jpg" }, "geometry": { "type": "Point", "coordinates": [ 80.66723806, 7.252110278 ] } },
{ "type": "Feature", "properties": { "No": 66, "GND No.": 964, "Scheme": "Uuranheramula Anicut", "N": 7.24302, "E": 80.65507, "Observation": "1. Earth filling to narrow tracks to form channel bund of 1 - 1.5m wide and length of about 200 m.\n2. Protection by turfing sods with vetiver grass rows. or\n3. Cultivate edible varieties such as Mukunuwenna, Gotukola, and Thampala along the incline surface.", "Description": "No d/s  reservation of the canal.", "Amount (Rs.)": "174,000", "photopath": "https://raw.githubusercontent.com/MWS003-GIS/MWS003-GIS.github.io/main/IWWRMP/Data/EXD/200_photo/MWS_003/Puliyadda/9.jpg" }, "geometry": { "type": "Point", "coordinates": [ 80.65507, 7.24302 ] } },
{ "type": "Feature", "properties": { "No": 67, "GND No.": 964, "Scheme": "Uuranheramula Anicut", "N": 7.239723056, "E": 80.65293611, "Observation": "Provide anicut planks", "Description": " damaged anicut planks", "Amount (Rs.)": "40,000", "photopath": "https://raw.githubusercontent.com/MWS003-GIS/MWS003-GIS.github.io/main/IWWRMP/Data/EXD/200_photo/MWS_003/Puliyadda/10.jpg" }, "geometry": { "type": "Point", "coordinates": [ 80.65293611, 7.239723056 ] } },
{ "type": "Feature", "properties": { "No": 68, "GND No.": 964, "Scheme": "Uuranheramulla canal", "N": 7.2415, "E": 80.6545, "Observation": "1. Earth filling to narrow tracks to form channel bund of 1 -  1.5m wide and length about 100 m.\n2. Protection by turfing sods with vetiver grass rows. or\n3. Cultivate edible varieties such as Mukunuwenna, Gotukola, and Thampala along the incline surface", "Description": "Leaks in the canal", "Amount (Rs.)": "87,000", "photopath": "https://raw.githubusercontent.com/MWS003-GIS/MWS003-GIS.github.io/main/IWWRMP/Data/EXD/200_photo/MWS_003/Puliyadda/11.jpg" }, "geometry": { "type": "Point", "coordinates": [ 80.6545, 7.2415 ] } },
{ "type": "Feature", "properties": { "No": 69, "GND No.": 964, "Scheme": "Middle canal", "N": 7.240462222, "E": 80.65287222000001, "Observation": "1. Earth filling to narrow tracks to form channel bund of 1 -  1.5m wide and length of about 200 m.\n2. Protection by turfing sods with vetiver grass rows. or\n3. Cultivate edible varieties such as Mukunuwenna, Gotukola, and Thampala along the incline surface.", "Description": "No d/s  reservation of the canal.", "Amount (Rs.)": "174,000", "photopath": "https://raw.githubusercontent.com/MWS003-GIS/MWS003-GIS.github.io/main/IWWRMP/Data/EXD/200_photo/MWS_003/Puliyadda/12.jpg" }, "geometry": { "type": "Point", "coordinates": [ 80.65287222, 7.240462222 ] } },
{ "type": "Feature", "properties": { "No": 70, "GND No.": 964, "Scheme": "Feeder Canal", "N": 7.239516389, "E": 80.65439722000001, "Observation": "1. Earth filling to narrow tracks to form channel bund of 1 -  1.5m wide and length of about 200 m.\n2. Protection by turfing sods with vetiver grass rows. or\n3. Cultivate edible varieties such as Mukunuwenna, Gotukola, and Thampala along the incline surface", "Description": "Leaks in the canal", "Amount (Rs.)": "174,000", "photopath": "https://raw.githubusercontent.com/MWS003-GIS/MWS003-GIS.github.io/main/IWWRMP/Data/EXD/200_photo/MWS_003/Puliyadda/13.jpg" }, "geometry": { "type": "Point", "coordinates": [ 80.65439722, 7.239516389 ] } }
]
}
