{"type":"FeatureCollection","name":"SR","crs":{"type":"name","properties":{"name":"urn:ogc:def:crs:OGC:1.3:CRS84"}},"features":[
{"type":"Feature","properties":{"No":"1","GND No.":946.0,"Scheme":"Udadampola","N":7.245996,"E":80.648483,"Observation":"1. Earth filling to narrow tracks to form channel bund of 1 -  1.5m wide and length about 300 m. 2. Protection by turfing sods with vetiver grass rows. Or 3. Cultivate edible varieties such as Mukunuwenna, Gotukola, and Thampala along the incline.","Description":"Reservation, and boundary making","Amount (Rs.)":"261,000","photopath":"https://raw.githubusercontent.com/MWS003-GIS/MWS003-GIS.github.io/main/IWWRMP/Data/EXD/200_photo/MWS_003/Uduwela_Udagama_East/7.jpg"},"geometry":{"type":"Point","coordinates":[80.648483,7.245996]}},
{"type":"Feature","properties":{"No":"2","GND No.":947.0,"Scheme":"Lunuwella ","N":7.24951,"E":80.64201,"Observation":"1. Earth filling to section of  100m long, 1.5m wide and 0.5 depth.\n2. Protection by turfing sods with vetiver grass rows.\n3. Construct a garbage trap with net  and diversion","Description":"Embankment  erosion & sewerage mixing","Amount (Rs.)":"140,000","photopath":"https://raw.githubusercontent.com/MWS003-GIS/MWS003-GIS.github.io/main/IWWRMP/Data/EXD/200_photo/MWS_003/Uduwela_Udagama_West/2.jpg"},"geometry":{"type":"Point","coordinates":[80.64201,7.24951]}},
{"type":"Feature","properties":{"No":"3","GND No.":947.0,"Scheme":"Ihalamadiththa","N":7.24935,"E":80.63963,"Observation":"1. Earth filling to section of  100m long, 1.5m wide and 0.5 depth.\n2. Protection by turfing sods with vetiver grass rows.\n3. Construct a garbage trap with net","Description":"No reservation, Garbage inflow","Amount (Rs.)":"140,000","photopath":"https://raw.githubusercontent.com/MWS003-GIS/MWS003-GIS.github.io/main/IWWRMP/Data/EXD/200_photo/MWS_003/Uduwela_Udagama_West/2A.jpg"},"geometry":{"type":"Point","coordinates":[80.63963,7.24935]}},
{"type":"Feature","properties":{"No":"4","GND No.":947.0,"Scheme":"Pokune Ela","N":7.24836,"E":80.64213,"Observation":"1. Earth filling to section of  100m long, 1.5m wide and 0.5 depth.\n2. Protection by turfing sods with vetiver grass rows\n3. Construct a garbage trap with net","Description":"No reservation. Garbage inflow","Amount (Rs.)":"140,000","photopath":"Not_Available"},"geometry":{"type":"Point","coordinates":[80.64213,7.24836]}},
{"type":"Feature","properties":{"No":"5","GND No.":947.0,"Scheme":"Ellana Ihala Ela","N":7.245714,"E":80.634956,"Observation":"1. Earth filling to section of  100m long, 1.5m wide and 0.5 depth.\n2. Protection by turfing sods with vetiver grass rows.\n3. Construct a garbage trap with net","Description":"No reservation. Garbage inflow","Amount (Rs.)":"140,000","photopath":"https://raw.githubusercontent.com/MWS003-GIS/MWS003-GIS.github.io/main/IWWRMP/Data/EXD/200_photo/MWS_003/Uduwela_Udagama_West/4.jpg"},"geometry":{"type":"Point","coordinates":[80.634956,7.245714]}},
{"type":"Feature","properties":{"No":"6","GND No.":947.0,"Scheme":"Ellana Ihala Ela","N":7.246942,"E":80.634651,"Observation":"1. Earth filling to section of  100m long, 1.5m wide and 0.5 depth.\n2. Protection by turfing sods with vetiver grass rows.\n3. Construct a garbage trap with net","Description":"No reservation, Garbage inflow","Amount (Rs.)":"140,000","photopath":"https://raw.githubusercontent.com/MWS003-GIS/MWS003-GIS.github.io/main/IWWRMP/Data/EXD/200_photo/MWS_003/Uduwela_Udagama_West/5.jpg"},"geometry":{"type":"Point","coordinates":[80.634651,7.246942]}},
{"type":"Feature","properties":{"No":"7","GND No.":947.0,"Scheme":"Hunupihilla","N":7.24807,"E":80.634013,"Observation":"1. Earth filling to section of  100m long, 1.5m wide and 0.5 depth.\n2. Protection by turfing sods with vetiver grass rows.\n3. Construct a garbage trap with net","Description":"No reservation. Garbage inflow","Amount (Rs.)":"140,000","photopath":"https://raw.githubusercontent.com/MWS003-GIS/MWS003-GIS.github.io/main/IWWRMP/Data/EXD/200_photo/MWS_003/Uduwela_Udagama_West/6.jpg"},"geometry":{"type":"Point","coordinates":[80.634013,7.24807]}},
{"type":"Feature","properties":{"No":"8","GND No.":947.0,"Scheme":"do","N":7.249594,"E":80.63376,"Observation":"1. Earth filling to section of  100m long, 1.5m wide and 0.5 depth.\n2. Protection by turfing sods with vetiver grass rows.\n3. Construct a garbage trap with net","Description":"No reservation. Garbage inflow","Amount (Rs.)":"140,000","photopath":"https://raw.githubusercontent.com/MWS003-GIS/MWS003-GIS.github.io/main/IWWRMP/Data/EXD/200_photo/MWS_003/Uduwela_Udagama_West/7.jpg"},"geometry":{"type":"Point","coordinates":[80.63376,7.249594]}},
{"type":"Feature","properties":{"No":"9","GND No.":947.0,"Scheme":"do","N":7.24968,"E":80.632208,"Observation":"1. Earth filling to section of  100m long, 1.5m wide and 0.5 depth.\n2. Protection by turfing sods with vetiver grass rows.\n3. Plant two lines of Areca nut trees beside the reserve, and cultivate betel creeper inside an area of around 300 m2.","Description":"Protect, embankment & reservation","Amount (Rs.)":"145,500","photopath":"Not_Available"},"geometry":{"type":"Point","coordinates":[80.632208,7.24968]}},
{"type":"Feature","properties":{"No":"10","GND No.":947.0,"Scheme":"do","N":7.246896389,"E":80.63631389,"Observation":"1. Earth filling to section of  100m long, 1.5m wide and 0.5 depth.\n2. Protection by turfing sods with vetiver grass rows.\n3. Plant two lines of Areca nut trees beside the reserve, and cultivate betel creeper inside an area of around 300 m2.","Description":"Protect, embankment & reservation","Amount (Rs.)":"145,500","photopath":"Not_Available"},"geometry":{"type":"Point","coordinates":[80.63631389,7.246896389]}},
{"type":"Feature","properties":{"No":"11","GND No.":947.0,"Scheme":"Lunuwela","N":7.25084,"E":80.641876,"Observation":"1. Earth filling to section of  100m long, 1.5m wide and 0.5 depth.\n2. Protection by turfing sods with vetiver grass rows.\n3. Plant two lines of Areca nut trees beside the reserve, and cultivate betel creeper inside an area of around 200 m2.","Description":"Protect, embankment & reservation","Amount (Rs.)":"126,000","photopath":"Not_Available"},"geometry":{"type":"Point","coordinates":[80.641876,7.25084]}},
{"type":"Feature","properties":{"No":"12","GND No.":947.0,"Scheme":"Hunugalepihilla","N":7.25022,"E":80.638154,"Observation":"1. Earth filling to section of  100m long, 1.5m wide and 0.5 depth.\n2. Protection by turfing sods with vetiver grass rows. 3. Plant two lines of Areca nut trees beside the reserve, and cultivate betel creeper inside an area of around 400 m2.","Description":"Protect reservation/encroachments","Amount (Rs.)":"165,000","photopath":"https://raw.githubusercontent.com/MWS003-GIS/MWS003-GIS.github.io/main/IWWRMP/Data/EXD/200_photo/MWS_003/Uduwela_Udagama_West/10.jpg"},"geometry":{"type":"Point","coordinates":[80.638154,7.25022]}},
{"type":"Feature","properties":{"No":"13","GND No.":949.0,"Scheme":" confluence of Thelubu Falls & Diddeniya Oya ","N":7.25425,"E":80.65792,"Observation":"Plant single row of areca nut tree and mixed dense plantation of Mee, Kumbuk, Godapara, Kekuna etc. for 1.5m wide and 300m long reservation","Description":"Need to improve forest cover and riparian plants for erosion control ","Amount (Rs.)":"68,100","photopath":"https://raw.githubusercontent.com/MWS003-GIS/MWS003-GIS.github.io/main/IWWRMP/Data/EXD/200_photo/MWS_003/Uduwela_Pallegama_East/15.jpg"},"geometry":{"type":"Point","coordinates":[80.65792,7.25425]}},
{"type":"Feature","properties":{"No":"14","GND No.":949.0,"Scheme":"Kekiriwela  canal","N":7.25187,"E":80.66025,"Observation":"Plant single row of areca nut tree and mixed dense plantation of Mee, Kumbuk, Godapara, Kekuna etc. for 1.5m wide and 200m long reservation","Description":"Need to improve forest cover","Amount (Rs.)":"45,400","photopath":"Not_Available"},"geometry":{"type":"Point","coordinates":[80.66025,7.25187]}},
{"type":"Feature","properties":{"No":"15","GND No.":950.0,"Scheme":"Road drainage path  crossing the canal ","N":7.25137,"E":80.65721,"Observation":"Construction of a garbage trap using 600mm dia concrete pipes and a  GI gabion box cage.","Description":"Pipe or lined canal with a garbage  trapping net is required","Amount (Rs.)":"53,000","photopath":"Not_Available"},"geometry":{"type":"Point","coordinates":[80.65721,7.25137]}},
{"type":"Feature","properties":{"No":"16","GND No.":950.0,"Scheme":"Puliyadda ketawala road drainage","N":7.25135,"E":80.65619,"Observation":"Construction of a garbage trap using 600mm dia concrete pipes and a  GI gabion box cage.","Description":"Pipe or lined canal with a garbage trapping net is required","Amount (Rs.)":"53,000","photopath":"Not_Available"},"geometry":{"type":"Point","coordinates":[80.65619,7.25135]}},
{"type":"Feature","properties":{"No":"17","GND No.":950.0,"Scheme":"Place the stream joins the thelabu Oya","N":7.24974,"E":80.6542,"Observation":"1. Earth filling to section of  100m long, 1.5m wide and 0.5 depth.\n2. Protection by turfing sods with vetiver grass rows.\n3. Plant a single row of areca nut tree and mixed dense plantation of Mee, Kumbuk, Godapara, Kekuna etc. for 1.5m wide and 300m long reservation","Description":"Embankment erosion control with agro-forestry methods is need","Amount (Rs.)":"109,700","photopath":"https://raw.githubusercontent.com/MWS003-GIS/MWS003-GIS.github.io/main/IWWRMP/Data/EXD/200_photo/MWS_003/Uduwela_Pallegama_West/10.jpg"},"geometry":{"type":"Point","coordinates":[80.6542,7.24974]}},
{"type":"Feature","properties":{"No":"18","GND No.":951.0,"Scheme":"Uragala Oya","N":7.232947,"E":80.650231,"Observation":"Construction of a garbage trap using 600mm dia concrete pipes and a  GI gabion box cage. Diversion of sewerage.","Description":"Animal garbage /dung leaking ","Amount (Rs.)":"153,000","photopath":"https://raw.githubusercontent.com/MWS003-GIS/MWS003-GIS.github.io/main/IWWRMP/Data/EXD/200_photo/MWS_003/Ratemulla/17.jpg"},"geometry":{"type":"Point","coordinates":[80.650231,7.232947]}},
{"type":"Feature","properties":{"No":"19","GND No.":951.0,"Scheme":"Uragala Oya","N":7.232134,"E":80.650066,"Observation":"Construction of a garbage trap using 600mm dia concrete pipes and a  GI gabion box cage. Diversion of sewerage.","Description":"Sewerage leaking/inflow ","Amount (Rs.)":"128,000","photopath":"Not_Available"},"geometry":{"type":"Point","coordinates":[80.650066,7.232134]}},
{"type":"Feature","properties":{"No":"20","GND No.":953.0,"Scheme":"Ginihirawaththa stream","N":7.2609125,"E":80.65141111,"Observation":"1. Earth filling to narrow tracks to form channel bund of 1 -  1.5m wide and length of about 200 m.\n2. Protection by turfing sods with vetiver grass rows. or\n3. Cultivate edible varieties such as Mukunuwenna, Gotukola, and Thampala along the incline.","Description":"embankment/reservation erosion","Amount (Rs.)":"174,000","photopath":"https://raw.githubusercontent.com/MWS003-GIS/MWS003-GIS.github.io/main/IWWRMP/Data/EXD/200_photo/MWS_003/Wathuliyadda/6.jpg"},"geometry":{"type":"Point","coordinates":[80.65141111,7.2609125]}},
{"type":"Feature","properties":{"No":"21","GND No.":953.0,"Scheme":"Ginihirawaththa stream","N":7.260930556,"E":80.65216639,"Observation":"1. Earth filling to narrow tracks to form channel bund of 1 -  1.5m wide and length about 100 m.\n2. Protection by turfing sods with vetiver grass rows. or\n3. Cultivate edible varieties such as Mukunuwenna, Gotukola, and Thampala along the incline.","Description":"embankment/reservation erosion","Amount (Rs.)":"87,000","photopath":"https://raw.githubusercontent.com/MWS003-GIS/MWS003-GIS.github.io/main/IWWRMP/Data/EXD/200_photo/MWS_003/Wathuliyadda/7.jpg"},"geometry":{"type":"Point","coordinates":[80.65216639,7.260930556]}},
{"type":"Feature","properties":{"No":"22","GND No.":953.0,"Scheme":"Ginihirawaththa stream","N":7.260822222,"E":80.65365,"Observation":"1. Earth filling to narrow tracks to form channel bund of 1 -  1.5m wide and length about 100 m.\n2. Protection by turfing sods with vetiver grass rows. or\n3. Cultivate edible varieties such as Mukunuwenna, Gotukola, and Thampala along the incline.","Description":"embankment/reservation erosion","Amount (Rs.)":"87,000","photopath":"https://raw.githubusercontent.com/MWS003-GIS/MWS003-GIS.github.io/main/IWWRMP/Data/EXD/200_photo/MWS_003/Wathuliyadda/8.jpg"},"geometry":{"type":"Point","coordinates":[80.65365,7.260822222]}},
{"type":"Feature","properties":{"No":"23","GND No.":953.0,"Scheme":"Ginihirawaththa stream","N":7.262644444,"E":80.65215556,"Observation":"1. Earth filling to narrow tracks to form channel bund of 1 -  1.5m wide and length about 300 m.\n2. Protection by turfing sods with vetiver grass rows. or\n3. Cultivate edible varieties such as Mukunuwenna, Gotukola, and Thampala along the incline.","Description":"embankment/reservation erosion","Amount (Rs.)":"261,000","photopath":"https://raw.githubusercontent.com/MWS003-GIS/MWS003-GIS.github.io/main/IWWRMP/Data/EXD/200_photo/MWS_003/Wathuliyadda/9.jpg"},"geometry":{"type":"Point","coordinates":[80.65215556,7.262644444]}},
{"type":"Feature","properties":{"No":"24","GND No.":953.0,"Scheme":"Ginihirawaththa stream","N":7.262391667,"E":80.65266667,"Observation":"1. Earth filling to narrow tracks to form channel bund of 1 -  1.5m wide and length about 200 m.\n2. Protection by turfing sods with vetiver grass rows. or\n3. Cultivate edible varieties such as Mukunuwenna, Gotukola, and Thampala along the incline.","Description":"embankment/reservation erosion","Amount (Rs.)":"174,000","photopath":"https://raw.githubusercontent.com/MWS003-GIS/MWS003-GIS.github.io/main/IWWRMP/Data/EXD/200_photo/MWS_003/Wathuliyadda/10.jpg"},"geometry":{"type":"Point","coordinates":[80.65266667,7.262391667]}},
{"type":"Feature","properties":{"No":"25","GND No.":953.0,"Scheme":"Ginihirawaththa stream","N":7.2613423,"E":80.6537612,"Observation":"1. Earth filling to narrow tracks to form channel bund of 1 -  1.5m wide and length about 100 m.\n2. Protection by turfing sods with vetiver grass rows. or\n3. Cultivate edible varieties such as Mukunuwenna, Gotukola, and Thampala along the incline.","Description":"embankment/reservation erosion","Amount (Rs.)":"87,000","photopath":"https://raw.githubusercontent.com/MWS003-GIS/MWS003-GIS.github.io/main/IWWRMP/Data/EXD/200_photo/MWS_003/Wathuliyadda/11.jpg"},"geometry":{"type":"Point","coordinates":[80.6537612,7.2613423]}},
{"type":"Feature","properties":{"No":"26","GND No.":953.0,"Scheme":"Ginihirawaththa stream","N":7.2628525,"E":80.65096556,"Observation":"1. Earth filling to narrow tracks to form channel bund of 1 -  1.5m wide and length about 100 m.\n2. Protection by turfing sods with vetiver grass rows. or\n3. Cultivate edible varieties such as Mukunuwenna, Gotukola, and Thampala along the incline.","Description":"embankment/reservation erosion","Amount (Rs.)":"87,000","photopath":"https://raw.githubusercontent.com/MWS003-GIS/MWS003-GIS.github.io/main/IWWRMP/Data/EXD/200_photo/MWS_003/Wathuliyadda/12.jpg"},"geometry":{"type":"Point","coordinates":[80.65096556,7.2628525]}},
{"type":"Feature","properties":{"No":"27","GND No.":953.0,"Scheme":"Ginihirawaththa stream","N":7.261878333,"E":80.65111667,"Observation":"1. Earth filling to narrow tracks to form channel bund of 1 -  1.5m wide and length about 100 m. \n2. Protection by turfing sods with vetiver grass rows. or \n3. Cultivate edible varieties such as Mukunuwenna, Gotukola, and Thampala along the incline.","Description":"embankment/reservation erosion","Amount (Rs.)":"87,000","photopath":"Not_Available"},"geometry":{"type":"Point","coordinates":[80.65111667,7.261878333]}},
{"type":"Feature","properties":{"No":"28","GND No.":953.0,"Scheme":"Ginihirawaththa stream","N":7.261461111,"E":80.64879722,"Observation":"1. Earth filling to narrow tracks to form channel bund of 1 -  1.5m wide and length of about 200 m. \n2. Protection by turfing sods with vetiver grass rows. or \n3. Cultivate edible varieties such as Mukunuwenna, Gotukola, and Thampala along the incline.","Description":"embankment/reservation erosion","Amount (Rs.)":"174,000","photopath":"Not_Available"},"geometry":{"type":"Point","coordinates":[80.64879722,7.261461111]}},
{"type":"Feature","properties":{"No":"29","GND No.":953.0,"Scheme":"stream in the forest near to the 'Wawe Kade'","N":7.261785833,"E":80.64767778,"Observation":"1. Earth filling to narrow tracks to form channel bund of 1 -  1.5m wide and length of about 200 m. \n2. Protection by turfing sods with vetiver grass rows. or \n3.Plant a single row of areca nut trees and mixed dense plantation of Mee, Kumbuk, Godapara, Kekuna etc. for a 1.5m wide and 300m long reservation","Description":"embankment/reservation erosion","Amount (Rs.)":"109,700","photopath":"https://raw.githubusercontent.com/MWS003-GIS/MWS003-GIS.github.io/main/IWWRMP/Data/EXD/200_photo/MWS_003/Wathuliyadda/16.jpg"},"geometry":{"type":"Point","coordinates":[80.64767778,7.261785833]}},
{"type":"Feature","properties":{"No":"30","GND No.":955.0,"Scheme":"-","N":7.25681,"E":80.64975,"Observation":"Construction of a garbage trap using 600mm dia concrete pipes and a  GI gabion box cage.","Description":"debris and wastewater inflow","Amount (Rs.)":"53,000","photopath":"https://raw.githubusercontent.com/MWS003-GIS/MWS003-GIS.github.io/main/IWWRMP/Data/EXD/200_photo/MWS_003/Galthenna/2.jpg"},"geometry":{"type":"Point","coordinates":[80.64975,7.25681]}},
{"type":"Feature","properties":{"No":"31","GND No.":955.0,"Scheme":"-","N":7.25552,"E":80.64779,"Observation":"Construction of a garbage trap using 600mm dia concrete pipes and a  GI gabion box cage.","Description":"debris and wastewater inflow","Amount (Rs.)":"53,000","photopath":"https://raw.githubusercontent.com/MWS003-GIS/MWS003-GIS.github.io/main/IWWRMP/Data/EXD/200_photo/MWS_003/Galthenna/3.jpg"},"geometry":{"type":"Point","coordinates":[80.64779,7.25552]}},
{"type":"Feature","properties":{"No":"32","GND No.":955.0,"Scheme":"-","N":7.25499,"E":80.64793,"Observation":"1. Earth filling to narrow tracks to form channel bund of 1 -  1.5m wide and length about 300 m. \n2. Protection by turfing sods with vetiver grass rows. or \n3. Cultivate edible varieties such as Mukunuwenna, Gotukola, and Thampala along the incline.","Description":"canal overflow during the rainy period","Amount (Rs.)":"261,000","photopath":"https://raw.githubusercontent.com/MWS003-GIS/MWS003-GIS.github.io/main/IWWRMP/Data/EXD/200_photo/MWS_003/Galthenna/4.jpg"},"geometry":{"type":"Point","coordinates":[80.64793,7.25499]}},
{"type":"Feature","properties":{"No":"33","GND No.":955.0,"Scheme":"-","N":7.2545293,"E":80.6478732,"Observation":"1. Earth filling to narrow tracks to form channel bund of 1 -  1.5m wide and length of about 200 m. \n2. Protection by turfing sods with vetiver grass rows. or \n3. Cultivate edible varieties such as Mukunuwenna, Gotukola, and Thampala along the incline.","Description":"canal overflow during the rainy period","Amount (Rs.)":"174,000","photopath":"https://raw.githubusercontent.com/MWS003-GIS/MWS003-GIS.github.io/main/IWWRMP/Data/EXD/200_photo/MWS_003/Galthenna/5.jpg"},"geometry":{"type":"Point","coordinates":[80.6478732,7.2545293]}},
{"type":"Feature","properties":{"No":"34","GND No.":962.0,"Scheme":"Imbulhitiyawa canal","N":7.253566667,"E":80.66564444,"Observation":"1. Earth filling to section of  100m long, 1.5m wide and 0.5 depth.\n2. Protection by turfing sods with vetiver grass rows.\n3. Plant two lines of Areca nut trees beside the reserve, and cultivate betel creeper inside an area of around 100 m2.","Description":"severe erosion in embankment","Amount (Rs.)":"106,500","photopath":"https://raw.githubusercontent.com/MWS003-GIS/MWS003-GIS.github.io/main/IWWRMP/Data/EXD/200_photo/MWS_003/Nehiniwela/1.jpg"},"geometry":{"type":"Point","coordinates":[80.66564444,7.253566667]}},
{"type":"Feature","properties":{"No":"35","GND No.":962.0,"Scheme":"Imbulhitiyawa canal","N":7.25278,"E":80.66694,"Observation":"1. Earth filling to section of  200m long, 1.5m wide and 0.5 depth.\n2. Protection by turfing sods with vetiver grass rows.\n3. Plant two lines of Areca nut trees beside the reserve, and cultivate betel creeper inside an area of around 200 m2.","Description":"severe erosion in embankment","Amount (Rs.)":"213,000","photopath":"https://raw.githubusercontent.com/MWS003-GIS/MWS003-GIS.github.io/main/IWWRMP/Data/EXD/200_photo/MWS_003/Nehiniwela/2.jpg"},"geometry":{"type":"Point","coordinates":[80.66694,7.25278]}},
{"type":"Feature","properties":{"No":"36","GND No.":962.0,"Scheme":"Mala Kandura","N":7.25361,"E":80.66507,"Observation":"1. Earth filling to section of  200m long, 1.5m wide and 0.5 depth.\n2. Protection by turfing sods with vetiver grass rows.\n3. Plant two lines of Areca nut trees beside the reserve, and cultivate betel creeper inside an area of around 200 m2.","Description":"severe erosion in embankment","Amount (Rs.)":"213,000","photopath":"https://raw.githubusercontent.com/MWS003-GIS/MWS003-GIS.github.io/main/IWWRMP/Data/EXD/200_photo/MWS_003/Nehiniwela/3.jpg"},"geometry":{"type":"Point","coordinates":[80.66507,7.25361]}},
{"type":"Feature","properties":{"No":"37","GND No.":962.0,"Scheme":"stream at Dewagolla Land","N":7.254213889,"E":80.66319444,"Observation":"1. Earth filling to section of  200m long, 1.5m wide and 0.5 depth.\n2. Protection by turfing sods with vetiver grass rows.\n3. Plant two lines of Areca nut trees beside the reserve, and cultivate betel creeper inside an area of around 200 m2.","Description":"severe erosion in embankment","Amount (Rs.)":"213,000","photopath":"Not_Available"},"geometry":{"type":"Point","coordinates":[80.66319444,7.254213889]}},
{"type":"Feature","properties":{"No":"38","GND No.":962.0,"Scheme":"stream at Dewagolla Land","N":7.253933333,"E":80.6632644,"Observation":"1. Earth filling to section of  200m long, 1.5m wide and 0.5 depth.\n2. Protection by turfing sods with vetiver grass rows.\n3. Plant two lines of Areca nut trees beside the reserve, and cultivate betel creeper inside an area of around 200 m2.","Description":"severe erosion in embankment","Amount (Rs.)":"213,000","photopath":"Not_Available"},"geometry":{"type":"Point","coordinates":[80.6632644,7.253933333]}},
{"type":"Feature","properties":{"No":"39","GND No.":962.0,"Scheme":"Hene Jala Kandura ","N":7.255,"E":80.668395,"Observation":"1. Earth filling to section of  200m long, 1.5m wide and 0.5 depth.\n2. Protection by turfing sods with vetiver grass rows.\n3. Plant two lines of Areca nut trees beside the reserve, and cultivate betel creeper inside an area of around 200 m2.","Description":"severe erosion in embankment","Amount (Rs.)":"213,000","photopath":"https://raw.githubusercontent.com/MWS003-GIS/MWS003-GIS.github.io/main/IWWRMP/Data/EXD/200_photo/MWS_003/Nehiniwela/6.jpg"},"geometry":{"type":"Point","coordinates":[80.668395,7.255]}},
{"type":"Feature","properties":{"No":"40","GND No.":962.0,"Scheme":"Dodamgedara stream","N":7.249290833,"E":80.66877111,"Observation":"1. Earth filling to section of  200m long, 1.5m wide and 0.5 depth.\n2. Protection by turfing sods with vetiver grass rows.\n3. Plant two lines of Areca nut trees beside the reserve, and cultivate betel creeper inside an area of around 200 m2.","Description":"severe erosion in embankment","Amount (Rs.)":"213,000","photopath":"https://raw.githubusercontent.com/MWS003-GIS/MWS003-GIS.github.io/main/IWWRMP/Data/EXD/200_photo/MWS_003/Nehiniwela/7.jpg"},"geometry":{"type":"Point","coordinates":[80.66877111,7.249290833]}},
{"type":"Feature","properties":{"No":"41","GND No.":962.0,"Scheme":"Ethulgama Ini Kandura","N":7.2525,"E":80.66306,"Observation":"1. Earth filling to section of  200m long, 1.5m wide and 0.5 depth.\n2. Protection by turfing sods with vetiver grass rows.\n3. Plant two lines of Areca nut trees beside the reserve, and cultivate betel creeper inside an area of around 200 m2.","Description":"severe erosion in embankment","Amount (Rs.)":"213,000","photopath":"https://raw.githubusercontent.com/MWS003-GIS/MWS003-GIS.github.io/main/IWWRMP/Data/EXD/200_photo/MWS_003/Nehiniwela/8.jpg"},"geometry":{"type":"Point","coordinates":[80.66306,7.2525]}},
{"type":"Feature","properties":{"No":"42","GND No.":962.0,"Scheme":"Stream near Seneviratne land","N":7.252927778,"E":80.66592778,"Observation":"1. Earth filling to section of  200m long, 1.5m wide and 0.5 depth.\n2. Protection by turfing sods with vetiver grass rows.\n3. Plant two lines of Areca nut trees beside the reserve, and cultivate betel creeper inside an area of around 200 m2.","Description":"severe erosion in embankment","Amount (Rs.)":"213,000","photopath":"Not_Available"},"geometry":{"type":"Point","coordinates":[80.66592778,7.252927778]}},
{"type":"Feature","properties":{"No":"43","GND No.":962.0,"Scheme":"Dewagolla stream","N":7.256621111,"E":80.66788056,"Observation":"1. Earth filling to section of  200m long, 1.5m wide and 0.5 depth.\n2. Protection by turfing sods with vetiver grass rows.\n3. Plant two lines of Areca nut trees beside the reserve, and cultivate betel creeper inside an area of around 200 m2.","Description":"severe erosion in embankment","Amount (Rs.)":"213,000","photopath":"Not_Available"},"geometry":{"type":"Point","coordinates":[80.66788056,7.256621111]}},
{"type":"Feature","properties":{"No":"44","GND No.":962.0,"Scheme":"Mala Kandura","N":7.255286111,"E":80.66742944,"Observation":"1. Earth filling to section of  200m long, 1.5m wide and 0.5 depth.\n2. Protection by turfing sods with vetiver grass rows.\n3. Plant two lines of Areca nut trees beside the reserve, and cultivate betel creeper inside an area of around 200 m2.","Description":"severe erosion in embankment","Amount (Rs.)":"213,000","photopath":"https://raw.githubusercontent.com/MWS003-GIS/MWS003-GIS.github.io/main/IWWRMP/Data/EXD/200_photo/MWS_003/Nehiniwela/11.jpg"},"geometry":{"type":"Point","coordinates":[80.66742944,7.255286111]}},
{"type":"Feature","properties":{"No":"45","GND No.":962.0,"Scheme":"Bulugaha stream","N":7.2557,"E":80.67101389,"Observation":"1. Earth filling to section of  200m long, 1.5m wide and 0.5 depth.\n2. Protection by turfing sods with vetiver grass rows.\n3. Plant two lines of Areca nut trees beside the reserve, and cultivate betel creeper inside an area of around 200 m2.","Description":"severe erosion in embankment","Amount (Rs.)":"213,000","photopath":"Not_Available"},"geometry":{"type":"Point","coordinates":[80.67101389,7.2557]}},
{"type":"Feature","properties":{"No":"46","GND No.":962.0,"Scheme":"Ajith stores Mala Kandura","N":7.25526,"E":80.66948,"Observation":"1. Earth filling to section of  200m long, 1.5m wide and 0.5 depth.\n2. Protection by turfing sods with vetiver grass rows.\n3. Plant two lines of Areca nut trees beside the reserve, and cultivate betel creeper inside an area of around 200 m2.","Description":"severe erosion in embankment","Amount (Rs.)":"213,000","photopath":"Not_Available"},"geometry":{"type":"Point","coordinates":[80.66948,7.25526]}},
{"type":"Feature","properties":{"No":"47","GND No.":962.0,"Scheme":"Stream Dewagollawatta","N":7.25587,"E":80.67012,"Observation":"1. Earth filling to section of  200m long, 1.5m wide and 0.5 depth.\n2. Protection by turfing sods with vetiver grass rows.\n3. Plant two lines of Areca nut trees beside the reserve, and cultivate betel creeper inside an area of around 200 m2.","Description":"severe erosion in embankment","Amount (Rs.)":"213,000","photopath":"Not_Available"},"geometry":{"type":"Point","coordinates":[80.67012,7.25587]}},
{"type":"Feature","properties":{"No":"48","GND No.":964.0,"Scheme":"Igurugolla stream","N":7.243463889,"E":80.656025,"Observation":"1. Earth filling to section of  300m long, 1.5m wide and 0.5 depth.\n2. Protection by turfing sods with vetiver grass rows.\n3. Plant two lines of Areca nut trees beside the reserve, and cultivate betel creeper inside an area of around 300 m2.","Description":"Erosion in both embankments","Amount (Rs.)":"358,500","photopath":"Not_Available"},"geometry":{"type":"Point","coordinates":[80.656025,7.243463889]}},
{"type":"Feature","properties":{"No":"49","GND No.":964.0,"Scheme":"Beerawala stream","N":7.24147,"E":80.65469,"Observation":"1. Earth filling to section of  200m long, 1.5m wide and 0.5 depth.\n2. Protection by turfing sods with vetiver grass rows.\n3. Plant two lines of Areca nut trees beside the reserve and cultivate betel creeper inside an area of around 200 m2.","Description":"Erosion in both embankments","Amount (Rs.)":"213,000","photopath":"https://raw.githubusercontent.com/MWS003-GIS/MWS003-GIS.github.io/main/IWWRMP/Data/EXD/200_photo/MWS_003/Puliyadda/4.jpg"},"geometry":{"type":"Point","coordinates":[80.65469,7.24147]}},
{"type":"Feature","properties":{"No":"50","GND No.":964.0,"Scheme":"Suraganaya Oya","N":7.239722222,"E":80.65293889,"Observation":"1. Earth filling to section of  200m long, 1.5m wide and 0.5 depth.\n2. Protection by turfing sods with vetiver grass rows.\n3. Plant two lines of Areca nut trees beside the reserve, and cultivate betel creeper inside an area of around 200 m2.","Description":"Erosion in both embankments","Amount (Rs.)":"213,000","photopath":"https://raw.githubusercontent.com/MWS003-GIS/MWS003-GIS.github.io/main/IWWRMP/Data/EXD/200_photo/MWS_003/Puliyadda/6.jpg"},"geometry":{"type":"Point","coordinates":[80.65293889,7.239722222]}},
{"type":"Feature","properties":{"No":"51","GND No.":964.0,"Scheme":"Maha Oya","N":7.23766,"E":80.65795,"Observation":"1. Earth filling to section of  200m long, 1.5m wide and 0.5 depth.\n2. Protection by turfing sods with vetiver grass rows.\n3. Plant two lines of Areca nut trees beside the reserve, and cultivate betel creeper inside an area of around 200 m2.","Description":"Erosion in both embankments","Amount (Rs.)":"213,000","photopath":"Not_Available"},"geometry":{"type":"Point","coordinates":[80.65795,7.23766]}}
]}