{"type":"FeatureCollection","name":"Landslides","crs":{"type":"name","properties":{"name":"urn:ogc:def:crs:OGC:1.3:CRS84"}},"features":[
{"type":"Feature","properties":{"No.":1,"GN Division No.":"517","GN Division":"Thibbatugoda","Landslides":"Landsliding & sinking - Both sides of the road from Werella Maha Kade to 13 km post","N":7.086544,"E":80.87899,"NBRO Recommendation N/A":"Needs NBRO concern","Proposed Measures":"Soil conservation should be carried out; stones are available on the lands. Recommendations of NBRO should be followed. ","photopath":"Not_Available"},"geometry":{"type":"Point","coordinates":[80.87899,7.086544]}},
{"type":"Feature","properties":{"No.":2,"GN Division No.":"517A","GN Division":"Watambe","Landslides":"Land sinking - Uda Aswedduma Division","N":7.09431,"E":80.87853,"NBRO Recommendation N/A":"Needs NBRO concern","Proposed Measures":"Soil conservation should be carried out; stones are available on the lands; It is ideal to grow perennial crops such as pepper and coffee. Recommendations of NBRO should be followed. ","photopath":"Not_Available"},"geometry":{"type":"Point","coordinates":[80.87853,7.09431]}},
{"type":"Feature","properties":{"No.":3,"GN Division No.":"517B","GN Division":"Thibbatugoda South","Landslides":"Landslide - Seven Bends (Vangu hatha)","N":7.07844,"E":80.887425,"NBRO Recommendation N/A":"Needs NBRO concern","Proposed Measures":"Soil conservation should be carried out. Recommendations of NBRO should be followed. ","photopath":"Not_Available"},"geometry":{"type":"Point","coordinates":[80.887425,7.07844]}},
{"type":"Feature","properties":{"No.":4,"GN Division No.":"517B","GN Division":"Thibbatugoda South","Landslides":"Landslide - Batagala Ella","N":7.077958,"E":80.885906,"NBRO Recommendation N/A":"Needs NBRO concern","Proposed Measures":"Soil conservation should be carried out. Recommendations of NBRO should be followed. ","photopath":"Not_Available"},"geometry":{"type":"Point","coordinates":[80.885906,7.077958]}},
{"type":"Feature","properties":{"No.":5,"GN Division No.":"517B","GN Division":"Thibbatugoda South","Landslides":"Landslide - Dehigaha Hena","N":7.083834,"E":80.883461,"NBRO Recommendation N/A":"Needs NBRO concern","Proposed Measures":"Soil conservation should be carried out Recommendations of NBRO should be followed. ","photopath":"Not_Available"},"geometry":{"type":"Point","coordinates":[80.883461,7.083834]}},
{"type":"Feature","properties":{"No.":9,"GN Division No.":"519A","GN Division":"Udawela ","Landslides":"Landslide - Nayakele","N":7.09577,"E":80.89314,"NBRO Recommendation N/A":"NBRO is aware ","Proposed Measures":"Soil conservation should be carried out. Recommendations of NBRO should be followed. ","photopath":"Not_Available"},"geometry":{"type":"Point","coordinates":[80.89314,7.09577]}},
{"type":"Feature","properties":{"No.":10,"GN Division No.":"519B","GN Division":"Yombuwelthenna","Landslides":"Landslide - Udanawela","N":7.10265,"E":80.89307,"NBRO Recommendation N/A":"NBRO is aware ","Proposed Measures":"Soil conservation should be carried out. Recommendations of NBRO should be followed. ","photopath":"Not_Available"},"geometry":{"type":"Point","coordinates":[80.89307,7.10265]}},
{"type":"Feature","properties":{"No.":11,"GN Division No.":"519C","GN Division":"Galketiwela","Landslides":"Side wall damaged - Galketiwela Main Road","N":7.11711,"E":80.89818,"NBRO Recommendation N/A":"NBRO is aware ","Proposed Measures":"Construction of 16.0 m long 3.0 m height retaining wall","photopath":"Not_Available"},"geometry":{"type":"Point","coordinates":[80.89818,7.11711]}},
{"type":"Feature","properties":{"No.":12,"GN Division No.":"519C","GN Division":"Galketiwela","Landslides":"Sinking - Side wall of Community Hall","N":7.1164,"E":80.89813,"NBRO Recommendation N/A":"Needs NBRO concern","Proposed Measures":"Construction of 18.0 m long 3.0 m height retaining wall","photopath":"Not_Available"},"geometry":{"type":"Point","coordinates":[80.89813,7.1164]}},
{"type":"Feature","properties":{"No.":15,"GN Division No.":"519G","GN Division":"Muganagahapitiya","Landslides":"Landslide - Atikehellanda (reported in 2004)","N":7.10862,"E":80.89539,"NBRO Recommendation N/A":"NBRO is aware ","Proposed Measures":"Soil conservation pratices should be adopted; stones are available on the land.","photopath":"Not_Available"},"geometry":{"type":"Point","coordinates":[80.89539,7.10862]}},
{"type":"Feature","properties":{"No.":16,"GN Division No.":"524E","GN Division":"Nildandaheenna","Landslides":"Sinking - Upper part of the playground","N":7.07954,"E":80.89306,"NBRO Recommendation N/A":"Needs NBRO concern","Proposed Measures":"Construction of 60.0 m long, 3 m high Retaining Wall for prevention of earth collapse","photopath":"Not_Available"},"geometry":{"type":"Point","coordinates":[80.89306,7.07954]}}
]}