{
  "type": "FeatureCollection",
  "name": "SWC_OFF",
  "crs": {
    "type": "name",
    "properties": {
      "name": "urn:ogc:def:crs:OGC:1.3:CRS84"
    }
  },
  "features": [
    {
      "type": "Feature",
      "properties": {
        "No.": 9,
        "GND No.": "519C",
        "GND Name": "Galketiwela",
        "Key Activities proposed for Soil and Water conservation": "1. Construction of a Retaining Wall - Galketiwela Main Road",
        "Priority based on Soil Erosion Hazard": 5,
        "N": 7.11711,
        "E": 80.89818,
        "Quantity": "16 m long and 3.0 m high",
        "Proposed measure/s": "Retaining Wall",
        "Total_Cost": "1,864,500.00",
        "Contribution (Local Community, LA, and the project)": "By the project",
        "Time frame for the implementation": "0.25 Years",
        "photopath": "https://raw.githubusercontent.com/MWS003-GIS/MWS003-GIS.github.io/main/IWWRMP/Data/EXD/200_photo/MWS_036/Galketiwela Main Road.jpg"
      },
      "geometry": {
        "type": "Point",
        "coordinates": [
          80.89818,
          7.11711
        ]
      }
    },
    {
      "type": "Feature",
      "properties": {
        "No.": 10,
        "GND No.": "519C",
        "GND Name": "Galketiwela",
        "Key Activities proposed for Soil and Water conservation": "2. Construction of a Retaining Wall - Side wall of Community Hall",
        "Priority based on Soil Erosion Hazard": 4,
        "N": 7.1164,
        "E": 80.89813,
        "Quantity": "18 m long and 3.0 m high",
        "Proposed measure/s": "Retaining Wall",
        "Total_Cost": "2,101,000.00",
        "Contribution (Local Community, LA, and the project)": "By the project",
        "Time frame for the implementation": "0.25 Years",
        "photopath": "https://raw.githubusercontent.com/MWS003-GIS/MWS003-GIS.github.io/main/IWWRMP/Data/EXD/200_photo/MWS_036/Side Wall Of Community Hall.jpg"
      },
      "geometry": {
        "type": "Point",
        "coordinates": [
          80.89813,
          7.1164
        ]
      }
    },
    {
      "type": "Feature",
      "properties": {
        "No.": 14,
        "GND No.": "524E",
        "GND Name": "Nildandaheenna",
        "Key Activities proposed for Soil and Water conservation": "1. Construction of a Retaining Wall - Upper part of the playground",
        "Priority based on Soil Erosion Hazard": 5,
        "N": 7.07954,
        "E": 80.89306,
        "Quantity": "60 m long and 3.0 m high",
        "Proposed measure/s": "Retaining Wall",
        "Total_Cost": "6,974,000.00",
        "Contribution (Local Community, LA, and the project)": "By the project",
        "Time frame for the implementation": "0.25 Years",
        "photopath": "https://raw.githubusercontent.com/MWS003-GIS/MWS003-GIS.github.io/main/IWWRMP/Data/EXD/200_photo/MWS_036/Nildandahinna Play Ground.jpg"
      },
      "geometry": {
        "type": "Point",
        "coordinates": [
          80.89306,
          7.07954
        ]
      }
    }
  ]
}