{"type":"FeatureCollection","name":"MI","crs":{"type":"name","properties":{"name":"urn:ogc:def:crs:OGC:1.3:CRS84"}},"features":[
{"type":"Feature","properties":{"No":30,"GND No.":"31","Scheme":"Welangaha Arawa","N":7.130784,"E":80.99571,"Observation":"Existing Earthen canal, some places Constructed of rectangular concrete lining(450mm x 450mm)  and Retaining wall. Water from this canal is used to grow  Vegetable and paddy on an area of about 30 acres.","Description":"Canal protection works - Construction of a Retaining wall, Earth work and tree planting\n\nConstruction of 1.5m high (Total height) 1:3:6 (40mm) cement concrete Retaining Wall \n\nStream / canal  reservation protection by earth filling of  strip   of 1.5m to","Amount (Rs.)":1327700.0,"photopath":"https://raw.githubusercontent.com/MWS003-GIS/MWS003-GIS.github.io/main/IWWRMP/Data/EXD/200_photo/MWS_072/Welangaha arawa canal.jpg"},"geometry":{"type":"Point","coordinates":[80.99571,7.130784]}},
{"type":"Feature","properties":{"No":31,"GND No.":"31","Scheme":"Radigewela canal","N":7.12356,"E":80.993718,"Observation":"Existing Earthen canal, some places Constructed of rectangular concrete lining(450mm x 450mm)  and Retaining wall. Water from this canal is used to grow  Vegetable and paddy on an area of about 40 acres.","Description":"Canal protection works - Construction of a Retaining wall, Earth work and tree planting\n\nConstruction of 1.5m high (Total height) 1:3:6 (40mm) cement concrete Retaining Wall \n\nStream / canal  reservation protection by earth filling of  strip   of 1.5m to","Amount (Rs.)":1448700.0,"photopath":"https://raw.githubusercontent.com/MWS003-GIS/MWS003-GIS.github.io/main/IWWRMP/Data/EXD/200_photo/MWS_072/Radigewela.jpg"},"geometry":{"type":"Point","coordinates":[80.993718,7.12356]}},
{"type":"Feature","properties":{"No":32,"GND No.":"31","Scheme":"Siyabalagaha arawa","N":7.132767,"E":80.995171,"Observation":"Existing Earthen canal, some places Constructed of rectangular concrete lining(450mm x 450mm)   Water from this canal is used to grow  Vegetable and paddy on an area of about 15 acres.","Description":"Canal lining and protection including Earth work and  tree planting\n\nCanal reservation protection by concrete lining  For  100 mm thick , 300 mm  wide  and 300 mm high canal -double banking\n\nStream / canal  reservation protection by earth filling of  str","Amount (Rs.)":471900.0,"photopath":"https://raw.githubusercontent.com/MWS003-GIS/MWS003-GIS.github.io/main/IWWRMP/Data/EXD/200_photo/MWS_072/Siyabalgaha arawa.jpg"},"geometry":{"type":"Point","coordinates":[80.995171,7.132767]}},
{"type":"Feature","properties":{"No":33,"GND No.":"31E","Scheme":"Wathu Ela (Estate canal)","N":7.168231,"E":81.003887,"Observation":"Existing Earthen canal, Water from this canal is used to grow  Vegetable and paddy on an area of about 20 acres.","Description":"Canal lining and protection including Earth work and  tree planting\n\nCanal reservation protection by concrete lining  For  100 mm thick , 300 mm  wide  and 300 mm high canal -double banking\n\nStream / canal  reservation protection by earth filling of  str","Amount (Rs.)":471900.0,"photopath":"https://raw.githubusercontent.com/MWS003-GIS/MWS003-GIS.github.io/main/IWWRMP/Data/EXD/200_photo/MWS_072/Wathu Ela.jpg"},"geometry":{"type":"Point","coordinates":[81.003887,7.168231]}},
{"type":"Feature","properties":{"No":34,"GND No.":"31E","Scheme":"Field canal 12","N":7.159078,"E":80.996302,"Observation":"Existing Earthen canal, some places Constructed of rectangular concrete lining(600mm x600mm)   Water from this canal is used to grow  Vegetable and paddy on an area of about 56 acres.","Description":"Protection of the canal by concrete lining\n\nCanal reservation protection by concrete lining  For  150 mm thick , 600 mm  wide  and 500 mm high canal -double banking\n\nTransporting of earth moving machinery\n\nTransport of construction materials\n\nMiscellaneo","Amount (Rs.)":1395900.0,"photopath":"https://raw.githubusercontent.com/MWS003-GIS/MWS003-GIS.github.io/main/IWWRMP/Data/EXD/200_photo/MWS_072/Field canal 12.jpg"},"geometry":{"type":"Point","coordinates":[80.996302,7.159078]}},
{"type":"Feature","properties":{"No":35,"GND No.":"31G","Scheme":"Fc 6 Canal","N":7.148465,"E":80.994654,"Observation":"Existing Earthen canal, some places Constructed of rectangular concrete lining(450mm x 450mm)   Water from this canal is used to grow  Vegetable and paddy on an area of about 20 acres.","Description":"Canal lining and protection including Earth work and  tree planting\n\nCanal reservation protection by concrete lining  For  100 mm thick , 300 mm  wide  and 300 mm high canal -double banking\n\nStream / canal  reservation protection by earth filling of  str","Amount (Rs.)":666600.0,"photopath":"https://raw.githubusercontent.com/MWS003-GIS/MWS003-GIS.github.io/main/IWWRMP/Data/EXD/200_photo/MWS_072/FC 6 canal.jpg"},"geometry":{"type":"Point","coordinates":[80.994654,7.148465]}},
{"type":"Feature","properties":{"No":36,"GND No.":"31G","Scheme":"Fc 9 Canal","N":7.153264,"E":80.993734,"Observation":"Existing Earthen canal, some places Constructed of rectangular concrete lining(450mm x 450mm)   Water from this canal is used to grow  Vegetable and paddy on an area of about 30 acres.","Description":"Canal lining and protection including Earth work and  tree planting\n\nCanals reservation protection by concrete lining  For  125mm thick , 500 mm  wide  and 400 mm high canal -double banking\n\nStream / canal  reservation protection by earth filling of  str","Amount (Rs.)":1114300.0,"photopath":"https://raw.githubusercontent.com/MWS003-GIS/MWS003-GIS.github.io/main/IWWRMP/Data/EXD/200_photo/MWS_072/Fc 9 canal.jpg"},"geometry":{"type":"Point","coordinates":[80.993734,7.153264]}},
{"type":"Feature","properties":{"No":37,"GND No.":"32A","Scheme":"Polwattewela","N":7.110808,"E":80.987343,"Observation":"Existing Earthen canal, some places Constructed of rectangular concrete lining(450mm x 450mm)   Water from this canal is used to grow  Vegetable and paddy on an area of about 25 acres.","Description":"Canal lining and protection including Earth work and  tree planting\n\nCanal reservation protection by concrete lining  For  100 mm thick , 300 mm  wide  and 300 mm high canal -double banking\n\nStream / canal  reservation protection by earth filling of  str","Amount (Rs.)":868099.9978,"photopath":"https://raw.githubusercontent.com/MWS003-GIS/MWS003-GIS.github.io/main/IWWRMP/Data/EXD/200_photo/MWS_072/Polwattewela canal.jpg"},"geometry":{"type":"Point","coordinates":[80.987343,7.110808]}},
{"type":"Feature","properties":{"No":38,"GND No.":"32A","Scheme":"Medalapitiya","N":7.111883,"E":80.987838,"Observation":"Existing Earthen canal, some places Constructed of rectangular concrete lining(600mm x 450mm)   Water from this canal is used to grow  Vegetable and paddy on an area of about 27 acres.","Description":"Canal lining and protection including Earth work and  tree planting\n\nCanal reservation protection by concrete lining  For  100 mm thick , 300 mm  wide  and 300 mm high canal -double banking\n\nStream / canal  reservation protection by earth filling of  str","Amount (Rs.)":1028500.0,"photopath":"https://raw.githubusercontent.com/MWS003-GIS/MWS003-GIS.github.io/main/IWWRMP/Data/EXD/200_photo/MWS_072/Medalapitiya canal.jpg"},"geometry":{"type":"Point","coordinates":[80.987838,7.111883]}},
{"type":"Feature","properties":{"No":39,"GND No.":"32A","Scheme":"Welikumbura","N":7.104647,"E":80.984682,"Observation":"Existing Earthen canal, some places Constructed of rectangular concrete lining(450mm x 450mm)   Water from this canal is used to grow  Vegetable and paddy on an area of about 12 acres.","Description":"Canal lining and protection including Earth work and  tree planting\n\nCanal reservation protection by concrete lining  For  100 mm thick , 300 mm  wide  and 300 mm high canal -double banking\n\nTransport of construction materials\n\nMiscellaneous\n\nContingenci","Amount (Rs.)":303600.0,"photopath":"https://raw.githubusercontent.com/MWS003-GIS/MWS003-GIS.github.io/main/IWWRMP/Data/EXD/200_photo/MWS_072/Welikumbura canal.jpg"},"geometry":{"type":"Point","coordinates":[80.984682,7.104647]}}
]}