{
"type": "FeatureCollection",
"name": "SR",
"crs": { "type": "name", "properties": { "name": "urn:ogc:def:crs:OGC:1.3:CRS84" } },
"features": [
{ "type": "Feature", "properties": { "No": 1, "GND No.": "31", "Scheme": "Welaoya", "N": 7.133601, "E": 80.994584, "Observation": "During the rainy season when too much water flows, Bank erosion occurs", "Description": "Paving available stone in the river banks and Planting trees\n\nDry rubble packing (with locally found rubble, size over 225mm )-Along the river banks\n\nVegetative cover improving around the water source with Areca nut seedling in 1.5m x 1.5m grid, Kumbuk/", "Amount (Rs.)": 566500, "photopath": "https://raw.githubusercontent.com/MWS003-GIS/MWS003-GIS.github.io/main/IWWRMP/Data/EXD/200_photo/MWS_072/Wela oya.jpg" }, "geometry": { "type": "Point", "coordinates": [ 80.994584, 7.133601 ] } },
{ "type": "Feature", "properties": { "No": 2, "GND No.": "31E", "Scheme": "Welaoya", "N": 7.169001, "E": 81.000549, "Observation": "During the rainy season when too much water flows, Bank erosion occurs", "Description": "Paving available stone in the river banks and Planting trees\n\nDry rubble packing (with locally found rubble, size over 225mm )-Along the river banks\n\nVegetative cover improving around the water source with Areca nut seedling in 1.5m x 1.5m grid, Kumbuk/", "Amount (Rs.)": 770000, "photopath": "https://raw.githubusercontent.com/MWS003-GIS/MWS003-GIS.github.io/main/IWWRMP/Data/EXD/200_photo/MWS_072/Vela oya.jpg" }, "geometry": { "type": "Point", "coordinates": [ 81.000549, 7.169001 ] } },
{ "type": "Feature", "properties": { "No": 3, "GND No.": "31E", "Scheme": "Irrigation canal (Meda Ela)", "N": 7.167596, "E": 81.000019, "Observation": "It is belongs to irrigation department", "Description": "Surveying and demarcate boundaries - Around the water source\n\nContingencies (10%)", "Amount (Rs.)": 66000, "photopath": "https://raw.githubusercontent.com/MWS003-GIS/MWS003-GIS.github.io/main/IWWRMP/Data/EXD/200_photo/MWS_072/Irrigation canal (Meda Ela).jpg" }, "geometry": { "type": "Point", "coordinates": [ 81.000019, 7.167596 ] } },
{ "type": "Feature", "properties": { "No": 4, "GND No.": "31E", "Scheme": "Irrigation canal (Maha Ela)", "N": 7.159159, "E": 80.993546, "Observation": "It is belongs to irrigation department", "Description": "Surveying and demarcate boundaries - Around the water source\n\nContingencies (10%)", "Amount (Rs.)": 66000, "photopath": "https://raw.githubusercontent.com/MWS003-GIS/MWS003-GIS.github.io/main/IWWRMP/Data/EXD/200_photo/MWS_072/Irrigation canal (Maha Ela).jpg" }, "geometry": { "type": "Point", "coordinates": [ 80.993546, 7.159159 ] } },
{ "type": "Feature", "properties": { "No": 5, "GND No.": "31G", "Scheme": "Welaoya", "N": 7.14889, "E": 80.998119, "Observation": "During the rainy season when too much water flows, Bank erosion occurs", "Description": "Paving available stone in the river banks and Planting trees\n\nDry rubble packing (with locally found rubble, size over 225mm )-Along the river banks\n\nVegetative cover improving around the water source with Areca nut seedling in 1.5m x 1.5m grid, Kumbuk/", "Amount (Rs.)": 773300, "photopath": "https://raw.githubusercontent.com/MWS003-GIS/MWS003-GIS.github.io/main/IWWRMP/Data/EXD/200_photo/MWS_072/Wela oya_1.jpg" }, "geometry": { "type": "Point", "coordinates": [ 80.998119, 7.14889 ] } },
{ "type": "Feature", "properties": { "No": 6, "GND No.": "32A", "Scheme": "From Welaoya - Ambagamuwa to Brahmana Arawa", "N": 7.103699, "E": 80.983806, "Observation": "During the rainy season when too much water flows, Bank erosion occurs", "Description": "Paving available stone in the river banks and Planting trees\n\nDry rubble packing (with locally found rubble, size over 225mm )-Along the river banks\n\nVegetative cover improving around the water source with Areca nut seedling in 1.5m x 1.5m grid, Kumbuk/", "Amount (Rs.)": 973500, "photopath": "https://raw.githubusercontent.com/MWS003-GIS/MWS003-GIS.github.io/main/IWWRMP/Data/EXD/200_photo/MWS_072/Brahmana Arawa canal.jpg" }, "geometry": { "type": "Point", "coordinates": [ 80.983806, 7.103699 ] } }
]
}
