{
"type": "FeatureCollection",
"name": "SWC_ON",
"crs": { "type": "name", "properties": { "name": "urn:ogc:def:crs:OGC:1.3:CRS84" } },
"features": [
{ "type": "Feature", "properties": { "No.": 1, "GND No.": "31", "GND Name": "Pallewela", "Key Activities proposed for Soil and Water conservation": "1. Soil conservation practices (40°-50°)", "Priority based on Soil Erosion Hazard": "-", "N": 7.130317, "E": 80.996008, "Quantity": "2 ha", "Proposed measure/s": "1. Live fencing/SALT  - 1000 m/ 2. Lock and spills - 250 m/ 3. Stone terracing - 250 m/ 4. Agronomic practices should be adapted at optimum level (conservation tillage, crop rotation and diversification, cover crops, mulching, contour farming, windbreaks", "Uniti_Cost": "250.00 m-1/ 400.00 m-1/ 2500.00 m-1", "Total_Cost": 1100000, "Contribution (Local Community, LA, and the project)": "Labour and other basic services by the Local community", "Time frame for the implementation": "0.25 Years", "photopath": "https://raw.githubusercontent.com/MWS003-GIS/MWS003-GIS.github.io/main/IWWRMP/Data/EXD/200_photo/MWS_072/Soil conservation.jpg" }, "geometry": { "type": "Point", "coordinates": [ 80.996008, 7.130317 ] } },
{ "type": "Feature", "properties": { "No.": 2, "GND No.": "31E", "GND Name": "Welaoya", "Key Activities proposed for Soil and Water conservation": "2. Soil conservation practices -  Galkuudaya Village (45°-60°)", "Priority based on Soil Erosion Hazard": "-", "N": 7.169486, "E": 80.993593, "Quantity": "12 ha", "Proposed measure/s": "1. Live fencing/SALT  - 1000 m/ 2. Lock and spills - 250 m/ 3. Stone terracing - 250 m/ 4. Agronomic practices should be adapted at optimum level (conservation tillage, crop rotation and diversification, cover crops, mulching, contour farming, windbreaks", "Uniti_Cost": "250.00 m-1/ 400.00 m-1/ 2500.00 m-1", "Total_Cost": 5400000, "Contribution (Local Community, LA, and the project)": "Labour and other basic services by the Local community", "Time frame for the implementation": "0.25 Years", "photopath": "https://raw.githubusercontent.com/MWS003-GIS/MWS003-GIS.github.io/main/IWWRMP/Data/EXD/200_photo/MWS_072/Soil conservation_31.jpg" }, "geometry": { "type": "Point", "coordinates": [ 80.993593, 7.169486 ] } },
{ "type": "Feature", "properties": { "No.": 4, "GND No.": "31G", "GND Name": "Kivulegedara", "Key Activities proposed for Soil and Water conservation": "1. Soil conservation practices -  Udakivulegedara, Hingureyaya, Ulpatha, Meladumgolla (45°-60°)", "Priority based on Soil Erosion Hazard": "-", "N": 7.151466, "E": 80.99079, "Quantity": "2 ha", "Proposed measure/s": "1. Live fencing/SALT  - 1000 m/ 2. Lock and spills - 250 m/ 3. Stone terracing - 250 m/ 4. Agronomic practices should be adapted at optimum level (conservation tillage, crop rotation and diversification, cover crops, mulching, contour farming, windbreaks", "Uniti_Cost": "250.00 m-1/ 400.00 m-1/ 2500.00 m-1", "Total_Cost": 1700000, "Contribution (Local Community, LA, and the project)": "Labour and other basic services by the Local community", "Time frame for the implementation": "0.25 Years", "photopath": "https://raw.githubusercontent.com/MWS003-GIS/MWS003-GIS.github.io/main/IWWRMP/Data/EXD/200_photo/MWS_072/Soil conservation (2).jpg" }, "geometry": { "type": "Point", "coordinates": [ 80.99079, 7.151466 ] } },
{ "type": "Feature", "properties": { "No.": 5, "GND No.": "32A", "GND Name": "Mudagamuwa", "Key Activities proposed for Soil and Water conservation": "1. Soil conservation practices - Wewethenna (35°-60°)", "Priority based on Soil Erosion Hazard": "-", "N": 7.091586, "E": 80.98908, "Quantity": "20 ha", "Proposed measure/s": "1. Live fencing/SALT  - 1000 m/ 2. Lock and spills - 250 m/ 3. Stone terracing - 250 m/ 4. Agronomic practices should be adapted at optimum level (conservation tillage, crop rotation and diversification, cover crops, mulching, contour farming, windbreaks", "Uniti_Cost": "250.00 m-1/ 400.00 m-1/ 2500.00 m-1", "Total_Cost": 9800000, "Contribution (Local Community, LA, and the project)": "Labour and other basic services by the Local community", "Time frame for the implementation": "0.25 Years", "photopath": "https://raw.githubusercontent.com/MWS003-GIS/MWS003-GIS.github.io/main/IWWRMP/Data/EXD/200_photo/MWS_072/Soil conservation_32.jpg" }, "geometry": { "type": "Point", "coordinates": [ 80.98908, 7.091586 ] } }
]
}
