{"type":"FeatureCollection","name":"DWS","crs":{"type":"name","properties":{"name":"urn:ogc:def:crs:OGC:1.3:CRS84"}},"features":[
{"type":"Feature","properties":{"No":1,"GND No.":27,"Scheme":"Wekada Kiriellagama","N":7.012434,"E":81.036981,"Observation":"A tank is constructed (2.15m x 2.15m x 1.6 m, L*W*H) , A spring  Located on public land. used for drinking and bathing","Description":"Supplying of Kumbuk/ Mee/ Godapara/ Kaduru/ Aththikka/ Wal Del/ Kekuna seedlings\n\nPlanting & maintenance\n\nMiscellaneous\n\nContingancies 10%","Estimated Cost":13200,"photopath":"https://raw.githubusercontent.com/MWS003-GIS/MWS003-GIS.github.io/main/IWWRMP/Data/EXD/200_photo/MWS_071_2/IMG_20250904_122739 Wekada tank.jpg"},"geometry":{"type":"Point","coordinates":[81.036981,7.012434]}}
]}