{"type":"FeatureCollection","name":"Landslides","crs":{"type":"name","properties":{"name":"urn:ogc:def:crs:OGC:1.3:CRS84"}},"features":[
{"type":"Feature","properties":{"No.":2,"GN Division No.":"27A","GN Division":"Kandegedara Town","Landslides":"Sinking, Risk of landsliding - Kolongaha Patha","N":7.016868,"E":81.017684,"NBRO Recommendation N/A":"NBRO is aware","Proposed Measures":"Follow recommendations of NBRO","photopath":"https://raw.githubusercontent.com/MWS003-GIS/MWS003-GIS.github.io/main/IWWRMP/Data/EXD/200_photo/MWS_071_2/IMG_20250909_144938Kolongaha pathana earth slip land.jpg"},"geometry":{"type":"Point","coordinates":[81.017684,7.016868]}}
]}