{"type":"FeatureCollection","name":"WP","crs":{"type":"name","properties":{"name":"urn:ogc:def:crs:OGC:1.3:CRS84"}},"features":[
{"type":"Feature","properties":{"No.":2,"GND No.":"27A","GN Division":"Kandegedara Town","Non-point sources of pollution":"Informal disposal of houshold wastes/garbage","N":7.020048,"E":81.018824,"Point sources of pollution":"-","Add. N ":"-","Add. E ":"-","Recommended water quality improvement measures":"Preparing a separate place in homegardens for disposing houshold waste/ Awareness programme on how to disposal household waste properly and converting them to usable products such as compost/ Facilitating garbage collection","Unit Cost (Rs.)":null,"Total Cost (Rs.)":50000,"Contributions (Local Community, LA, Project)":"Local/Central governments","Time frame for the implementation":"0.5 Years","photopath":"https://raw.githubusercontent.com/MWS003-GIS/MWS003-GIS.github.io/main/IWWRMP/Data/EXD/200_photo/MWS_071_2/IMG_20250909_141625 Garbage dump location.jpg"},"geometry":{"type":"Point","coordinates":[81.018824,7.020048]}},
{"type":"Feature","properties":{"No.":3,"GND No.":"27C","GN Division":"Ledgerwatta","Non-point sources of pollution":"Informal disposal of houshold wastes/garbage","N":7.029142,"E":81.007878,"Point sources of pollution":"-","Add. N ":"-","Add. E ":"-","Recommended water quality improvement measures":"Preparing a separate place in homegardens for disposing houshold waste/ Awareness programme on how to disposal household waste properly and converting them to usable products such as compost/ Facilitating garbage collection","Unit Cost (Rs.)":null,"Total Cost (Rs.)":50000,"Contributions (Local Community, LA, Project)":"Local/Central governments","Time frame for the implementation":"0.5 Years","photopath":"https://raw.githubusercontent.com/MWS003-GIS/MWS003-GIS.github.io/main/IWWRMP/Data/EXD/200_photo/MWS_071_2/IMG_20250909_102023Garbage dump location.jpg"},"geometry":{"type":"Point","coordinates":[81.007878,7.029142]}}
]}