{"type":"FeatureCollection","name":"SWC_OFF","crs":{"type":"name","properties":{"name":"urn:ogc:def:crs:OGC:1.3:CRS84"}},"features":[
{"type":"Feature","properties":{"No.":6,"GND No.":703,"GND Name":"Diya Bubula","Key Activities proposed for Soil and Water conservation":"1. Construction of a concrete drain - Near the embankment of ICC Village","Priority based on Soil Erosion Hazard":2,"N":7.29163,"E":80.72855,"Quantity":"300 m","Proposed measure/s":"Concrete Drain","Total_Cost":"18,051,000.00","Contribution (Local Community, LA, and the project)":"By the project","Time frame for the implementation":"0.25 Years","photopath":"https://raw.githubusercontent.com/MWS003-GIS/MWS003-GIS.github.io/main/IWWRMP/Data/EXD/200_photo/MWS_105/IMG_20250129_110735  ICC vilage drain.jpg"},"geometry":{"type":"Point","coordinates":[80.72855,7.29163]}}
]}