{"type":"FeatureCollection","name":"SWC_OFF","crs":{"type":"name","properties":{"name":"urn:ogc:def:crs:OGC:1.3:CRS84"}},"features":[
{"type":"Feature","properties":{"No.":1,"GND No.":"506 B","GND Name":"Liyanwela Pahala","Key Activities proposed for Soil and Water conservation":"1. Renovation of natural drains - Andaoya Kandura","Priority based on Soil Erosion Hazard":"-","N":7.113926,"E":80.827753,"Quantity":"1 km","Proposed measure/s":"Clearing and planting some trees along the banks (Aracanut) and other conservation practices","Total_Cost":"100,000.00","Contribution (Local Community, LA, and the project)":"Labour and other basic services by the Local community/ Shramadana","Time frame for the implementation":"0.5 Years","photopath":"https://raw.githubusercontent.com/MWS003-GIS/MWS003-GIS.github.io/main/IWWRMP/Data/EXD/200_photo/MWS_028/Andaoya Kandura.jpg"},"geometry":{"type":"Point","coordinates":[80.827753,7.113926]}},
{"type":"Feature","properties":{"No.":2,"GND No.":"506 B","GND Name":"Liyanwela Pahala","Key Activities proposed for Soil and Water conservation":"2. Renovation of natural drains - Kithulgolla Kandura","Priority based on Soil Erosion Hazard":"-","N":7.112774,"E":80.8246,"Quantity":"1.5 km","Proposed measure/s":"Clearing and planting some trees along the banks (Aracanut) and other conservation practices","Total_Cost":"150,000.00","Contribution (Local Community, LA, and the project)":"Labour and other basic services by the Local community/ Shramadana","Time frame for the implementation":"0.5 Years","photopath":"https://raw.githubusercontent.com/MWS003-GIS/MWS003-GIS.github.io/main/IWWRMP/Data/EXD/200_photo/MWS_028/Kithulgolla Kandura.jpg"},"geometry":{"type":"Point","coordinates":[80.8246,7.112774]}},
{"type":"Feature","properties":{"No.":3,"GND No.":"506 B","GND Name":"Liyanwela Pahala","Key Activities proposed for Soil and Water conservation":"3. Renovation of natural drains - Madiththagolla - Pahala Kandura","Priority based on Soil Erosion Hazard":"-","N":7.119591,"E":80.824479,"Quantity":"500 m","Proposed measure/s":"Clearing and planting some trees along the banks (Aracanut) and other conservation practices","Total_Cost":"50,000.00","Contribution (Local Community, LA, and the project)":"Labour and other basic services by the Local community/ Shramadana","Time frame for the implementation":"0.25 Years","photopath":"https://raw.githubusercontent.com/MWS003-GIS/MWS003-GIS.github.io/main/IWWRMP/Data/EXD/200_photo/MWS_028/Madiththagolla Mahakandura.jpg"},"geometry":{"type":"Point","coordinates":[80.824479,7.119591]}},
{"type":"Feature","properties":{"No.":4,"GND No.":"506 B","GND Name":"Liyanwela Pahala","Key Activities proposed for Soil and Water conservation":"4. Renovation of natural drains - Mati yaknawa Kandura","Priority based on Soil Erosion Hazard":"-","N":7.112907,"E":80.824943,"Quantity":"1.5 km","Proposed measure/s":"Clearing and planting some trees along the banks (Aracanut) and other conservation practices","Total_Cost":"150,000.00","Contribution (Local Community, LA, and the project)":"Labour and other basic services by the Local community/ Shramadana","Time frame for the implementation":"0.5 Years","photopath":"https://raw.githubusercontent.com/MWS003-GIS/MWS003-GIS.github.io/main/IWWRMP/Data/EXD/200_photo/MWS_028/Mateyantawa Kandura.jpg"},"geometry":{"type":"Point","coordinates":[80.824943,7.112907]}},
{"type":"Feature","properties":{"No.":11,"GND No.":"506 C","GND Name":"Madakandura","Key Activities proposed for Soil and Water conservation":"2. Renovation of natural drains - Diyanilla Ela","Priority based on Soil Erosion Hazard":"-","N":7.090347,"E":80.829522,"Quantity":"2 km","Proposed measure/s":"Clearing and planting some trees along the banks (Aracanut) and other conservation practices","Total_Cost":"200,000.00","Contribution (Local Community, LA, and the project)":"Labour and other basic services by the Local community/ Shramadana","Time frame for the implementation":"0.5 Years","photopath":"https://raw.githubusercontent.com/MWS003-GIS/MWS003-GIS.github.io/main/IWWRMP/Data/EXD/200_photo/MWS_028/Diyanilla Canal.jpg"},"geometry":{"type":"Point","coordinates":[80.829522,7.090347]}},
{"type":"Feature","properties":{"No.":12,"GND No.":"506 C","GND Name":"Madakandura","Key Activities proposed for Soil and Water conservation":"3. Renovation of natural drains - Madakandura","Priority based on Soil Erosion Hazard":"-","N":7.09571,"E":80.82711,"Quantity":"2 km","Proposed measure/s":"Clearing and planting some trees along the banks (Aracanut) and other conservation practices","Total_Cost":"200,000.00","Contribution (Local Community, LA, and the project)":"Labour and other basic services by the Local community/ Shramadana","Time frame for the implementation":"0.5 Years","photopath":"https://raw.githubusercontent.com/MWS003-GIS/MWS003-GIS.github.io/main/IWWRMP/Data/EXD/200_photo/MWS_028/Medakandura Start Place.jpg"},"geometry":{"type":"Point","coordinates":[80.82711,7.09571]}},
{"type":"Feature","properties":{"No.":13,"GND No.":"506 C","GND Name":"Madakandura","Key Activities proposed for Soil and Water conservation":"4. Renovation of natural drains - Kalotuwawa Ela","Priority based on Soil Erosion Hazard":"-","N":7.09943,"E":80.82662,"Quantity":"0.25 km","Proposed measure/s":"Clearing and planting some trees along the banks (Aracanut) and other conservation practices","Total_Cost":"2,500.00","Contribution (Local Community, LA, and the project)":"Labour and other basic services by the Local community/ Shramadana","Time frame for the implementation":"0.25 Years","photopath":"https://raw.githubusercontent.com/MWS003-GIS/MWS003-GIS.github.io/main/IWWRMP/Data/EXD/200_photo/MWS_028/Kolotuwawa Canal.jpg"},"geometry":{"type":"Point","coordinates":[80.82662,7.09943]}},
{"type":"Feature","properties":{"No.":16,"GND No.":"506 D","GND Name":"Liyanwela Ihala","Key Activities proposed for Soil and Water conservation":"1. Renovation of natural drains - Andaoya Reserve","Priority based on Soil Erosion Hazard":"-","N":7.103392,"E":80.833525,"Quantity":"1.5 km","Proposed measure/s":"Clearing and planting some trees along the banks (Aracanut) and other conservation practices","Total_Cost":"150,000.00","Contribution (Local Community, LA, and the project)":"Labour and other basic services by the Local community/ Shramadana","Time frame for the implementation":"0.5 Years","photopath":"https://raw.githubusercontent.com/MWS003-GIS/MWS003-GIS.github.io/main/IWWRMP/Data/EXD/200_photo/MWS_028/Ada Oya.JPG"},"geometry":{"type":"Point","coordinates":[80.833525,7.103392]}},
{"type":"Feature","properties":{"No.":17,"GND No.":"506 D","GND Name":"Liyanwela Ihala","Key Activities proposed for Soil and Water conservation":"2. Renovation of natural drains - Pihibiyagala Kandura","Priority based on Soil Erosion Hazard":"-","N":7.109185,"E":80.830148,"Quantity":"1.5 km","Proposed measure/s":"Clearing and planting some trees along the banks (Aracanut) and other conservation practices","Total_Cost":"150,000.00","Contribution (Local Community, LA, and the project)":"Labour and other basic services by the Local community/ Shramadana","Time frame for the implementation":"0.5 Years","photopath":"https://raw.githubusercontent.com/MWS003-GIS/MWS003-GIS.github.io/main/IWWRMP/Data/EXD/200_photo/MWS_028/Pihibiyagala Kandura.JPG"},"geometry":{"type":"Point","coordinates":[80.830148,7.109185]}},
{"type":"Feature","properties":{"No.":18,"GND No.":"506 D","GND Name":"Liyanwela Ihala","Key Activities proposed for Soil and Water conservation":"3. Renovation of natural drains - Madawala Kandura","Priority based on Soil Erosion Hazard":"-","N":7.108409,"E":80.831564,"Quantity":"1 km","Proposed measure/s":"Clearing and planting some trees along the banks (Aracanut) and other conservation practices","Total_Cost":"100,000.00","Contribution (Local Community, LA, and the project)":"Labour and other basic services by the Local community/ Shramadana","Time frame for the implementation":"0.5 Years","photopath":"https://raw.githubusercontent.com/MWS003-GIS/MWS003-GIS.github.io/main/IWWRMP/Data/EXD/200_photo/MWS_028/Mdawala Kandura.JPG"},"geometry":{"type":"Point","coordinates":[80.831564,7.108409]}},
{"type":"Feature","properties":{"No.":19,"GND No.":"506 D","GND Name":"Liyanwela Ihala","Key Activities proposed for Soil and Water conservation":"4. Establishing a retaining wall - Near Perathatiya Community Hall","Priority based on Soil Erosion Hazard":"-","N":7.107198,"E":80.82956,"Quantity":"13 m x 2.4 m x 0.5 m","Proposed measure/s":"Retaining wall","Total_Cost":"31,200.00","Contribution (Local Community, LA, and the project)":"Labour and other basic services by the Local community","Time frame for the implementation":"0.25 Years","photopath":"Not_Available"},"geometry":{"type":"Point","coordinates":[80.82956,7.107198]}},
{"type":"Feature","properties":{"No.":27,"GND No.":"506 E","GND Name":"Madumana","Key Activities proposed for Soil and Water conservation":"1. Renovation of natural drains - Anda Oya","Priority based on Soil Erosion Hazard":"-","N":7.11319,"E":80.828788,"Quantity":"3 km","Proposed measure/s":"Clearing and planting some trees along the banks (Aracanut) and other conservation practices","Total_Cost":"300,000.00","Contribution (Local Community, LA, and the project)":"Labour and other basic services by the Local community/ Shramadana","Time frame for the implementation":"0.5 Years","photopath":"https://raw.githubusercontent.com/MWS003-GIS/MWS003-GIS.github.io/main/IWWRMP/Data/EXD/200_photo/MWS_028/Anda Oya 1.JPG"},"geometry":{"type":"Point","coordinates":[80.828788,7.11319]}},
{"type":"Feature","properties":{"No.":28,"GND No.":"506 E","GND Name":"Madumana","Key Activities proposed for Soil and Water conservation":"2. Renovation of natural drains - Ruppe Kandura","Priority based on Soil Erosion Hazard":"-","N":7.112339,"E":80.831018,"Quantity":"1.5 km","Proposed measure/s":"Clearing and planting some trees along the banks (Aracanut) and other conservation practices","Total_Cost":"150,000.00","Contribution (Local Community, LA, and the project)":"Labour and other basic services by the Local community/ Shramadana","Time frame for the implementation":"0.5 Years","photopath":"https://raw.githubusercontent.com/MWS003-GIS/MWS003-GIS.github.io/main/IWWRMP/Data/EXD/200_photo/MWS_028/Ruppe Kandura.JPG"},"geometry":{"type":"Point","coordinates":[80.831018,7.112339]}},
{"type":"Feature","properties":{"No.":29,"GND No.":"506 E","GND Name":"Madumana","Key Activities proposed for Soil and Water conservation":"3. Renovation of natural drains - Ruppe Mala Kandura","Priority based on Soil Erosion Hazard":"-","N":7.113024,"E":80.828525,"Quantity":"800 m","Proposed measure/s":"Clearing and planting some trees along the banks (Aracanut) and other conservation practices","Total_Cost":"80,000.00","Contribution (Local Community, LA, and the project)":"Labour and other basic services by the Local community/ Shramadana","Time frame for the implementation":"0.5 Years","photopath":"Not_Available"},"geometry":{"type":"Point","coordinates":[80.828525,7.113024]}},
{"type":"Feature","properties":{"No.":30,"GND No.":"506 E","GND Name":"Madumana","Key Activities proposed for Soil and Water conservation":"4. Renovation of natural drains - Rukattana Maditta Kandura","Priority based on Soil Erosion Hazard":"-","N":7.109652,"E":80.832311,"Quantity":"1 km","Proposed measure/s":"Clearing and planting some trees along the banks (Aracanut) and other conservation practices","Total_Cost":"100,000.00","Contribution (Local Community, LA, and the project)":"Labour and other basic services by the Local community/ Shramadana","Time frame for the implementation":"0.5 Years","photopath":"https://raw.githubusercontent.com/MWS003-GIS/MWS003-GIS.github.io/main/IWWRMP/Data/EXD/200_photo/MWS_028/Rukattana Madittha Kandura.JPG"},"geometry":{"type":"Point","coordinates":[80.832311,7.109652]}},
{"type":"Feature","properties":{"No.":31,"GND No.":"506 E","GND Name":"Madumana","Key Activities proposed for Soil and Water conservation":"5. Renovation of natural drains - Bootawa Kandura","Priority based on Soil Erosion Hazard":"-","N":7.108603,"E":80.832059,"Quantity":"800 m","Proposed measure/s":"Clearing and planting some trees along the banks (Aracanut) and other conservation practices","Total_Cost":"80,000.00","Contribution (Local Community, LA, and the project)":"Labour and other basic services by the Local community/ Shramadana","Time frame for the implementation":"0.5 Years","photopath":"https://raw.githubusercontent.com/MWS003-GIS/MWS003-GIS.github.io/main/IWWRMP/Data/EXD/200_photo/MWS_028/Bootawa Kandura.JPG"},"geometry":{"type":"Point","coordinates":[80.832059,7.108603]}},
{"type":"Feature","properties":{"No.":32,"GND No.":"506 E","GND Name":"Madumana","Key Activities proposed for Soil and Water conservation":"6. Renovation of natural drains - Pambe Ulpatha Kandura","Priority based on Soil Erosion Hazard":"-","N":7.116748,"E":80.831042,"Quantity":"1 km","Proposed measure/s":"Clearing and planting some trees along the banks (Aracanut) and other conservation practices","Total_Cost":"100,000.00","Contribution (Local Community, LA, and the project)":"Labour and other basic services by the Local community/ Shramadana","Time frame for the implementation":"0.5 Years","photopath":"https://raw.githubusercontent.com/MWS003-GIS/MWS003-GIS.github.io/main/IWWRMP/Data/EXD/200_photo/MWS_028/Pambe Ulpatha Kandura.JPG"},"geometry":{"type":"Point","coordinates":[80.831042,7.116748]}},
{"type":"Feature","properties":{"No.":36,"GND No.":"506 F","GND Name":"Ilukpelessa","Key Activities proposed for Soil and Water conservation":"1. Renovation of natural drains - Andawala Water Fall","Priority based on Soil Erosion Hazard":"-","N":7.124301,"E":80.821614,"Quantity":"150 m","Proposed measure/s":"Clearing and planting some trees along the banks (Aracanut) and other conservation practices","Total_Cost":"15,000.00","Contribution (Local Community, LA, and the project)":"Labour and other basic services by the Local community/ Shramadana","Time frame for the implementation":"0.25 Years","photopath":"https://raw.githubusercontent.com/MWS003-GIS/MWS003-GIS.github.io/main/IWWRMP/Data/EXD/200_photo/MWS_028/Andawala Oya Upper.JPG"},"geometry":{"type":"Point","coordinates":[80.821614,7.124301]}},
{"type":"Feature","properties":{"No.":37,"GND No.":"506 F","GND Name":"Ilukpelessa","Key Activities proposed for Soil and Water conservation":"2. Renovation of natural drains - Ilukpelessa Maha Ela Canal (main canal)","Priority based on Soil Erosion Hazard":"-","N":7.123651,"E":80.823284,"Quantity":"1.5 km","Proposed measure/s":"Clearing and planting some trees along the banks (Aracanut) and other conservation practices","Total_Cost":"150,000.00","Contribution (Local Community, LA, and the project)":"Labour and other basic services by the Local community/ Shramadana","Time frame for the implementation":"0.5 Years","photopath":"https://raw.githubusercontent.com/MWS003-GIS/MWS003-GIS.github.io/main/IWWRMP/Data/EXD/200_photo/MWS_028/Ilukpalassa Canal.JPG"},"geometry":{"type":"Point","coordinates":[80.823284,7.123651]}},
{"type":"Feature","properties":{"No.":38,"GND No.":"506 F","GND Name":"Ilukpelessa","Key Activities proposed for Soil and Water conservation":"3. Renovation of natural drains - Madawala daranda Canal","Priority based on Soil Erosion Hazard":"-","N":7.125921,"E":80.821411,"Quantity":"1 km","Proposed measure/s":"Clearing and planting some trees along the banks (Aracanut) and other conservation practices","Total_Cost":"100,000.00","Contribution (Local Community, LA, and the project)":"Labour and other basic services by the Local community/ Shramadana","Time frame for the implementation":"0.25 Years","photopath":"https://raw.githubusercontent.com/MWS003-GIS/MWS003-GIS.github.io/main/IWWRMP/Data/EXD/200_photo/MWS_028/Madawala Darada Canal 1.JPG"},"geometry":{"type":"Point","coordinates":[80.821411,7.125921]}},
{"type":"Feature","properties":{"No.":39,"GND No.":"506 F","GND Name":"Ilukpelessa","Key Activities proposed for Soil and Water conservation":"4. Renovation of natural drains - Adawala Meda Ela Canal","Priority based on Soil Erosion Hazard":"-","N":7.126378,"E":80.821221,"Quantity":"1 km","Proposed measure/s":"Clearing and planting some trees along the banks (Aracanut) and other conservation practices","Total_Cost":"100,000.00","Contribution (Local Community, LA, and the project)":"Labour and other basic services by the Local community/ Shramadana","Time frame for the implementation":"0.25 Years","photopath":"https://raw.githubusercontent.com/MWS003-GIS/MWS003-GIS.github.io/main/IWWRMP/Data/EXD/200_photo/MWS_028/Andawala Meda Canal 2.JPG"},"geometry":{"type":"Point","coordinates":[80.821221,7.126378]}},
{"type":"Feature","properties":{"No.":40,"GND No.":"506 F","GND Name":"Ilukpelessa","Key Activities proposed for Soil and Water conservation":"5. Renovation of natural drains - Kolongasthanna, Godaliyadda Canal","Priority based on Soil Erosion Hazard":"-","N":7.121913,"E":80.8189376,"Quantity":"350 m","Proposed measure/s":"Clearing and planting some trees along the banks (Aracanut) and other conservation practices","Total_Cost":"35,000.00","Contribution (Local Community, LA, and the project)":"Labour and other basic services by the Local community/ Shramadana","Time frame for the implementation":"0.25 Years","photopath":"https://raw.githubusercontent.com/MWS003-GIS/MWS003-GIS.github.io/main/IWWRMP/Data/EXD/200_photo/MWS_028/Godaliyadda Canal.JPG"},"geometry":{"type":"Point","coordinates":[80.8189376,7.121913]}},
{"type":"Feature","properties":{"No.":41,"GND No.":"506 F","GND Name":"Ilukpelessa","Key Activities proposed for Soil and Water conservation":"6. Renovation of natural drains - Diyamanna Canal","Priority based on Soil Erosion Hazard":"-","N":7.124301,"E":80.821614,"Quantity":"600 m","Proposed measure/s":"Clearing and planting some trees along the banks (Aracanut) and other conservation practices","Total_Cost":"60,000.00","Contribution (Local Community, LA, and the project)":"Labour and other basic services by the Local community/ Shramadana","Time frame for the implementation":"0.25 Years","photopath":"https://raw.githubusercontent.com/MWS003-GIS/MWS003-GIS.github.io/main/IWWRMP/Data/EXD/200_photo/MWS_028/Diyamanna Canal 1.JPG"},"geometry":{"type":"Point","coordinates":[80.821614,7.124301]}},
{"type":"Feature","properties":{"No.":42,"GND No.":"506 F","GND Name":"Ilukpelessa","Key Activities proposed for Soil and Water conservation":"7. Renovation of natural drains - Kehelgolla kandura","Priority based on Soil Erosion Hazard":"-","N":7.123365,"E":80.818881,"Quantity":"1 km","Proposed measure/s":"Clearing and planting some trees along the banks (Aracanut) and other conservation practices","Total_Cost":"100,000.00","Contribution (Local Community, LA, and the project)":"Labour and other basic services by the Local community/ Shramadana","Time frame for the implementation":"0.5 Years","photopath":"https://raw.githubusercontent.com/MWS003-GIS/MWS003-GIS.github.io/main/IWWRMP/Data/EXD/200_photo/MWS_028/Keselgolla Kandura.JPG"},"geometry":{"type":"Point","coordinates":[80.818881,7.123365]}},
{"type":"Feature","properties":{"No.":43,"GND No.":"506 F","GND Name":"Ilukpelessa","Key Activities proposed for Soil and Water conservation":"8. Renovation of natural drains - Madawala Pita kandura","Priority based on Soil Erosion Hazard":"-","N":7.125023,"E":80.82183,"Quantity":"1 km","Proposed measure/s":"Clearing and planting some trees along the banks (Aracanut) and other conservation practices","Total_Cost":"100,000.00","Contribution (Local Community, LA, and the project)":"Labour and other basic services by the Local community/ Shramadana","Time frame for the implementation":"0.5 Years","photopath":"https://raw.githubusercontent.com/MWS003-GIS/MWS003-GIS.github.io/main/IWWRMP/Data/EXD/200_photo/MWS_028/Madewala Pita Kandura.JPG"},"geometry":{"type":"Point","coordinates":[80.82183,7.125023]}},
{"type":"Feature","properties":{"No.":44,"GND No.":"506 F","GND Name":"Ilukpelessa","Key Activities proposed for Soil and Water conservation":"9. Renovation of natural drains - Adawala Oya","Priority based on Soil Erosion Hazard":"-","N":7.124784,"E":80.822354,"Quantity":"1.5 km","Proposed measure/s":"Clearing and planting some trees along the banks (Aracanut) and other conservation practices","Total_Cost":"150,000.00","Contribution (Local Community, LA, and the project)":"Labour and other basic services by the Local community/ Shramadana","Time frame for the implementation":"0.5 Years","photopath":"https://raw.githubusercontent.com/MWS003-GIS/MWS003-GIS.github.io/main/IWWRMP/Data/EXD/200_photo/MWS_028/Andawala Oya Lower.JPG"},"geometry":{"type":"Point","coordinates":[80.822354,7.124784]}},
{"type":"Feature","properties":{"No.":46,"GND No.":"513 F","GND Name":"Andawala","Key Activities proposed for Soil and Water conservation":"1. Renovation of natural drains - Batagale Kandura","Priority based on Soil Erosion Hazard":"-","N":7.125896,"E":80.82617,"Quantity":"1.2 km","Proposed measure/s":"Clearing and planting some trees along the banks (Aracanut) and other conservation practices","Total_Cost":"120,000.00","Contribution (Local Community, LA, and the project)":"Labour and other basic services by the Local community/ Shramadana","Time frame for the implementation":"0.5 Years","photopath":"https://raw.githubusercontent.com/MWS003-GIS/MWS003-GIS.github.io/main/IWWRMP/Data/EXD/200_photo/MWS_028/Batagale Kandura.jpg"},"geometry":{"type":"Point","coordinates":[80.82617,7.125896]}},
{"type":"Feature","properties":{"No.":48,"GND No.":"514 A","GND Name":"Naranthalawa","Key Activities proposed for Soil and Water conservation":"2. Renovation of natural drains - Ramaliyadda Kandura","Priority based on Soil Erosion Hazard":"-","N":7.11902,"E":80.83942,"Quantity":"5 km","Proposed measure/s":"Clearing and planting some trees along the banks (Aracanut) and other conservation practices","Total_Cost":"500,000.00","Contribution (Local Community, LA, and the project)":"Labour and other basic services by the Local community","Time frame for the implementation":"0.5 Years","photopath":"https://raw.githubusercontent.com/MWS003-GIS/MWS003-GIS.github.io/main/IWWRMP/Data/EXD/200_photo/MWS_028/Ramaliyadda Kandura.jpg"},"geometry":{"type":"Point","coordinates":[80.83942,7.11902]}},
{"type":"Feature","properties":{"No.":49,"GND No.":"514 A","GND Name":"Naranthalawa","Key Activities proposed for Soil and Water conservation":"3. Renovation of natural drains - Malapattawe Kandura","Priority based on Soil Erosion Hazard":"-","N":7.12317,"E":80.8329,"Quantity":"1.5 km","Proposed measure/s":"Clearing and planting some trees along the banks (Aracanut) and other conservation practices","Total_Cost":"150,000.00","Contribution (Local Community, LA, and the project)":"Labour and other basic services by the Local community/ Shramadana","Time frame for the implementation":"0.5 Years","photopath":"https://raw.githubusercontent.com/MWS003-GIS/MWS003-GIS.github.io/main/IWWRMP/Data/EXD/200_photo/MWS_028/Malapatta Kandura.jpg"},"geometry":{"type":"Point","coordinates":[80.8329,7.12317]}}
]}