{"type":"FeatureCollection","name":"DWS","crs":{"type":"name","properties":{"name":"urn:ogc:def:crs:OGC:1.3:CRS84"}},"features":[
{"type":"Feature","properties":{"No":1,"GND No.":"499 B","Scheme":"Sarvodaya community water tanks","N":7.124437,"E":80.746595,"Observation":"The tank cannot be used due to leakages. ","Description":"The tanks should be reconstructed (3 tanks)","Estimated Cost":"   1, 652, 000.00 ","photopath":"Not_Available"},"geometry":{"type":"Point","coordinates":[80.746595,7.124437]}},
{"type":"Feature","properties":{"No":2,"GND No.":"500D","Scheme":"\"Dunudiya Pahara\" water project","N":7.154035,"E":80.744106,"Observation":"The tank has not enough capacity to store water. ","Description":"Construction of Concrete water storage tank of 20 cum - size internal 3mx3mx2.5","Estimated Cost":"  550, 000.00 ","photopath":"https://raw.githubusercontent.com/MWS003-GIS/MWS003-GIS.github.io/main/IWWRMP/Data/EXD/200_photo/MWS_011/KB13.jpg"},"geometry":{"type":"Point","coordinates":[80.744106,7.154035]}}
]}