{"type":"FeatureCollection","name":"Landslides","crs":{"type":"name","properties":{"name":"urn:ogc:def:crs:OGC:1.3:CRS84"}},"features":[
{"type":"Feature","properties":{"No.":1,"GN Division No.":"498B","GN Division":"Agappala","Landslides":"Rolling rocks and blocking streams - Miderapitiya Ela","N":7.142055,"E":80.745558,"NBRO Recommendation N/A":"-","Proposed Measures":"Remove the rocks and clear the stream to distribute water properly.","photopath":"https://raw.githubusercontent.com/MWS003-GIS/MWS003-GIS.github.io/main/IWWRMP/Data/EXD/200_photo/MWS_011/AP5.jpg"},"geometry":{"type":"Point","coordinates":[80.745558,7.142055]}},
{"type":"Feature","properties":{"No.":2,"GN Division No.":"501 A","GN Division":"Bulugahapitiya","Landslides":"1. Bank collapsing","N":7.125278,"E":80.774236,"NBRO Recommendation N/A":"-","Proposed Measures":"Establishing a retaining wall (20 m x 1.2 m)","photopath":"https://raw.githubusercontent.com/MWS003-GIS/MWS003-GIS.github.io/main/IWWRMP/Data/EXD/200_photo/MWS_011/BP3.jpg"},"geometry":{"type":"Point","coordinates":[80.774236,7.125278]}},
{"type":"Feature","properties":{"No.":3,"GN Division No.":"502 A","GN Division":"Bulugahapitiya","Landslides":"2. Stream overflowing","N":7.125824,"E":80.774102,"NBRO Recommendation N/A":"-","Proposed Measures":"Establishing a retaining wall (400 m x 1.2 m)","photopath":"https://raw.githubusercontent.com/MWS003-GIS/MWS003-GIS.github.io/main/IWWRMP/Data/EXD/200_photo/MWS_011/BP9.jpg"},"geometry":{"type":"Point","coordinates":[80.774102,7.125824]}},
{"type":"Feature","properties":{"No.":6,"GN Division No.":"501E","GN Division":"Enasal Arawa","Landslides":"1. Land erosion due to the stream","N":7.122053,"E":80.767456,"NBRO Recommendation N/A":"Needs NBRO concern","Proposed Measures":"Constructing a rubble masonry wall (8 x 0.6 x 3m)","photopath":"Not_Available"},"geometry":{"type":"Point","coordinates":[80.767456,7.122053]}},
{"type":"Feature","properties":{"No.":7,"GN Division No.":"501E","GN Division":"Enasal Arawa","Landslides":"2. Soil erosion of the lands","N":7.121925,"E":80.767258,"NBRO Recommendation N/A":"Needs NBRO concern","Proposed Measures":"Constructing rubble masonry walls and planting Cardamom in those lands.","photopath":"Not_Available"},"geometry":{"type":"Point","coordinates":[80.767258,7.121925]}},
{"type":"Feature","properties":{"No.":15,"GN Division No.":"498A","GN Division":"Poramadulla","Landslides":"1. Land erosion/soil sloughing","N":7.140653,"E":80.772772,"NBRO Recommendation N/A":"Needs NBRO concern","Proposed Measures":"Constructing a rubble masonry wall (30 m x 0.45 m x 3.6 m)","photopath":"https://raw.githubusercontent.com/MWS003-GIS/MWS003-GIS.github.io/main/IWWRMP/Data/EXD/200_photo/MWS_011/Pr2.jpg"},"geometry":{"type":"Point","coordinates":[80.772772,7.140653]}},
{"type":"Feature","properties":{"No.":16,"GN Division No.":"498A","GN Division":"Poramadulla","Landslides":"2. Land erosion/soil sloughing","N":7.136997,"E":80.771311,"NBRO Recommendation N/A":"-","Proposed Measures":"Constructing a rubble masonry wall (1000 m x 0.15 m x 1.2 m)","photopath":"https://raw.githubusercontent.com/MWS003-GIS/MWS003-GIS.github.io/main/IWWRMP/Data/EXD/200_photo/MWS_011/Pr9.jpg"},"geometry":{"type":"Point","coordinates":[80.771311,7.136997]}},
{"type":"Feature","properties":{"No.":17,"GN Division No.":"498A","GN Division":"Poramadulla","Landslides":"3. Land erosion/soil sloughing","N":7.136917,"E":80.77188,"NBRO Recommendation N/A":"-","Proposed Measures":"Constructing a rubble masonry wall (9 m x 0.3 m x 1.8 m)","photopath":"https://raw.githubusercontent.com/MWS003-GIS/MWS003-GIS.github.io/main/IWWRMP/Data/EXD/200_photo/MWS_011/Pr12.jpg"},"geometry":{"type":"Point","coordinates":[80.77188,7.136917]}},
{"type":"Feature","properties":{"No.":19,"GN Division No.":"497","GN Division":"Unanthenna","Landslides":"1. Road and the lands sliding toward the Kosgaha Kadura","N":7.168845,"E":80.745141,"NBRO Recommendation N/A":"-","Proposed Measures":"Constructing a rubble masonry wall (20 m x 0.75 m x 3.6 m)","photopath":"https://raw.githubusercontent.com/MWS003-GIS/MWS003-GIS.github.io/main/IWWRMP/Data/EXD/200_photo/MWS_011/UT (11)1.jpg"},"geometry":{"type":"Point","coordinates":[80.745141,7.168845]}},
{"type":"Feature","properties":{"No.":20,"GN Division No.":"497","GN Division":"Unanthenna","Landslides":"2. Flooding of paddy fields due to Koskadura overflow - Koskadura","N":7.169383,"E":80.744697,"NBRO Recommendation N/A":"-","Proposed Measures":"Cleaning the torrent by desilting & clearing the boundaries and constructing a side wall/retaining wall (10 m x 0.6 m x 1.2 m)","photopath":"https://raw.githubusercontent.com/MWS003-GIS/MWS003-GIS.github.io/main/IWWRMP/Data/EXD/200_photo/MWS_011/UT (11)2.jpg"},"geometry":{"type":"Point","coordinates":[80.744697,7.169383]}},
{"type":"Feature","properties":{"No.":21,"GN Division No.":"497","GN Division":"Unanthenna","Landslides":"3. Road and the lands sliding toward the houses below - Hewan Arawa temple road","N":7.167961,"E":80.743478,"NBRO Recommendation N/A":"-","Proposed Measures":"Constructing a rubble masonry wall (10 m x 0.6 m x 4.5 m) and practicing soil conservation methods in lands above.","photopath":"https://raw.githubusercontent.com/MWS003-GIS/MWS003-GIS.github.io/main/IWWRMP/Data/EXD/200_photo/MWS_011/UT (11)3.jpg"},"geometry":{"type":"Point","coordinates":[80.743478,7.167961]}}
]}