{"type":"FeatureCollection","name":"SR","crs":{"type":"name","properties":{"name":"urn:ogc:def:crs:OGC:1.3:CRS84"}},"features":[
{"type":"Feature","properties":{"No":1,"GND No.":"502 B","Scheme":"Orukadawela Kadura","N":7.155322,"E":80.757448,"Observation":"Highly bank erosion on both sides.","Description":"A reservation need to be allocated in both sides of the stream and trees need to be planted. (Area- 2.4m, Trees- Areca nut, Kithul) ","Amount (Rs.)":"  775, 400.00 ","photopath":"https://raw.githubusercontent.com/MWS003-GIS/MWS003-GIS.github.io/main/IWWRMP/Data/EXD/200_photo/MWS_011/DG5.jpg"},"geometry":{"type":"Point","coordinates":[80.757448,7.155322]}},
{"type":"Feature","properties":{"No":2,"GND No.":"502","Scheme":"Hunugala Oya","N":7.145768,"E":80.76106,"Observation":"Side walls of Hunugal Oya Anicut was dilapidated and both of banks eroded.","Description":"L shaped side wall need to be constructed (L-  4.5m, W- 0.3m, H- 0.9m)\n?lanting Areca nut trees on banks in both sides.","Amount (Rs.)":"  291, 400.00 ","photopath":"https://raw.githubusercontent.com/MWS003-GIS/MWS003-GIS.github.io/main/IWWRMP/Data/EXD/200_photo/MWS_011/AK1.jpg"},"geometry":{"type":"Point","coordinates":[80.76106,7.145768]}},
{"type":"Feature","properties":{"No":3,"GND No.":"502","Scheme":"Stream starts from Abethota Ulpatha","N":7.1443194,"E":80.756882,"Observation":"Bank erosion on both sides.","Description":"Need to be construct as a leader drain.","Amount (Rs.)":"    94, 000.00 ","photopath":"https://raw.githubusercontent.com/MWS003-GIS/MWS003-GIS.github.io/main/IWWRMP/Data/EXD/200_photo/MWS_011/AK7.jpg"},"geometry":{"type":"Point","coordinates":[80.756882,7.1443194]}},
{"type":"Feature","properties":{"No":4,"GND No.":"502","Scheme":"Yakkawana Kuda Oya (Hunugal Oya)","N":7.146899,"E":80.758641,"Observation":"Bank erosion on both sides.","Description":"A reservation need to be allocated in both sides of the stream and trees need to be planted. (Area- 4.8m, Trees- Areca nut, Kumbuk)  ","Amount (Rs.)":"  188, 000.00 ","photopath":"Not_Available"},"geometry":{"type":"Point","coordinates":[80.758641,7.146899]}},
{"type":"Feature","properties":{"No":5,"GND No.":"501 E","Scheme":"Patti Arawa Oya","N":7.122472,"E":80.768008,"Observation":"Soil erosion.","Description":"A land need to be allocated in both sides of the stream and trees need to be planted. (Area- 3m, Trees- Areca nut)","Amount (Rs.)":"  1, 280, 800.00 ","photopath":"Not_Available"},"geometry":{"type":"Point","coordinates":[80.768008,7.122472]}},
{"type":"Feature","properties":{"No":6,"GND No.":"501 E","Scheme":"Mirith Hena Kadura","N":7.120214,"E":80.769448,"Observation":"Soil erosion.","Description":"Need to be construct  a leader drain.","Amount (Rs.)":"  697, 400.00 ","photopath":"Not_Available"},"geometry":{"type":"Point","coordinates":[80.769448,7.120214]}},
{"type":"Feature","properties":{"No":7,"GND No.":"501 E","Scheme":"Naaya Kadura","N":7.121893,"E":80.766795,"Observation":"Soil erosion.","Description":"Need to be construct a leader drain.","Amount (Rs.)":"  447, 000.00 ","photopath":"Not_Available"},"geometry":{"type":"Point","coordinates":[80.766795,7.121893]}},
{"type":"Feature","properties":{"No":8,"GND No.":"501 E","Scheme":"Kumara Pihilla Kadura (Enasal Arawa)","N":7.11568,"E":80.76968,"Observation":"Soil erosion of lands on both sides.","Description":"Need to be constructed as a leader drain.","Amount (Rs.)":"  541, 000.00 ","photopath":"Not_Available"},"geometry":{"type":"Point","coordinates":[80.76968,7.11568]}},
{"type":"Feature","properties":{"No":9,"GND No.":"501 E","Scheme":"Panwaththa Oya","N":7.124668,"E":80.766847,"Observation":"Soil erosion of lands on both sides.","Description":"Vegetative cover improving (1.5m-2.0m wide) with Areca nut seedlings @ 1.5m spacing in two rows, Beetle creeper VP @ 3m spacing in a single row, Green gram as a cover crop","Amount (Rs.)":"  188, 000.00 ","photopath":"Not_Available"},"geometry":{"type":"Point","coordinates":[80.766847,7.124668]}},
{"type":"Feature","properties":{"No":10,"GND No.":"501 E","Scheme":"Panwaththa Oya Kadura","N":7.125043,"E":80.766855,"Observation":"Soil erosion of lands on both sides.","Description":"Need to be constructed as a leader drain.","Amount (Rs.)":"  400, 000.00 ","photopath":"Not_Available"},"geometry":{"type":"Point","coordinates":[80.766855,7.125043]}},
{"type":"Feature","properties":{"No":12,"GND No.":"501 E","Scheme":"Nelliwala Mala Kadura","N":7.125158,"E":80.768046,"Observation":"Soil erosion of lands on both sides.","Description":"Need to be constructed as a leader drain.","Amount (Rs.)":"  200, 000.00 ","photopath":"Not_Available"},"geometry":{"type":"Point","coordinates":[80.768046,7.125158]}},
{"type":"Feature","properties":{"No":13,"GND No.":"501 E","Scheme":"Karalain Waththa Kadura","N":7.120396,"E":80.771882,"Observation":"Soil erosion of lands on both sides.","Description":"Need to be constructed as a leader drain.","Amount (Rs.)":"  400, 000.00 ","photopath":"Not_Available"},"geometry":{"type":"Point","coordinates":[80.771882,7.120396]}},
{"type":"Feature","properties":{"No":14,"GND No.":"501 E","Scheme":"Enasal Arawa Kadura","N":7.116247,"E":80.769949,"Observation":"Soil erosion of lands on both sides.","Description":"A land need to be allocated in both sides of the stream and trees need to be planted. (Area- 3m, Trees- Areca nut)","Amount (Rs.)":"    94, 000.00 ","photopath":"Not_Available"},"geometry":{"type":"Point","coordinates":[80.769949,7.116247]}},
{"type":"Feature","properties":{"No":15,"GND No.":"502 A","Scheme":"Orukadawela Kadura","N":7.155678,"E":80.757977,"Observation":"Bank erosion on both sides.","Description":"A reservation need to be allocated in both sides of the stream and trees need to be planted. (Area- 2.4m, Trees- Areca nut, Kithul)","Amount (Rs.)":"Stream not clear in the google map. So, the length cannot guess","photopath":"https://raw.githubusercontent.com/MWS003-GIS/MWS003-GIS.github.io/main/IWWRMP/Data/EXD/200_photo/MWS_011/HG3.jpg"},"geometry":{"type":"Point","coordinates":[80.757977,7.155678]}},
{"type":"Feature","properties":{"No":16,"GND No.":"502 A","Scheme":"Daba Kadura","N":7.154552,"E":80.763077,"Observation":"A large water flow, flows on the road during rainy days and it cause to bank erosion in both sides.","Description":"The stream need to be constructed as a leader drain and trees need to be planted in banks. (Trees- Areca nut, Kithul). Boulder /Rubble dams (SABO) across streams to trap sediment-Size 3m(L)x2m(W)x1m(H)","Amount (Rs.)":"1,373,600.00","photopath":"https://raw.githubusercontent.com/MWS003-GIS/MWS003-GIS.github.io/main/IWWRMP/Data/EXD/200_photo/MWS_011/HG7.jpg"},"geometry":{"type":"Point","coordinates":[80.763077,7.154552]}},
{"type":"Feature","properties":{"No":17,"GND No.":"499 B","Scheme":"Pussalla Oya","N":7.12312,"E":80.74514,"Observation":"Bank erosion on both sides.","Description":"A reservation need to be allocated in both sides and trees need to be planted. (Area- 4.8m, Trees- Areca nut). Boulder /Rubble dams (SABO) across streams to trap sediment-Size 3m(L)x2m(W)x1m(H)","Amount (Rs.)":"  761, 600.00 ","photopath":"Not_Available"},"geometry":{"type":"Point","coordinates":[80.74514,7.12312]}},
{"type":"Feature","properties":{"No":18,"GND No.":"499 B","Scheme":"Pussal Oya","N":7.125048,"E":80.749506,"Observation":"Bank erosion on both sides.","Description":"Trees need to be planted in both sides of the allocated reservation area. (Trees- Areca nut, Coconut)","Amount (Rs.)":"  470, 000.00 ","photopath":"https://raw.githubusercontent.com/MWS003-GIS/MWS003-GIS.github.io/main/IWWRMP/Data/EXD/200_photo/MWS_011/KR10.jpg"},"geometry":{"type":"Point","coordinates":[80.749506,7.125048]}},
{"type":"Feature","properties":{"No":19,"GND No.":"499 B","Scheme":"Mala Kadura starting from Baduluwel Kanda","N":7.12862,"E":80.748129,"Observation":"Bank erosion occurs on both sides during rainy days.","Description":"Need to be constructed as a leader drain. Boulder /Rubble dams (SABO) across streams to trap sediment-Size 3m(L)x2m(W)x1m(H)","Amount (Rs.)":"1,143,400.00","photopath":"https://raw.githubusercontent.com/MWS003-GIS/MWS003-GIS.github.io/main/IWWRMP/Data/EXD/200_photo/MWS_011/KR14.jpg"},"geometry":{"type":"Point","coordinates":[80.748129,7.12862]}},
{"type":"Feature","properties":{"No":20,"GND No.":"499 B","Scheme":"Mala Kadura near the Pihili Arawa Ela","N":7.12512,"E":80.746037,"Observation":"Bank erosion occurs on both sides during rainy days.","Description":"Need to be constructed as a leader drain. Boulder /Rubble dams (SABO) across streams to trap sediment-Size 3m(L)x2m(W)x1m(H)","Amount (Rs.)":"1,343,400.00","photopath":"https://raw.githubusercontent.com/MWS003-GIS/MWS003-GIS.github.io/main/IWWRMP/Data/EXD/200_photo/MWS_011/KR16.jpg"},"geometry":{"type":"Point","coordinates":[80.746037,7.12512]}},
{"type":"Feature","properties":{"No":21,"GND No.":"499 B","Scheme":"Dara Oya","N":7.125223,"E":80.745739,"Observation":"Bank erosion occurs on both sides.","Description":"A reservation need to be allocated in both sides of the stream and trees need to be planted. (Area- 4.8m, Trees- Areca nut, Kithul) ","Amount (Rs.)":"Coordinate is identical with the entry No 22","photopath":"https://raw.githubusercontent.com/MWS003-GIS/MWS003-GIS.github.io/main/IWWRMP/Data/EXD/200_photo/MWS_011/KR17.jpg"},"geometry":{"type":"Point","coordinates":[80.745739,7.125223]}},
{"type":"Feature","properties":{"No":22,"GND No.":"501 D","Scheme":"Stream starts from Rahathungoda Ulpatha","N":7.11164,"E":80.771475,"Observation":"Bank erosion on both sides.","Description":"Need to be constructed as a leader drain. Boulder /Rubble dams (SABO) across streams to trap sediment-Size 3m(L)x2m(W)x1m(H)","Amount (Rs.)":"  643, 400.00 ","photopath":"https://raw.githubusercontent.com/MWS003-GIS/MWS003-GIS.github.io/main/IWWRMP/Data/EXD/200_photo/MWS_011/KM4.jpg"},"geometry":{"type":"Point","coordinates":[80.771475,7.11164]}},
{"type":"Feature","properties":{"No":23,"GND No.":"500 D","Scheme":"Ma Oya","N":7.155688,"E":80.743876,"Observation":"High bank erosion on both sides due to the sand mining.","Description":"A place needs to be introduced to sand mining to prevent illegal sand mining. A reservation need to be allocated and trees need to be planted. (Area- 4.8m, Trees- Areca nut, Kumbuk).  Boulder /Rubble dams (SABO) across streams to trap sediment-Size 3m(L)x2m(W)x1m(H)","Amount (Rs.)":"  467, 400.00 ","photopath":"https://raw.githubusercontent.com/MWS003-GIS/MWS003-GIS.github.io/main/IWWRMP/Data/EXD/200_photo/MWS_011/KB2.jpg"},"geometry":{"type":"Point","coordinates":[80.743876,7.155688]}},
{"type":"Feature","properties":{"No":24,"GND No.":"500 D","Scheme":"Mala Kadura ends from Ma Oya","N":7.156581,"E":80.742731,"Observation":"Bank erosion occurs on both sides during rainy days.","Description":"Need to be constructed as a leader drain.","Amount (Rs.)":"  400, 000.00 ","photopath":"https://raw.githubusercontent.com/MWS003-GIS/MWS003-GIS.github.io/main/IWWRMP/Data/EXD/200_photo/MWS_011/KB3.jpg"},"geometry":{"type":"Point","coordinates":[80.742731,7.156581]}},
{"type":"Feature","properties":{"No":25,"GND No.":"500 D","Scheme":"Stream of Gal linda reservation","N":7.15921,"E":80.74733,"Observation":"A large water flows on the road during rainy days.","Description":"It needs to be constructed as a leader drain and planting Areca nuts in lines on the banks.","Amount (Rs.)":"  987, 600.00 ","photopath":"https://raw.githubusercontent.com/MWS003-GIS/MWS003-GIS.github.io/main/IWWRMP/Data/EXD/200_photo/MWS_011/KB12.jpg"},"geometry":{"type":"Point","coordinates":[80.74733,7.15921]}},
{"type":"Feature","properties":{"No":26,"GND No.":"498 F","Scheme":"Mahathenna Ulpatha Kadura","N":7.143296,"E":80.772439,"Observation":"Spring was blocked, and soil erosion occurring in the surrounding lands.","Description":"Need to be constructed as a leader drain.","Amount (Rs.)":"  500, 000.00 ","photopath":"https://raw.githubusercontent.com/MWS003-GIS/MWS003-GIS.github.io/main/IWWRMP/Data/EXD/200_photo/MWS_011/L (02)1.jpg"},"geometry":{"type":"Point","coordinates":[80.772439,7.143296]}},
{"type":"Feature","properties":{"No":27,"GND No.":"498 F","Scheme":"Galwala Hena Kadura","N":7.147137,"E":80.769568,"Observation":"Soil erosion of lands on both sides.","Description":"Need to be constructed as a leader drain.","Amount (Rs.)":"  200, 000.00 ","photopath":"https://raw.githubusercontent.com/MWS003-GIS/MWS003-GIS.github.io/main/IWWRMP/Data/EXD/200_photo/MWS_011/L (02)2.jpg"},"geometry":{"type":"Point","coordinates":[80.769568,7.147137]}},
{"type":"Feature","properties":{"No":28,"GND No.":"498 F","Scheme":"Pitalbedda Kadura","N":7.148296,"E":80.771603,"Observation":"Encroachment of the stream reservation by people.","Description":"A reservation need to be allocated and trees  need to be planted. (Area- 0.6m, Trees- Areca nut, Kithul, Mee)","Amount (Rs.)":"  100, 400.00 ","photopath":"https://raw.githubusercontent.com/MWS003-GIS/MWS003-GIS.github.io/main/IWWRMP/Data/EXD/200_photo/MWS_011/L (02)3.jpg"},"geometry":{"type":"Point","coordinates":[80.771603,7.148296]}},
{"type":"Feature","properties":{"No":29,"GND No.":"498 F","Scheme":"Labuhena Kadura","N":7.144002,"E":80.775654,"Observation":"Soil erosion of lands on both sides.","Description":"Need to be constructed as a leader drain.","Amount (Rs.)":"  247, 000.00 ","photopath":"https://raw.githubusercontent.com/MWS003-GIS/MWS003-GIS.github.io/main/IWWRMP/Data/EXD/200_photo/MWS_011/L (02)4.jpg"},"geometry":{"type":"Point","coordinates":[80.775654,7.144002]}},
{"type":"Feature","properties":{"No":30,"GND No.":"501 C","Scheme":"Mul Oya","N":7.121368,"E":80.752899,"Observation":"Soil erosion.","Description":"A land for a  reservation need to be allocated in both sides of the stream and trees need to be planted. (Area- 3m, Trees- Areca nut, Kithul). In addition, need to be allocate 50 acres around the pipe. ","Amount (Rs.)":"  289, 000.00 ","photopath":"Not_Available"},"geometry":{"type":"Point","coordinates":[80.752899,7.121368]}},
{"type":"Feature","properties":{"No":31,"GND No.":"498 C","Scheme":"Mul Oya","N":7.135331,"E":80.754898,"Observation":"Bank erosion on both sides.","Description":"A reservation need to be allocated and trees need to be planted. (Area- 4.8m, Trees- Areca nut, Kumbuk, bamboo)","Amount (Rs.)":"  582, 000.00 ","photopath":"https://raw.githubusercontent.com/MWS003-GIS/MWS003-GIS.github.io/main/IWWRMP/Data/EXD/200_photo/MWS_011/MK1.jpg"},"geometry":{"type":"Point","coordinates":[80.754898,7.135331]}},
{"type":"Feature","properties":{"No":32,"GND No.":"498 C","Scheme":"Dunnala Kadura (Stream near the Mr. R.M.Premarathna's house)","N":7.136057,"E":80.75887,"Observation":"Bank erosion on both sides.","Description":"Areca nut trees need to be planted on both of the banks.  Boulder /Rubble dams (SABO) across streams to trap sediment-Size 3m(L)x2m(W)x1m(H)","Amount (Rs.)":"  338, 400.00 ","photopath":"https://raw.githubusercontent.com/MWS003-GIS/MWS003-GIS.github.io/main/IWWRMP/Data/EXD/200_photo/MWS_011/MK7.jpg"},"geometry":{"type":"Point","coordinates":[80.75887,7.136057]}},
{"type":"Feature","properties":{"No":33,"GND No.":"498 C","Scheme":"Atupola Oya","N":7.135499,"E":80.761019,"Observation":"Bank erosion on both sides.","Description":"A reservation need to be allocated and trees need to be planted. (Area- 2.4m, Trees- Areca nut)","Amount (Rs.)":"    70, 500.00 ","photopath":"https://raw.githubusercontent.com/MWS003-GIS/MWS003-GIS.github.io/main/IWWRMP/Data/EXD/200_photo/MWS_011/MK8.jpg"},"geometry":{"type":"Point","coordinates":[80.761019,7.135499]}},
{"type":"Feature","properties":{"No":34,"GND No.":"498 C","Scheme":"Katuela Arawa Pihilla","N":7.138387,"E":80.76057,"Observation":"Bank erosion on both sides.","Description":"Need to be constructed as a leader drain.","Amount (Rs.)":"  247, 000.00 ","photopath":"https://raw.githubusercontent.com/MWS003-GIS/MWS003-GIS.github.io/main/IWWRMP/Data/EXD/200_photo/MWS_011/MK10.jpg"},"geometry":{"type":"Point","coordinates":[80.76057,7.138387]}},
{"type":"Feature","properties":{"No":35,"GND No.":"498 C","Scheme":"Dehiaththa Kadura","N":7.136783,"E":80.762213,"Observation":"Bank erosion on both sides.","Description":"Need to be constructed as a leader drain and trees need to be planted. (Trees- Areca nut)","Amount (Rs.)":"  447, 000.00 ","photopath":"https://raw.githubusercontent.com/MWS003-GIS/MWS003-GIS.github.io/main/IWWRMP/Data/EXD/200_photo/MWS_011/MK13.jpg"},"geometry":{"type":"Point","coordinates":[80.762213,7.136783]}},
{"type":"Feature","properties":{"No":36,"GND No.":"498 A","Scheme":"Mala Kadura 1","N":7.14085,"E":80.773224,"Observation":"Bank erosion occurs on both sides during rainy days.","Description":"Need to be constructed as a leader drain and trees need to be planted. (Trees- Areca nut)","Amount (Rs.)":"  200, 000.00 ","photopath":"https://raw.githubusercontent.com/MWS003-GIS/MWS003-GIS.github.io/main/IWWRMP/Data/EXD/200_photo/MWS_011/Pr1.jpg"},"geometry":{"type":"Point","coordinates":[80.773224,7.14085]}},
{"type":"Feature","properties":{"No":37,"GND No.":"498 A","Scheme":"Mala Kadura 2","N":7.140515,"E":80.772261,"Observation":"Bank erosion on both sides.","Description":"Areca nut trees need to be planted on both of the banks.","Amount (Rs.)":"    47, 000.00 ","photopath":"https://raw.githubusercontent.com/MWS003-GIS/MWS003-GIS.github.io/main/IWWRMP/Data/EXD/200_photo/MWS_011/Pr3.jpg"},"geometry":{"type":"Point","coordinates":[80.772261,7.140515]}},
{"type":"Feature","properties":{"No":38,"GND No.":"498 A","Scheme":"Mala Kadura 3","N":7.139866,"E":80.771568,"Observation":"Bank erosion occurs on both sides during rainy days.","Description":"The stream need to be constructed as a leader drain.","Amount (Rs.)":"  200, 000.00 ","photopath":"https://raw.githubusercontent.com/MWS003-GIS/MWS003-GIS.github.io/main/IWWRMP/Data/EXD/200_photo/MWS_011/Pr6.jpg"},"geometry":{"type":"Point","coordinates":[80.771568,7.139866]}},
{"type":"Feature","properties":{"No":39,"GND No.":"498 A","Scheme":"Mala Kadura 4 (near the community hall)","N":7.140211,"E":80.770983,"Observation":"High bank erosion on both sides.","Description":"Areca nut trees need to be planted on both of the banks. And the stream need to be constructed as a leader drain.","Amount (Rs.)":"  394, 000.00 ","photopath":"https://raw.githubusercontent.com/MWS003-GIS/MWS003-GIS.github.io/main/IWWRMP/Data/EXD/200_photo/MWS_011/Pr7.jpg"},"geometry":{"type":"Point","coordinates":[80.770983,7.140211]}},
{"type":"Feature","properties":{"No":40,"GND No.":"498 A","Scheme":"Stream near the playground","N":7.141737,"E":80.76745,"Observation":"Bank erosion on both sides.","Description":"Areca nut trees need to be planted on both of the banks.","Amount (Rs.)":"  237, 400.00 ","photopath":"https://raw.githubusercontent.com/MWS003-GIS/MWS003-GIS.github.io/main/IWWRMP/Data/EXD/200_photo/MWS_011/PR16.jpg"},"geometry":{"type":"Point","coordinates":[80.76745,7.141737]}},
{"type":"Feature","properties":{"No":41,"GND No.":"498 E","Scheme":"Hirala Kadura","N":7.134767,"E":80.755293,"Observation":"Soil erosion.","Description":"A reservation need to be allocated and trees need to be planted. (Area- 4.8m, Trees- Areca nut, Kithul)","Amount (Rs.)":"  161, 400.00 ","photopath":"https://raw.githubusercontent.com/MWS003-GIS/MWS003-GIS.github.io/main/IWWRMP/Data/EXD/200_photo/MWS_011/P (02)1.jpg"},"geometry":{"type":"Point","coordinates":[80.755293,7.134767]}},
{"type":"Feature","properties":{"No":42,"GND No.":"498 E","Scheme":"Hiran Ella","N":7.13445,"E":80.754956,"Observation":"Soil erosion.","Description":"A reservation need to be allocated and trees need to be planted. (Area- 7.2m, Trees- Areca nut, Kithul).  Boulder /Rubble dams (SABO) across streams to trap sediment-Size 3m(L)x2m(W)x1m(H)","Amount (Rs.)":"  305, 000.00 ","photopath":"https://raw.githubusercontent.com/MWS003-GIS/MWS003-GIS.github.io/main/IWWRMP/Data/EXD/200_photo/MWS_011/P (04)1.jpg"},"geometry":{"type":"Point","coordinates":[80.754956,7.13445]}},
{"type":"Feature","properties":{"No":43,"GND No.":"497","Scheme":"Koskadura","N":7.168996,"E":80.745476,"Observation":"Soil erosion of lands on both sides.","Description":"A reservation need to be allocated in both sides and Areca nut trees need to be planted at Z shape. (Area- 3m)","Amount (Rs.)":"  578, 000.00 ","photopath":"https://raw.githubusercontent.com/MWS003-GIS/MWS003-GIS.github.io/main/IWWRMP/Data/EXD/200_photo/MWS_011/UT (02)1.jpg"},"geometry":{"type":"Point","coordinates":[80.745476,7.168996]}},
{"type":"Feature","properties":{"No":44,"GND No.":"497","Scheme":"Hewan Arawa Kadura","N":7.167031,"E":80.743544,"Observation":"Soil erosion of lands on both sides.","Description":"Reservations need to be allocated in both sides and trees need to be planted. (Area- 4.8m, Trees- Areca nut, Coconut, Kithul)","Amount (Rs.)":"  188, 000.00 ","photopath":"https://raw.githubusercontent.com/MWS003-GIS/MWS003-GIS.github.io/main/IWWRMP/Data/EXD/200_photo/MWS_011/UT (02)2.jpg"},"geometry":{"type":"Point","coordinates":[80.743544,7.167031]}},
{"type":"Feature","properties":{"No":45,"GND No.":"497","Scheme":"Pansala Handiya Kadura","N":7.16588,"E":80.747347,"Observation":"The water from the stream is adding to the canal, causing it to overflow and damage the houses.","Description":"Construction of leader drain across streams -Size 100 m(L)x1m(W)x1m(H) Construction of 0.30m Dia Drainage under crossing to prevent water flow in to canal","Amount (Rs.)":"  886, 000.00 ","photopath":"https://raw.githubusercontent.com/MWS003-GIS/MWS003-GIS.github.io/main/IWWRMP/Data/EXD/200_photo/MWS_011/UT (02)3.jpg"},"geometry":{"type":"Point","coordinates":[80.747347,7.16588]}},
{"type":"Feature","properties":{"No":46,"GND No.":"498","Scheme":"Construct the Poodagoda new stream","N":7.12929,"E":80.761638,"Observation":"Water flows across the cropland and cause to harvest losses/ damages.","Description":"Construction of leader drain across streams -Size 100 m(L)x1m(W)x1m(H). Replanting (5m x 10m) bamboo species and vetiver grass or riparian species","Amount (Rs.)":"  535, 000.00 ","photopath":"https://raw.githubusercontent.com/MWS003-GIS/MWS003-GIS.github.io/main/IWWRMP/Data/EXD/200_photo/MWS_011/W (04)4.jpg"},"geometry":{"type":"Point","coordinates":[80.761638,7.12929]}},
{"type":"Feature","properties":{"No":47,"GND No.":"498","Scheme":"Gallegoda Kadura","N":7.130464,"E":80.766183,"Observation":"Land degradation.","Description":"A reservation need to be allocated in both sides of the stream and trees need to be planted. (Area- 4.8m, Trees- Areca nut, Kithul, other trees) ","Amount (Rs.)":"  121, 000.00 ","photopath":"https://raw.githubusercontent.com/MWS003-GIS/MWS003-GIS.github.io/main/IWWRMP/Data/EXD/200_photo/MWS_011/W (02)3.jpg"},"geometry":{"type":"Point","coordinates":[80.766183,7.130464]}},
{"type":"Feature","properties":{"No":48,"GND No.":"498","Scheme":"Wegama Oya","N":7.129112,"E":80.76437,"Observation":"Soil erosion of lands on both sides.","Description":"A reservation need to be allocated in both sides of the 'Oya' and trees need to be planted. (Area- 7.2m, Trees- Areca nut, Kithul, Bamboo, Mee). Vegetative cover improving (1.5m-2.0m wide) with Areca nut seedlings @ 1.5m spacing in two rows, Beetle creeper VP @ 3m spacing in a single row, Green gram as a cover crop.","Amount (Rs.)":"    94, 000.00 ","photopath":"https://raw.githubusercontent.com/MWS003-GIS/MWS003-GIS.github.io/main/IWWRMP/Data/EXD/200_photo/MWS_011/W (02)1.jpg"},"geometry":{"type":"Point","coordinates":[80.76437,7.129112]}}
]}