{"type":"FeatureCollection","name":"WP","crs":{"type":"name","properties":{"name":"urn:ogc:def:crs:OGC:1.3:CRS84"}},"features":[
{"type":"Feature","properties":{"No.":6,"GND No.":"502A","GN Division":"Hapugasdeniya","Non-point sources of pollution":"Addition of non-decomposable but recyclable wastes (E.g.: soap/shampoo containers) Near Orukandawela Well","N":7.155231,"E":80.757645,"Point sources of pollution":"-","Add. N ":"-","Add. E ":"-","Recommended water quality improvement measures":"Providing trash bins to collect categorized wastes.\nAwareness program on how to dispose these waste containers properly and potential methods for recycling the containers","Unit Cost (Rs.)":"-","Total Cost (Rs.)":"   50, 000.00 ","Contributions (Local Community, LA, Project)":"Local/Central governments ","Time frame for the implementation":"0.5 Years","photopath":"https://raw.githubusercontent.com/MWS003-GIS/MWS003-GIS.github.io/main/IWWRMP/Data/EXD/200_photo/MWS_011/HG6.jpg"},"geometry":{"type":"Point","coordinates":[80.757645,7.155231]}},
{"type":"Feature","properties":{"No.":13,"GND No.":"498A","GN Division":"Poramadulla","Non-point sources of pollution":"Improper disposal of household waste into a torrent","N":7.14346,"E":80.765334,"Point sources of pollution":"Preparing a separate place in home gardens for disposing household waste\nAwareness program on how to disposal household waste properly and converting them to usable products such as compost\nFacilitating garbage collection","Add. N ":"-","Add. E ":"   50, 000.00 ","Recommended water quality improvement measures":"Local/Central governments ","Unit Cost (Rs.)":"0.5 Years","Total Cost (Rs.)":"-","Contributions (Local Community, LA, Project)":null,"Time frame for the implementation":null,"photopath":"Not_Available"},"geometry":{"type":"Point","coordinates":[80.765334,7.14346]}}
]}