{"type":"FeatureCollection","name":"MI","crs":{"type":"name","properties":{"name":"urn:ogc:def:crs:OGC:1.3:CRS84"}},"features":[
{"type":"Feature","properties":{"No":92,"GND No.":"75 C","Scheme":"Udurawa Ela Anicut","N":6.993409,"E":81.015557,"Observation":"The 15.0m long concrete wall built for the anicut has fallen into disrepair and should be demolished and rebuilt. Demolish and rebuild damaged areas of the existing concrete canal. Command area about 15.0 acres","Description":"Re construction of Anicut\n\nDemolishing the existing concrete structure, removing debris and clearing the site before construction\n\nConstruction of 1.5 m high Weir across stream / river excluding abutments and stop planks\n\nConstruction of 1.8m high 1:3:6","Amount (Rs.)":4097500,"photopath":"https://raw.githubusercontent.com/MWS003-GIS/MWS003-GIS.github.io/main/IWWRMP/Data/EXD/200_photo/MWS_071_1/Udaramulla Anicut.jpg"},"geometry":{"type":"Point","coordinates":[81.015557,6.993409]}},
{"type":"Feature","properties":{"No":89,"GND No.":"76","Scheme":"Mahakumbura Canal","N":7.003222,"E":80.998385,"Observation":"A canal that supplies water to the paddy fields belonging to both Bogoda and Landewala divisions. The section belonging to the Landewala division is currently under construction. Command area about 65.0 acres","Description":"Canals reservation protection by concrete lining  For  125mm thick , 0.5m  wide  and 0.4m high canal -double banking\n\nStream / canal  reservation protection by earth filling of  strip   of 1.5m to 2.0 m wide  and average Depth of 0.5m\n\nVegetative cover","Amount (Rs.)":3338500,"photopath":"https://raw.githubusercontent.com/MWS003-GIS/MWS003-GIS.github.io/main/IWWRMP/Data/EXD/200_photo/MWS_071_1/Mahakumbura Canal 1.jpg"},"geometry":{"type":"Point","coordinates":[80.998385,7.003222]}},
{"type":"Feature","properties":{"No":90,"GND No.":"76","Scheme":"Karanda Canal","N":7.003102,"E":80.998845,"Observation":"Part of the canal has been concreted in places. Command area about 8.0 acres","Description":"Canal reservation protection by concrete lining  For  100 mm thick , 300 mm  wide  and 300 mm high canal -double banking\n\nStream / canal  reservation protection by earth filling of  strip   of 1.5m to 2.0 m wide  and average Depth of 0.5m\n\nVegetative co","Amount (Rs.)":841500,"photopath":"https://raw.githubusercontent.com/MWS003-GIS/MWS003-GIS.github.io/main/IWWRMP/Data/EXD/200_photo/MWS_071_1/Karandaela Canal.jpg"},"geometry":{"type":"Point","coordinates":[80.998845,7.003102]}},
{"type":"Feature","properties":{"No":91,"GND No.":"76","Scheme":"Halaba Canal","N":7.000321,"E":80.982199,"Observation":"Part of the canal has been concreted in places. Command area about 22.0 acres","Description":"\nCanal reservation protection by concrete lining  For  100 mm thick , 300 mm  wide  and 300 mm high canal -double banking\n\nStream / canal  reservation protection by earth filling of  strip   of 1.5m to 2.0 m wide  and average Depth of 0.5m\n\nVegetative co","Amount (Rs.)":1540000,"photopath":"https://raw.githubusercontent.com/MWS003-GIS/MWS003-GIS.github.io/main/IWWRMP/Data/EXD/200_photo/MWS_071_1/Halaba Canal 1.jpg"},"geometry":{"type":"Point","coordinates":[80.982199,7.000321]}},
{"type":"Feature","properties":{"No":82,"GND No.":"77","Scheme":"Gallalla Kumbura Canal","N":7.012205,"E":81.012288,"Observation":"A canal made of earth,  Command area about 5.0 acres","Description":"\nCanal reservation protection by concrete lining  For  100 mm thick , 300 mm  wide  and 300 mm high canal -double banking\n\nStream / canal  reservation protection by earth filling of  strip   of 1.5m to 2.0 m wide  and average Depth of 0.5m\n\nVegetative co","Amount (Rs.)":841500,"photopath":"https://raw.githubusercontent.com/MWS003-GIS/MWS003-GIS.github.io/main/IWWRMP/Data/EXD/200_photo/MWS_071_1/Gallalla Kumbura Canal.jpg"},"geometry":{"type":"Point","coordinates":[81.012288,7.012205]}},
{"type":"Feature","properties":{"No":83,"GND No.":"77","Scheme":"Iluka Canal","N":7.013602,"E":81.013092,"Observation":"Some places in the canal have been concreted. Command area about 20.0 acres","Description":"\nCanal reservation protection by concrete lining  For  100 mm thick , 300 mm  wide  and 300 mm high canal -double banking\n\nStream / canal  reservation protection by earth filling of  strip   of 1.5m to 2.0 m wide  and average Depth of 0.5m\n\nVegetative co","Amount (Rs.)":1606000,"photopath":"https://raw.githubusercontent.com/MWS003-GIS/MWS003-GIS.github.io/main/IWWRMP/Data/EXD/200_photo/MWS_071_1/Iluka Canal.jpg"},"geometry":{"type":"Point","coordinates":[81.013092,7.013602]}},
{"type":"Feature","properties":{"No":84,"GND No.":"77","Scheme":"Kirimatiya Galpoththa Canal","N":7.011768,"E":81.006174,"Observation":"A canal made of earth,  Command area about 5.0 acres","Description":"\nCanal reservation protection by concrete lining  For  100 mm thick , 300 mm  wide  and 300 mm high canal -double banking\n\nStream / canal  reservation protection by earth filling of  strip   of 1.5m to 2.0 m wide  and average Depth of 0.5m\n\nVegetative co","Amount (Rs.)":770000,"photopath":"https://raw.githubusercontent.com/MWS003-GIS/MWS003-GIS.github.io/main/IWWRMP/Data/EXD/200_photo/MWS_071_1/Galpotthe Canal.jpg"},"geometry":{"type":"Point","coordinates":[81.006174,7.011768]}},
{"type":"Feature","properties":{"No":85,"GND No.":"77","Scheme":"Hawane Canal","N":7.014001,"E":81.002946,"Observation":"Some places in the canal have been concreted. Command area about 15.0 acres","Description":"\nCanal reservation protection by concrete lining  For  100 mm thick , 300 mm  wide  and 300 mm high canal -double banking\n\nMiscellaneous\n\nContingencies 10%","Amount (Rs.)":704000,"photopath":"https://raw.githubusercontent.com/MWS003-GIS/MWS003-GIS.github.io/main/IWWRMP/Data/EXD/200_photo/MWS_071_1/Havane Canal.jpg"},"geometry":{"type":"Point","coordinates":[81.002946,7.014001]}},
{"type":"Feature","properties":{"No":86,"GND No.":"77 A","Scheme":"Udenigama Canal","N":7.014067,"E":80.984204,"Observation":"A canal made of earth, about one kilometre long. Command area about 22.0 acres","Description":"\nCanal reservation protection by concrete lining  For  100 mm thick , 300 mm  wide  and 300 mm high canal -double banking\n\nStream / canal  reservation protection by earth filling of  strip   of 1.5m to 2.0 m wide  and average Depth of 0.5m\n\nVegetative co","Amount (Rs.)":2376000,"photopath":"https://raw.githubusercontent.com/MWS003-GIS/MWS003-GIS.github.io/main/IWWRMP/Data/EXD/200_photo/MWS_071_1/Udenigama Canal.jpg"},"geometry":{"type":"Point","coordinates":[80.984204,7.014067]}},
{"type":"Feature","properties":{"No":87,"GND No.":"77 A","Scheme":"Hadiyakumbura Canal","N":7.022872,"E":80.995357,"Observation":"Some places in the canal have been concreted. Command area about 6.0 acres","Description":"\nCanal reservation protection by concrete lining  For  100 mm thick , 300 mm  wide  and 300 mm high canal -double banking\n\nStream / canal  reservation protection by earth filling of  strip   of 1.5m to 2.0 m wide  and average Depth of 0.5m\n\nVegetative co","Amount (Rs.)":841500,"photopath":"https://raw.githubusercontent.com/MWS003-GIS/MWS003-GIS.github.io/main/IWWRMP/Data/EXD/200_photo/MWS_071_1/Hadiyakumbura Canal 1.jpg"},"geometry":{"type":"Point","coordinates":[80.995357,7.022872]}},
{"type":"Feature","properties":{"No":88,"GND No.":"77 A","Scheme":"Kahatadanda Canal","N":7.021139,"E":80.993676,"Observation":"A canal made of earth, about one kilometre long. Command area about 12.0 acres","Description":"\nCanal reservation protection by concrete lining  For  100 mm thick , 300 mm  wide  and 300 mm high canal -double banking\n\nStream / canal  reservation protection by earth filling of  strip   of 1.5m to 2.0 m wide  and average Depth of 0.5m\n\nVegetative co","Amount (Rs.)":1606000,"photopath":"https://raw.githubusercontent.com/MWS003-GIS/MWS003-GIS.github.io/main/IWWRMP/Data/EXD/200_photo/MWS_071_1/Kahatadanda Canal.jpg"},"geometry":{"type":"Point","coordinates":[80.993676,7.021139]}},
{"type":"Feature","properties":{"No":93,"GND No.":"77 B","Scheme":"Uplatha Kumbura stream and anicut","N":7.007954,"E":81.010428,"Observation":"The anicut is built of concrete and its walls are leaking water in places. The height of the wall that has been built is not sufficient. The canal is built of earth. Command area about 10.0 acres","Description":"Raising of 11.0m long concrete wall (0.60m x 0.60m)\n\nScarifying existing rock or concrete surface\n\nSupplying and fixing M.S. dowels spliced and dovetailed with wedge at one end 16mm dia. And 600mm long, boring holes to 0.3m depth in fixing\n\nPlywood form","Amount (Rs.)":841500,"photopath":"https://raw.githubusercontent.com/MWS003-GIS/MWS003-GIS.github.io/main/IWWRMP/Data/EXD/200_photo/MWS_071_1/Ulpothakumbura Anicut.jpg"},"geometry":{"type":"Point","coordinates":[81.010428,7.007954]}},
{"type":"Feature","properties":{"No":94,"GND No.":"77 B","Scheme":"Anguruwalapitiya Canal","N":7.010801,"E":81.013319,"Observation":"The canal is built of earth. Command area about 10.0 acres","Description":"\nCanal reservation protection by concrete lining  For  100 mm thick , 300 mm  wide  and 300 mm high canal -double banking\n\nStream / canal  reservation protection by earth filling of  strip   of 1.5m to 2.0 m wide  and average Depth of 0.5m\n\nVegetative co","Amount (Rs.)":841500,"photopath":"https://raw.githubusercontent.com/MWS003-GIS/MWS003-GIS.github.io/main/IWWRMP/Data/EXD/200_photo/MWS_071_1/Angurawalapitiya Canal.jpg"},"geometry":{"type":"Point","coordinates":[81.013319,7.010801]}},
{"type":"Feature","properties":{"No":95,"GND No.":"77 B","Scheme":"Matiwala Ela and anicut","N":7.003964,"E":81.010552,"Observation":"The canal is made of concrete. The some places of existing concrete canal is in dilapidated condition. Command area about 7.0 acres","Description":"\nCanal reservation protection by concrete lining  For  100 mm thick , 300 mm  wide  and 300 mm high canal -double banking\n\nStream / canal  reservation protection by earth filling of  strip   of 1.5m to 2.0 m wide  and average Depth of 0.5m\n\nVegetative co","Amount (Rs.)":841500,"photopath":"https://raw.githubusercontent.com/MWS003-GIS/MWS003-GIS.github.io/main/IWWRMP/Data/EXD/200_photo/MWS_071_1/Matiwala Canal.jpg"},"geometry":{"type":"Point","coordinates":[81.010552,7.003964]}},
{"type":"Feature","properties":{"No":96,"GND No.":"77 B","Scheme":"Pallewela Ela","N":7.0007749,"E":81.0077603,"Observation":"Most of the canal is built of concrete. A section of about thirty meters of the canal has been blocked during road construction. Command area about 7.0 acres","Description":"\nCanal reservation protection by concrete lining  For  100 mm thick , 300 mm  wide  and 300 mm high canal -double banking\n\nMiscellaneous\n\nContingencies 10%","Amount (Rs.)":704000,"photopath":"https://raw.githubusercontent.com/MWS003-GIS/MWS003-GIS.github.io/main/IWWRMP/Data/EXD/200_photo/MWS_071_1/Pitawala Canal.jpg"},"geometry":{"type":"Point","coordinates":[81.0077603,7.0007749]}}
]}