{"type":"FeatureCollection","name":"SWC_ON","crs":{"type":"name","properties":{"name":"urn:ogc:def:crs:OGC:1.3:CRS84"}},"features":[
{"type":"Feature","properties":{"No.":4,"GND No.":"77 A","GND Name":"Kokatiyamaluwa","Key Activities proposed for Soil and Water conservation":"1. Soil conservation practices -  Watabedda Yaya (45°-60°)","Priority based on Soil Erosion Hazard":2,"N":7.015294,"E":80.980938,"Quantity":"8 ha","Proposed measure/s":"1. Live fencing/SALT  - 5000 m/ 2. Lock and spills - 500 m/ 3. Stone terracing - 500 m/ 4. Agronomic practices should be adapted at optimum level (conservation tillage, crop rotation and diversification, cover crops, mulching, contour farming, windbreaks","Uniti_Cost":"250.00 m-1/400.00 m-1/ 2500.00 m-1","Total_Cost":4550000,"Contribution (Local Community, LA, and the project)":"Labour and other basic services by the Local community","Time frame for the implementation":"0.25 Years","photopath":"https://raw.githubusercontent.com/MWS003-GIS/MWS003-GIS.github.io/main/IWWRMP/Data/EXD/200_photo/MWS_071_1/Tea Land 1.jpg"},"geometry":{"type":"Point","coordinates":[80.980938,7.015294]}}
]}