{"type":"FeatureCollection","name":"Landslides","crs":{"type":"name","properties":{"name":"urn:ogc:def:crs:OGC:1.3:CRS84"}},"features":[
{"type":"Feature","properties":{"No.":2,"GN Division No.":672,"GN Division":"Udagama North","Landslides":"1. Downslope movement of mountain in the rain - Angirigala galedanda area","N":7.330399,"E":80.702144,"NBRO Recommendation N/A":"NBRO is aware","Proposed Measures":"Follow NBRO recommendations","photopath":"https://raw.githubusercontent.com/MWS003-GIS/MWS003-GIS.github.io/main/IWWRMP/Data/EXD/200_photo/MWS_103_1/Galmulla Landslide 1.jpg"},"geometry":{"type":"Point","coordinates":[80.702144,7.330399]}},
{"type":"Feature","properties":{"No.":3,"GN Division No.":672,"GN Division":"Udagama North","Landslides":"2. Downslope movement of mountain in the rain - Galmulla","N":7.328386,"E":80.708069,"NBRO Recommendation N/A":"NBRO is aware","Proposed Measures":"Follow NBRO recommendations","photopath":"https://raw.githubusercontent.com/MWS003-GIS/MWS003-GIS.github.io/main/IWWRMP/Data/EXD/200_photo/MWS_103_1/Galmulla Landslide 2.jpg"},"geometry":{"type":"Point","coordinates":[80.708069,7.328386]}},
{"type":"Feature","properties":{"No.":4,"GN Division No.":672,"GN Division":"Udagama North","Landslides":"3. Downslope movement of mountain in the rain - Udagama gama","N":7.330228,"E":80.70586,"NBRO Recommendation N/A":"NBRO is aware","Proposed Measures":"Follow NBRO recommendations","photopath":"https://raw.githubusercontent.com/MWS003-GIS/MWS003-GIS.github.io/main/IWWRMP/Data/EXD/200_photo/MWS_103_1/Galmulla Landslide 3.jpg"},"geometry":{"type":"Point","coordinates":[80.70586,7.330228]}},
{"type":"Feature","properties":{"No.":5,"GN Division No.":673,"GN Division":"Udagama south","Landslides":"1. Located in a  limestone land, Houses are cracked - Aluthgammedda","N":7.324622,"E":80.713144,"NBRO Recommendation N/A":"Needs NBRO concern","Proposed Measures":"Giving allotment of other suitable lands as advised by NBRO. The construction of stone terraces, SALT systems and live fence is suitable for the soil conservation; necessary stone are available on the land,","photopath":"https://raw.githubusercontent.com/MWS003-GIS/MWS003-GIS.github.io/main/IWWRMP/Data/EXD/200_photo/MWS_103_1/Aluth Gammadda Landslide 1.jpg"},"geometry":{"type":"Point","coordinates":[80.713144,7.324622]}},
{"type":"Feature","properties":{"No.":6,"GN Division No.":673,"GN Division":"Udagama south","Landslides":"2. Vulnerable for landsliding due to steep slope - Ihalagothagama","N":7.326178,"E":80.709918,"NBRO Recommendation N/A":"Needs NBRO concern","Proposed Measures":"Giving allotment of other suitable lands as advised by NBRO. The construction of stone terraces, SALT systems and live fence is suitable for the soil conservation, Necessary stone are available on the land,","photopath":"https://raw.githubusercontent.com/MWS003-GIS/MWS003-GIS.github.io/main/IWWRMP/Data/EXD/200_photo/MWS_103_1/Ihala Gonagama Landslide 2.jpg"},"geometry":{"type":"Point","coordinates":[80.709918,7.326178]}},
{"type":"Feature","properties":{"No.":7,"GN Division No.":675,"GN Division":"Marathanna west","Landslides":"1. Landslides and subsidence - Gal edanda gama","N":7.330131,"E":80.700687,"NBRO Recommendation N/A":"NBRO is aware","Proposed Measures":"Giving allotment of other suitable lands as advised by NBRO. The construction of stone terraces, SALT systems and live fence is suitable for the soil conservation. Necessary stone are available on the land,","photopath":"https://raw.githubusercontent.com/MWS003-GIS/MWS003-GIS.github.io/main/IWWRMP/Data/EXD/200_photo/MWS_103_1/Galedanda Land.jpg"},"geometry":{"type":"Point","coordinates":[80.700687,7.330131]}},
{"type":"Feature","properties":{"No.":8,"GN Division No.":676,"GN Division":"Ihala Gonagama","Landslides":"1. Landslide - Wellankanda Galmulla","N":7.330166,"E":80.708823,"NBRO Recommendation N/A":"NBRO is aware","Proposed Measures":"Giving allotment of other suitable lands as advised by NBRO. The construction of stone terraces, SALT systems and live fence is suitable for the soil conservation. Necessary stone are available on the land,","photopath":"https://raw.githubusercontent.com/MWS003-GIS/MWS003-GIS.github.io/main/IWWRMP/Data/EXD/200_photo/MWS_103_1/Landslide 1.jpg"},"geometry":{"type":"Point","coordinates":[80.708823,7.330166]}},
{"type":"Feature","properties":{"No.":14,"GN Division No.":682,"GN Division":"Dodamgolla","Landslides":"1. Landslide - Pahala Dambarawa","N":7.296221,"E":80.69867,"NBRO Recommendation N/A":"Needs NBRO concern","Proposed Measures":"Giving allotment of other suitable lands as advised by NBRO. The construction of stone terraces, SALT systems and live fence is suitable for the soil conservation. Necessary stone are available on the land.","photopath":"https://raw.githubusercontent.com/MWS003-GIS/MWS003-GIS.github.io/main/IWWRMP/Data/EXD/200_photo/MWS_103_1/Landslide.jpg"},"geometry":{"type":"Point","coordinates":[80.69867,7.296221]}},
{"type":"Feature","properties":{"No.":16,"GN Division No.":706,"GN Division":"Dambarawa","Landslides":"1. Landslide - Dambarawagama","N":7.298436,"E":80.694491,"NBRO Recommendation N/A":"NBRO is aware","Proposed Measures":"Giving allotment of other suitable lands as advised by NBRO. The construction of stone terraces, SALT systems and live fence is suitable for the soil conservation. Necessary stone are available on the land.","photopath":"https://raw.githubusercontent.com/MWS003-GIS/MWS003-GIS.github.io/main/IWWRMP/Data/EXD/200_photo/MWS_103_1/Landslide Dambarawa.jpg"},"geometry":{"type":"Point","coordinates":[80.694491,7.298436]}},
{"type":"Feature","properties":{"No.":18,"GN Division No.":708,"GN Division":"Delgaslanda","Landslides":"1. Landslide - No. 18/1, Land of Susantha Arunashantha","N":7.328307,"E":80.717053,"NBRO Recommendation N/A":"Needs NBRO concern","Proposed Measures":"Giving allotment of other suitable lands as advised by NBRO. The construction of stone terraces, SALT systems and live fence is suitable for the soil conservation. Necessary stone are available on the land.","photopath":"https://raw.githubusercontent.com/MWS003-GIS/MWS003-GIS.github.io/main/IWWRMP/Data/EXD/200_photo/MWS_103_1/Landslide Land 1.jpg"},"geometry":{"type":"Point","coordinates":[80.717053,7.328307]}},
{"type":"Feature","properties":{"No.":19,"GN Division No.":708,"GN Division":"Delgaslanda","Landslides":"2. Landslide - No. 18/3, Land of Suresh Niranjan land","N":7.328307,"E":80.717053,"NBRO Recommendation N/A":"Needs NBRO concern","Proposed Measures":"Giving allotment of other suitable lands as advised by NBRO. The construction of stone terraces, SALT systems and live fence is suitable for the soil conservation. Necessary stone are available on the land.","photopath":"https://raw.githubusercontent.com/MWS003-GIS/MWS003-GIS.github.io/main/IWWRMP/Data/EXD/200_photo/MWS_103_1/Landslide Land 2.jpg"},"geometry":{"type":"Point","coordinates":[80.717053,7.328307]}}
]}