{"type":"FeatureCollection","name":"SWC_ON","crs":{"type":"name","properties":{"name":"urn:ogc:def:crs:OGC:1.3:CRS84"}},"features":[
{"type":"Feature","properties":{"No.":2,"GND No.":672,"GND Name":"Udagama North","Key Activities proposed for Soil and Water conservation":"1. Soil conservation practices  (40?- 50?)","Priority based on Soil Erosion Hazard":3,"N":7.330607,"E":80.702728,"Quantity":"30 ha","Proposed measure/s":"Live fencing/SALT and/or stone terracing/lock and spills, as applied","Uniti_Cost":"250.00 m-1","Total_Cost":"7,500,000.00","Contribution (Local Community, LA, and the project)":"Labour and other basic services by the Local community","Time frame for the implementation":"1.5 Years","photopath":"Not_Available"},"geometry":{"type":"Point","coordinates":[80.702728,7.330607]}},
{"type":"Feature","properties":{"No.":3,"GND No.":673,"GND Name":"Udagama south","Key Activities proposed for Soil and Water conservation":"1. Soil conservation practices  (40?- 50?)","Priority based on Soil Erosion Hazard":1,"N":7.324777,"E":80.704698,"Quantity":"25 ha","Proposed measure/s":"Live fencing/SALT and/or stone terracing/lock and spills, as applied","Uniti_Cost":"250.00 m-1","Total_Cost":"6,250,000.00","Contribution (Local Community, LA, and the project)":"Labour and other basic services by the Local community","Time frame for the implementation":"1.5 Years","photopath":"https://raw.githubusercontent.com/MWS003-GIS/MWS003-GIS.github.io/main/IWWRMP/Data/EXD/200_photo/MWS_103_1/Pepper Cultivated Land 2.jpg"},"geometry":{"type":"Point","coordinates":[80.704698,7.324777]}},
{"type":"Feature","properties":{"No.":4,"GND No.":675,"GND Name":"Marathanna west","Key Activities proposed for Soil and Water conservation":"1. Soil conservation practices - Ihalamullagama (40?- 50?)","Priority based on Soil Erosion Hazard":4,"N":7.327504,"E":80.696675,"Quantity":"4 ha","Proposed measure/s":"Live fencing/SALT and/or stone terracing/lock and spills, as applied","Uniti_Cost":"400.00 m-1","Total_Cost":"1,000,000.00","Contribution (Local Community, LA, and the project)":"Labour and other basic services by the Local community","Time frame for the implementation":"0.25 Years","photopath":"https://raw.githubusercontent.com/MWS003-GIS/MWS003-GIS.github.io/main/IWWRMP/Data/EXD/200_photo/MWS_103_1/Ihalamulla Land.jpg"},"geometry":{"type":"Point","coordinates":[80.696675,7.327504]}},
{"type":"Feature","properties":{"No.":5,"GND No.":675,"GND Name":"Marathanna west","Key Activities proposed for Soil and Water conservation":"2. Soil conservation practices - Medagammedda Gama (50?- 60?)","Priority based on Soil Erosion Hazard":3,"N":7.329564,"E":80.699497,"Quantity":"2.5 ha","Proposed measure/s":"Live fencing/SALT and/or stone terracing/lock and spills, as applied","Uniti_Cost":"250.00 m-1","Total_Cost":"625,000.00","Contribution (Local Community, LA, and the project)":"Labour and other basic services by the Local community","Time frame for the implementation":"0.25 Years","photopath":"https://raw.githubusercontent.com/MWS003-GIS/MWS003-GIS.github.io/main/IWWRMP/Data/EXD/200_photo/MWS_103_1/Mada Gammadda Land.jpg"},"geometry":{"type":"Point","coordinates":[80.699497,7.329564]}},
{"type":"Feature","properties":{"No.":6,"GND No.":675,"GND Name":"Marathanna west","Key Activities proposed for Soil and Water conservation":"3. Soil conservation practices - Gal Edanda (50?- 60?)","Priority based on Soil Erosion Hazard":4,"N":7.329517,"E":80.699437,"Quantity":"9 ha","Proposed measure/s":"Live fencing/SALT and/or stone terracing/lock and spills, as applied","Uniti_Cost":"250.00 m-1","Total_Cost":"2,250,000.00","Contribution (Local Community, LA, and the project)":"Labour and other basic services by the Local community","Time frame for the implementation":"0.5 Years","photopath":"https://raw.githubusercontent.com/MWS003-GIS/MWS003-GIS.github.io/main/IWWRMP/Data/EXD/200_photo/MWS_103_1/Galedanda Land.jpg"},"geometry":{"type":"Point","coordinates":[80.699437,7.329517]}},
{"type":"Feature","properties":{"No.":7,"GND No.":676,"GND Name":"Ihala Gonagama","Key Activities proposed for Soil and Water conservation":"1. Soil conservation practices (50?- 60?)","Priority based on Soil Erosion Hazard":2,"N":7.33084,"E":80.71157,"Quantity":"40 ha","Proposed measure/s":"Live fencing/SALT and/or stone terracing/lock and spills, as applied","Uniti_Cost":"250.00 m-1","Total_Cost":"10,000,000.00","Contribution (Local Community, LA, and the project)":"Labour and other basic services by the Local community","Time frame for the implementation":"1.5 Years","photopath":"https://raw.githubusercontent.com/MWS003-GIS/MWS003-GIS.github.io/main/IWWRMP/Data/EXD/200_photo/MWS_103_1/Mix Crop Cultivation 2.jpg"},"geometry":{"type":"Point","coordinates":[80.71157,7.33084]}},
{"type":"Feature","properties":{"No.":8,"GND No.":677,"GND Name":"Hurikaduwa west","Key Activities proposed for Soil and Water conservation":"1. Soil conservation practices  (50?- 60?)","Priority based on Soil Erosion Hazard":2,"N":7.310535,"E":80.690199,"Quantity":"10 ha","Proposed measure/s":"Live fencing/SALT and/or stone terracing/lock and spills, as applied","Uniti_Cost":"250.00 m-1","Total_Cost":"2,500,000.00","Contribution (Local Community, LA, and the project)":"Labour and other basic services by the Local community","Time frame for the implementation":"0.5 Years","photopath":"Not_Available"},"geometry":{"type":"Point","coordinates":[80.690199,7.310535]}},
{"type":"Feature","properties":{"No.":9,"GND No.":678,"GND Name":"Hurikaduwa North","Key Activities proposed for Soil and Water conservation":"1. Soil conservation practices  (10?- 20?)","Priority based on Soil Erosion Hazard":4,"N":7.30587,"E":80.688574,"Quantity":"5 ha","Proposed measure/s":"Lock and spills stone terracing/Live fencing/SALT, as applied","Uniti_Cost":"400.00 m-1","Total_Cost":"2,000,000.00","Contribution (Local Community, LA, and the project)":"Labour and other basic services by the Local community","Time frame for the implementation":"0.25 Years","photopath":"https://raw.githubusercontent.com/MWS003-GIS/MWS003-GIS.github.io/main/IWWRMP/Data/EXD/200_photo/MWS_103_1/Pepper cultivated.jpg"},"geometry":{"type":"Point","coordinates":[80.688574,7.30587]}},
{"type":"Feature","properties":{"No.":10,"GND No.":679,"GND Name":"Hurikaduwa south","Key Activities proposed for Soil and Water conservation":"1. Soil conservation practices (10?- 20?)","Priority based on Soil Erosion Hazard":1,"N":7.308138,"E":80.699979,"Quantity":"10 ha","Proposed measure/s":"Lock and spills stone terracing/Live fencing/SALT, as applied","Uniti_Cost":"400.00 m-1","Total_Cost":"4,000,000.00","Contribution (Local Community, LA, and the project)":"Labour and other basic services by the Local community","Time frame for the implementation":"0.5 Years","photopath":"https://raw.githubusercontent.com/MWS003-GIS/MWS003-GIS.github.io/main/IWWRMP/Data/EXD/200_photo/MWS_103_1/Nutmeg Cultivated Land.jpg"},"geometry":{"type":"Point","coordinates":[80.699979,7.308138]}},
{"type":"Feature","properties":{"No.":12,"GND No.":681,"GND Name":"Nithule thanna","Key Activities proposed for Soil and Water conservation":"1. Soil conservation practices - Pallekele Village (10?- 20?)","Priority based on Soil Erosion Hazard":2,"N":7.295649,"E":80.700859,"Quantity":"10 ha","Proposed measure/s":"Lock and spills stone terracing/Live fencing/SALT, as applied","Uniti_Cost":"400.00 m-1","Total_Cost":"4,000,000.00","Contribution (Local Community, LA, and the project)":"Labour and other basic services by the Local community","Time frame for the implementation":"0.5 Years","photopath":"Not_Available"},"geometry":{"type":"Point","coordinates":[80.700859,7.295649]}},
{"type":"Feature","properties":{"No.":13,"GND No.":681,"GND Name":"Nithule thanna","Key Activities proposed for Soil and Water conservation":"2. Soil conservation practices - Udalumada (10?- 20?)","Priority based on Soil Erosion Hazard":2,"N":7.283601,"E":80.704862,"Quantity":"4 ha","Proposed measure/s":"Lock and spills stone terracing/Live fencing/SALT, as applied","Uniti_Cost":"400.00 m-1","Total_Cost":"1,600,000.00","Contribution (Local Community, LA, and the project)":"Labour and other basic services by the Local community","Time frame for the implementation":"0.25 Years","photopath":"Not_Available"},"geometry":{"type":"Point","coordinates":[80.704862,7.283601]}},
{"type":"Feature","properties":{"No.":14,"GND No.":682,"GND Name":"Dodamgolla","Key Activities proposed for Soil and Water conservation":"  ","Priority based on Soil Erosion Hazard":1,"N":7.29902,"E":80.701633,"Quantity":"10 ha","Proposed measure/s":"Lock and spills stone terracing/Live fencing/SALT, as applied","Uniti_Cost":"400.00 m-1","Total_Cost":"4,000,000.00","Contribution (Local Community, LA, and the project)":"Labour and other basic services by the Local community","Time frame for the implementation":"0.5 Years","photopath":"https://raw.githubusercontent.com/MWS003-GIS/MWS003-GIS.github.io/main/IWWRMP/Data/EXD/200_photo/MWS_103_1/Mix Crop 2.jpg"},"geometry":{"type":"Point","coordinates":[80.701633,7.29902]}},
{"type":"Feature","properties":{"No.":16,"GND No.":706,"GND Name":"Dambarawa","Key Activities proposed for Soil and Water conservation":"1. Soil conservation practices (20?- 30?)","Priority based on Soil Erosion Hazard":1,"N":7.298752,"E":80.693341,"Quantity":"10 ha","Proposed measure/s":"Lock and spills stone terracing/Live fencing/SALT, as applied","Uniti_Cost":"400.00 m-1","Total_Cost":"4,000,000.00","Contribution (Local Community, LA, and the project)":"Labour and other basic services by the Local community","Time frame for the implementation":"0.5 Years","photopath":"https://raw.githubusercontent.com/MWS003-GIS/MWS003-GIS.github.io/main/IWWRMP/Data/EXD/200_photo/MWS_103_1/Pepper Land.jpg"},"geometry":{"type":"Point","coordinates":[80.693341,7.298752]}},
{"type":"Feature","properties":{"No.":18,"GND No.":708,"GND Name":"Delgaslanda","Key Activities proposed for Soil and Water conservation":"1. Soil conservation practices  (30?- 40?)","Priority based on Soil Erosion Hazard":2,"N":7.328632,"E":80.717488,"Quantity":"2 ha","Proposed measure/s":"Lock and spills stone terracing/Live fencing/SALT, as applied","Uniti_Cost":"400.00 m-1","Total_Cost":"800,000.00","Contribution (Local Community, LA, and the project)":"Labour and other basic services by the Local community","Time frame for the implementation":"0.25 Years","photopath":"https://raw.githubusercontent.com/MWS003-GIS/MWS003-GIS.github.io/main/IWWRMP/Data/EXD/200_photo/MWS_103_1/Pepper Cultivated Land.jpg"},"geometry":{"type":"Point","coordinates":[80.717488,7.328632]}}
]}