{"type":"FeatureCollection","name":"WSP","crs":{"type":"name","properties":{"name":"urn:ogc:def:crs:OGC:1.3:CRS84"}},"features":[
{"type":"Feature","properties":{"No":1,"GND No.":672,"Name of the Tank":"Ihalagama Sapugahamadiththa","N":7.333356,"E":80.705615,"Observation":"About 50 families used for bathing. No water tank has been constructed.","Description":"Construction of Concrete water storage tank of 20 cum ? size internal t 3mx3mx2.5","Amount (Rs.)":"742,500.00","photopath":"https://raw.githubusercontent.com/MWS003-GIS/MWS003-GIS.github.io/main/IWWRMP/Data/EXD/200_photo/MWS_103_1/Sapugahamadiththa Spring & Stream.jpg"},"geometry":{"type":"Point","coordinates":[80.705615,7.333356]}},
{"type":"Feature","properties":{"No":2,"GND No.":672,"Name of the Tank":"Galkotuwa","N":7.332759,"E":80.703621,"Observation":"About 40 families water used for bathing. Water storage tank has been constructed","Description":"Cleaning the tank\n\nPlaster 12mm thick in 1:3 cement and sand \nfinished smooth with gray cement floating-Tank\n\nMiscellaneous\n\nContigencies (10%)","Amount (Rs.)":"38,720.00","photopath":"https://raw.githubusercontent.com/MWS003-GIS/MWS003-GIS.github.io/main/IWWRMP/Data/EXD/200_photo/MWS_103_1/Galkotuwa Water Tank.jpg"},"geometry":{"type":"Point","coordinates":[80.703621,7.332759]}},
{"type":"Feature","properties":{"No":3,"GND No.":673,"Name of the Tank":"Gasgolla","N":7.330043,"E":80.709091,"Observation":"A tank is constructed and Drinking water is distributed through a pipeline. Distribution pipeline system is damaged in some places.","Description":"Pipeline repair\n\nContigencies (10%)","Amount (Rs.)":"27,500.00","photopath":"Not_Available"},"geometry":{"type":"Point","coordinates":[80.709091,7.330043]}},
{"type":"Feature","properties":{"No":4,"GND No.":673,"Name of the Tank":"Maharagama medda pihilla","N":7.324705,"E":80.706182,"Observation":"A tank is constructed and covered with a net and prepared for bathing. About fifty families use it for bathing","Description":"Cleaning the tank\n\nPlaster 12mm thick in 1:3 cement and sand \nfinished smooth with gray cement floating-Tank\n\nMiscellaneous\n\nContigencies (10%)","Amount (Rs.)":"38,720.00","photopath":"https://raw.githubusercontent.com/MWS003-GIS/MWS003-GIS.github.io/main/IWWRMP/Data/EXD/200_photo/MWS_103_1/Mahara Gama Madda Pihilla.jpg"},"geometry":{"type":"Point","coordinates":[80.706182,7.324705]}},
{"type":"Feature","properties":{"No":5,"GND No.":675,"Name of the Tank":"Beerigasaswedduma Common Well","N":7.327535,"E":80.696684,"Observation":"Concrete well has been constructed","Description":"Fabricating?&?fixing?security?weld?mesh?in?open type?buildings?in?GI?weld?mesh?50mm?x?50mm? SWG?10,?welded?on?40mm?x?40mm?x?5mm? angle?frame?complete?with?application?of?two? coats?enamel?","Amount (Rs.)":"71,500.00","photopath":"https://raw.githubusercontent.com/MWS003-GIS/MWS003-GIS.github.io/main/IWWRMP/Data/EXD/200_photo/MWS_103_1/Beerigas aswedduma Common Well.jpg"},"geometry":{"type":"Point","coordinates":[80.696684,7.327535]}},
{"type":"Feature","properties":{"No":6,"GND No.":675,"Name of the Tank":"From Ihalamulla to Hethale canal","N":7.327409,"E":80.696496,"Observation":"An Irrigation canal flows near the houses, Therefore, the waste disposed of from the houses is added to the canal.","Description":"Replanting?bamboo?species?and?vetiver?grass?or?riparian?species","Amount (Rs.)":"4,950.00","photopath":"https://raw.githubusercontent.com/MWS003-GIS/MWS003-GIS.github.io/main/IWWRMP/Data/EXD/200_photo/MWS_103_1/Ihalamulla Canal.jpg"},"geometry":{"type":"Point","coordinates":[80.696496,7.327409]}},
{"type":"Feature","properties":{"No":7,"GND No.":675,"Name of the Tank":"From Bolumuwa anicut to Paldeniya anicut reservation","N":7.329565,"E":80.699504,"Observation":"Canal belonging to Central Irrigation Department. (Udugoda - Bandara Canal Scheme) Reserves are occupied by farmers.","Description":"Replanting?bamboo?species?and?vetiver?grass?or?riparian?species","Amount (Rs.)":"4,950.00","photopath":"https://raw.githubusercontent.com/MWS003-GIS/MWS003-GIS.github.io/main/IWWRMP/Data/EXD/200_photo/MWS_103_1/Canal From Bombuwa Anicut  to Paldeniya Anicut.jpg"},"geometry":{"type":"Point","coordinates":[80.699504,7.329565]}},
{"type":"Feature","properties":{"No":8,"GND No.":675,"Name of the Tank":"Kottalapitiya Uda canal","N":7.327825,"E":80.700872,"Observation":"An Irrigation canal flows near the houses, Therefore, the waste disposed of from the houses is added to the canal.","Description":"Replanting?bamboo?species?and?vetiver?grass?or?riparian?species","Amount (Rs.)":"4,950.00","photopath":"https://raw.githubusercontent.com/MWS003-GIS/MWS003-GIS.github.io/main/IWWRMP/Data/EXD/200_photo/MWS_103_1/Kottalpitiya Uda(Mada) Canal.jpg"},"geometry":{"type":"Point","coordinates":[80.700872,7.327825]}},
{"type":"Feature","properties":{"No":9,"GND No.":676,"Name of the Tank":"Wellankanda Gomman ela","N":7.333321,"E":80.711529,"Observation":"A place prepared for bathing,","Description":"Construction of Concrete water storage tank of 20 cum ? size internal t 3mx3mx2.5","Amount (Rs.)":"742,500.00","photopath":"https://raw.githubusercontent.com/MWS003-GIS/MWS003-GIS.github.io/main/IWWRMP/Data/EXD/200_photo/MWS_103_1/Gommana Stream.jpg"},"geometry":{"type":"Point","coordinates":[80.711529,7.333321]}},
{"type":"Feature","properties":{"No":10,"GND No.":676,"Name of the Tank":"Goraka gahamuls Water Project","N":7.334505,"E":80.715603,"Observation":"A water storage tank is constructed and water is distributed.","Description":"Vegetative cover improving for narrow strips (1.5m?2.0m wide) with Arecanut seedlings at 1.5m \nspacing in 2 rows, Betel plants VP at 3m spacing in 1 row, Green gram as a cover crop","Amount (Rs.)":"52,800.00","photopath":"https://raw.githubusercontent.com/MWS003-GIS/MWS003-GIS.github.io/main/IWWRMP/Data/EXD/200_photo/MWS_103_1/Gorakagahamula Water Project.jpg"},"geometry":{"type":"Point","coordinates":[80.715603,7.334505]}},
{"type":"Feature","properties":{"No":11,"GND No.":676,"Name of the Tank":"Wellankanda Common Well - Drinking","N":7.332223,"E":80.708932,"Observation":"A well from which about 50 families get water for drinking, Water seepage occurs at the ground level of the constructed well.","Description":"Plaster 12mm thick in 1:3 cement and sand \nfinished smooth with gray cement floating-Well\n\n1:3:6 (40mm) concrete manual mix (volume batching)- For pavement\n\nMiscellaneous\n\nContigencies (10%)","Amount (Rs.)":"20,900.00","photopath":"https://raw.githubusercontent.com/MWS003-GIS/MWS003-GIS.github.io/main/IWWRMP/Data/EXD/200_photo/MWS_103_1/Welekanda Com. Well Drinking.jpg"},"geometry":{"type":"Point","coordinates":[80.708932,7.332223]}},
{"type":"Feature","properties":{"No":12,"GND No.":678,"Name of the Tank":"Hunu linda","N":7.313892,"E":80.700081,"Observation":"A well of 2.4m ? is Constructed. The wall external and internal plaster damaged in some places. The water is used for bathing.","Description":"Well repair\n\nContigencies (10%)","Amount (Rs.)":"16,500.00","photopath":"https://raw.githubusercontent.com/MWS003-GIS/MWS003-GIS.github.io/main/IWWRMP/Data/EXD/200_photo/MWS_103_1/Hunulinda.jpg"},"geometry":{"type":"Point","coordinates":[80.700081,7.313892]}},
{"type":"Feature","properties":{"No":13,"GND No.":678,"Name of the Tank":"Yata linda","N":7.307853,"E":80.688403,"Observation":"A well of 2.0m ? is Constructed. The well is good condition. The water is dirty. About 15 families have been used in the past and are not being used at present.","Description":"Well repair\n\nContigencies (10%)","Amount (Rs.)":"16,500.00","photopath":"https://raw.githubusercontent.com/MWS003-GIS/MWS003-GIS.github.io/main/IWWRMP/Data/EXD/200_photo/MWS_103_1/Yatalinda Well.jpg"},"geometry":{"type":"Point","coordinates":[80.688403,7.307853]}},
{"type":"Feature","properties":{"No":14,"GND No.":678,"Name of the Tank":"Kumbuke linda 1","N":7.306947,"E":80.689396,"Observation":"A well located in the paddy field used to get water for drinking. Not currently in use.","Description":"Well repair\n\nContigencies (10%)","Amount (Rs.)":"16,500.00","photopath":"https://raw.githubusercontent.com/MWS003-GIS/MWS003-GIS.github.io/main/IWWRMP/Data/EXD/200_photo/MWS_103_1/Kubuke well 1.jpg"},"geometry":{"type":"Point","coordinates":[80.689396,7.306947]}},
{"type":"Feature","properties":{"No":15,"GND No.":678,"Name of the Tank":"Kumbuke linda 2","N":7.31164,"E":80.693482,"Observation":"A well of 1.5m x 1.5m is Constructed. The wall external and internal plaster damaged in some places. The water is used for bathing.","Description":"Well repair\n\nContigencies (10%)","Amount (Rs.)":"16,500.00","photopath":"https://raw.githubusercontent.com/MWS003-GIS/MWS003-GIS.github.io/main/IWWRMP/Data/EXD/200_photo/MWS_103_1/Kubuke Well.jpg"},"geometry":{"type":"Point","coordinates":[80.693482,7.31164]}},
{"type":"Feature","properties":{"No":16,"GND No.":678,"Name of the Tank":"Panahe linda","N":7.307028,"E":80.68961,"Observation":"A well of 2.0m ? is Constructed. The well and surroundings are polluted by sewage from nearby houses. Currently not in use.","Description":"Well repair\n\nContigencies (10%)","Amount (Rs.)":"16,500.00","photopath":"https://raw.githubusercontent.com/MWS003-GIS/MWS003-GIS.github.io/main/IWWRMP/Data/EXD/200_photo/MWS_103_1/Pathahe Well.jpg"},"geometry":{"type":"Point","coordinates":[80.68961,7.307028]}},
{"type":"Feature","properties":{"No":17,"GND No.":678,"Name of the Tank":"Eramudugolla linda","N":7.312493,"E":80.696272,"Observation":"A well located in the paddy field used to get water for Bathing.  The walls of the well have damaged.","Description":"Well repair\n\nContigencies (10%)","Amount (Rs.)":"16,500.00","photopath":"https://raw.githubusercontent.com/MWS003-GIS/MWS003-GIS.github.io/main/IWWRMP/Data/EXD/200_photo/MWS_103_1/Eramudugolla Well.jpg"},"geometry":{"type":"Point","coordinates":[80.696272,7.312493]}},
{"type":"Feature","properties":{"No":18,"GND No.":678,"Name of the Tank":"Watapuluwa linda","N":7.308385,"E":80.688666,"Observation":"A well located in the paddy field used to get water for Bathing.  The well is good condition.","Description":"Well repair\n\nContigencies (10%)","Amount (Rs.)":"16,500.00","photopath":"https://raw.githubusercontent.com/MWS003-GIS/MWS003-GIS.github.io/main/IWWRMP/Data/EXD/200_photo/MWS_103_1/Watapuluwe Well.jpg"},"geometry":{"type":"Point","coordinates":[80.688666,7.308385]}},
{"type":"Feature","properties":{"No":19,"GND No.":678,"Name of the Tank":"Gammedda linda 1","N":7.31041,"E":80.692166,"Observation":"A well located in the paddy field used to get water for Bathing.  Currently not in use.","Description":"Well repair\n\nContigencies (10%)","Amount (Rs.)":"16,500.00","photopath":"https://raw.githubusercontent.com/MWS003-GIS/MWS003-GIS.github.io/main/IWWRMP/Data/EXD/200_photo/MWS_103_1/Gamamadda Well 1.jpg"},"geometry":{"type":"Point","coordinates":[80.692166,7.31041]}},
{"type":"Feature","properties":{"No":20,"GND No.":678,"Name of the Tank":"Gammedda linda 2","N":7.31014,"E":80.692871,"Observation":"A well located in the paddy field used to get water for Bathing.  The well is good condition.","Description":"Well repair\n\nContigencies (10%)","Amount (Rs.)":"16,500.00","photopath":"https://raw.githubusercontent.com/MWS003-GIS/MWS003-GIS.github.io/main/IWWRMP/Data/EXD/200_photo/MWS_103_1/Gammadda Well 2.jpg"},"geometry":{"type":"Point","coordinates":[80.692871,7.31014]}},
{"type":"Feature","properties":{"No":21,"GND No.":679,"Name of the Tank":"Agro Well near Rajjalvita Paddy Field","N":7.305238,"E":80.697302,"Observation":"A well located near the paddy field used to get water for Bathing and cultivation. The well wall and surrounding basin should be minor repaired.","Description":"Cleaning the well\n\nContigencies (10%)","Amount (Rs.)":"11,000.00","photopath":"https://raw.githubusercontent.com/MWS003-GIS/MWS003-GIS.github.io/main/IWWRMP/Data/EXD/200_photo/MWS_103_1/Rajjalvita Agro Well.jpg"},"geometry":{"type":"Point","coordinates":[80.697302,7.305238]}},
{"type":"Feature","properties":{"No":22,"GND No.":679,"Name of the Tank":"Rajjalvita Common Well","N":7.308544,"E":80.698388,"Observation":"A well located near the paddy field used about 20 families used to water for Bathing. The well is good condition. The well wall and surrounding basin should be minor repaired.","Description":"Cleaning the well\n\nContigencies (10%)","Amount (Rs.)":"11,000.00","photopath":"https://raw.githubusercontent.com/MWS003-GIS/MWS003-GIS.github.io/main/IWWRMP/Data/EXD/200_photo/MWS_103_1/Rajjalvita Comman Well.jpg"},"geometry":{"type":"Point","coordinates":[80.698388,7.308544]}},
{"type":"Feature","properties":{"No":23,"GND No.":679,"Name of the Tank":"Well near Rajjalvita pathaha","N":7.309968,"E":80.699176,"Observation":"A well located near the paddy field used about 15 families used to water for Bathing. The well is good condition. The well wall and surrounding basin should be minor repaired.","Description":"Cleaning the well\n\nContigencies (10%)","Amount (Rs.)":"11,000.00","photopath":"https://raw.githubusercontent.com/MWS003-GIS/MWS003-GIS.github.io/main/IWWRMP/Data/EXD/200_photo/MWS_103_1/Rajjalvita Pathaha.jpg"},"geometry":{"type":"Point","coordinates":[80.699176,7.309968]}},
{"type":"Feature","properties":{"No":24,"GND No.":681,"Name of the Tank":"Ganithage linda","N":7.295786,"E":80.701437,"Observation":"A well located near the paddy field and used to  water for cultivation.  The well is dilapidated condition.","Description":"Cleaning the well\n\nPlaster 12mm thick in 1:3 cement and sand \nfinished smooth with gray cement floating-Well walls\n\nMiscellaneous\n\nContigencies (10%)","Amount (Rs.)":"76,120.00","photopath":"https://raw.githubusercontent.com/MWS003-GIS/MWS003-GIS.github.io/main/IWWRMP/Data/EXD/200_photo/MWS_103_1/Ganithanga well.jpg"},"geometry":{"type":"Point","coordinates":[80.701437,7.295786]}}
]}