{"type":"FeatureCollection","name":"Landslides","crs":{"type":"name","properties":{"name":"urn:ogc:def:crs:OGC:1.3:CRS84"}},"features":[
{"type":"Feature","properties":{"No.":1,"GN Division No.":"50H","GN Division":"Dimuthugama","Landslides":"Road damaged - The road below the Dimuthugama Playground","N":6.897712,"E":80.896014,"NBRO Recommendation N/A":"Needs NBRO concern","Proposed Measures":"Construction of 50 m long, 3.0 m high (above ground level) concrete side wall on down side of the road. Also, it may need to construct a 4.88 m long, 600 mm Ø pipe culvert.  Also, follow the recommendations of NBRO after consulting.","photopath":"https://raw.githubusercontent.com/MWS003-GIS/MWS003-GIS.github.io/main/IWWRMP/Data/EXD/200_photo/MWS_061/Landslided Road.jpg"},"geometry":{"type":"Point","coordinates":[80.896014,6.897712]}}
]}