{"type":"FeatureCollection","name":"MI","crs":{"type":"name","properties":{"name":"urn:ogc:def:crs:OGC:1.3:CRS84"}},"features":[
{"type":"Feature","properties":{"No":1,"GND No.":"50B","Scheme":"Moragasdowa canal","N":6.873117,"E":80.872305,"Observation":"An earthen canal,  Command area 100.0 acres","Description":"Canal lining and protection including EW & tree planting\n\nCanals reservation protection by concrete lining  For  125mm thick , 500 mm  wide  and 400 mm high canal -double banking\n\nStream / canal  reservation protection by earth filling of  strip   of 1.5","Amount (Rs.)":1232000,"photopath":"https://raw.githubusercontent.com/MWS003-GIS/MWS003-GIS.github.io/main/IWWRMP/Data/EXD/200_photo/MWS_061/Moragasdowa Canal.jpg"},"geometry":{"type":"Point","coordinates":[80.872305,6.873117]}},
{"type":"Feature","properties":{"No":2,"GND No.":"50B","Scheme":"Bokola Canal","N":6.877482,"E":80.878852,"Observation":"An earthen canal, Command area 30.0 acres","Description":"Canal lining and protection including EW & tree planting\n\nCanal reservation protection by concrete lining  For  150 mm thick , 600 mm  wide  and 500 mm high canal -double banking\n\nStream / canal  reservation protection by earth filling of  strip   of 1.5","Amount (Rs.)":2349600,"photopath":"https://raw.githubusercontent.com/MWS003-GIS/MWS003-GIS.github.io/main/IWWRMP/Data/EXD/200_photo/MWS_061/Bokkalawe Canal.jpg"},"geometry":{"type":"Point","coordinates":[80.878852,6.877482]}},
{"type":"Feature","properties":{"No":3,"GND No.":"50B","Scheme":"Yatala canal","N":6.873923,"E":80.874425,"Observation":"An earthen canal, Command area 15.0 acres","Description":"Canal lining and protection including EW & tree planting\n\nCanals reservation protection by concrete lining  For  125mm thick , 500 mm  wide  and 400 mm high canal -double banking\n\nStream / canal  reservation protection by earth filling of  strip   of 1.5","Amount (Rs.)":972400,"photopath":"https://raw.githubusercontent.com/MWS003-GIS/MWS003-GIS.github.io/main/IWWRMP/Data/EXD/200_photo/MWS_061/Yatala Canal.jpg"},"geometry":{"type":"Point","coordinates":[80.874425,6.873923]}},
{"type":"Feature","properties":{"No":4,"GND No.":"50B","Scheme":"Sub canal 1","N":6.874725,"E":80.862216,"Observation":"The canal has been concreted in some places, Command area 6.0 acres","Description":"Canal lining and protection including EW & tree planting\n\nCanals reservation protection by concrete lining  For  125mm thick , 500 mm  wide  and 400 mm high canal -double banking\n\nStream / canal  reservation protection by earth filling of  strip   of 1.5","Amount (Rs.)":677600,"photopath":"https://raw.githubusercontent.com/MWS003-GIS/MWS003-GIS.github.io/main/IWWRMP/Data/EXD/200_photo/MWS_061/Sub Canal 1.jpg"},"geometry":{"type":"Point","coordinates":[80.862216,6.874725]}},
{"type":"Feature","properties":{"No":5,"GND No.":"50B","Scheme":"Sub canal 2","N":6.876531,"E":80.861395,"Observation":"The canal has been concreted in some places, Command area 8.0 acres","Description":"Canal lining and protection including EW & tree planting\n\nCanals reservation protection by concrete lining  For  125mm thick , 500 mm  wide  and 400 mm high canal -double banking\n\nStream / canal  reservation protection by earth filling of  strip   of 1.5","Amount (Rs.)":677600,"photopath":"https://raw.githubusercontent.com/MWS003-GIS/MWS003-GIS.github.io/main/IWWRMP/Data/EXD/200_photo/MWS_061/Sub Canal 2.jpg"},"geometry":{"type":"Point","coordinates":[80.861395,6.876531]}},
{"type":"Feature","properties":{"No":6,"GND No.":"50B","Scheme":"Wal Ariyawa Canal","N":6.877517,"E":80.879424,"Observation":"An earthen canal, Command area 25.0 acres","Description":"Canal lining and protection including EW & tree planting\n\nCanal reservation protection by concrete lining  For  100 mm thick , 300 mm  wide  and 300 mm high canal -double banking\n\nStream / canal  reservation protection by earth filling of  strip   of 1.5","Amount (Rs.)":840400,"photopath":"https://raw.githubusercontent.com/MWS003-GIS/MWS003-GIS.github.io/main/IWWRMP/Data/EXD/200_photo/MWS_061/Wel ariyawa Canal Location 1.jpg"},"geometry":{"type":"Point","coordinates":[80.879424,6.877517]}},
{"type":"Feature","properties":{"No":7,"GND No.":"50B","Scheme":"Thennakoonwela Main canal","N":6.879285,"E":80.860286,"Observation":"The canal has been concreted in some places, Command area 200.0 acres","Description":"Canal lining and protection including EW & tree planting\n\nCanal reservation protection by concrete lining  For  150 mm thick , 600 mm  wide  and 500 mm high canal -double banking\n\nStream / canal  reservation protection by earth filling of  strip   of 1.5","Amount (Rs.)":2418900,"photopath":"https://raw.githubusercontent.com/MWS003-GIS/MWS003-GIS.github.io/main/IWWRMP/Data/EXD/200_photo/MWS_061/Thennakooanwela  Main Canal.jpg"},"geometry":{"type":"Point","coordinates":[80.860286,6.879285]}},
{"type":"Feature","properties":{"No":8,"GND No.":"50C","Scheme":"Uurammala Yaya  Canal","N":6.892082,"E":80.888759,"Observation":"A 30m long concrete trough  constructed at the beginning of the canal has broken. At one point in the middle of the canal, the right bank has collapsed for about 60m long section. The filling of the canal with sand has become a major problem for farmers","Description":"Replacing the broken Column with a 0.9 m x 0.45 m x 3.0 m Column\n\nDemolition of damaged RC column incl. disposal\n\nTemporary propping/shoring of trough\n\nSaw-cut/chip interfaces and clean reinforcement/concrete\n\nDrilling for starter bars/dowels (20 mm) inc","Amount (Rs.)":0,"photopath":"https://raw.githubusercontent.com/MWS003-GIS/MWS003-GIS.github.io/main/IWWRMP/Data/EXD/200_photo/MWS_061/Urammana Canal Location 2.jpg"},"geometry":{"type":"Point","coordinates":[80.888759,6.892082]}},
{"type":"Feature","properties":{"No":9,"GND No.":"50C","Scheme":"Agatha Kumbura canal","N":6.893148,"E":80.889579,"Observation":"The canal spills constructed at several locations along the canal are dilapidated and need to be repaired.","Description":"Construction of  40 m long 1.5 m total height two  Concrete Retaining walls\n\nConstruction of 1.5m high 1:3:6 (40mm) cement concrete Retaining Wall \n\nMiscellaneous\n\nContingencies 10 %\n","Amount (Rs.)":1587300,"photopath":"https://raw.githubusercontent.com/MWS003-GIS/MWS003-GIS.github.io/main/IWWRMP/Data/EXD/200_photo/MWS_061/Agathakumbura Canal Location 1.jpg"},"geometry":{"type":"Point","coordinates":[80.889579,6.893148]}},
{"type":"Feature","properties":{"No":10,"GND No.":"50C","Scheme":"Kona Arawa canal","N":6.898569,"E":80.884845,"Observation":"These are canals that distribute water for agricultural purposes from the Kande Ela Reservoir, which belongs to the Irrigation Department, But now these canals have become natural streams and are used to distribute water to vegetable cultivated paddy lan","Description":"Canal lining and protection including EW & tree planting\n\nCanal reservation protection by concrete lining  For  150 mm thick , 600 mm  wide  and 500 mm high canal -double banking\n\nStream / canal  reservation protection by earth filling of  strip   of 1.5","Amount (Rs.)":1502600,"photopath":"Not_Available"},"geometry":{"type":"Point","coordinates":[80.884845,6.898569]}},
{"type":"Feature","properties":{"No":11,"GND No.":"50C","Scheme":"Ambagaha Arawa Kadura","N":6.897518,"E":80.884121,"Observation":"These are canals that distribute water for agricultural purposes from the Kande Ela Reservoir, which belongs to the Irrigation Department, But now these canals have become natural streams and are used to distribute water to vegetable cultivated paddy lan","Description":"Construction of  50 m long 1.8 m total height two  Concrete Retaining walls and Concrete lining for 50 m\n\nConstruction of 1.8 m high 1:3:6 (40mm) cement concrete Retaining Wall \n\nMiscellaneous\n\nContingencies 10%\n\nCanal lining and protection including EW","Amount (Rs.)":3919036,"photopath":"https://raw.githubusercontent.com/MWS003-GIS/MWS003-GIS.github.io/main/IWWRMP/Data/EXD/200_photo/MWS_061/Ambagas Arawa Canal Location 2.jpg"},"geometry":{"type":"Point","coordinates":[80.884121,6.897518]}},
{"type":"Feature","properties":{"No":12,"GND No.":"50C","Scheme":"Deiyannewela main stream","N":6.897432,"E":80.883836,"Observation":"These are canals that distribute water for agricultural purposes from the Kande Ela Reservoir, which belongs to the Irrigation Department, But now these canals have become natural streams and are used to distribute water to vegetable cultivated paddy lan","Description":"Construction of Concrete anicut of 8.0 m length and height 1.5 m. (above Ground)\n\nClearing the site \n\nEarth excavation for foundation or quarry materials and haul the surplus materials up to 30m by Manually.\n\nSawn timber form work including making, fixin","Amount (Rs.)":477400,"photopath":"https://raw.githubusercontent.com/MWS003-GIS/MWS003-GIS.github.io/main/IWWRMP/Data/EXD/200_photo/MWS_061/Deyyannewela Anicut.jpg"},"geometry":{"type":"Point","coordinates":[80.883836,6.897432]}},
{"type":"Feature","properties":{"No":13,"GND No.":"50C","Scheme":"Ambagaha Arawa canal to Godarama Lankawa","N":6.899726,"E":80.888561,"Observation":"These are canals that distribute water for agricultural purposes from the Kande Ela Reservoir, which belongs to the Irrigation Department, But now these canals have become natural streams and are used to distribute water to vegetable cultivated paddy lan","Description":"Construction of Concrete anicut of 5.0 m length and height 1.5 m. (above Ground)\n\nClearing the site \n\nEarth excavation for foundation or quarry materials and haul the surplus materials up to 30m by Manually. \n\nSawn timber form work including making, fixi","Amount (Rs.)":399300,"photopath":"https://raw.githubusercontent.com/MWS003-GIS/MWS003-GIS.github.io/main/IWWRMP/Data/EXD/200_photo/MWS_061/Ambagaha Arawa End Section Anicut & Side Wall.jpg"},"geometry":{"type":"Point","coordinates":[80.888561,6.899726]}},
{"type":"Feature","properties":{"No":14,"GND No.":"50E","Scheme":"Erabadda - Pelliminna main canal","N":6.884183,"E":80.876174,"Observation":"Part of the canal is concreted and part remains as an earthen canal. Command area 35.0 acres","Description":"Canal lining and protection including EW & tree planting\n\nCanals reservation protection by concrete lining  For  125mm thick , 500 mm  wide  and 400 mm high canal -double banking\n\nStream / canal  reservation protection by earth filling of  strip   of 1.5","Amount (Rs.)":1230900,"photopath":"https://raw.githubusercontent.com/MWS003-GIS/MWS003-GIS.github.io/main/IWWRMP/Data/EXD/200_photo/MWS_061/Erabadda Canal.jpg"},"geometry":{"type":"Point","coordinates":[80.876174,6.884183]}},
{"type":"Feature","properties":{"No":15,"GND No.":"50H","Scheme":"Canal from Co-op shop to Kinnarakadura","N":6.901491,"E":80.897823,"Observation":"The filling of the canal with sand has become a major problem for farmers due to rainwater flowing upstream into the canal. For this reason, structures ( Sand trap) need to be built. Command area 50.0 acres","Description":"Construction of  50 m long 1.5 m total height two  Concrete Retaining walls\n\nConstruction of 1.5m high 1:3:6 (40mm) cement concrete Retaining Wall \n\nMiscellaneous\n\nContingencies 10 %\n\nCanal Earthwork and Tree Planting\n\nStream / canal  reservation protect","Amount (Rs.)":2333100,"photopath":"https://raw.githubusercontent.com/MWS003-GIS/MWS003-GIS.github.io/main/IWWRMP/Data/EXD/200_photo/MWS_061/Dimuthugama Canal Location 3.jpg"},"geometry":{"type":"Point","coordinates":[80.897823,6.901491]}},
{"type":"Feature","properties":{"No":16,"GND No.":"50I","Scheme":"Agatha Kumbura canal","N":6.888924,"E":80.885919,"Observation":"In some places along the canal on LHS, side walls have been built using rubble, and these walls are in a dilapidated state.","Description":"Construction of  50 m long 1.5 m total height two  Concrete Retaining walls\n\nConstruction of 1.5m high 1:3:6 (40mm) cement concrete Retaining Wall \n\nMiscellaneous\n\nContingencies 10 %\n\nCanal Earthwork and Tree Planting\n\nStream / canal  reservation protect","Amount (Rs.)":2194500,"photopath":"https://raw.githubusercontent.com/MWS003-GIS/MWS003-GIS.github.io/main/IWWRMP/Data/EXD/200_photo/MWS_061/Agathakumbura Canal Location 1.jpg"},"geometry":{"type":"Point","coordinates":[80.885919,6.888924]}},
{"type":"Feature","properties":{"No":17,"GND No.":"50I","Scheme":"Puranwela sub field canal","N":6.893755,"E":80.878896,"Observation":"These are canals that distribute water for agricultural purposes from the Kande Ela Reservoir, which belongs to the Irrigation Department,  The canal has been concreted and a length of about 100m needs to be concreted. Command area 65.0acres","Description":"Canal lining and protection including EW & tree planting\n\nCanal reservation protection by concrete lining  For  150 mm thick , 600 mm  wide  and 500 mm high canal -double banking\n\nStream / canal  reservation protection by earth filling of  strip   of 1.5","Amount (Rs.)":1692900,"photopath":"https://raw.githubusercontent.com/MWS003-GIS/MWS003-GIS.github.io/main/IWWRMP/Data/EXD/200_photo/MWS_061/Puranwela Canal Location 1.jpg"},"geometry":{"type":"Point","coordinates":[80.878896,6.893755]}},
{"type":"Feature","properties":{"No":18,"GND No.":"51A","Scheme":"Udukurane Canal","N":6.865386,"E":80.890199,"Observation":"The canal has been concreted in some places, Command area 80.0 acres","Description":"Construction of  50 m long 1.5 m total height two  Concrete Retaining walls\n\nConstruction of 1.5m high 1:3:6 (40mm) cement concrete Retaining Wall \n\nCanal reservation protection by concrete lining  For  150 mm thick , 600 mm  wide  and 500 mm high canal","Amount (Rs.)":4040300,"photopath":"https://raw.githubusercontent.com/MWS003-GIS/MWS003-GIS.github.io/main/IWWRMP/Data/EXD/200_photo/MWS_061/Udukurane Canal Location 1.jpg"},"geometry":{"type":"Point","coordinates":[80.890199,6.865386]}},
{"type":"Feature","properties":{"No":19,"GND No.":"51A","Scheme":"Mahaela Canal","N":6.867179,"E":80.891626,"Observation":"The canal has been concreted in some places, Command area 60.0 acres","Description":"Canal lining and protection including EW & tree planting\n\nCanal reservation protection by concrete lining  For  150 mm thick , 600 mm  wide  and 500 mm high canal -double banking\n\nStream / canal  reservation protection by earth filling of  strip   of 1.5","Amount (Rs.)":1762200,"photopath":"https://raw.githubusercontent.com/MWS003-GIS/MWS003-GIS.github.io/main/IWWRMP/Data/EXD/200_photo/MWS_061/Mahaela Canal Location 1.jpg"},"geometry":{"type":"Point","coordinates":[80.891626,6.867179]}},
{"type":"Feature","properties":{"No":20,"GND No.":"51A","Scheme":"Badalae Canal","N":6.877244,"E":80.895931,"Observation":"An earthen canal, Command area 19.5acres","Description":"Canal lining and protection including EW & tree planting\n\nCanal reservation protection by concrete lining  For  100 mm thick , 300 mm  wide  and 300 mm high canal -double banking\n\nStream / canal  reservation protection by earth filling of  strip   of 1.5","Amount (Rs.)":715000,"photopath":"https://raw.githubusercontent.com/MWS003-GIS/MWS003-GIS.github.io/main/IWWRMP/Data/EXD/200_photo/MWS_061/Badala Canal.jpg"},"geometry":{"type":"Point","coordinates":[80.895931,6.877244]}},
{"type":"Feature","properties":{"No":21,"GND No.":"51B","Scheme":"Erabadda canal","N":6.884518,"E":80.88468,"Observation":"An earthen canal, Command area 35.0acres","Description":"Canal lining and protection including EW & tree planting\n\nCanals reservation protection by concrete lining  For  125mm thick , 500 mm  wide  and 400 mm high canal -double banking\n\nStream / canal  reservation protection by earth filling of  strip   of 1.5","Amount (Rs.)":1577400,"photopath":"https://raw.githubusercontent.com/MWS003-GIS/MWS003-GIS.github.io/main/IWWRMP/Data/EXD/200_photo/MWS_061/Erabadda Canal Location 1.jpg"},"geometry":{"type":"Point","coordinates":[80.88468,6.884518]}},
{"type":"Feature","properties":{"No":22,"GND No.":"52A","Scheme":"Welimadagama Canal","N":6.903662,"E":80.906997,"Observation":"The canal has been concreted in some places, Command area 38.0 acres","Description":"Canal lining and protection including EW & tree planting\n\nCanal reservation protection by concrete lining  For  150 mm thick , 600 mm  wide  and 500 mm high canal -double banking\n\nStream / canal  reservation protection by earth filling of  strip   of 1.5","Amount (Rs.)":1502600,"photopath":"https://raw.githubusercontent.com/MWS003-GIS/MWS003-GIS.github.io/main/IWWRMP/Data/EXD/200_photo/MWS_061/Welimadagama Canal Location 1.jpg"},"geometry":{"type":"Point","coordinates":[80.906997,6.903662]}},
{"type":"Feature","properties":{"No":23,"GND No.":"52A","Scheme":"Alu Ambagaha Arawa Canal","N":6.902019,"E":80.904458,"Observation":"An earthen canal, Command area 15.0acres","Description":"Canal lining and protection including EW & tree planting\n\nCanals reservation protection by concrete lining  For  125mm thick , 500 mm  wide  and 400 mm high canal -double banking\n\nStream / canal  reservation protection by earth filling of  strip   of 1.5","Amount (Rs.)":850300,"photopath":"https://raw.githubusercontent.com/MWS003-GIS/MWS003-GIS.github.io/main/IWWRMP/Data/EXD/200_photo/MWS_061/Aluambagaha Arawa Canal Location 1.jpg"},"geometry":{"type":"Point","coordinates":[80.904458,6.902019]}},
{"type":"Feature","properties":{"No":24,"GND No.":"52B","Scheme":"Yatala Ela","N":6.894992,"E":80.909313,"Observation":"An earthen canal, Command area 18.0 acres","Description":"Canal lining and protection including EW & tree planting\n\nCanals reservation protection by concrete lining  For  125mm thick , 500 mm  wide  and 400 mm high canal -double banking\n\nStream / canal  reservation protection by earth filling of  strip   of 1.5","Amount (Rs.)":1058200,"photopath":"https://raw.githubusercontent.com/MWS003-GIS/MWS003-GIS.github.io/main/IWWRMP/Data/EXD/200_photo/MWS_061/Yatala Canal.jpg"},"geometry":{"type":"Point","coordinates":[80.909313,6.894992]}},
{"type":"Feature","properties":{"No":25,"GND No.":"52D","Scheme":"Yodhaela Canal","N":6.881502,"E":80.906111,"Observation":"An earthen canal, Command area 40.0 acres","Description":"Canal lining and protection including EW & tree planting\n\nCanals reservation protection by concrete lining  For  125mm thick , 500 mm  wide  and 400 mm high canal -double banking\n\nStream / canal  reservation protection by earth filling of  strip   of 1.5","Amount (Rs.)":1508100,"photopath":"https://raw.githubusercontent.com/MWS003-GIS/MWS003-GIS.github.io/main/IWWRMP/Data/EXD/200_photo/MWS_061/Yoda Canal Location 2.jpg"},"geometry":{"type":"Point","coordinates":[80.906111,6.881502]}}
]}