{
"type": "FeatureCollection",
"name": "SR",
"crs": { "type": "name", "properties": { "name": "urn:ogc:def:crs:OGC:1.3:CRS84" } },
"features": [
{ "type": "Feature", "properties": { "No": 19, "GND No.": "535J", "Scheme": "Paththini devale kandura", "N": 6.99906, "E": 80.744177, "Observation": "During the rainy season when too much water flows, Bank erosion occurs", "Description": "Paving available stone in the river banks and Planting trees\n\nDry rubble packing (with locally found rubble, size over 225mm )-Along the river banks\n\nReplanting bamboo species around the river bank \n\nMiscellaneous\n\nContingencies (10%)", "Amount (Rs.)": 543400, "photopath": "https://raw.githubusercontent.com/MWS003-GIS/MWS003-GIS.github.io/main/IWWRMP/Data/EXD/200_photo/MWS_166_1/IMG_20260122_100106 Paththini devale kandura.jpg" }, "geometry": { "type": "Point", "coordinates": [ 80.744177, 6.99906 ] } }
]
}
