{
"type": "FeatureCollection",
"name": "WSP",
"crs": { "type": "name", "properties": { "name": "urn:ogc:def:crs:OGC:1.3:CRS84" } },
"features": [
{ "type": "Feature", "properties": { "No": 41, "GND No.": "535J", "Name of the Tank": "Near Mr. Michel's shop of Westerdo Estate", "N": 6.998839, "E": 80.744259, "Observation": "It is as a form of a natural spring", "Description": "Construction of a Water Stock Tank (3.0m x2.0m x 1.5m)\n\nSite preparation & setting out\n\nPlywood form work including making, fixing & removing for structure ?05 uses\n\nCutting, Bending & Placing tor steel reinforcement bars\n\n1:2:4 concrete with concret", "Amount (Rs.)": 762300, "photopath": "https://raw.githubusercontent.com/MWS003-GIS/MWS003-GIS.github.io/main/IWWRMP/Data/EXD/200_photo/MWS_166_1/IMG_20260122_094313 Near Mr. Michel's shop of Westerdo Estate(Spring).jpg" }, "geometry": { "type": "Point", "coordinates": [ 80.744259, 6.998839 ] } },
{ "type": "Feature", "properties": { "No": 42, "GND No.": "535J", "Name of the Tank": "4th Nursery Nu/Estate Upper Division", "N": 7.007136, "E": 80.740367, "Observation": "the spring is formed as a shape of a semi circle width 1.5 m,Water is leaking from the tank, Located on public land. Used for drinking and bathing", "Description": "Construction of a Water Stock Tank (2.0m x2.0m x 0.9m)\n\nSite preparation & setting out\n\nPlywood form work including making, fixing & removing for structure ?05 uses\n\nCutting, Bending & Placing tor steel reinforcement bars\n\n1:2:4 concrete with concret", "Amount (Rs.)": 267300, "photopath": "https://raw.githubusercontent.com/MWS003-GIS/MWS003-GIS.github.io/main/IWWRMP/Data/EXD/200_photo/MWS_166_1/IMG_20260122_114107 4th Nursery NuEstate Upper Division.jpg" }, "geometry": { "type": "Point", "coordinates": [ 80.740367, 7.007136 ] } },
{ "type": "Feature", "properties": { "No": 43, "GND No.": "535J", "Name of the Tank": "3rd Nursery Nu/Estate Lower Division", "N": 7.000513, "E": 80.731581, "Observation": "A  Retaining wall has been constructed (7.6 m x 0.45 m x1.8 m, L*W*H).Located on public land. Used for drinking and bathing", "Description": "63mm dia PvC pipe in Solvent Socket Type in PNT11-connect the spring and water tank \n\nTidying up\n\nContingencies (10%)", "Amount (Rs.)": 495000, "photopath": "https://raw.githubusercontent.com/MWS003-GIS/MWS003-GIS.github.io/main/IWWRMP/Data/EXD/200_photo/MWS_166_1/IMG_20260122_105556 3rd Nursery NuEstate Lower Division spring.jpg" }, "geometry": { "type": "Point", "coordinates": [ 80.731581, 7.000513 ] } }
]
}
