{"type":"FeatureCollection","name":"SR","crs":{"type":"name","properties":{"name":"urn:ogc:def:crs:OGC:1.3:CRS84"}},"features":[
{"type":"Feature","properties":{"No":1,"GND No.":633,"Scheme":"On both sides of the canal belonging to the Hunuanga paddy field, which is nourished by the Udugoda Bandara canal under the small irrigation system.","N":7.319347,"E":80.684046,"Observation":"Canal bank are damaged and canal has blocked in several places.","Description":"Construction of a 600 mm × 600 mm U-Drain for 100 m\n\nProtection of stream/canal reservations by earth filling along a strip 1.5 m to 2.0 m wide with an average depth of 0.5 m\n\nImprovement of vegetative cover in narrow strips (1.5 m–2.0 m wide) by plan","Amount (Rs.)":937200,"photopath":"https://raw.githubusercontent.com/MWS003-GIS/MWS003-GIS.github.io/main/IWWRMP/Data/EXD/200_photo/MWS_103_2/Rehabilitation of the canal on both sides of the Hapugahawela paddy field.jpg"},"geometry":{"type":"Point","coordinates":[80.684046,7.319347]}},
{"type":"Feature","properties":{"No":2,"GND No.":645,"Scheme":"Rehabilitation of the canal passing through Ganegoda Pitiya, from Gorokgaha Muduna to Nanayakkara residence, including the construction of side walls","N":7.320946,"E":80.687856,"Observation":"Canal banks are erroded. Sand accumilation in paddy fields.","Description":"Construction of a 600 mm × 600 mm U-Drain for 20 m\n\nImprovement of vegetative cover in narrow strips (1.5 m–2.0 m wide) by planting arecanut seedlings at 1.5 m spacing in two rows\n\nContingencies (10%)","Amount (Rs.)":217800,"photopath":"https://raw.githubusercontent.com/MWS003-GIS/MWS003-GIS.github.io/main/IWWRMP/Data/EXD/200_photo/MWS_103_2/Eraminiyanga Part.jpg"},"geometry":{"type":"Point","coordinates":[80.687856,7.320946]}},
{"type":"Feature","properties":{"No":3,"GND No.":644,"Scheme":"From Getahena Junction to Vihara Kumbura Ela Margaya Dumbara Alevisela","N":7.327391,"E":80.693916,"Observation":"Canal banks are erroded. Reservation area has been captured by people and already buildings are constructed.","Description":"Construction of a 600 mm × 600 mm U-Drain for 100 m\n\nProtection of Stream/Canal Reservations by Earth Filling Along a Strip 1.5 m to 2.0 m Wide with an Average Depth of 0.5 m\n\nImprovement of Vegetative Cover in Narrow Strips (1.5 m–2.0 m Wide) by Plan","Amount (Rs.)":937200,"photopath":"https://raw.githubusercontent.com/MWS003-GIS/MWS003-GIS.github.io/main/IWWRMP/Data/EXD/200_photo/MWS_103_2/From Getahena Junction to Vihara Kumbura Ela Margaya Dumbara Alevisela.jpg"},"geometry":{"type":"Point","coordinates":[80.693916,7.327391]}}
]}