{
"type": "FeatureCollection",
"name": "WSP",
"crs": { "type": "name", "properties": { "name": "urn:ogc:def:crs:OGC:1.3:CRS84" } },
"features": [
{ "type": "Feature", "properties": { "No": 1, "GND No.": 645, "Name of the Tank": "The portion of the canal belonging to the Gahegoda Pitiye  Bandara Ele GND under 645 Thalkotuwa.", "N": 7.321355, "E": 80.688214, "Observation": "Canal banks are not clear. Severly damaged the canal banks.Reservation is also not clear.", "Description": "Construction of a 600 mm × 300 mm U-Drain for 100 m\nProtection of Stream/Canal Reservations by Earth Filling Along a Strip 1.5 m to 2.0 m Wide with an Average Depth of 0.5 m\nContingencies (10%)", "Amount (Rs.)": 831600, "photopath": "https://raw.githubusercontent.com/MWS003-GIS/MWS003-GIS.github.io/main/IWWRMP/Data/EXD/200_photo/MWS_103_2/canal belonging to the Gahegoda Pitiye  Bandara Ele GND under 645 Thalkotuwa.jpg" }, "geometry": { "type": "Point", "coordinates": [ 80.688214, 7.321355 ] } }
]
}
