{"type":"FeatureCollection","name":"SWC_ON","crs":{"type":"name","properties":{"name":"urn:ogc:def:crs:OGC:1.3:CRS84"}},"features":[
{"type":"Feature","properties":{"No.":1,"GND No.":988,"GND Name":"Sinharagama","Key Activities proposed for Soil and Water conservation":"1. Soil conservation practices - Shivagami (5)","Priority based on Soil Erosion Hazard":"2","N":7.251864,"E":80.711928,"Quantity":"16 ha","Proposed measure/s":"Lock and spills - 6 ha\nLive fencing/SALT - 10 ha","Uniti_Cost":"400.00 m-1\n250.00 m-1","Total_Cost":"2400000\n2500000","Contribution (Local Community, LA, and the project)":"Labour and other basic services by the Local community","Time frame for the implementation":"0.25 Years","photopath":"https://raw.githubusercontent.com/MWS003-GIS/MWS003-GIS.github.io/main/IWWRMP/Data/EXD/200_photo/MWS_007_1/Sinharagama/SG1.jpg"},"geometry":{"type":"Point","coordinates":[80.711928,7.251864]}},
{"type":"Feature","properties":{"No.":2,"GND No.":988,"GND Name":"Sinharagama","Key Activities proposed for Soil and Water conservation":"2. Soil conservation practices - N.P.E. Senarathne (65)","Priority based on Soil Erosion Hazard":"4","N":7.253405,"E":80.709052,"Quantity":"2.25 ha","Proposed measure/s":"Live fencing/SALT","Uniti_Cost":"250.00 m-1","Total_Cost":"562,500.00","Contribution (Local Community, LA, and the project)":"Labour and other basic services by the Local community","Time frame for the implementation":"0.25 Years","photopath":"https://raw.githubusercontent.com/MWS003-GIS/MWS003-GIS.github.io/main/IWWRMP/Data/EXD/200_photo/MWS_007_1/Sinharagama/SG3.jpg"},"geometry":{"type":"Point","coordinates":[80.709052,7.253405]}},
{"type":"Feature","properties":{"No.":3,"GND No.":988,"GND Name":"Sinharagama","Key Activities proposed for Soil and Water conservation":"3. Soil conservation practices - Thilakarathne Fonseka (75)","Priority based on Soil Erosion Hazard":"4","N":7.253982,"E":80.715225,"Quantity":"1.5 ha","Proposed measure/s":"Live fencing/SALT","Uniti_Cost":"250.00 m-1","Total_Cost":"375,000.00","Contribution (Local Community, LA, and the project)":"Labour and other basic services by the Local community","Time frame for the implementation":"0.25 Years","photopath":"https://raw.githubusercontent.com/MWS003-GIS/MWS003-GIS.github.io/main/IWWRMP/Data/EXD/200_photo/MWS_007_1/Sinharagama/SG4.jpg"},"geometry":{"type":"Point","coordinates":[80.715225,7.253982]}},
{"type":"Feature","properties":{"No.":4,"GND No.":988,"GND Name":"Sinharagama","Key Activities proposed for Soil and Water conservation":"4. Soil conservation practices - Pubudugama Royal (70)","Priority based on Soil Erosion Hazard":"2","N":7.246594,"E":80.718137,"Quantity":"6 ha","Proposed measure/s":"Live fencing/SALT","Uniti_Cost":"250.00 m-1","Total_Cost":"1,500,000.00","Contribution (Local Community, LA, and the project)":"Labour and other basic services by the Local community","Time frame for the implementation":"0.25 Years","photopath":"https://raw.githubusercontent.com/MWS003-GIS/MWS003-GIS.github.io/main/IWWRMP/Data/EXD/200_photo/MWS_007_1/Sinharagama/SG5.jpg"},"geometry":{"type":"Point","coordinates":[80.718137,7.246594]}},
{"type":"Feature","properties":{"No.":5,"GND No.":1001,"GND Name":"Haragama","Key Activities proposed for Soil and Water conservation":"1. Soil and water conservation practices - Sugathanandarama Temples (85)","Priority based on Soil Erosion Hazard":"1","N":7.250282,"E":80.731071,"Quantity":"1 ha","Proposed measure/s":"Live fencing/SALT","Uniti_Cost":"250.00 m-1","Total_Cost":"250,000.00","Contribution (Local Community, LA, and the project)":"Labour and other basic services by the Local community","Time frame for the implementation":"0.25 Years","photopath":"https://raw.githubusercontent.com/MWS003-GIS/MWS003-GIS.github.io/main/IWWRMP/Data/EXD/200_photo/MWS_007_1/Haragama/H16.jpg"},"geometry":{"type":"Point","coordinates":[80.731071,7.250282]}},
{"type":"Feature","properties":{"No.":6,"GND No.":1001,"GND Name":"Haragama","Key Activities proposed for Soil and Water conservation":"2. Development of banks of the Mahaweli River (85)","Priority based on Soil Erosion Hazard":"4","N":7.250369,"E":80.736511,"Quantity":"4 km","Proposed measure/s":"Planting trees along the banks (Arecanut, Nuga, Mee etc.)","Uniti_Cost":"-","Total_Cost":"400,000.00","Contribution (Local Community, LA, and the project)":"Labour and other basic services by the Local community","Time frame for the implementation":"0.25 Years","photopath":"https://raw.githubusercontent.com/MWS003-GIS/MWS003-GIS.github.io/main/IWWRMP/Data/EXD/200_photo/MWS_007_1/Haragama/H1.jpg"},"geometry":{"type":"Point","coordinates":[80.736511,7.250369]}},
{"type":"Feature","properties":{"No.":7,"GND No.":1001,"GND Name":"Haragama","Key Activities proposed for Soil and Water conservation":"2. Development of banks of the Mahaweli River (85)","Priority based on Soil Erosion Hazard":"-","N":7.250381,"E":80.739882,"Quantity":"-","Proposed measure/s":"-","Uniti_Cost":"-","Total_Cost":"-","Contribution (Local Community, LA, and the project)":"-","Time frame for the implementation":"-","photopath":"https://raw.githubusercontent.com/MWS003-GIS/MWS003-GIS.github.io/main/IWWRMP/Data/EXD/200_photo/MWS_007_1/Haragama/H1.jpg"},"geometry":{"type":"Point","coordinates":[80.739882,7.250381]}},
{"type":"Feature","properties":{"No.":8,"GND No.":1001,"GND Name":"Haragama","Key Activities proposed for Soil and Water conservation":"2. Development of banks of the Mahaweli River (85)","Priority based on Soil Erosion Hazard":"-","N":7.24954,"E":80.742296,"Quantity":"-","Proposed measure/s":"-","Uniti_Cost":"-","Total_Cost":"-","Contribution (Local Community, LA, and the project)":"-","Time frame for the implementation":"-","photopath":"https://raw.githubusercontent.com/MWS003-GIS/MWS003-GIS.github.io/main/IWWRMP/Data/EXD/200_photo/MWS_007_1/Haragama/H2.jpg"},"geometry":{"type":"Point","coordinates":[80.742296,7.24954]}},
{"type":"Feature","properties":{"No.":9,"GND No.":1001,"GND Name":"Haragama","Key Activities proposed for Soil and Water conservation":"2. Development of banks of the Mahaweli River (85)","Priority based on Soil Erosion Hazard":"-","N":7.245881,"E":80.743697,"Quantity":"-","Proposed measure/s":"-","Uniti_Cost":"-","Total_Cost":"-","Contribution (Local Community, LA, and the project)":"-","Time frame for the implementation":"-","photopath":"https://raw.githubusercontent.com/MWS003-GIS/MWS003-GIS.github.io/main/IWWRMP/Data/EXD/200_photo/MWS_007_1/Haragama/H2.jpg"},"geometry":{"type":"Point","coordinates":[80.743697,7.245881]}},
{"type":"Feature","properties":{"No.":10,"GND No.":1001,"GND Name":"Haragama","Key Activities proposed for Soil and Water conservation":"3. Soil conservation practices - Anuragama Middle Road (85)","Priority based on Soil Erosion Hazard":"5","N":7.249301,"E":80.74272,"Quantity":"1.5 ha","Proposed measure/s":"Live fencing/SALT","Uniti_Cost":"250.00 m-1","Total_Cost":"375,000.00","Contribution (Local Community, LA, and the project)":"Labour and other basic services by the Local community","Time frame for the implementation":"0.25 Years","photopath":"https://raw.githubusercontent.com/MWS003-GIS/MWS003-GIS.github.io/main/IWWRMP/Data/EXD/200_photo/MWS_007_1/Haragama/H12.jpg"},"geometry":{"type":"Point","coordinates":[80.74272,7.249301]}},
{"type":"Feature","properties":{"No.":11,"GND No.":1001,"GND Name":"Haragama","Key Activities proposed for Soil and Water conservation":"3. Soil conservation practices - Anuragama Middle Road (85)","Priority based on Soil Erosion Hazard":"-","N":7.249021,"E":80.743037,"Quantity":"-","Proposed measure/s":"Introducing perennial crops like coffee, pepper","Uniti_Cost":"-","Total_Cost":"-","Contribution (Local Community, LA, and the project)":"-","Time frame for the implementation":"-","photopath":"https://raw.githubusercontent.com/MWS003-GIS/MWS003-GIS.github.io/main/IWWRMP/Data/EXD/200_photo/MWS_007_1/Haragama/H12.1.jpg"},"geometry":{"type":"Point","coordinates":[80.743037,7.249021]}},
{"type":"Feature","properties":{"No.":12,"GND No.":1002,"GND Name":"Udamailapitiya North","Key Activities proposed for Soil and Water conservation":"1. Developemnt of natural dain - Kolabothenna Mala Kandura","Priority based on Soil Erosion Hazard":"1","N":7.229576,"E":80.754336,"Quantity":"3 km","Proposed measure/s":"Clearing and planting some trees along the banks (Aracanut)","Uniti_Cost":"-","Total_Cost":"300,000.00","Contribution (Local Community, LA, and the project)":"Labour and other basic services by the Local community","Time frame for the implementation":"0.25 Years","photopath":"https://raw.githubusercontent.com/MWS003-GIS/MWS003-GIS.github.io/main/IWWRMP/Data/EXD/200_photo/MWS_007_1/Udamayilapitiya_North/MLP2.jpg"},"geometry":{"type":"Point","coordinates":[80.754336,7.229576]}},
{"type":"Feature","properties":{"No.":14,"GND No.":1002,"GND Name":"Udamailapitiya North","Key Activities proposed for Soil and Water conservation":"3. Soil conservation practices - Udamailapitiya (45 - 75)","Priority based on Soil Erosion Hazard":"2","N":7.227303,"E":80.755041,"Quantity":"4 ha","Proposed measure/s":"Live fencing/SALT","Uniti_Cost":"250.00 m-1","Total_Cost":"1,000,000.00","Contribution (Local Community, LA, and the project)":"Labour and other basic services by the Local community","Time frame for the implementation":"0.25 Years","photopath":"https://raw.githubusercontent.com/MWS003-GIS/MWS003-GIS.github.io/main/IWWRMP/Data/EXD/200_photo/MWS_007_1/Udamayilapitiya_North/MLP5.jpg"},"geometry":{"type":"Point","coordinates":[80.755041,7.227303]}},
{"type":"Feature","properties":{"No.":15,"GND No.":1002,"GND Name":"Udamailapitiya North","Key Activities proposed for Soil and Water conservation":"-","Priority based on Soil Erosion Hazard":"1","N":7.227468,"E":80.749495,"Quantity":"12 ha","Proposed measure/s":"Live fencing/SALT","Uniti_Cost":"250.00 m-1","Total_Cost":"3,000,000.00","Contribution (Local Community, LA, and the project)":"Labour and other basic services by the Local community","Time frame for the implementation":"0.5 Years","photopath":"https://raw.githubusercontent.com/MWS003-GIS/MWS003-GIS.github.io/main/IWWRMP/Data/EXD/200_photo/MWS_007_1/Udamayilapitiya_North/MLP13.jpg"},"geometry":{"type":"Point","coordinates":[80.749495,7.227468]}},
{"type":"Feature","properties":{"No.":16,"GND No.":1002,"GND Name":"Udamailapitiya North","Key Activities proposed for Soil and Water conservation":"-","Priority based on Soil Erosion Hazard":"4","N":7.230176,"E":80.751087,"Quantity":"6 ha","Proposed measure/s":"Live fencing/SALT","Uniti_Cost":"250.00 m-1","Total_Cost":"1,500,000.00","Contribution (Local Community, LA, and the project)":"Labour and other basic services by the Local community","Time frame for the implementation":"0.25 Years","photopath":"Not_Available"},"geometry":{"type":"Point","coordinates":[80.751087,7.230176]}},
{"type":"Feature","properties":{"No.":17,"GND No.":1004,"GND Name":"Kekigannawala","Key Activities proposed for Soil and Water conservation":"1. Developemnt of natural dain - Main Kandura at the middle of the village","Priority based on Soil Erosion Hazard":"3","N":7.214107,"E":80.75317,"Quantity":"2 km","Proposed measure/s":"Clearing and planting some trees along the banks (Aracanut)","Uniti_Cost":"-","Total_Cost":"200,000.00","Contribution (Local Community, LA, and the project)":"Labour and other basic services by the Local community","Time frame for the implementation":"0.25 Years","photopath":"https://raw.githubusercontent.com/MWS003-GIS/MWS003-GIS.github.io/main/IWWRMP/Data/EXD/200_photo/MWS_007_1/Kathigannawela/KEG2.jpg"},"geometry":{"type":"Point","coordinates":[80.75317,7.214107]}},
{"type":"Feature","properties":{"No.":18,"GND No.":1004,"GND Name":"Kekigannawala","Key Activities proposed for Soil and Water conservation":"2. Developemnt of natural dain - Athuru Mala Kandura","Priority based on Soil Erosion Hazard":"5","N":7.213807,"E":80.750202,"Quantity":"550 m","Proposed measure/s":"Clearing and planting some trees along the banks (Aracanut)","Uniti_Cost":"-","Total_Cost":"55,000.00","Contribution (Local Community, LA, and the project)":"Labour and other basic services by the Local community","Time frame for the implementation":"0.25 Years","photopath":"https://raw.githubusercontent.com/MWS003-GIS/MWS003-GIS.github.io/main/IWWRMP/Data/EXD/200_photo/MWS_007_1/Kathigannawela/KEG9.jpg"},"geometry":{"type":"Point","coordinates":[80.750202,7.213807]}},
{"type":"Feature","properties":{"No.":19,"GND No.":1004,"GND Name":"Kekigannawala","Key Activities proposed for Soil and Water conservation":"3. Soil conservation practices - K. Sandanam, Kegar Estate (60)","Priority based on Soil Erosion Hazard":"1","N":7.21341,"E":80.75309,"Quantity":"20 ha","Proposed measure/s":"Live fencing/SALT","Uniti_Cost":"250.00 m-1","Total_Cost":"5,000,000.00","Contribution (Local Community, LA, and the project)":"Labour and other basic services by the Local community","Time frame for the implementation":"1 Year","photopath":"https://raw.githubusercontent.com/MWS003-GIS/MWS003-GIS.github.io/main/IWWRMP/Data/EXD/200_photo/MWS_007_1/Kathigannawela/KEG3.jpg"},"geometry":{"type":"Point","coordinates":[80.75309,7.21341]}},
{"type":"Feature","properties":{"No.":20,"GND No.":1004,"GND Name":"Kekigannawala","Key Activities proposed for Soil and Water conservation":"4. Soil conservation practices - Dodamgolla (60)","Priority based on Soil Erosion Hazard":"5","N":7.216621,"E":80.748525,"Quantity":"20 ha","Proposed measure/s":"Live fencing/SALT","Uniti_Cost":"250.00 m-1","Total_Cost":"5,000,000.00","Contribution (Local Community, LA, and the project)":"Labour and other basic services by the Local community","Time frame for the implementation":"1 Year","photopath":"https://raw.githubusercontent.com/MWS003-GIS/MWS003-GIS.github.io/main/IWWRMP/Data/EXD/200_photo/MWS_007_1/Kathigannawela/KEG13.jpg"},"geometry":{"type":"Point","coordinates":[80.748525,7.216621]}},
{"type":"Feature","properties":{"No.":21,"GND No.":1004,"GND Name":"Kekigannawala","Key Activities proposed for Soil and Water conservation":"5. Establishing a retaining wall","Priority based on Soil Erosion Hazard":"4","N":7.213745,"E":80.750169,"Quantity":"50 m x 2.5 m","Proposed measure/s":"Retaining wall","Uniti_Cost":"2,000.00 m-2","Total_Cost":"250,000.00","Contribution (Local Community, LA, and the project)":"Labour and other basic services by the Local community","Time frame for the implementation":"0.25 Years","photopath":"https://raw.githubusercontent.com/MWS003-GIS/MWS003-GIS.github.io/main/IWWRMP/Data/EXD/200_photo/MWS_007_1/Kathigannawela/KEG8.jpg"},"geometry":{"type":"Point","coordinates":[80.750169,7.213745]}},
{"type":"Feature","properties":{"No.":22,"GND No.":1006,"GND Name":"Patha Mailapitiya South","Key Activities proposed for Soil and Water conservation":"1. Development of natural drains - Kukunuge Ela/Ettamban Ela","Priority based on Soil Erosion Hazard":"4","N":7.23557,"E":80.740009,"Quantity":"2 km","Proposed measure/s":"Clearing and planting some trees along the banks (Aracanut)","Uniti_Cost":"-","Total_Cost":"200,000.00","Contribution (Local Community, LA, and the project)":"Labour and other basic services by the Local community","Time frame for the implementation":"0.25 Years","photopath":"https://raw.githubusercontent.com/MWS003-GIS/MWS003-GIS.github.io/main/IWWRMP/Data/EXD/200_photo/MWS_007_1/Pathamayilapitiya_South/(02)PAMI_SK1.jpg"},"geometry":{"type":"Point","coordinates":[80.740009,7.23557]}},
{"type":"Feature","properties":{"No.":23,"GND No.":1006,"GND Name":"Patha Mailapitiya South","Key Activities proposed for Soil and Water conservation":"2. Development of natural drains - Hathbeya Ela","Priority based on Soil Erosion Hazard":"5","N":7.233052,"E":80.743542,"Quantity":"3 km","Proposed measure/s":"Clearing and planting some trees along the banks (Aracanut)","Uniti_Cost":"-","Total_Cost":"200,000.00","Contribution (Local Community, LA, and the project)":"Labour and other basic services by the Local community","Time frame for the implementation":"0.25 Years","photopath":"https://raw.githubusercontent.com/MWS003-GIS/MWS003-GIS.github.io/main/IWWRMP/Data/EXD/200_photo/MWS_007_1/Pathamayilapitiya_South/(02)PAMI_SK2.jpg"},"geometry":{"type":"Point","coordinates":[80.743542,7.233052]}},
{"type":"Feature","properties":{"No.":24,"GND No.":1006,"GND Name":"Patha Mailapitiya South","Key Activities proposed for Soil and Water conservation":"3. Development of natural drains - Mailapitiya Central College Ela","Priority based on Soil Erosion Hazard":"5","N":7.230487,"E":80.748899,"Quantity":"400 m","Proposed measure/s":"Clearing and planting some trees along the banks (Aracanut)\nA retaining wall (65 m x 1.5 m)","Uniti_Cost":"2,000.00 m-2","Total_Cost":"40000\n195000","Contribution (Local Community, LA, and the project)":"Labour and other basic services by the Local community","Time frame for the implementation":"0.25 Years","photopath":"https://raw.githubusercontent.com/MWS003-GIS/MWS003-GIS.github.io/main/IWWRMP/Data/EXD/200_photo/MWS_007_1/Pathamayilapitiya_South/(02)PAMI_SK3.jpg"},"geometry":{"type":"Point","coordinates":[80.748899,7.230487]}},
{"type":"Feature","properties":{"No.":25,"GND No.":1006,"GND Name":"Patha Mailapitiya South","Key Activities proposed for Soil and Water conservation":"4. Soil conservation practices - Aponso Waththa (40)","Priority based on Soil Erosion Hazard":"1","N":7.232039,"E":80.754728,"Quantity":"7.2 ha","Proposed measure/s":"Live fencing/SALT","Uniti_Cost":"250.00 m-1","Total_Cost":"1,800,000.00","Contribution (Local Community, LA, and the project)":"Labour and other basic services by the Local community","Time frame for the implementation":"0.25 Years","photopath":"https://raw.githubusercontent.com/MWS003-GIS/MWS003-GIS.github.io/main/IWWRMP/Data/EXD/200_photo/MWS_007_1/Pathamayilapitiya_South/(05)PAMI_L1.jpg"},"geometry":{"type":"Point","coordinates":[80.754728,7.232039]}},
{"type":"Feature","properties":{"No.":26,"GND No.":1006,"GND Name":"Patha Mailapitiya South","Key Activities proposed for Soil and Water conservation":"5. Soil conservation practices - Aponso Waththa (25)","Priority based on Soil Erosion Hazard":"3","N":7.236719,"E":80.756104,"Quantity":"3.2 ha","Proposed measure/s":"Lock and spills","Uniti_Cost":"400.00 m-1","Total_Cost":"1,280,000.00","Contribution (Local Community, LA, and the project)":"Labour and other basic services by the Local community","Time frame for the implementation":"0.25 Years","photopath":"https://raw.githubusercontent.com/MWS003-GIS/MWS003-GIS.github.io/main/IWWRMP/Data/EXD/200_photo/MWS_007_1/Pathamayilapitiya_South/(05)PAMI_L2.jpg"},"geometry":{"type":"Point","coordinates":[80.756104,7.236719]}},
{"type":"Feature","properties":{"No.":27,"GND No.":1006,"GND Name":"Patha Mailapitiya South","Key Activities proposed for Soil and Water conservation":"6. Soil conservation practices - Mailapitiya 17th Post (70)","Priority based on Soil Erosion Hazard":"1","N":7.236286,"E":80.74466,"Quantity":"4.8 ha","Proposed measure/s":"Live fencing/SALT","Uniti_Cost":"250.00 m-1","Total_Cost":"1,200,000.00","Contribution (Local Community, LA, and the project)":"Labour and other basic services by the Local community","Time frame for the implementation":"0.25 Years","photopath":"https://raw.githubusercontent.com/MWS003-GIS/MWS003-GIS.github.io/main/IWWRMP/Data/EXD/200_photo/MWS_007_1/Pathamayilapitiya_South/(05)PAMI_L3.jpg"},"geometry":{"type":"Point","coordinates":[80.74466,7.236286]}},
{"type":"Feature","properties":{"No.":28,"GND No.":1006,"GND Name":"Patha Mailapitiya South","Key Activities proposed for Soil and Water conservation":"7. Soil conservation practices - Patha Mailapitiya South (75)","Priority based on Soil Erosion Hazard":"4","N":7.235614,"E":80.743849,"Quantity":"4.8 ha","Proposed measure/s":"Live fencing/SALT","Uniti_Cost":"250.00 m-1","Total_Cost":"1,200,000.00","Contribution (Local Community, LA, and the project)":"Labour and other basic services by the Local community","Time frame for the implementation":"0.25 Years","photopath":"https://raw.githubusercontent.com/MWS003-GIS/MWS003-GIS.github.io/main/IWWRMP/Data/EXD/200_photo/MWS_007_1/Pathamayilapitiya_South/(05)PAMI_L4.jpg"},"geometry":{"type":"Point","coordinates":[80.743849,7.235614]}}
]}