{
"type": "FeatureCollection",
"name": "DWS",
"crs": { "type": "name", "properties": { "name": "urn:ogc:def:crs:OGC:1.3:CRS84" } },
"features": [
{ "type": "Feature", "properties": { "No": 17, "GND No.": 534, "Scheme": "Pathumgama", "N": 7.001451, "E": 80.822401, "Observation": "It was reported that the water source has been developed and it is difficult to reach. A water scheme is operating from this this water source. but its stock tanks and some parts of the pipeline are in a dilapidated condition.", "Description": "Construction of Concrete water storage tank of 20 cum - size internal t 3mx3mx2.5\n\nExcavation in trenches less than 300mm width in normal earth average depth of not exceeding 1.0m from ground level inclusive of back filling, compacting and disposal of su", "Estimated Cost": 984500, "photopath": "https://raw.githubusercontent.com/MWS003-GIS/MWS003-GIS.github.io/main/IWWRMP/Data/EXD/200_photo/MWS_169/Regularization of Community Water Schemes - Pathumgama small scale water project.jpg" }, "geometry": { "type": "Point", "coordinates": [ 80.822401, 7.001451 ] } }
]
}
