{"type":"FeatureCollection","name":"Landslide","crs":{"type":"name","properties":{"name":"urn:ogc:def:crs:OGC:1.3:CRS84"}},"features":[
{"type":"Feature","properties":{"No.":2,"GN Division No.":"43F","GN Division":"Kodakumbura","Landslides":"Erosion of the road - Kande Ela Main Road","N":6.959501,"E":80.870686,"NBRO Recommendation N/A":"Needs NBRO concern","Proposed Measures":"Follow the recommedations of NBRO","photopath":"https://raw.githubusercontent.com/MWS003-GIS/MWS003-GIS.github.io/main/IWWRMP/Data/EXD/200_photo/MWS_043_1/IMG_20250729_112426 Kande ella main road.jpg"},"geometry":{"type":"Point","coordinates":[80.870686,6.959501]}},
{"type":"Feature","properties":{"No.":3,"GN Division No.":"44","GN Division":"Uduhawara","Landslides":"Landsliding - Urubokka","N":6.944743,"E":80.861738,"NBRO Recommendation N/A":"Needs NBRO concern","Proposed Measures":"Follow the recommedations of NBRO","photopath":"https://raw.githubusercontent.com/MWS003-GIS/MWS003-GIS.github.io/main/IWWRMP/Data/EXD/200_photo/MWS_043_1/IMG_20250716_123420 Urubokka earth slip.jpg"},"geometry":{"type":"Point","coordinates":[80.861738,6.944743]}},
{"type":"Feature","properties":{"No.":4,"GN Division No.":"44A","GN Division":"Malapolagama","Landslides":"Collapsing banks - Othuda (Mr. K.M. Sugathkumara, Mrs. Nadeesha)","N":6.956444,"E":80.846763,"NBRO Recommendation N/A":"Needs NBRO concern","Proposed Measures":"Follow the recommedations of NBRO","photopath":"https://raw.githubusercontent.com/MWS003-GIS/MWS003-GIS.github.io/main/IWWRMP/Data/EXD/200_photo/MWS_043_1/IMG_20250723_132648 Earth slip land.jpg"},"geometry":{"type":"Point","coordinates":[80.846763,6.956444]}},
{"type":"Feature","properties":{"No.":5,"GN Division No.":"44B","GN Division":"Welamedagama","Landslides":"Soil sloughing/collapsing - Ambagahapathana area","N":6.94778,"E":80.85594,"NBRO Recommendation N/A":"Needs NBRO concern","Proposed Measures":"Follow the recommedations of NBRO","photopath":"https://raw.githubusercontent.com/MWS003-GIS/MWS003-GIS.github.io/main/IWWRMP/Data/EXD/200_photo/MWS_043_1/IMG_20250725_113101 Ambagahapathana.jpg"},"geometry":{"type":"Point","coordinates":[80.85594,6.94778]}}
]}