{"type":"FeatureCollection","name":"MI","crs":{"type":"name","properties":{"name":"urn:ogc:def:crs:OGC:1.3:CRS84"}},"features":[
{"type":"Feature","properties":{"No":1,"GND No.":"43A","Scheme":"Hathapeella anicut and canal","N":6.954721,"E":80.882742,"Observation":"The total length of the canal 500m, out of which 150m concreted. Command area 27 (17-Idama GND)  acres.","Description":"Canal reservation protection by concrete lining  For  100mm thick , 0.3m  wide  and 0.3m high canal -double banking\n\nStream / canal  reservation protection by earthfilling of  strip   of 1.5m to 2m wide  and average Depth of 0.5m\n\nVegetative cover improv","Amount (Rs.)":"2,238,500","photopath":"https://raw.githubusercontent.com/MWS003-GIS/MWS003-GIS.github.io/main/IWWRMP/Data/EXD/200_photo/MWS_043_1/IMG_20250724_094848 Hathapitiya anicut.jpg"},"geometry":{"type":"Point","coordinates":[80.882742,6.954721]}},
{"type":"Feature","properties":{"No":2,"GND No.":"43A","Scheme":"Meeyan Arawe canal","N":6.954686,"E":80.883086,"Observation":"The total length of the canal 750m, out of which 190m concreted. Command area 8","Description":"Canal reservation protection by concrete lining  For  100mm thick , 0.3m  wide  and 0.3m high canal -double banking\n\nStream / canal  reservation protection by earthfilling of  strip   of 1.5m to 2m wide  and average Depth of 0.5m\n\nVegetative cover improv","Amount (Rs.)":"907,500","photopath":"https://raw.githubusercontent.com/MWS003-GIS/MWS003-GIS.github.io/main/IWWRMP/Data/EXD/200_photo/MWS_043_1/IMG_20250724_092847  Meeyan arawa canal.jpg"},"geometry":{"type":"Point","coordinates":[80.883086,6.954686]}},
{"type":"Feature","properties":{"No":3,"GND No.":"43A","Scheme":"Koraha Uwana canal","N":6.955365,"E":80.885486,"Observation":"The total length of the canal 350m, out of which 150m concreted. Command area 6 acres.","Description":"Construction of 18m long Trough (with 0.50m x 0.40m section), 3 no of 6 m long spans, 2 nos of piers (2.4 m high piers)\n\nSite preparation & setting out\n\nEarth excavation for foundation or quarry materials and haul the surplus materials up to 30m by Manua","Amount (Rs.)":"1,149,500","photopath":"https://raw.githubusercontent.com/MWS003-GIS/MWS003-GIS.github.io/main/IWWRMP/Data/EXD/200_photo/MWS_043_1/IMG_20250724_102240 Koragahauwana canal.jpg"},"geometry":{"type":"Point","coordinates":[80.885486,6.955365]}},
{"type":"Feature","properties":{"No":4,"GND No.":"43A","Scheme":"Gal Arawa anicut and canal","N":6.960784,"E":80.876971,"Observation":"About 600m long earthen canal, Command area 9.0 acres","Description":"Construction of 1.2m high x 7.0m long Anicut\n\nSite preparation & setting out\n\nConstruction of 1.2 m high Weir across stream excluding abutments and stop planks\n\nConstruction of 1.5m high 1:3:6 (40mm) cement concrete Retaining Wall \n\n75mm tk. Stop planks","Amount (Rs.)":"2,502,500","photopath":"Not_Available"},"geometry":{"type":"Point","coordinates":[80.876971,6.960784]}},
{"type":"Feature","properties":{"No":5,"GND No.":"43A","Scheme":"Wakarawa canal","N":6.954768,"E":80.885587,"Observation":"About 500m long earthen canal, Command area 9.0 acres","Description":"Canal reservation protection by concrete lining  For  100mm thick , 0.3m  wide  and 0.3m high canal -double banking\n\nStream / canal  reservation protection by earthfilling of  strip   of 1.5m to 2m wide  and average Depth of 0.5m\n\nVegetative cover improv","Amount (Rs.)":"841,500","photopath":"https://raw.githubusercontent.com/MWS003-GIS/MWS003-GIS.github.io/main/IWWRMP/Data/EXD/200_photo/MWS_043_1/IMG_20250724_101116 Wakarawe canal.jpg"},"geometry":{"type":"Point","coordinates":[80.885587,6.954768]}},
{"type":"Feature","properties":{"No":6,"GND No.":"43F","Scheme":"Kande ela canal","N":6.959478,"E":80.87062,"Observation":"The total length of the canal 3000m, out of which 300m concreted. Command area 75 acres.","Description":"Canal reservation protection by concrete lining  For  125mm thick , 0.5m  wide  and 0.4m high canal -double banking\n\nStream / canal  reservation protection by earthfilling of  strip   of 1.5m to 2m wide  and average Depth of 0.5m\n\nVegetative cover improv","Amount (Rs.)":"4,152,500","photopath":"https://raw.githubusercontent.com/MWS003-GIS/MWS003-GIS.github.io/main/IWWRMP/Data/EXD/200_photo/MWS_043_1/IMG_20250729_113054 Kande ela.jpg"},"geometry":{"type":"Point","coordinates":[80.87062,6.959478]}},
{"type":"Feature","properties":{"No":7,"GND No.":"44","Scheme":"Pattiyakumbura canal","N":6.949457,"E":80.863755,"Observation":"The total length of the canal 1500m, out of which 750m concreted. Command area 35 acres.","Description":"Canal reservation protection by concrete lining  For  125mm thick , 0.5m  wide  and 0.4m high canal -double banking\n\nStream / canal  reservation protection by earthfilling of  strip   of 1.5m to 2m wide  and average Depth of 0.5m\n\nVegetative cover improv","Amount (Rs.)":"3,201,000","photopath":"https://raw.githubusercontent.com/MWS003-GIS/MWS003-GIS.github.io/main/IWWRMP/Data/EXD/200_photo/MWS_043_1/IMG_20250716_090641 pattiya kumbura canal.jpg"},"geometry":{"type":"Point","coordinates":[80.863755,6.949457]}},
{"type":"Feature","properties":{"No":8,"GND No.":"44","Scheme":"Thinnawela canal","N":6.950843,"E":80.857891,"Observation":"About 750m long earthen canal, Command area 15.0 acres","Description":"Canal reservation protection by concrete lining  For  100mm thick , 0.3m  wide  and 0.3m high canal -double banking\n\nStream / canal  reservation protection by earthfilling of  strip   of 1.5m to 2m wide  and average Depth of 0.5m\n\nVegetative cover improv","Amount (Rs.)":"1,606,000","photopath":"https://raw.githubusercontent.com/MWS003-GIS/MWS003-GIS.github.io/main/IWWRMP/Data/EXD/200_photo/MWS_043_1/IMG_20250716_111555 Tinnanwela canal.jpg"},"geometry":{"type":"Point","coordinates":[80.857891,6.950843]}},
{"type":"Feature","properties":{"No":9,"GND No.":"44B","Scheme":"Ambagahawela canal and anicut","N":6.955997,"E":80.8568,"Observation":"The total length of the canal 2500m, out of which 2000m concreted. Command area 27 acres. A six-inch PVC two pipes are installed at the site where the canal has broken .","Description":"Construction of 12m long Trough (with 0.50m x 0.40m section), 2 no of 6 m long spans, 1 nos of piers (1.8 m high x 1 nos piers)\n\nSite preparation & setting out\n\nEarth excavation for foundation or quarry materials and haul the surplus materials up to 30m","Amount (Rs.)":"764,500","photopath":"https://raw.githubusercontent.com/MWS003-GIS/MWS003-GIS.github.io/main/IWWRMP/Data/EXD/200_photo/MWS_043_1/IMG_20250725_095351 Ambagahawela canal.jpg"},"geometry":{"type":"Point","coordinates":[80.8568,6.955997]}},
{"type":"Feature","properties":{"No":10,"GND No.":"44B","Scheme":"Galgommana canal","N":6.954366,"E":80.859763,"Observation":"About 650m long earthen canal, Command area 8.0 acres","Description":"Canal reservation protection by concrete lining  For  100mm thick , 0.3m  wide  and 0.3m high canal -double banking\n\nStream / canal  reservation protection by earthfilling of  strip   of 1.5m to 2m wide  and average Depth of 0.5m\n\nVegetative cover improv","Amount (Rs.)":"1,875,500","photopath":"Not_Available"},"geometry":{"type":"Point","coordinates":[80.859763,6.954366]}},
{"type":"Feature","properties":{"No":11,"GND No.":"44B","Scheme":"Galpoththe canal system","N":6.953495,"E":80.864137,"Observation":"About 900m long earthen canal, Command area 12.0 acres","Description":"Canal reservation protection by concrete lining  For  100mm thick , 0.3m  wide  and 0.3m high canal -double banking\n\nStream / canal  reservation protection by earthfilling of  strip   of 1.5m to 2m wide  and average Depth of 0.5m\n\nVegetative cover improv","Amount (Rs.)":"1,292,500","photopath":"https://raw.githubusercontent.com/MWS003-GIS/MWS003-GIS.github.io/main/IWWRMP/Data/EXD/200_photo/MWS_043_1/IMG_20250725_130644Galpoththe canal.jpg"},"geometry":{"type":"Point","coordinates":[80.864137,6.953495]}},
{"type":"Feature","properties":{"No":12,"GND No.":"44C","Scheme":"Maithreewala canal","N":6.957247,"E":80.856706,"Observation":"The total length of the canal 600m, out of which 50m concreted. Command area 7 acres.","Description":"Canal reservation protection by concrete lining  For  100mm thick , 0.3m  wide  and 0.3m high canal -double banking\n\nStream / canal  reservation protection by earthfilling of  strip   of 1.5m to 2m wide  and average Depth of 0.5m\n\nVegetative cover improv","Amount (Rs.)":"1,177,000","photopath":"https://raw.githubusercontent.com/MWS003-GIS/MWS003-GIS.github.io/main/IWWRMP/Data/EXD/200_photo/MWS_043_1/IMG_20250722_094401 Mythee canal.jpg"},"geometry":{"type":"Point","coordinates":[80.856706,6.957247]}},
{"type":"Feature","properties":{"No":13,"GND No.":"44C","Scheme":"Bowaka canal","N":6.955273,"E":80.859746,"Observation":"The total length of the canal 800m, out of which 100m concreted. Command area 15 acres.","Description":"Canal reservation protection by concrete lining  For  100mm thick , 0.3m  wide  and 0.3m high canal -double banking\n\nStream / canal  reservation protection by earthfilling of  strip   of 1.5m to 2m wide  and average Depth of 0.5m\n\nVegetative cover improv","Amount (Rs.)":"1,468,500","photopath":"https://raw.githubusercontent.com/MWS003-GIS/MWS003-GIS.github.io/main/IWWRMP/Data/EXD/200_photo/MWS_043_1/IMG_20250722_093208 Bowaka canal.jpg"},"geometry":{"type":"Point","coordinates":[80.859746,6.955273]}},
{"type":"Feature","properties":{"No":14,"GND No.":"44C","Scheme":"Bogarawatta canal","N":6.958782,"E":80.865983,"Observation":"About 1000m long earthen canal, Command area 15.0acres","Description":"Canal reservation protection by concrete lining  For  100mm thick , 0.3m  wide  and 0.3m high canal -double banking\n\nStream / canal  reservation protection by earthfilling of  strip   of 1.5m to 2m wide  and average Depth of 0.5m\n\nVegetative cover improv","Amount (Rs.)":"1,540,000","photopath":"https://raw.githubusercontent.com/MWS003-GIS/MWS003-GIS.github.io/main/IWWRMP/Data/EXD/200_photo/MWS_043_1/IMG_20250722_105744 Bogaha arawa canal.jpg"},"geometry":{"type":"Point","coordinates":[80.865983,6.958782]}},
{"type":"Feature","properties":{"No":15,"GND No.":"44C","Scheme":"Medabadala canal","N":6.954928,"E":80.863413,"Observation":"About 600m long earthen canal, Command area 6.0acres","Description":"Canal reservation protection by concrete lining  For  100mm thick , 0.3m  wide  and 0.3m high canal -double banking\n\nStream / canal  reservation protection by earthfilling of  strip   of 1.5m to 2m wide  and average Depth of 0.5m\n\nVegetative cover improv","Amount (Rs.)":"3,201,000","photopath":"https://raw.githubusercontent.com/MWS003-GIS/MWS003-GIS.github.io/main/IWWRMP/Data/EXD/200_photo/MWS_043_1/IMG_20250722_103149 Medabadala canal.jpg"},"geometry":{"type":"Point","coordinates":[80.863413,6.954928]}},
{"type":"Feature","properties":{"No":16,"GND No.":"44C","Scheme":"Galpeththa canal","N":6.955879,"E":80.864197,"Observation":"The total length of the canal 500m, out of which 100m concreted. Command area 8 acres.","Description":"Canal reservation protection by concrete lining  For  100mm thick , 0.3m  wide  and 0.3m high canal -double banking\n\nStream / canal  reservation protection by earthfilling of  strip   of 1.5m to 2m wide  and average Depth of 0.5m\n\nVegetative cover improv","Amount (Rs.)":"770,000","photopath":"https://raw.githubusercontent.com/MWS003-GIS/MWS003-GIS.github.io/main/IWWRMP/Data/EXD/200_photo/MWS_043_1/IMG_20250722_104638 galpoththe canal.jpg"},"geometry":{"type":"Point","coordinates":[80.864197,6.955879]}}
]}