{"type":"FeatureCollection","name":"SWC_OFF","crs":{"type":"name","properties":{"name":"urn:ogc:def:crs:OGC:1.3:CRS84"}},"features":[
{"type":"Feature","properties":{"No.":2,"GND No.":"50A","GND Name":"Ambewela","Key Activities proposed for Soil and Water conservation":"1. Establishing a retaining wall - Ambewela Arawa (Kemahena - Kelapathana Road)","Priority based on Soil Erosion Hazard":1,"N":6.875967,"E":80.84243,"Quantity":"35 m x 3 m","Proposed measure/s":"Retaining Wall (Concrete)","Total_Cost":4070000,"Contribution (Local Community, LA, and the project)":"By the project","Time frame for the implementation":"0.25 Years","photopath":"Not_Available"},"geometry":{"type":"Point","coordinates":[80.84243,6.875967]}}
]}