{"type":"FeatureCollection","name":"SWC_ON","crs":{"type":"name","properties":{"name":"urn:ogc:def:crs:OGC:1.3:CRS84"}},"features":[
{"type":"Feature","properties":{"No.":2,"GND No.":"50A","GND Name":"Ambewela","Key Activities proposed for Soil and Water conservation":"1. Soil conservation practices -  Nursery Division (Thavana) (55°-75°)","Priority based on Soil Erosion Hazard":1,"N":6.887441,"E":80.836973,"Quantity":"8 ha","Proposed measure/s":"1. Live fencing/SALT  - 5000 m","Uniti_Cost":"250.00 m-1","Total_Cost":1250000,"Contribution (Local Community, LA, and the project)":"Labour and other basic services by the Local community","Time frame for the implementation":"0.25 Years","photopath":"https://raw.githubusercontent.com/MWS003-GIS/MWS003-GIS.github.io/main/IWWRMP/Data/EXD/200_photo/MWS_059/Thavana Vegetable Land 1.jpg"},"geometry":{"type":"Point","coordinates":[80.836973,6.887441]}},
{"type":"Feature","properties":{"No.":3,"GND No.":"50A","GND Name":"Ambewela","Key Activities proposed for Soil and Water conservation":"2. Soil conservation practices -  Welibissewela (55°-70°)","Priority based on Soil Erosion Hazard":5,"N":6.886999,"E":80.837348,"Quantity":"24 ha","Proposed measure/s":"1. Live fencing/SALT  - 20000 m","Uniti_Cost":"250.00 m-1","Total_Cost":5000000,"Contribution (Local Community, LA, and the project)":"Labour and other basic services by the Local community","Time frame for the implementation":"0.25 Years","photopath":"https://raw.githubusercontent.com/MWS003-GIS/MWS003-GIS.github.io/main/IWWRMP/Data/EXD/200_photo/MWS_059/Welibissawela Vegetable land 2.jpg"},"geometry":{"type":"Point","coordinates":[80.837348,6.886999]}}
]}