{"type":"FeatureCollection","name":"SWC_OFF","crs":{"type":"name","properties":{"name":"urn:ogc:def:crs:OGC:1.3:CRS84"}},"features":[
{"type":"Feature","properties":{"No.":1,"GND No.":820,"GND Name":"Thannalanda","Key Activities proposed for Soil and Water conservation":"1. Establishing a retaining wall - Near the Samurdhi Well Road","Priority based on Soil Erosion Hazard":1,"N":7.24254,"E":80.800836,"Quantity":"20 m x 3 m","Proposed measure/s":"Retaining Wall (Concrete)","Total_Cost":"2,332,000.00","Contribution (Local Community, LA, and the project)":"By the project","Time frame for the implementation":"0.25 Years","photopath":"Not_Available"},"geometry":{"type":"Point","coordinates":[80.800836,7.24254]}}
]}