{"type":"FeatureCollection","name":"WSP","crs":{"type":"name","properties":{"name":"urn:ogc:def:crs:OGC:1.3:CRS84"}},"features":[
{"type":"Feature","properties":{"No":82,"GND No.":"57","Name of the Tank":"Dikroda","N":6.888206,"E":80.973846,"Observation":"The land belongs to A.G'S Office","Description":"75 Kumbuk Tree Plantation and Marking  Reservation\n\nSupplying of Kumbuk seedlings [to be planted in 3.5m x 3.5m grid]\n\nSupplying of NPK fertilizer [0.10kg/plant]\n\nGround preparation & maintenance [7 L/days per 100.0m x 2.0m]\n\nPlanting & fertilizer applic","Amount (Rs.)":305800,"photopath":"https://raw.githubusercontent.com/MWS003-GIS/MWS003-GIS.github.io/main/IWWRMP/Data/EXD/200_photo/MWS_068/IMG_20251015_101730 Dikroda forest.jpg"},"geometry":{"type":"Point","coordinates":[80.973846,6.888206]}},
{"type":"Feature","properties":{"No":83,"GND No.":"57","Name of the Tank":"Medaulpatha","N":6.875739,"E":80.986676,"Observation":"The land belongs to A.G'S Office","Description":"50 Kumbuk Tree Plantation and Marking  Reservation\n\nSupplying of Kumbuk seedlings [to be planted in 3.5m x 3.5m grid]\n\nSupplying of NPK fertilizer [0.10kg/plant]\n\nGround preparation & maintenance [7 L/days per 100.0m x 2.0m]\n\nPlanting & fertilizer applic","Amount (Rs.)":278300,"photopath":"https://raw.githubusercontent.com/MWS003-GIS/MWS003-GIS.github.io/main/IWWRMP/Data/EXD/200_photo/MWS_068/IMG_20251015_102200 Medaulpotha forest.jpg"},"geometry":{"type":"Point","coordinates":[80.986676,6.875739]}},
{"type":"Feature","properties":{"No":84,"GND No.":"57","Name of the Tank":"Gasgolla","N":6.883091,"E":80.982866,"Observation":"The land belongs to A.G'S Office","Description":"50 Kumbuk Tree Plantation and Marking  Reservation\n\nSupplying of Kumbuk seedlings [to be planted in 3.5m x 3.5m grid]\n\nSupplying of NPK fertilizer [0.10kg/plant]\n\nGround preparation & maintenance [7 L/days per 100.0m x 2.0m]\n\nPlanting & fertilizer applic","Amount (Rs.)":231000,"photopath":"https://raw.githubusercontent.com/MWS003-GIS/MWS003-GIS.github.io/main/IWWRMP/Data/EXD/200_photo/MWS_068/IMG_20251015_095739 Gasgolla forest.jpg"},"geometry":{"type":"Point","coordinates":[80.982866,6.883091]}},
{"type":"Feature","properties":{"No":85,"GND No.":"57","Name of the Tank":"Watabedda","N":6.889797,"E":80.986856,"Observation":"The land belongs to A.G'S Office","Description":"50 Kumbuk Tree Plantation and Marking  Reservation\n\nSupplying of Kumbuk seedlings [to be planted in 3.5m x 3.5m grid]\n\nSupplying of NPK fertilizer [0.10kg/plant]\n\nGround preparation & maintenance [7 L/days per 100.0m x 2.0m]\n\nPlanting & fertilizer applic","Amount (Rs.)":278300,"photopath":"https://raw.githubusercontent.com/MWS003-GIS/MWS003-GIS.github.io/main/IWWRMP/Data/EXD/200_photo/MWS_068/IMG_20251015_094417 Watabedda Forest.jpg"},"geometry":{"type":"Point","coordinates":[80.986856,6.889797]}},
{"type":"Feature","properties":{"No":86,"GND No.":"57","Name of the Tank":"Dikroda reserve","N":6.877172,"E":80.986445,"Observation":"The land belongs to A.G'S Office","Description":"50 Kumbuk Tree Plantation and Marking  Reservation\n\nSupplying of Kumbuk seedlings [to be planted in 3.5m x 3.5m grid]\n\nSupplying of NPK fertilizer [0.10kg/plant]\n\nGround preparation & maintenance [7 L/days per 100.0m x 2.0m]\n\nPlanting & fertilizer applic","Amount (Rs.)":278300,"photopath":"https://raw.githubusercontent.com/MWS003-GIS/MWS003-GIS.github.io/main/IWWRMP/Data/EXD/200_photo/MWS_068/IMG_20251015_101730 Dikroda forest.jpg"},"geometry":{"type":"Point","coordinates":[80.986445,6.877172]}},
{"type":"Feature","properties":{"No":87,"GND No.":"57","Name of the Tank":"Maliththa division and mahathenna","N":6.876608,"E":80.984137,"Observation":"The land belongs to A.G'S Office","Description":"10 Kumbuk Tree Plantation and Marking  Reservation\n\nSupplying of Kumbuk seedlings [to be planted in 3.5m x 3.5m grid]\n\nSupplying of NPK fertilizer [0.10kg/plant]\n\nGround preparation & maintenance [7 L/days per 100.0m x 2.0m]\n\nPlanting & fertilizer applic","Amount (Rs.)":368500,"photopath":"Not_Available"},"geometry":{"type":"Point","coordinates":[80.984137,6.876608]}},
{"type":"Feature","properties":{"No":60,"GND No.":"57A","Name of the Tank":"Mee ambe well","N":6.892391,"E":80.970544,"Observation":"A Well is constructed  (5.4 m Dia.). A Well Located on public land. Used for drinking and bathing","Description":"Construction of Gabion Wall (20 m x 2 m)\n\nSite preparation & setting out\n\nEarth excavation for foundation or quarry materials and haul the surplus materials up to 30m by Manually.\n\nSpreading , Levelling and Compacting Manually Using Standard Cast Iron St","Amount (Rs.)":640200,"photopath":"https://raw.githubusercontent.com/MWS003-GIS/MWS003-GIS.github.io/main/IWWRMP/Data/EXD/200_photo/MWS_068/IMG_20251008_104418Meeambe well.jpg"},"geometry":{"type":"Point","coordinates":[80.970544,6.892391]}},
{"type":"Feature","properties":{"No":61,"GND No.":"57A","Name of the Tank":"Panwewa well","N":6.896856,"E":80.982262,"Observation":"A  Well is constructed (7.7 m x 4.6 m x5.0 m, L*W*H). A Well Located on  Public land.","Description":"Planting Trees and Provide a Cover Net\n\nVegetative cover improving around the reservation with Areca nut seedling in 1.5m x 1.5m grid, Kumbuk/ Mee/ Godapara/ Kaduru/ Aththikka/ Wal Del/ Kekuna/ randomly mixed seedlings and planting at 3.5m x 3.5 m grid i","Amount (Rs.)":726000,"photopath":"https://raw.githubusercontent.com/MWS003-GIS/MWS003-GIS.github.io/main/IWWRMP/Data/EXD/200_photo/MWS_068/IMG_20251008_122944 Panwewa well.jpg"},"geometry":{"type":"Point","coordinates":[80.982262,6.896856]}},
{"type":"Feature","properties":{"No":62,"GND No.":"57A","Name of the Tank":"Semba Ulpatha  reserve","N":6.893841,"E":80.984619,"Observation":"The land belongs to A.G'S Office","Description":"30 Kumbuk Tree Plantation\n\nSupplying of Kumbuk seedlings [to be planted in 3.5m x 3.5m grid]\n\nSupplying of NPK fertilizer [0.10kg/plant]\n\nGround preparation & maintenance [7 L/days per 100.0m x 2.0m]\n\nPlanting & fertilizer application [2.0 L/days per 100","Amount (Rs.)":226600,"photopath":"https://raw.githubusercontent.com/MWS003-GIS/MWS003-GIS.github.io/main/IWWRMP/Data/EXD/200_photo/MWS_068/IMG_20251008_125733 Semba spring reserve.jpg"},"geometry":{"type":"Point","coordinates":[80.984619,6.893841]}},
{"type":"Feature","properties":{"No":63,"GND No.":"57A","Name of the Tank":"Udabedda Ella reserve","N":6.896861,"E":80.979389,"Observation":"The land belongs to A.G'S Office","Description":"Planting Trees and Marking Reservations\n\nVegetative cover improving around the reservation with Areca nut seedling in 1.5m x 1.5m grid, Kumbuk/ Mee/ Godapara/ Kaduru/ Aththikka/ Wal Del/ Kekuna/ randomly mixed seedlings and planting at 3.5m x 3.5 m grid","Amount (Rs.)":848100,"photopath":"https://raw.githubusercontent.com/MWS003-GIS/MWS003-GIS.github.io/main/IWWRMP/Data/EXD/200_photo/MWS_068/IMG_20251008_113207 Udabedda ella reserve.jpg"},"geometry":{"type":"Point","coordinates":[80.979389,6.896861]}},
{"type":"Feature","properties":{"No":75,"GND No.":"57C","Name of the Tank":"Lindathanna Spring(Bulathwel kandura)","N":6.878255,"E":80.964588,"Observation":"The land belongs to A.G'S Office","Description":"150 Kumbuk Tree Plantation and Marking  Reservation\n\nSupplying of Kumbuk seedlings [to be planted in 3.5m x 3.5m grid]\n\nSupplying of NPK fertilizer [0.10kg/plant]\n\nGround preparation & maintenance [7 L/days per 100.0m x 2.0m]\n\nPlanting & fertilizer appli","Amount (Rs.)":374000,"photopath":"Not_Available"},"geometry":{"type":"Point","coordinates":[80.964588,6.878255]}},
{"type":"Feature","properties":{"No":76,"GND No.":"57C","Name of the Tank":"Boragas Spring","N":6.879481,"E":80.961799,"Observation":"The land belongs to A.G'S Office","Description":"25 Kumbuk Tree Plantation and Marking  Reservation\n\nSupplying of Kumbuk seedlings [to be planted in 3.5m x 3.5m grid]\n\nSupplying of NPK fertilizer [0.10kg/plant]\n\nGround preparation & maintenance [7 L/days per 100.0m x 2.0m]\n\nPlanting & fertilizer applic","Amount (Rs.)":191400,"photopath":"https://raw.githubusercontent.com/MWS003-GIS/MWS003-GIS.github.io/main/IWWRMP/Data/EXD/200_photo/MWS_068/IMG_20251014_104654 Boragas Reserve.jpg"},"geometry":{"type":"Point","coordinates":[80.961799,6.879481]}},
{"type":"Feature","properties":{"No":77,"GND No.":"57E","Name of the Tank":"Amunubedda","N":6.879942,"E":80.99585,"Observation":"The land belongs to A.G'S Office","Description":"200 Kumbuk Tree Plantation and Marking  Reservation\n\nSupplying of Kumbuk seedlings [to be planted in 3.5m x 3.5m grid]\n\nSupplying of NPK fertilizer [0.10kg/plant]\n\nGround preparation & maintenance [7 L/days per 100.0m x 2.0m]\n\nPlanting & fertilizer appli","Amount (Rs.)":379500,"photopath":"https://raw.githubusercontent.com/MWS003-GIS/MWS003-GIS.github.io/main/IWWRMP/Data/EXD/200_photo/MWS_068/IMG_20250923_095611 Amunubedda reseve.jpg"},"geometry":{"type":"Point","coordinates":[80.99585,6.879942]}},
{"type":"Feature","properties":{"No":78,"GND No.":"57E","Name of the Tank":"Gonamal pilla  reserve","N":6.884277,"E":80.986795,"Observation":"The land belongs to A.G'S Office","Description":"20 Kumbuk Tree Plantation and Marking  Reservation\n\nSupplying of Kumbuk seedlings [to be planted in 3.5m x 3.5m grid]\n\nSupplying of NPK fertilizer [0.10kg/plant]\n\nGround preparation & maintenance [7 L/days per 100.0m x 2.0m]\n\nPlanting & fertilizer applic","Amount (Rs.)":190300,"photopath":"Not_Available"},"geometry":{"type":"Point","coordinates":[80.986795,6.884277]}},
{"type":"Feature","properties":{"No":79,"GND No.":"57E","Name of the Tank":"Mahathenna pathana(Near the temple)","N":6.878288,"E":81.001609,"Observation":"The land belongs to A.G'S Office","Description":"100 Kumbuk Tree Plantation and Marking  Reservation\n\nSupplying of Kumbuk seedlings [to be planted in 3.5m x 3.5m grid]\n\nSupplying of NPK fertilizer [0.10kg/plant]\n\nGround preparation & maintenance [7 L/days per 100.0m x 2.0m]\n\nPlanting & fertilizer appli","Amount (Rs.)":368500,"photopath":"https://raw.githubusercontent.com/MWS003-GIS/MWS003-GIS.github.io/main/IWWRMP/Data/EXD/200_photo/MWS_068/IMG_20250923_114542 Near the temple reserve.jpg"},"geometry":{"type":"Point","coordinates":[81.001609,6.878288]}},
{"type":"Feature","properties":{"No":80,"GND No.":"57E","Name of the Tank":"Mahathenna pathana(Near the temple)","N":6.878293,"E":81.001383,"Observation":"A  tank is constructed (3.2m +5.0m+4.2 m length & 1 m hight).Water is leaking from the tank. A Tank Located on public land. Used for drinking and bathing","Description":"Replaster the Tank Walls and Provide a Cover Net\n\nClean around the tank\n\nWire brush the existing plasters in the wall\n\nPlaster 12mm thick in 1:3 cement and sand finished smooth with gray cement floating\n\nFabricating & fixing security weld mesh in open ty","Amount (Rs.)":437800,"photopath":"https://raw.githubusercontent.com/MWS003-GIS/MWS003-GIS.github.io/main/IWWRMP/Data/EXD/200_photo/MWS_068/IMG_20250923_141115 Mahathenna stok tank.jpg"},"geometry":{"type":"Point","coordinates":[81.001383,6.878293]}},
{"type":"Feature","properties":{"No":81,"GND No.":"57E","Name of the Tank":"Dikroda","N":6.876688,"E":80.986732,"Observation":"The land belongs to A.G'S Office","Description":"30 Kumbuk Tree Plantation and Marking  Reservation\n\nSupplying of Kumbuk seedlings [to be planted in 3.5m x 3.5m grid]\n\nSupplying of NPK fertilizer [0.10kg/plant]\n\nGround preparation & maintenance [7 L/days per 100.0m x 2.0m]\n\nPlanting & fertilizer applic","Amount (Rs.)":356400,"photopath":"https://raw.githubusercontent.com/MWS003-GIS/MWS003-GIS.github.io/main/IWWRMP/Data/EXD/200_photo/MWS_068/IMG_20250923_112646 Dikroda reserve.jpg"},"geometry":{"type":"Point","coordinates":[80.986732,6.876688]}},
{"type":"Feature","properties":{"No":72,"GND No.":"57G","Name of the Tank":"Hadilla gas ulpatha reserve","N":6.873057,"E":80.980304,"Observation":"The land belongs to A.G'S Office","Description":"60 Kumbuk Tree Plantation and Marking  Reservation\n\nSupplying of Kumbuk seedlings [to be planted in 3.5m x 3.5m grid]\n\nSupplying of NPK fertilizer [0.10kg/plant]\n\nGround preparation & maintenance [7 L/days per 100.0m x 2.0m]\n\nPlanting & fertilizer applic","Amount (Rs.)":348700,"photopath":"https://raw.githubusercontent.com/MWS003-GIS/MWS003-GIS.github.io/main/IWWRMP/Data/EXD/200_photo/MWS_068/IMG_20251009_131159 Hadillagas ulpatha reserve.jpg"},"geometry":{"type":"Point","coordinates":[80.980304,6.873057]}},
{"type":"Feature","properties":{"No":73,"GND No.":"57G","Name of the Tank":"Kalavitithanna reserve","N":6.868937,"E":80.986558,"Observation":"The land belongs to A.G'S Office","Description":"50 Kumbuk Tree Plantation and Marking  Reservation\n\nSupplying of Kumbuk seedlings [to be planted in 3.5m x 3.5m grid]\n\nSupplying of NPK fertilizer [0.10kg/plant]\n\nGround preparation & maintenance [7 L/days per 100.0m x 2.0m]\n\nPlanting & fertilizer applic","Amount (Rs.)":278300,"photopath":"https://raw.githubusercontent.com/MWS003-GIS/MWS003-GIS.github.io/main/IWWRMP/Data/EXD/200_photo/MWS_068/IMG_20251009_125029 Kalavity thenna reserve.jpg"},"geometry":{"type":"Point","coordinates":[80.986558,6.868937]}},
{"type":"Feature","properties":{"No":74,"GND No.":"57G","Name of the Tank":"Kalawitithenna","N":6.876069,"E":80.980758,"Observation":"The land belongs to A.G'S Office","Description":"100 Kumbuk Tree Plantation and Marking  Reservation\n\nSupplying of Kumbuk seedlings [to be planted in 3.5m x 3.5m grid]\n\nSupplying of NPK fertilizer [0.10kg/plant]\n\nGround preparation & maintenance [7 L/days per 100.0m x 2.0m]\n\nPlanting & fertilizer appli","Amount (Rs.)":368500,"photopath":"Not_Available"},"geometry":{"type":"Point","coordinates":[80.980758,6.876069]}},
{"type":"Feature","properties":{"No":64,"GND No.":"57H","Name of the Tank":"Sapugolla reserve","N":6.90102,"E":80.96984,"Observation":"The land belongs to A.G'S Office","Description":"500 Kumbuk Tree Plantation and Marking  Reservation\n\nSupplying of Kumbuk seedlings [to be planted in 3.5m x 3.5m grid]\n\nSupplying of NPK fertilizer [0.10kg/plant]\n\nGround preparation & maintenance [7 L/days per 100.0m x 2.0m]\n\nPlanting & fertilizer appli","Amount (Rs.)":402600,"photopath":"https://raw.githubusercontent.com/MWS003-GIS/MWS003-GIS.github.io/main/IWWRMP/Data/EXD/200_photo/MWS_068/IMG_20251016_122141 Sapugolla Forest.jpg"},"geometry":{"type":"Point","coordinates":[80.96984,6.90102]}},
{"type":"Feature","properties":{"No":66,"GND No.":"57H","Name of the Tank":"Galkanda reserve","N":6.911438,"E":80.978691,"Observation":"The land belongs to A.G'S Office","Description":"50 Kumbuk Tree Plantation and Marking  Reservation\n\nSupplying of Kumbuk seedlings [to be planted in 3.5m x 3.5m grid]\n\nSupplying of NPK fertilizer [0.10kg/plant]\n\nGround preparation & maintenance [7 L/days per 100.0m x 2.0m]\n\nPlanting & fertilizer applic","Amount (Rs.)":228800,"photopath":"https://raw.githubusercontent.com/MWS003-GIS/MWS003-GIS.github.io/main/IWWRMP/Data/EXD/200_photo/MWS_068/IMG_20251016_100953 Galkanda forest.jpg"},"geometry":{"type":"Point","coordinates":[80.978691,6.911438]}},
{"type":"Feature","properties":{"No":67,"GND No.":"57H","Name of the Tank":"Dunugehinna reserve","N":6.89757,"E":80.959899,"Observation":"The land belongs to A.G'S Office","Description":"50 Kumbuk Tree Plantation and Marking  Reservation\n\nSupplying of Kumbuk seedlings [to be planted in 3.5m x 3.5m grid]\n\nSupplying of NPK fertilizer [0.10kg/plant]\n\nGround preparation & maintenance [7 L/days per 100.0m x 2.0m]\n\nPlanting & fertilizer applic","Amount (Rs.)":228800,"photopath":"https://raw.githubusercontent.com/MWS003-GIS/MWS003-GIS.github.io/main/IWWRMP/Data/EXD/200_photo/MWS_068/IMG_20251016_125334 Dunugehinna Forest.jpg"},"geometry":{"type":"Point","coordinates":[80.959899,6.89757]}},
{"type":"Feature","properties":{"No":68,"GND No.":"57H","Name of the Tank":"Meenakoladowa","N":6.90537,"E":80.968521,"Observation":"The land belongs to A.G'S Office","Description":"100 Kumbuk Tree Plantation and Marking  Reservation\n\nSupplying of Kumbuk seedlings [to be planted in 3.5m x 3.5m grid]\n\nSupplying of NPK fertilizer [0.10kg/plant]\n\nGround preparation & maintenance [7 L/days per 100.0m x 2.0m]\n\nPlanting & fertilizer appli","Amount (Rs.)":357500,"photopath":"https://raw.githubusercontent.com/MWS003-GIS/MWS003-GIS.github.io/main/IWWRMP/Data/EXD/200_photo/MWS_068/IMG_20251016_122622  Meenakoladowa Forest.jpg"},"geometry":{"type":"Point","coordinates":[80.968521,6.90537]}},
{"type":"Feature","properties":{"No":69,"GND No.":"57H","Name of the Tank":"Madawalakapalla","N":6.905553,"E":80.975216,"Observation":"The land belongs to A.G'S Office","Description":"25 Kumbuk Tree Plantation and Marking  Reservation\n\nSupplying of Kumbuk seedlings [to be planted in 3.5m x 3.5m grid]\n\nSupplying of NPK fertilizer [0.10kg/plant]\n\nGround preparation & maintenance [7 L/days per 100.0m x 2.0m]\n\nPlanting & fertilizer applic","Amount (Rs.)":191400,"photopath":"https://raw.githubusercontent.com/MWS003-GIS/MWS003-GIS.github.io/main/IWWRMP/Data/EXD/200_photo/MWS_068/IMG_20251016_102701 Madawala kapalla forest.jpg"},"geometry":{"type":"Point","coordinates":[80.975216,6.905553]}},
{"type":"Feature","properties":{"No":70,"GND No.":"57H","Name of the Tank":"Aluththenna","N":6.900458,"E":80.967559,"Observation":"The land belongs to A.G'S Office","Description":"100 Kumbuk Tree Plantation and Marking  Reservation\n\nSupplying of Kumbuk seedlings [to be planted in 3.5m x 3.5m grid]\n\nSupplying of NPK fertilizer [0.10kg/plant]\n\nGround preparation & maintenance [7 L/days per 100.0m x 2.0m]\n\nPlanting & fertilizer appli","Amount (Rs.)":357500,"photopath":"https://raw.githubusercontent.com/MWS003-GIS/MWS003-GIS.github.io/main/IWWRMP/Data/EXD/200_photo/MWS_068/IMG_20251016_120948 Aluththenna forest.jpg"},"geometry":{"type":"Point","coordinates":[80.967559,6.900458]}},
{"type":"Feature","properties":{"No":71,"GND No.":"57H","Name of the Tank":"Diyaunnawa ella reserve","N":6.909125,"E":80.975134,"Observation":"The land belongs to A.G'S Office","Description":"50 Kumbuk Tree Plantation and Marking  Reservation\n\nSupplying of Kumbuk seedlings [to be planted in 3.5m x 3.5m grid]\n\nSupplying of NPK fertilizer [0.10kg/plant]\n\nGround preparation & maintenance [7 L/days per 100.0m x 2.0m]\n\nPlanting & fertilizer applic","Amount (Rs.)":228800,"photopath":"https://raw.githubusercontent.com/MWS003-GIS/MWS003-GIS.github.io/main/IWWRMP/Data/EXD/200_photo/MWS_068/IMG_20251016_134008 Diyaunnawa forest.jpg"},"geometry":{"type":"Point","coordinates":[80.975134,6.909125]}}
]}