{"type":"FeatureCollection","name":"MI","crs":{"type":"name","properties":{"name":"urn:ogc:def:crs:OGC:1.3:CRS84"}},"features":[
{"type":"Feature","properties":{"No":1,"GND No.":1027,"Scheme":"Muwanpeni Ella anicut","N":7.175838,"E":80.730576,"Observation":"-","Description":"The height of the anicut is insufficient. Irrigation canal is silted and covered with overgrowth due to poor maintenance. Recommend 1. to raise the anicut by casting a concrete capping of 300mm highx450mm wide x6m long. 2. To provide anicut planks of 1.4 Sq.m.","Amount (Rs.)":48500,"photopath":"https://raw.githubusercontent.com/MWS003-GIS/MWS003-GIS.github.io/main/IWWRMP/Data/EXD/200_photo/MWS_008_2/Kiriwanaketiya/KK(04)1.jpg"},"geometry":{"type":"Point","coordinates":[80.730576,7.175838]}},
{"type":"Feature","properties":{"No":2,"GND No.":1029,"Scheme":"Murapola FC - 15 Sub Field Canal","N":7.179506,"E":80.74449,"Observation":"-","Description":"A part of the canal is not concrete lined. (L- 700m). Recommend 1. Earth filling to narrow tracks to form channel bund of 1 - 1.5m wide and length about 300 m.\n2. Protection by turfing sods with vetiver grass rows. Or\n3. Cultivate edible varieties such as Mukunuwenna, Gotukola, and Thampala along the incline surface. ","Amount (Rs.)":268650,"photopath":"https://raw.githubusercontent.com/MWS003-GIS/MWS003-GIS.github.io/main/IWWRMP/Data/EXD/200_photo/MWS_008_2/Kolambissa_East/ke8.jpg"},"geometry":{"type":"Point","coordinates":[80.74449,7.179506]}},
{"type":"Feature","properties":{"No":3,"GND No.":1029,"Scheme":"Murapola FC - 14 Sub Field Canal 1","N":7.177365,"E":80.744773,"Observation":"-","Description":"Seepages towards the field side. (L- 200m). Recommend \n1. Earth filling to narrow tracks to form channel bund of 1 - 1.5m wide and length about 200 m.\n2. Protection by turfing sods with vetiver grass rows. Or\n3. Cultivate edible varieties such as Mukunuwenna, Gotukola, and Thampala along the incline surface. ","Amount (Rs.)":179100,"photopath":"https://raw.githubusercontent.com/MWS003-GIS/MWS003-GIS.github.io/main/IWWRMP/Data/EXD/200_photo/MWS_008_2/Kolambissa_East/ke9.jpg"},"geometry":{"type":"Point","coordinates":[80.744773,7.177365]}},
{"type":"Feature","properties":{"No":4,"GND No.":1029,"Scheme":"FC - 14 Sub Field Canal 2","N":7.177248,"E":80.744765,"Observation":"-","Description":"Spart of the canal is not concrete lined. (L- 1000m). Recommend 1. Earth filling to narrow tracks to form channel bund of 1 - 1.5m wide and length about 400 m.\n2. Protection by turfing sods with vetiver grass rows. Or\n3. Cultivate edible varieties such as Mukunuwenna, Gotukola, and Thampala along the incline surface. ","Amount (Rs.)":358200,"photopath":"https://raw.githubusercontent.com/MWS003-GIS/MWS003-GIS.github.io/main/IWWRMP/Data/EXD/200_photo/MWS_008_2/Kolambissa_East/ke10.jpg"},"geometry":{"type":"Point","coordinates":[80.744765,7.177248]}},
{"type":"Feature","properties":{"No":5,"GND No.":1029,"Scheme":"FC - 13 Sub Field Canal 1","N":7.176977,"E":80.743313,"Observation":"-","Description":"Water seeping into the banks on both sides. (L- 800m) Recommend \n1. Earth filling to narrow tracks to form channel bund of 1 - 1.5m wide and length about 400 m.\n2. Protection by turfing sods with vetiver grass rows. \n3. plant areca nut seedlings rows in both embankments. ","Amount (Rs.)":398000,"photopath":"https://raw.githubusercontent.com/MWS003-GIS/MWS003-GIS.github.io/main/IWWRMP/Data/EXD/200_photo/MWS_008_2/Kolambissa_East/ke11.jpg"},"geometry":{"type":"Point","coordinates":[80.743313,7.176977]}},
{"type":"Feature","properties":{"No":6,"GND No.":1029,"Scheme":"FC - 13 Sub Field Canal 2","N":7.176835,"E":80.743382,"Observation":"-","Description":"Water seeping into the banks on both sides. (L- 800m) Recommend \n1. Earth filling to narrow tracks to form channel bund of 1 - 1.5m wide and length about 400 m.\n2. Protection by turfing sods with vetiver grass rows. 3. plant areca nut seedlings rows in both embankments. ","Amount (Rs.)":398000,"photopath":"https://raw.githubusercontent.com/MWS003-GIS/MWS003-GIS.github.io/main/IWWRMP/Data/EXD/200_photo/MWS_008_2/Kolambissa_East/ke12.jpg"},"geometry":{"type":"Point","coordinates":[80.743382,7.176835]}},
{"type":"Feature","properties":{"No":7,"GND No.":1029,"Scheme":"FC - 12 Sub Field Canal 1","N":7.175948,"E":80.742052,"Observation":"-","Description":"A part of the canal is not concrete lined. (L- 70m). Recommend 1. Earth filling to narrow tracks to form channel bund of 1 - 1.5m wide and length about 100 m.\n2. Protection by turfing sods with vetiver grass rows. Or\n3. Cultivate edible varieties such as Mukunuwenna, Gotukola, and Thampala along the incline surface. ","Amount (Rs.)":89550,"photopath":"https://raw.githubusercontent.com/MWS003-GIS/MWS003-GIS.github.io/main/IWWRMP/Data/EXD/200_photo/MWS_008_2/Kolambissa_East/ke13.jpg"},"geometry":{"type":"Point","coordinates":[80.742052,7.175948]}},
{"type":"Feature","properties":{"No":8,"GND No.":1029,"Scheme":"FC - 12 Sub Field Canal 2","N":7.175795,"E":80.74232,"Observation":"-","Description":"Water seeping into the banks on both sides. (L- 1000m). m Recommend \n1. Earth filling to narrow tracks to form channel bund of 1 - 1.5m wide and length about 500 m.\n2. Protection by turfing sods with vetiver grass rows. \n3. plant areca nut seedlings rows in both embankments. ","Amount (Rs.)":477750,"photopath":"https://raw.githubusercontent.com/MWS003-GIS/MWS003-GIS.github.io/main/IWWRMP/Data/EXD/200_photo/MWS_008_2/Kolambissa_East/ke15.jpg"},"geometry":{"type":"Point","coordinates":[80.74232,7.175795]}},
{"type":"Feature","properties":{"No":9,"GND No.":1029,"Scheme":"Paliyakumura anicut","N":7.179265,"E":80.74698,"Observation":"-","Description":"The temporary earthen anicut bund is weak and unserviceable. Recommend to construct an inverted \"T\" shape, 2.5m long x 0.25 thick x 1.5m high with 0.9m base concrete anicut with 0.8sq.m anicut planks. ","Amount (Rs.)":76500,"photopath":"https://raw.githubusercontent.com/MWS003-GIS/MWS003-GIS.github.io/main/IWWRMP/Data/EXD/200_photo/MWS_008_2/Kolambissa_East/ke17.jpg"},"geometry":{"type":"Point","coordinates":[80.74698,7.179265]}},
{"type":"Feature","properties":{"No":10,"GND No.":1029,"Scheme":"Paliyakumura canal","N":7.179262,"E":80.747618,"Observation":"-","Description":"Water seeping into the banks on both sides. (L- 600m). Recommend\n1. Earth filling to narrow tracks to form channel bund of 1 - 1.5m wide and length about 500 m.\n2. Protection by turfing sods with vetiver grass rows. 3. plant areca nut seedlings rows in both embankments.","Amount (Rs.)":472750,"photopath":"https://raw.githubusercontent.com/MWS003-GIS/MWS003-GIS.github.io/main/IWWRMP/Data/EXD/200_photo/MWS_008_2/Kolambissa_East/ke17.jpg"},"geometry":{"type":"Point","coordinates":[80.747618,7.179262]}},
{"type":"Feature","properties":{"No":13,"GND No.":1028,"Scheme":"Abake canal","N":7.161307,"E":80.733096,"Observation":"-","Description":"The canal is not concrete lined, and seepages occur from the bottom of the canal. (L- 1200m). Recommend \n1. Earth filling to narrow tracks to form channel bund of 1 - 1.5m wide and length about 700 m.\n2. Protection by turfing sods with vetiver grass rows.\n3. plant areca nut seedlings rows in both embankments.","Amount (Rs.)":661850,"photopath":"https://raw.githubusercontent.com/MWS003-GIS/MWS003-GIS.github.io/main/IWWRMP/Data/EXD/200_photo/MWS_008_2/Kotagepitiya/KO1.jpg"},"geometry":{"type":"Point","coordinates":[80.733096,7.161307]}},
{"type":"Feature","properties":{"No":17,"GND No.":1028,"Scheme":"Gane Mankada anicut","N":7.161176,"E":80.733135,"Observation":"-","Description":"Absence of an anicut gate. Recommend providing anicut planks of 0. 7sq.m","Amount (Rs.)":3500,"photopath":"https://raw.githubusercontent.com/MWS003-GIS/MWS003-GIS.github.io/main/IWWRMP/Data/EXD/200_photo/MWS_008_2/Kotagepitiya/KO2.jpg"},"geometry":{"type":"Point","coordinates":[80.733135,7.161176]}},
{"type":"Feature","properties":{"No":18,"GND No.":1028,"Scheme":"Gane Mankada anicut","N":7.161063,"E":80.733075,"Observation":"-","Description":"The driving head is insufficient. Perished anicut planks. Recommend raising the anicut height by a grade 25 concrete capping with dowels and provide planks. Capping size 0.3m (high) x0.45m (wide) x5m (long) and opening size 1.8m x0.9m","Amount (Rs.)":68000,"photopath":"https://raw.githubusercontent.com/MWS003-GIS/MWS003-GIS.github.io/main/IWWRMP/Data/EXD/200_photo/MWS_008_2/Kotagepitiya/KO3.jpg"},"geometry":{"type":"Point","coordinates":[80.733075,7.161063]}},
{"type":"Feature","properties":{"No":19,"GND No.":1028,"Scheme":"Thel Kandura","N":7.161191,"E":80.73194,"Observation":"-","Description":"Seepages from the canal towards the field side. (L- 900m) This leads to subsiding the banks. Recommend to \n1. Earth filling to narrow tracks to form channel bund of 1 - 1.5m wide and length about 700 m.\n2. Protection by turfing sods with vetiver grass rows. or3. Cultivate edible varieties such as Mukunuwenna, Gotukola, and Thampala along the incline surface. ","Amount (Rs.)":626850,"photopath":"https://raw.githubusercontent.com/MWS003-GIS/MWS003-GIS.github.io/main/IWWRMP/Data/EXD/200_photo/MWS_008_2/Kotagepitiya/KO5.jpg"},"geometry":{"type":"Point","coordinates":[80.73194,7.161191]}},
{"type":"Feature","properties":{"No":20,"GND No.":1028,"Scheme":"Murapola canal","N":7.160336,"E":80.729357,"Observation":"-","Description":"The reservation of Murapola canal is eroding at the field side. (3km). Recommend\n1. Make dense strip planting of mixed vegetation comprising Areca nut trees /Kithul /Kumbuk/Mee/ Godapara/Kaduru/Aththikka/Wal del/Kekuna/Riparian species/Local fruits randomly mixed seedlings at 500 mm grid interval. \n2. Apply mulching, organic manure and NPK fertilizer. \n3. Introduction of riparian plants within water holes. Covered area 5000 m2.","Amount (Rs.)":2670000,"photopath":"https://raw.githubusercontent.com/MWS003-GIS/MWS003-GIS.github.io/main/IWWRMP/Data/EXD/200_photo/MWS_008_2/Kotagepitiya/KO6.jpg"},"geometry":{"type":"Point","coordinates":[80.729357,7.160336]}},
{"type":"Feature","properties":{"No":21,"GND No.":1028,"Scheme":"Wadurathota canal","N":7.161682,"E":80.733832,"Observation":"-","Description":"Canal overflows and the canal banks are landsliding. (1200m). Recommend to \n1. Earth filling to narrow tracks to form channel bund of 1 - 1.5m wide and length about 800 m.\n2. Protection by turfing sods with vetiver grass rows. Or\n3. Cultivate edible varieties such as Mukunuwenna, Gotukola, and Thampala along the incline surface. ","Amount (Rs.)":716500,"photopath":"https://raw.githubusercontent.com/MWS003-GIS/MWS003-GIS.github.io/main/IWWRMP/Data/EXD/200_photo/MWS_008_2/Kotagepitiya/KO8.jpg"},"geometry":{"type":"Point","coordinates":[80.733832,7.161682]}},
{"type":"Feature","properties":{"No":22,"GND No.":1028,"Scheme":"Ketampola canal 1","N":7.163431,"E":80.736125,"Observation":"-","Description":"Seepages towards the field side. (L- 300m). Recommend to 1. Earth filling to narrow tracks to form channel bund of 1 - 1.5m wide and length about300 m.\n2. Protection by turfing sods with vetiver grass rows. Or\n3. Cultivate edible varieties such as Mukunuwenna, Gotukola, and Thampala along the incline surface. ","Amount (Rs.)":268650,"photopath":"https://raw.githubusercontent.com/MWS003-GIS/MWS003-GIS.github.io/main/IWWRMP/Data/EXD/200_photo/MWS_008_2/Kotagepitiya/KO9.jpg"},"geometry":{"type":"Point","coordinates":[80.736125,7.163431]}},
{"type":"Feature","properties":{"No":23,"GND No.":1028,"Scheme":"Ketampola canal 2","N":7.162292,"E":80.735892,"Observation":"-","Description":"Overflow and seepages towards the field side. (L- 200m) . Recommend to\n1. Earth filling to narrow tracks to form channel bund of 1 - 1.5m wide and length about 200 m.\n2. Protection by turfing sods with vetiver grass rows. or \n3. Cultivate edible varieties such as Mukunuwenna, Gotukola, and Thampala along the incline surface. \n4. Plant Areca nut seedlings in both sides at 1m spacing.","Amount (Rs.)":199500,"photopath":"https://raw.githubusercontent.com/MWS003-GIS/MWS003-GIS.github.io/main/IWWRMP/Data/EXD/200_photo/MWS_008_2/Kotagepitiya/KO12.jpg"},"geometry":{"type":"Point","coordinates":[80.735892,7.162292]}},
{"type":"Feature","properties":{"No":24,"GND No.":1028,"Scheme":"Rajjupana canal","N":7.162292,"E":80.735892,"Observation":"-","Description":"Overflow and seepages towards the field side. (L- 200m). Recommend to \n1. Earth filling to narrow tracks to form channel bund of 1 - 1.5m wide and length about 500 m.\n2. Protection by turfing sods with vetiver grass rows. Or\n3. Cultivate edible varieties such as Mukunuwenna, Gotukola, and Thampala along the incline surface. \n4. Plant Areca nut seedlings in both sides at 1m spacing.","Amount (Rs.)":468500,"photopath":"https://raw.githubusercontent.com/MWS003-GIS/MWS003-GIS.github.io/main/IWWRMP/Data/EXD/200_photo/MWS_008_2/Kotagepitiya/KO14.jpg"},"geometry":{"type":"Point","coordinates":[80.735892,7.162292]}},
{"type":"Feature","properties":{"No":25,"GND No.":1028,"Scheme":"Kalugamuwa canal","N":7.164837,"E":80.73198,"Observation":"-","Description":"Overflow and seepages towards the field side. (L- 200m). Recommend to\n1. Earth filling to narrow tracks to form channel bund of 1 - 1.5m wide and length about 300 m. \n2. Protection by turfing sods with vetiver grass rows. Or\n3. Cultivate edible varieties such as Mukunuwenna, Gotukola, and Thampala along the incline surface. \n4. Plant Areca nut seedlings in both sides at 1m spacing.","Amount (Rs.)":299000,"photopath":"https://raw.githubusercontent.com/MWS003-GIS/MWS003-GIS.github.io/main/IWWRMP/Data/EXD/200_photo/MWS_008_2/Kotagepitiya/KO15.jpg"},"geometry":{"type":"Point","coordinates":[80.73198,7.164837]}},
{"type":"Feature","properties":{"No":26,"GND No.":1028,"Scheme":"Kekuna Kotuwa anicut","N":7.166217,"E":80.739239,"Observation":"-","Description":"The driving head is insufficient. Perished anicut planks. Recommend to raise the anicut height by a grade 25 concrete capping with dowels and provide planks. Capping size 0.3m (high) x0.45m (wide) x8m (long) and opening size 1.1m x1.2m","Amount (Rs.)":89500,"photopath":"https://raw.githubusercontent.com/MWS003-GIS/MWS003-GIS.github.io/main/IWWRMP/Data/EXD/200_photo/MWS_008_2/Kotagepitiya/KO17.jpg"},"geometry":{"type":"Point","coordinates":[80.739239,7.166217]}},
{"type":"Feature","properties":{"No":27,"GND No.":1028,"Scheme":"Bebiya canal","N":7.166214,"E":80.737059,"Observation":"-","Description":"Overflow and seepages towards the field side. (L- 200m). Recommend to \n1. Earth filling to narrow tracks to form channel bund of 1 - 1.5m wide and length about 300 m.\n2. Protection by turfing sods with vetiver grass rows. Or\n3. Cultivate edible varieties such as Mukunuwenna, Gotukola, and Thampala along the incline surface. \n4. Plant Areca nut seedlings in both sides at 1m spacing.","Amount (Rs.)":299000,"photopath":"https://raw.githubusercontent.com/MWS003-GIS/MWS003-GIS.github.io/main/IWWRMP/Data/EXD/200_photo/MWS_008_2/Kotagepitiya/KO18.jpg"},"geometry":{"type":"Point","coordinates":[80.737059,7.166214]}},
{"type":"Feature","properties":{"No":28,"GND No.":1028,"Scheme":"Nadapitiya canal","N":7.167656,"E":80.737059,"Observation":"-","Description":"Overflow and seepages towards the field side. (L- 200m). Recommend to \n1. Earth filling to narrow tracks to form channel bund of 1 - 1.5m wide and length about 300 m.\n2. Protection by turfing sods with vetiver grass rows. Or\n3. Cultivate edible varieties such as Mukunuwenna, Gotukola, and Thampala along the incline surface. \n4. Plant Areca nut seedlings in both sides at 1m spacing.","Amount (Rs.)":299000,"photopath":"https://raw.githubusercontent.com/MWS003-GIS/MWS003-GIS.github.io/main/IWWRMP/Data/EXD/200_photo/MWS_008_2/Kotagepitiya/KO22.jpg"},"geometry":{"type":"Point","coordinates":[80.737059,7.167656]}},
{"type":"Feature","properties":{"No":29,"GND No.":1031,"Scheme":"Eda Dambaye anicut and canal","N":7.183555,"E":80.748263,"Observation":"-","Description":"Absence of an anicut. A part of the canal is not concrete lined, and seepages occur from the canal. (12 acres) (L- 1000m). Recommend\n1. to construct inverted \"T\" shape profile for concrete wall (Length 6m x Height 1.2m x Thickness 0.3m) with foundation (Length 6m x Width 0.9m x Thickness 0.2m). \n2. Earth filling to narrow tracks to form channel bund of 1 - 1.5m wide for 600m length. \n3. Plant Areca nut seedlings in both sides at 1m spacing.\n4. Protection by turfing sods with vetiver grass rows.","Amount (Rs.)":715420,"photopath":"https://raw.githubusercontent.com/MWS003-GIS/MWS003-GIS.github.io/main/IWWRMP/Data/EXD/200_photo/MWS_008_2/Murapola_East/MN(04)1.jpg"},"geometry":{"type":"Point","coordinates":[80.748263,7.183555]}},
{"type":"Feature","properties":{"No":30,"GND No.":1031,"Scheme":"Giri Ambe anicut and canal","N":7.17859,"E":80.748757,"Observation":"-","Description":"Absence of an anicut. A part of the canal is not concrete lined, and seepages occurs from the canal. (5 acres) (L- 1000m). Recommend \n1. to construct inverted \"T\" shape profile for concrete wall (Length 4.5m height 1.5m x Thickness 0.3m) with foundation (Length 4.5m x Width 0.9m x Thickness 0.2m).\n2. Earth filling to narrow tracks to form channel bund of 1 - 1.5m wide for 500m length. \n3. Plant Areca nut seedlings in both sides at 1m spacing.\n4. Protection by turfing sods with vetiver grass rows ","Amount (Rs.)":585090,"photopath":"https://raw.githubusercontent.com/MWS003-GIS/MWS003-GIS.github.io/main/IWWRMP/Data/EXD/200_photo/MWS_008_2/Murapola_East/MN(04)2.jpg"},"geometry":{"type":"Point","coordinates":[80.748757,7.17859]}},
{"type":"Feature","properties":{"No":31,"GND No.":1031,"Scheme":"FC - 14 Sub Field Canal","N":7.184444,"E":80.748957,"Observation":"-","Description":"Overflow and seepages towards the field side. (L- 400m). Recommend to \n1. Earth filling to narrow tracks to form channel bund of 1 - 1.5m wide and length about 400 m.\n2. Protection by turfing sods with vetiver grass rows. or  \n3. Cultivate edible varieties such as Mukunuwenna, Gotukola, and Thampala along the incline surface. \n4. Plant Areca nut seedlings in both sides at 1m spacing.","Amount (Rs.)":358200,"photopath":"https://raw.githubusercontent.com/MWS003-GIS/MWS003-GIS.github.io/main/IWWRMP/Data/EXD/200_photo/MWS_008_2/Murapola_East/MN(04)3.jpg"},"geometry":{"type":"Point","coordinates":[80.748957,7.184444]}},
{"type":"Feature","properties":{"No":32,"GND No.":1031,"Scheme":"Edarugaha Madiththa canal","N":7.186097,"E":80.755042,"Observation":"-","Description":"Overflow and seepages towards the field side. (L- 600m). Recommend to\n1. Earth filling to narrow tracks to form channel bund of 1 - 1.5m wide and length about 500 m2. \n2.Protection by turfing sods with vetiver grass rows. or  \n3. Cultivate edible varieties such as Mukunuwenna, Gotukola, and Thampala along the incline surface. \n4. Plant Areca nut seedlings in both sides at 1m spacing.","Amount (Rs.)":447750,"photopath":"https://raw.githubusercontent.com/MWS003-GIS/MWS003-GIS.github.io/main/IWWRMP/Data/EXD/200_photo/MWS_008_2/Murapola_East/MN(04)4.jpg"},"geometry":{"type":"Point","coordinates":[80.755042,7.186097]}},
{"type":"Feature","properties":{"No":33,"GND No.":1031,"Scheme":"Mata Padurehi anicut of Eda Dambaye torrent","N":7.182825,"E":80.749343,"Observation":"-","Description":"Absence of an anicut. A part of the canal is not concrete lined, and seepages occurs from the canal. (12 acres) (L- 400m). Recommend \n1. to construct inverted \"T\" shape concrete wall (Length 3m x Height 1.2m x Thickness 0.3m) with foundation (Length 6m width 0.9m x Thickness 0.2m).\n2. Earth filling to narrow tracks to form channel bund of 1 - 1.5m wide for 300m length. \n3. Plant Areca nut seedlings in both sides at 1m spacing.","Amount (Rs.)":365000,"photopath":"https://raw.githubusercontent.com/MWS003-GIS/MWS003-GIS.github.io/main/IWWRMP/Data/EXD/200_photo/MWS_008_2/Murapola_East/MN(04)5.jpg"},"geometry":{"type":"Point","coordinates":[80.749343,7.182825]}},
{"type":"Feature","properties":{"No":34,"GND No.":1031,"Scheme":"Mata Padurehi canal of Eda Dambaye torrent","N":7.182882,"E":80.74939,"Observation":"-","Description":"Overflow and seepages towards the field side. (L- 1000m). Recommend to \n1. Earth filling to narrow tracks to form channel bund of 1 - 1.5m wide and length about 600 m2. \n2.Protection by turfing sods with vetiver grass rows. or \n3. Cultivate edible varieties such as Mukunuwenna, Gotukola, and Thampala along the incline surface. \n4. Plant Areca nut seedlings in both sides at 1m spacing.","Amount (Rs.)":537300,"photopath":"https://raw.githubusercontent.com/MWS003-GIS/MWS003-GIS.github.io/main/IWWRMP/Data/EXD/200_photo/MWS_008_2/Murapola_East/MN(04)6.jpg"},"geometry":{"type":"Point","coordinates":[80.74939,7.182882]}},
{"type":"Feature","properties":{"No":35,"GND No.":1031,"Scheme":"Gorakagaha Madiththa canal","N":7.186124,"E":80.756451,"Observation":"-","Description":"Overflow and seepages towards the field side. (L- 800m). Recommend to \n1. Earth filling to narrow tracks to form channel bund of 1 - 1.5m wide and length about 500 m2.\n2.Protection by turfing sods with vetiver grass rows. or  \n3. Cultivate edible varieties such as Mukunuwenna, Gotukola, and Thampala along the incline surface. \n4. Plant Areca nut seedlings in both sides at 1m spacing.","Amount (Rs.)":447750,"photopath":"https://raw.githubusercontent.com/MWS003-GIS/MWS003-GIS.github.io/main/IWWRMP/Data/EXD/200_photo/MWS_008_2/Murapola_East/MN(04)7.jpg"},"geometry":{"type":"Point","coordinates":[80.756451,7.186124]}},
{"type":"Feature","properties":{"No":36,"GND No.":1031,"Scheme":"Murapola FC - 19 Sub Field Canal","N":7.185458,"E":80.752987,"Observation":"-","Description":"Water overflows from the field side and floods into houses. Recommend to \n1. Earth filling to narrow tracks to form channel bund of 1 - 1.5m wide and length about 700 m2. \n2.Protection by turfing sods with vetiver grass rows. or \n3. Cultivate edible varieties such as Mukunuwenna, Gotukola, and Thampala along the incline surface. \n4. Plant Areca nut seedlings in both sides at 1m spacing.","Amount (Rs.)":626850,"photopath":"https://raw.githubusercontent.com/MWS003-GIS/MWS003-GIS.github.io/main/IWWRMP/Data/EXD/200_photo/MWS_008_2/Murapola_East/MN(04)8.jpg"},"geometry":{"type":"Point","coordinates":[80.752987,7.185458]}},
{"type":"Feature","properties":{"No":37,"GND No.":1026,"Scheme":"Heen Dadu Ela","N":7.164621,"E":80.732356,"Observation":"-","Description":"Overflow and seepages towards the field side. (L- 200m). Recommend to\n1. Earth filling to narrow tracks to form channel bund of 1 - 1.5m wide and length about 200 m2.\n2.Protection by turfing sods with vetiver grass rows. or  \n3. Cultivate edible varieties such as Mukunuwenna, Gotukola, and Thampala along the incline surface. \n4. Plant Areca nut seedlings in both sides at 1m spacing.","Amount (Rs.)":179000,"photopath":"https://raw.githubusercontent.com/MWS003-GIS/MWS003-GIS.github.io/main/IWWRMP/Data/EXD/200_photo/MWS_008_2/Nawaneliya/NWN0402.jpg"},"geometry":{"type":"Point","coordinates":[80.732356,7.164621]}},
{"type":"Feature","properties":{"No":38,"GND No.":1033,"Scheme":"Galpihilla anicut","N":7.167675,"E":80.724899,"Observation":"-","Description":"Absence of the flank bund and a anicut planks need replacement. Recommend \n1. to construct an earthen bund of 15m length x 2.2m high x2m BTW and 1:1.5 side slopes.\n2. To provide 6 sqm of anicut planks.","Amount (Rs.)":283800,"photopath":"https://raw.githubusercontent.com/MWS003-GIS/MWS003-GIS.github.io/main/IWWRMP/Data/EXD/200_photo/MWS_008_2/Pallegama/PP(04)1.jpg"},"geometry":{"type":"Point","coordinates":[80.724899,7.167675]}},
{"type":"Feature","properties":{"No":39,"GND No.":1033,"Scheme":"Pallegama canal","N":7.16549,"E":80.725676,"Observation":"-","Description":"Seepages towards the field side. (L- 3000m). Recommend to \n1. Earth filling to narrow tracks to form channel bund of 1 - 1.5m wide and length about 1200 m2.\n2.Protection by turfing sods with vetiver grass rows. or  \n3. Cultivate edible varieties such as Mukunuwenna, Gotukola, and Thampala along the incline surface. \n4. Plant Areca nut seedlings in both sides at 1m spacing.","Amount (Rs.)":1074600,"photopath":"https://raw.githubusercontent.com/MWS003-GIS/MWS003-GIS.github.io/main/IWWRMP/Data/EXD/200_photo/MWS_008_2/Pallegama/PP(04)2.jpg"},"geometry":{"type":"Point","coordinates":[80.725676,7.16549]}},
{"type":"Feature","properties":{"No":40,"GND No.":1036,"Scheme":"Jambugahayata canal","N":7.17899,"E":80.718693,"Observation":"-","Description":"Seepages towards the field side. (L- 200m). Recommend to \n1. Earth filling to narrow tracks to form channel bund of 1 - 1.5m wide and length about 200 m2.\n2.Protection by turfing sods with vetiver grass rows. or  \n3. Cultivate edible varieties such as Mukunuwenna, Gotukola, and Thampala along the incline surface. \n4. Plant Areca nut seedlings in both sides at 1m spacing.","Amount (Rs.)":179100,"photopath":"https://raw.githubusercontent.com/MWS003-GIS/MWS003-GIS.github.io/main/IWWRMP/Data/EXD/200_photo/MWS_008_2/Wanahapuwa/w19.jpg"},"geometry":{"type":"Point","coordinates":[80.718693,7.17899]}},
{"type":"Feature","properties":{"No":41,"GND No.":1036,"Scheme":"Jambugahayata canal 2","N":7.177583,"E":80.719557,"Observation":"-","Description":"Seepages towards the field side. (L- 150m) . Recommend to \n1. Earth filling to narrow tracks to form channel bund of 1 - 1.5m wide and length about 150 m2.\n2.Protection by turfing sods with vetiver grass rows. or  \n3. Cultivate edible varieties such as Mukunuwenna, Gotukola, and Thampala along the incline surface. \n4. Plant Areca nut seedlings in both sides at 1m spacing.","Amount (Rs.)":135290,"photopath":"https://raw.githubusercontent.com/MWS003-GIS/MWS003-GIS.github.io/main/IWWRMP/Data/EXD/200_photo/MWS_008_2/Wanahapuwa/w20.jpg"},"geometry":{"type":"Point","coordinates":[80.719557,7.177583]}},
{"type":"Feature","properties":{"No":42,"GND No.":1036,"Scheme":"Purankumbura Maha Ela","N":7.177583,"E":80.719557,"Observation":"-","Description":"Seepages towards the field side. (L- 1500m). Recommend to \n1. Earth filling to narrow tracks to form channel bund of 1 - 1.5m wide and length about 1200 m2.\n2.Protection by turfing sods with vetiver grass rows. or  \n3. Cultivate edible varieties such as Mukunuwenna, Gotukola, and Thampala along the incline surface. \n4. Plant Areca nut seedlings in both sides at 1m spacing.","Amount (Rs.)":1074600,"photopath":"https://raw.githubusercontent.com/MWS003-GIS/MWS003-GIS.github.io/main/IWWRMP/Data/EXD/200_photo/MWS_008_2/Wanahapuwa/w21.jpg"},"geometry":{"type":"Point","coordinates":[80.719557,7.177583]}},
{"type":"Feature","properties":{"No":43,"GND No.":1036,"Scheme":"Yata Ela 1","N":7.17844,"E":80.719607,"Observation":"-","Description":"Seepages towards the field side. (L- 1000m). Recommend to \n1. Earth filling to narrow tracks to form channel bund of 1 - 1.5m wide and length about 800 m2. \n2.Protection by turfing sods with vetiver grass rows. or \n3. Cultivate edible varieties such as Mukunuwenna, Gotukola, and Thampala along the incline surface. \n4. Plant Areca nut seedlings in both sides at 1m spacing.","Amount (Rs.)":716400,"photopath":"https://raw.githubusercontent.com/MWS003-GIS/MWS003-GIS.github.io/main/IWWRMP/Data/EXD/200_photo/MWS_008_2/Wanahapuwa/w22.jpg"},"geometry":{"type":"Point","coordinates":[80.719607,7.17844]}},
{"type":"Feature","properties":{"No":44,"GND No.":1036,"Scheme":"Yata Ela 2","N":7.177785,"E":80.720002,"Observation":"-","Description":"1. A part of the canal is not rehabilitated. (L- 20m). Recommend excavating the canal profile 300mm canal bed width and 500mm depth manually. \n2. Plant areca nut rows with vetiver grass.","Amount (Rs.)":14000,"photopath":"https://raw.githubusercontent.com/MWS003-GIS/MWS003-GIS.github.io/main/IWWRMP/Data/EXD/200_photo/MWS_008_2/Wanahapuwa/w23.jpg"},"geometry":{"type":"Point","coordinates":[80.720002,7.177785]}}
]}