{"type":"FeatureCollection","name":"SR","crs":{"type":"name","properties":{"name":"urn:ogc:def:crs:OGC:1.3:CRS84"}},"features":[
{"type":"Feature","properties":{"No":1,"GND No.":1038,"Scheme":"Bopitiya Waththa","N":7.18247,"E":80.717048,"Observation":"-","Description":"Soil erosion of land on both sides(1km). Recommend 1. To construct 1mx1mx1m x100m long leader drain 2. Areca nut rows and vetiver grass with pepper or betel cultivation strip of 2m wide and 600m long.","Amount (Rs.)":"341000","photopath":"Not_Available"},"geometry":{"type":"Point","coordinates":[80.717048,7.18247]}},
{"type":"Feature","properties":{"No":2,"GND No.":1038,"Scheme":"-","N":7.185359,"E":80.714571,"Observation":"-","Description":"-","Amount (Rs.)":"-","photopath":"Not_Available"},"geometry":{"type":"Point","coordinates":[80.714571,7.185359]}},
{"type":"Feature","properties":{"No":3,"GND No.":1038,"Scheme":"Greatweliya Waththa","N":7.178172,"E":80.706074,"Observation":"-","Description":"Soil erosion of land on both sides(100m). Recommend 1. To construct 1mx1mx1m x100m long leader drain 2. Areca nut rows and vetiver grass with pepper or betel cultivation strip of 2m wide and 100m long.","Amount (Rs.)":"223500","photopath":"Not_Available"},"geometry":{"type":"Point","coordinates":[80.706074,7.178172]}},
{"type":"Feature","properties":{"No":4,"GND No.":1038,"Scheme":"Greatweliya Waththa towards Wanahapuwa tank","N":7.183624,"E":80.71018,"Observation":"-","Description":"Soil erosion of land on both sides(4km). Recommend 1. To construct 1mx1mx1m x400m long leader drain 2. Areca nut rows and vetiver grass with pepper or betel cultivation strip of 2m wide and 800m long.","Amount (Rs.)":"988000","photopath":"Not_Available"},"geometry":{"type":"Point","coordinates":[80.71018,7.183624]}},
{"type":"Feature","properties":{"No":5,"GND No.":1038,"Scheme":"Greatweliya Waththa","N":7.180185,"E":80.706991,"Observation":"-","Description":"Soil erosion of land on both sides(300m). Recommend 1. To construct 1mx1mx1m x100m long leader drain 2. Areca nut rows and vetiver grass with pepper or betel cultivation strip of 2m wide and 300m long.","Amount (Rs.)":"270500","photopath":"Not_Available"},"geometry":{"type":"Point","coordinates":[80.706991,7.180185]}},
{"type":"Feature","properties":{"No":6,"GND No.":1027,"Scheme":"Goma Diya Pokuna","N":7.179496,"E":80.736173,"Observation":"-","Description":"Soil erosion of land on both sides(1500m). Recommend 1. . Areca nut rows and vetiver grass with pepper or betel cultivation strip of 2m wide and 800m long.","Amount (Rs.)":"188000","photopath":"https://raw.githubusercontent.com/MWS003-GIS/MWS003-GIS.github.io/main/IWWRMP/Data/EXD/200_photo/MWS_008_2/Kirawanaketiya/KK(02)1.jpg"},"geometry":{"type":"Point","coordinates":[80.736173,7.179496]}},
{"type":"Feature","properties":{"No":7,"GND No.":1027,"Scheme":"Kele Tank","N":7.175756,"E":80.737184,"Observation":"-","Description":"Soil erosion of land on both sides(1.5km).Recommend to make dense planting of mixed vegetation comprising Riparian varieties / Areca nut trees /Kumbuk/Mee/ Godapara/ Kaduru/ Aththikka/Wal del/Kekuna / local fruits/ randomly mixed seedlings at 500 mm grid interval.4. Apply mulching, organic manure and NPK fertilizer. Covered area 1200 m2 ","Amount (Rs.)":"640800","photopath":"https://raw.githubusercontent.com/MWS003-GIS/MWS003-GIS.github.io/main/IWWRMP/Data/EXD/200_photo/MWS_008_2/Kirawanaketiya/KK(02)2.jpg"},"geometry":{"type":"Point","coordinates":[80.737184,7.175756]}},
{"type":"Feature","properties":{"No":8,"GND No.":1027,"Scheme":"-","N":7.177732,"E":80.735544,"Observation":"-","Description":"-","Amount (Rs.)":"-","photopath":"https://raw.githubusercontent.com/MWS003-GIS/MWS003-GIS.github.io/main/IWWRMP/Data/EXD/200_photo/MWS_008_2/Kirawanaketiya/KK(02)2.jpg"},"geometry":{"type":"Point","coordinates":[80.735544,7.177732]}},
{"type":"Feature","properties":{"No":9,"GND No.":1027,"Scheme":"Goma Diya Pokuna","N":7.178028,"E":80.733524,"Observation":"-","Description":"Soil erosion of land on both sides(100m). Recommend to plant areca nut rows and vetiver grass with pepper or betel cultivation strip of 2m wide and 100m long.","Amount (Rs.)":"47000","photopath":"https://raw.githubusercontent.com/MWS003-GIS/MWS003-GIS.github.io/main/IWWRMP/Data/EXD/200_photo/MWS_008_2/Kirawanaketiya/KK(02)4.jpg"},"geometry":{"type":"Point","coordinates":[80.733524,7.178028]}},
{"type":"Feature","properties":{"No":10,"GND No.":1027,"Scheme":"Deltota main road","N":7.179595,"E":80.731813,"Observation":"-","Description":"Soil erosion of land on both sides(250m). Recommend to plant areca nut rows and vetiver grass with pepper or betel cultivation strip of 2m wide and 200m long.","Amount (Rs.)":"94000","photopath":"https://raw.githubusercontent.com/MWS003-GIS/MWS003-GIS.github.io/main/IWWRMP/Data/EXD/200_photo/MWS_008_2/Kirawanaketiya/KK(02)6.jpg"},"geometry":{"type":"Point","coordinates":[80.731813,7.179595]}},
{"type":"Feature","properties":{"No":11,"GND No.":1027,"Scheme":"Goma Diya Pokuna","N":7.1751118,"E":80.735242,"Observation":"-","Description":"Soil erosion of lands on both sides(700m). Steep slope . 1. Construct (2mx2mx1m) four SABO-boulder dams across the stream where the canal is steep . 2. Make dense planting of mixed vegetation comprising Agave/Areca nut trees /Kithul/ Kumbuk/Mee/ Godapara /Kaduru/Aththikka/Wal del/Kekuna randomly mixed seedlings at 500 mm grid interval.4. Apply mulching, organic manure and NPK fertilizer. Covered area 600 m2 ","Amount (Rs.)":"400200","photopath":"https://raw.githubusercontent.com/MWS003-GIS/MWS003-GIS.github.io/main/IWWRMP/Data/EXD/200_photo/MWS_008_2/Kirawanaketiya/KK(02)3.jpg"},"geometry":{"type":"Point","coordinates":[80.735242,7.1751118]}},
{"type":"Feature","properties":{"No":12,"GND No.":1027,"Scheme":"-","N":7.177249,"E":80.734448,"Observation":"-","Description":"-","Amount (Rs.)":"-","photopath":"https://raw.githubusercontent.com/MWS003-GIS/MWS003-GIS.github.io/main/IWWRMP/Data/EXD/200_photo/MWS_008_2/Kirawanaketiya/KK(02)3.1.jpg"},"geometry":{"type":"Point","coordinates":[80.734448,7.177249]}},
{"type":"Feature","properties":{"No":13,"GND No.":1027,"Scheme":"Goma Diya Pokuna","N":7.177696,"E":80.732426,"Observation":"-","Description":"Soil erosion of land on both sides(1900m). Recommend 1. To construct 1mx1mx1m x200m long leader drain 2. Areca nut rows and vetiver grass with pepper or betel cultivation strip of 2m wide and 600m long.","Amount (Rs.)":"541000","photopath":"https://raw.githubusercontent.com/MWS003-GIS/MWS003-GIS.github.io/main/IWWRMP/Data/EXD/200_photo/MWS_008_2/Kirawanaketiya/KK(02)5.jpg"},"geometry":{"type":"Point","coordinates":[80.732426,7.177696]}},
{"type":"Feature","properties":{"No":14,"GND No.":1027,"Scheme":"Kolambissa West","N":7.177744,"E":80.738913,"Observation":"-","Description":"Soil erosion of land on both sides(100m). Recommend . Areca nut rows and vetiver grass with pepper or betel cultivation strip of 2m wide and 100m long.","Amount (Rs.)":"23500","photopath":"https://raw.githubusercontent.com/MWS003-GIS/MWS003-GIS.github.io/main/IWWRMP/Data/EXD/200_photo/MWS_008_2/Kirawanaketiya/KK(02)7.jpg"},"geometry":{"type":"Point","coordinates":[80.738913,7.177744]}},
{"type":"Feature","properties":{"No":15,"GND No.":1027,"Scheme":"Murapola canal","N":7.175731,"E":80.733096,"Observation":"-","Description":"Soil erosion of lands on both sides(900m). Steep slope . 1. Construct (3mx2mx1m) four SABO-boulder dams across the stream where the canal is steep . 2. Make dense planting of mixed vegetation comprising Agave/Areca nut trees /Kithul/Kumbuk/Mee/ Godapara/ Kaduru/Aththikka/Wal del/Kekuna randomly mixed seedlings at 500 mm grid interval.4. Apply mulching, organic manure and NPK fertilizer. Covered area 600 m2 ","Amount (Rs.)":"573600","photopath":"https://raw.githubusercontent.com/MWS003-GIS/MWS003-GIS.github.io/main/IWWRMP/Data/EXD/200_photo/MWS_008_2/Kirawanaketiya/KK(02)8.jpg"},"geometry":{"type":"Point","coordinates":[80.733096,7.175731]}},
{"type":"Feature","properties":{"No":16,"GND No.":1027,"Scheme":"Maussawa stream","N":7.175751,"E":80.730825,"Observation":"-","Description":"Soil erosion of lands on both sides(500m). Recommend to make dense planting of mixed vegetation comprising Agave/Areca nut trees /Kithul/ Kumbuk/ Mee/ Godapara /Kaduru /Aththikka/Wal del/Kekuna randomly mixed seedlings at 500 mm grid interval.4. Apply mulching, organic manure and NPK fertilizer. Covered area 800 m2 ","Amount (Rs.)":"427200","photopath":"https://raw.githubusercontent.com/MWS003-GIS/MWS003-GIS.github.io/main/IWWRMP/Data/EXD/200_photo/MWS_008_2/Kirawanaketiya/KK(02)9.jpg"},"geometry":{"type":"Point","coordinates":[80.730825,7.175751]}},
{"type":"Feature","properties":{"No":17,"GND No.":1029,"Scheme":"Kotiyagallana torrent","N":7.176176,"E":80.741218,"Observation":"-","Description":"Unsafe bridge at Hirambeand embankment erosion occurs during rainy days. Recommend 1. to fix a 750mm (H)x 5000mm(L) handrail fabricated with 50mm dia.GI pipes, verticals @1250mm, and two horizontals. 2. To construct (3mx2mx1m) four SABO-boulder dams across the stream. 3. To make dense planting of mixed vegetation comprising Agave/ Areca nut trees /Kithul/ Kumbuk/ Mee/ Godapara/Kaduru/Aththikka/Wal del/Kekuna randomly mixed seedlings at 500 mm grid interval.4. Apply mulching, organic manure and NPK fertilizer. Covered area 800 m2 ","Amount (Rs.)":"653600","photopath":"https://raw.githubusercontent.com/MWS003-GIS/MWS003-GIS.github.io/main/IWWRMP/Data/EXD/200_photo/MWS_008_2/Kolambissa_East/ke16.jpg"},"geometry":{"type":"Point","coordinates":[80.741218,7.176176]}},
{"type":"Feature","properties":{"No":18,"GND No.":1030,"Scheme":"Kolambissa East Kandura 1 towards Murapola","N":7.179972,"E":80.738343,"Observation":"-","Description":"Higher soil erosion of land on both sides. Recommended 2.To construct (3mx2mx1m) Five SABO-boulder dams across the stream. 3. To make dense planting of mixed vegetation comprising Agave/Areca nut trees /Kithul/ Kumbuk/ Mee/ Godapara/Kaduru/Aththikka/Wal del/Kekuna randomly mixed seedlings at 500 mm grid interval.4. Apply mulching, organic manure and NPK fertilizer. Covered area 600 m2 ","Amount (Rs.)":"610200","photopath":"https://raw.githubusercontent.com/MWS003-GIS/MWS003-GIS.github.io/main/IWWRMP/Data/EXD/200_photo/MWS_008_2/Kolambissa_West/kb5.jpg"},"geometry":{"type":"Point","coordinates":[80.738343,7.179972]}},
{"type":"Feature","properties":{"No":19,"GND No.":1030,"Scheme":"Torrent near Kolambissa junction","N":7.179872,"E":80.741174,"Observation":"-","Description":"Higher soil erosion of land on both sides (300m).1. To construct 1mx1mx1m x200m long leader drain with drops 2. Areca nut rows and vetiver grass with pepper or betel cultivation strip of 2m wide and 300m long.","Amount (Rs.)":"470500","photopath":"https://raw.githubusercontent.com/MWS003-GIS/MWS003-GIS.github.io/main/IWWRMP/Data/EXD/200_photo/MWS_008_2/Kolambissa_West/kb28.jpg"},"geometry":{"type":"Point","coordinates":[80.741174,7.179872]}},
{"type":"Feature","properties":{"No":20,"GND No.":1028,"Scheme":"Kotagepitiya Malapatta Oya","N":7.166478,"E":80.73923,"Observation":"-","Description":"Heavy soil erosion of land on both sides. Recommended 2.To construct (3mx2mx1m) Three SABO-boulder dams across the stream . 3. To make dense planting of mixed vegetation comprising Agave/Areca nut trees /Kithul/ Kumbuk/ Mee/ Godapara/Kaduru/Aththikka/Wal del/Kekuna randomly mixed seedlings at 500 mm grid interval.4. Apply mulching, organic manure and NPK fertilizer. Covered area 300 m2 ","Amount (Rs.)":"430200","photopath":"https://raw.githubusercontent.com/MWS003-GIS/MWS003-GIS.github.io/main/IWWRMP/Data/EXD/200_photo/MWS_008_2/Kotagepitiya/KO16.jpg"},"geometry":{"type":"Point","coordinates":[80.73923,7.166478]}},
{"type":"Feature","properties":{"No":21,"GND No.":1028,"Scheme":"Kotagepitiya Gurugal Oya","N":7.161041,"E":80.733053,"Observation":"-","Description":"Heavy soil erosion of land on both sides. Recommended 2.To construct (3mx2mx1m) two SABO-boulder dams across the stream. 3. To make dense planting of mixed vegetation comprising Agave/Areca nut trees /Kithul/ Kumbuk/ Mee/ Godapara/ Kaduru/Aththikka/Wal del/Kekuna randomly mixed seedlings at 500 mm grid interval.4. Apply mulching, organic manure and NPK fertilizer. Covered area 600 m2 ","Amount (Rs.)":"447000","photopath":"https://raw.githubusercontent.com/MWS003-GIS/MWS003-GIS.github.io/main/IWWRMP/Data/EXD/200_photo/MWS_008_2/Kotagepitiya/KO4.jpg"},"geometry":{"type":"Point","coordinates":[80.733053,7.161041]}},
{"type":"Feature","properties":{"No":22,"GND No.":1031,"Scheme":"Gurugal Oya Main road","N":7.183672,"E":80.748205,"Observation":"-","Description":"Soil erosion of land on both sides. Recommend Areca nut rows and vetiver grass with pepper or betel cultivation strip of 2m wide and 600m long.","Amount (Rs.)":"211500","photopath":"https://raw.githubusercontent.com/MWS003-GIS/MWS003-GIS.github.io/main/IWWRMP/Data/EXD/200_photo/MWS_008_2/Murapola_East/MN(02)1.jpg"},"geometry":{"type":"Point","coordinates":[80.748205,7.183672]}},
{"type":"Feature","properties":{"No":23,"GND No.":1031,"Scheme":"Giri Ambe anicut","N":7.17859,"E":80.748757,"Observation":"-","Description":"Soil erosion of land on both sides. Recommend Areca nut rows and vetiver grass with pepper or betel cultivation strip of 2m wide and 500m long.","Amount (Rs.)":"188000","photopath":"https://raw.githubusercontent.com/MWS003-GIS/MWS003-GIS.github.io/main/IWWRMP/Data/EXD/200_photo/MWS_008_2/Murapola_East/MN(02)2.jpg"},"geometry":{"type":"Point","coordinates":[80.748757,7.17859]}},
{"type":"Feature","properties":{"No":24,"GND No.":1031,"Scheme":"_","N":7.18559,"E":80.757943,"Observation":"-","Description":"Soil erosion of land on both sides (1800m). Recommend Areca nut rows and vetiver grass with pepper or betel cultivation strip of 2m wide and 1km long.","Amount (Rs.)":"423000","photopath":"https://raw.githubusercontent.com/MWS003-GIS/MWS003-GIS.github.io/main/IWWRMP/Data/EXD/200_photo/MWS_008_2/Murapola_East/MN(02)3.jpg"},"geometry":{"type":"Point","coordinates":[80.757943,7.18559]}},
{"type":"Feature","properties":{"No":26,"GND No.":1031,"Scheme":"Giri Ambe Kandura/Lool Kandura","N":7.185495,"E":80.75804,"Observation":"-","Description":"Heavy soil erosion of land on both sides (4.9km).Recommended 2.To construct (6mx2mx1m) four SABO- boulder dams across the stream . 3. To make dense planting of mixed vegetation comprising Agave/Areca nut trees /Kithul/ Kumbuk/ Mee/ Godapara/Kaduru/Aththikka/Wal del/Kekuna randomly mixed seedlings at 500 mm grid interval.4. Apply mulching, organic manure and NPK fertilizer. Covered area 800 m2 ","Amount (Rs.)":"1147200","photopath":"https://raw.githubusercontent.com/MWS003-GIS/MWS003-GIS.github.io/main/IWWRMP/Data/EXD/200_photo/MWS_008_2/Murapola_East/MN(02)4.jpg"},"geometry":{"type":"Point","coordinates":[80.75804,7.185495]}},
{"type":"Feature","properties":{"No":27,"GND No.":1032,"Scheme":"Loolkandura_","N":7.186411,"E":80.746966,"Observation":"-","Description":"Soil erosion of land on both sides (100M). Recommend Areca nut rows and vetiver grass with pepper or betel cultivation strip of 2m wide and 1km long.","Amount (Rs.)":"23500","photopath":"https://raw.githubusercontent.com/MWS003-GIS/MWS003-GIS.github.io/main/IWWRMP/Data/EXD/200_photo/MWS_008_2/Murapola_West/MRW0201.jpg"},"geometry":{"type":"Point","coordinates":[80.746966,7.186411]}},
{"type":"Feature","properties":{"No":28,"GND No.":1032,"Scheme":"Murapola West torrent 1","N":7.18722,"E":80.747361,"Observation":"-","Description":"Soil erosion of land on both sides during rainy days. Recommend two rows of vetiver grass at the edge of the canal and road .","Amount (Rs.)":"27000","photopath":"https://raw.githubusercontent.com/MWS003-GIS/MWS003-GIS.github.io/main/IWWRMP/Data/EXD/200_photo/MWS_008_2/Murapola_West/MRW0202.jpg"},"geometry":{"type":"Point","coordinates":[80.747361,7.18722]}},
{"type":"Feature","properties":{"No":29,"GND No.":1032,"Scheme":"Murapola West torrent 2","N":7.186746,"E":80.744877,"Observation":"-","Description":"The torrent is silted and blocked. The land on both sides is experiencing soil erosion. Recommend 1. to excavate and clear the trench. 2. to plant vetiver grass rows along the edges about 300m.","Amount (Rs.)":"50500","photopath":"https://raw.githubusercontent.com/MWS003-GIS/MWS003-GIS.github.io/main/IWWRMP/Data/EXD/200_photo/MWS_008_2/Murapola_West/MRW0203.jpg"},"geometry":{"type":"Point","coordinates":[80.744877,7.186746]}},
{"type":"Feature","properties":{"No":30,"GND No.":1026,"Scheme":"Murapola West torrent 3","N":7.170761,"E":80.732059,"Observation":"-","Description":"Soil erosion of land on both sides. Recommend 1. 1mx1mx1mx10m long leader drain.2. Grow Areca nut rows and vetiver grass with pepper or betel cultivation strip of 2m wide and 200m long.","Amount (Rs.)":"77000","photopath":"https://raw.githubusercontent.com/MWS003-GIS/MWS003-GIS.github.io/main/IWWRMP/Data/EXD/200_photo/MWS_008_2/Nawaneliya/NWN0202.jpg"},"geometry":{"type":"Point","coordinates":[80.732059,7.170761]}},
{"type":"Feature","properties":{"No":31,"GND No.":1026,"Scheme":"Yakkawana Kandura","N":7.168365,"E":80.729005,"Observation":"-","Description":"Soil erosion of land on both sides about 500m. Recommend two rows of vetiver grass at the edge of the canal and road for 300m","Amount (Rs.)":"70500","photopath":"https://raw.githubusercontent.com/MWS003-GIS/MWS003-GIS.github.io/main/IWWRMP/Data/EXD/200_photo/MWS_008_2/Nawaneliya/NWN0203.jpg"},"geometry":{"type":"Point","coordinates":[80.729005,7.168365]}},
{"type":"Feature","properties":{"No":32,"GND No.":1026,"Scheme":"Torrent near Mr. Dissanayake s house (Koodalu Kadura)","N":7.165474,"E":80.729414,"Observation":"-","Description":"Soil erosion of land on both sides is about 1300m. Recommend two rows of vetiver grass at the edge of the canal and road for 800m","Amount (Rs.)":"188000","photopath":"https://raw.githubusercontent.com/MWS003-GIS/MWS003-GIS.github.io/main/IWWRMP/Data/EXD/200_photo/MWS_008_2/Nawaneliya/NWN0201.jpg"},"geometry":{"type":"Point","coordinates":[80.729414,7.165474]}},
{"type":"Feature","properties":{"No":33,"GND No.":1033,"Scheme":"Ulututhenna Waththa Kandura","N":7.167007,"E":80.724905,"Observation":"-","Description":"Soil erosion of land on both sides. Recommend 1. To make dense planting of mixed vegetation comprising local fruits/Agave/Areca nut trees /Kithul/ Kumbuk/Mee/ Godapara/ Kaduru/ Aththikka/Wal del/Kekuna randomly mixed seedlings at 500 mm grid interval.2. Apply mulching, organic manure and NPK fertilizer. Covered area 300 m2 ","Amount (Rs.)":"133500","photopath":"https://raw.githubusercontent.com/MWS003-GIS/MWS003-GIS.github.io/main/IWWRMP/Data/EXD/200_photo/MWS_008_2/Pallegama/PP(02)1.jpg"},"geometry":{"type":"Point","coordinates":[80.724905,7.167007]}},
{"type":"Feature","properties":{"No":34,"GND No.":1033,"Scheme":"Wadiyagoda torrent","N":7.16458,"E":80.728661,"Observation":"-","Description":"Soil erosion of land on both sides. Recommend 1. To make dense planting of mixed vegetation comprising local fruits/Agave/Areca nut trees /Kithul/ Kumbuk/ Mee/ Godapara/ Kaduru/ Aththikka/Wal del/Kekuna randomly mixed seedlings at 500 mm grid interval.2. Apply mulching, organic manure and NPK fertilizer. Covered area 300 m2 ","Amount (Rs.)":"160200","photopath":"Not_Available"},"geometry":{"type":"Point","coordinates":[80.728661,7.16458]}},
{"type":"Feature","properties":{"No":35,"GND No.":1033,"Scheme":"Torrent near Udapitiya School","N":7.166039,"E":80.724272,"Observation":"-","Description":"Soil erosion of land on both sides about 600m. Recommend two rows of vetiver grass at the edge of the canal and road for 400m","Amount (Rs.)":"94000","photopath":"https://raw.githubusercontent.com/MWS003-GIS/MWS003-GIS.github.io/main/IWWRMP/Data/EXD/200_photo/MWS_008_2/Pallegama/PP(02)2.jpg"},"geometry":{"type":"Point","coordinates":[80.724272,7.166039]}},
{"type":"Feature","properties":{"No":36,"GND No.":1036,"Scheme":"Torrent across the Enasalgolla school","N":7.17775,"E":80.717135,"Observation":"-","Description":"Higher soil erosion of land on both sides (1200m).1. To construct 1mx1mx1m x300m long leader drain with drops 2. Areca nut rows and vetiver grass with pepper or betel cultivation strip of 2m wide and 400m long.","Amount (Rs.)":"694000","photopath":"https://raw.githubusercontent.com/MWS003-GIS/MWS003-GIS.github.io/main/IWWRMP/Data/EXD/200_photo/MWS_008_2/Wanahapuwa/w4.jpg"},"geometry":{"type":"Point","coordinates":[80.717135,7.17775]}},
{"type":"Feature","properties":{"No":37,"GND No.":1036,"Scheme":"Torrent from Egodagama spring","N":7.179527,"E":80.721413,"Observation":"-","Description":"Heavy soil erosion of land on both sides (1200m).Recommended 2.To construct (3mx2mx1m) two SABO-boulder dams across the stream. 3. To make dense planting of mixed vegetation comprising Agave/Areca nut trees /Kithul/ Kumbuk/ Mee/ Godapara/Kaduru/Aththikka/Wal del/Kekuna randomly mixed seedlings at 500 mm grid interval.4. Apply mulching, organic manure and NPK fertilizer. Covered area 400 m2 ","Amount (Rs.)":"376800","photopath":"https://raw.githubusercontent.com/MWS003-GIS/MWS003-GIS.github.io/main/IWWRMP/Data/EXD/200_photo/MWS_008_2/Wanahapuwa/w16.jpg"},"geometry":{"type":"Point","coordinates":[80.721413,7.179527]}},
{"type":"Feature","properties":{"No":38,"GND No.":1036,"Scheme":"Torrent near Mr. Rahmathulla's house","N":7.176935,"E":80.717077,"Observation":"-","Description":"Heavy soil erosion of land on both sides (200m).Recommended 2.To construct (2mx2mx1m) two SABO-boulder dams across the stream. 3. To make dense planting of mixed vegetation comprising Agave/Areca nut trees /Kithul/ Kumbuk/ Mee/ Godapara/ Kaduru/ Aththikka/ Wal del/ Kekuna randomly mixed seedlings at 500 mm grid interval.4. Apply mulching, organic manure and NPK fertilizer. Covered area 200 m2 ","Amount (Rs.)":"173500","photopath":"https://raw.githubusercontent.com/MWS003-GIS/MWS003-GIS.github.io/main/IWWRMP/Data/EXD/200_photo/MWS_008_2/Wanahapuwa/w26.jpg"},"geometry":{"type":"Point","coordinates":[80.717077,7.176935]}},
{"type":"Feature","properties":{"No":39,"GND No.":1036,"Scheme":"Malapatta Oya","N":7.177763,"E":80.719931,"Observation":"-","Description":"Heavy soil erosion of land on both sides (400m).Recommended 2.To construct (3mx2mx1m) Three SABO-boulder dams across the stream. 3. To make dense planting of mixed vegetation comprising Agave/Areca nut trees /Kithul/ Kumbuk/ Mee/ Godapara/ Kaduru/Aththikka/Wal del/Kekuna randomly mixed seedlings at 500 mm grid interval.4. Apply mulching, organic manure and NPK fertilizer. Covered area 500 m2 ","Amount (Rs.)":"537000","photopath":"https://raw.githubusercontent.com/MWS003-GIS/MWS003-GIS.github.io/main/IWWRMP/Data/EXD/200_photo/MWS_008_2/Wanahapuwa/w25.jpg"},"geometry":{"type":"Point","coordinates":[80.719931,7.177763]}},
{"type":"Feature","properties":{"No":40,"GND No.":1036,"Scheme":"Torrent near Wetakepotha and Wanahapuwa road","N":7.176508,"E":80.717417,"Observation":"-","Description":"Soil erosion of land on both sides(200m). Recommend Areca nut rows and vetiver grass with pepper or betel cultivation strip of 2m wide and 200m long.","Amount (Rs.)":"47000","photopath":"https://raw.githubusercontent.com/MWS003-GIS/MWS003-GIS.github.io/main/IWWRMP/Data/EXD/200_photo/MWS_008_2/Wanahapuwa/w29.jpg"},"geometry":{"type":"Point","coordinates":[80.717417,7.176508]}}
]}