{"type":"FeatureCollection","name":"WSP","crs":{"type":"name","properties":{"name":"urn:ogc:def:crs:OGC:1.3:CRS84"}},"features":[
{"type":"Feature","properties":{"No":1,"GND No.":1030,"Name of the Tank":"Tank at 5th mile post","N":7.183315,"E":80.73876,"Observation":"-","Description":"Accumulation of animal waste and domestic refuse. Recommend \n1. Demarcate an area of 20 perch as a reservation around the well. 2. Make riparian buffer strip and dense planting of mixed vegetation comprising Agave/ Vetiver/ Canas/ Areca nut trees/ Kumbuk/ Mee/ Godapara/ Kaduru/ Aththikka/ Wal del/Kekuna / local fruits/ randomly mixed seedlings at 500 mm grid interval.\n3. Apply mulching, organic manure and NPK fertilizer. Covered area 500 m2.\n4. Establish a CBO and awareness and training programs for waste management and disposal ","Amount (Rs.)":"317,000","photopath":"Not_Available"},"geometry":{"type":"Point","coordinates":[80.73876,7.183315]}},
{"type":"Feature","properties":{"No":2,"GND No.":1031,"Name of the Tank":"Rainwater harvesting tanks","N":7.185161,"E":80.7506,"Observation":"-","Description":"Requirement of a new tank. Recommend constructing ferro cement storage tank of 35 cum - size internal 3m diameter x 4m high","Amount (Rs.)":"325,000","photopath":"Not_Available"},"geometry":{"type":"Point","coordinates":[80.7506,7.185161]}},
{"type":"Feature","properties":{"No":3,"GND No.":1026,"Name of the Tank":"Nawaneliya new water project","N":7.165923,"E":80.72747,"Observation":"-","Description":"Construction of a new catchpit","Amount (Rs.)":" 4,152,500.00 ","photopath":"https://raw.githubusercontent.com/MWS003-GIS/MWS003-GIS.github.io/main/IWWRMP/Data/EXD/200_photo/MWS_008_2/NawaneliyaWP.jpg"},"geometry":{"type":"Point","coordinates":[80.72747,7.165923]}}
]}