{
"type": "FeatureCollection",
"name": "DWS",
"crs": { "type": "name", "properties": { "name": "urn:ogc:def:crs:OGC:1.3:CRS84" } },
"features": [
{ "type": "Feature", "properties": { "No": 25, "GND No.": 475, "Scheme": "Palkumbura Muslim Viduhala", "N": 7.331385, "E": 80.551228, "Observation": "They have a plastic storage tank in the school. But it is not fixed yet. Fix the tank and give pipe line.", "Description": "Preparation of site for installing the tank\n1:3:6 (40mm) concrete with concrete mixer  (volume batching)\nPlacing the tank and plumbing work\nTyding up \nContingencies 10%", "Estimated Cost": 27700, "photopath": "https://raw.githubusercontent.com/MWS003-GIS/MWS003-GIS.github.io/main/IWWRMP/Data/EXD/200_photo/MWS_114_2/water project (2).jpg" }, "geometry": { "type": "Point", "coordinates": [ 80.551228, 7.331385 ] } }
]
}
