{
"type": "FeatureCollection",
"name": "MI",
"crs": { "type": "name", "properties": { "name": "urn:ogc:def:crs:OGC:1.3:CRS84" } },
"features": [
{ "type": "Feature", "properties": { "No": 72, "GND No.": 477, "Scheme": "Deniya kumbura ela margaya", "N": 7.319935, "E": 80.558974, "Observation": "Canal has no lining and several blockages were observed.", "Description": "Improvements to Canals\nCanal reservation protection by concrete lining  For  100mm thick , 0.3m  wide  and 0.3m high canal -double banking\nStream / canal  reservation protection by earthfilling of  strip   of 1.5m to 2m wide  and average Depth of 0.5m", "Amount (Rs.)": 1590600, "photopath": "https://raw.githubusercontent.com/MWS003-GIS/MWS003-GIS.github.io/main/IWWRMP/Data/EXD/200_photo/MWS_114_2/Deniya kumbura ela margaya.jpg" }, "geometry": { "type": "Point", "coordinates": [ 80.558974, 7.319935 ] } },
{ "type": "Feature", "properties": { "No": 73, "GND No.": 477, "Scheme": "The canal system that supplies water from the Makulanga weir to the fields", "N": 7.320453, "E": 80.55796, "Observation": "Canal banks has damaged. Water flow through the paddy fields", "Description": "Improvements to Canals\nCanal reservation protection by concrete lining  For  100mm thick , 0.3m  wide  and 0.3m high canal -double banking\nStream / canal  reservation protection by earthfilling of  strip   of 1.5m to 2m wide  and average Depth of 0.5m\n", "Amount (Rs.)": 752000, "photopath": "https://raw.githubusercontent.com/MWS003-GIS/MWS003-GIS.github.io/main/IWWRMP/Data/EXD/200_photo/MWS_114_2/The canal system that supplies water from the Makulanga weir to the fields.jpg" }, "geometry": { "type": "Point", "coordinates": [ 80.55796, 7.320453 ] } },
{ "type": "Feature", "properties": { "No": 74, "GND No.": 478, "Scheme": "Development the Radapeela anicut", "N": 7.321385, "E": 80.554683, "Observation": "Anicut has damaged.Canal  banks are eroded. No plantation in reservation. About 7 acres of paddy fields are cultivated.", "Description": "Site preparation & setting out\nEarth excavation for foundation or quarry materials and haul the surplus materials up to 30m by Manually.\nPlywood form work including making, fixing & removing for concrete canals at ground level -05 uses\nPlywood form work", "Amount (Rs.)": 632500, "photopath": "https://raw.githubusercontent.com/MWS003-GIS/MWS003-GIS.github.io/main/IWWRMP/Data/EXD/200_photo/MWS_114_2/Development the Radapeela anicut_1.jpg" }, "geometry": { "type": "Point", "coordinates": [ 80.554683, 7.321385 ] } }
]
}
