{
"type": "FeatureCollection",
"name": "SWC_ON",
"crs": { "type": "name", "properties": { "name": "urn:ogc:def:crs:OGC:1.3:CRS84" } },
"features": [
{ "type": "Feature", "properties": { "No.": 15, "GND No.": 473, "GND Name": "Narangoda", "Key Activities proposed for Soil and Water conservation": "1. Soil conservation practices (25°-35°)", "Priority based on Soil Erosion Hazard": 1, "N": 7.336489, "E": 80.558532, "Quantity": "4 ha", "Proposed measure/s": "1. Establishing SALT  - 2000 m/ 2. Lock and spills - 1000 m/ 3. Stone terracing - 1000 m/ 4. Agronomic practices should be adapted at optimum level (conservation tillage, crop rotation and diversification, cover crops, mulching, contour farming, windbrea", "Uniti_Cost": "250.00 m-1/ 400.00 m-1/ 2500.00 m-1", "Total_Cost": 3400000.0, "Contribution (Local Community, LA, and the project)": "Labour and other basic services by the Local community", "Time frame for the implementation": "0.25 Years", "photopath": null }, "geometry": { "type": "Point", "coordinates": [ 80.558532, 7.336489 ] } },
{ "type": "Feature", "properties": { "No.": 16, "GND No.": 473, "GND Name": "Narangoda", "Key Activities proposed for Soil and Water conservation": "1. Soil conservation practices (25°-35°)", "Priority based on Soil Erosion Hazard": 1, "N": 7.33645, "E": 80.558288, "Quantity": null, "Proposed measure/s": null, "Uniti_Cost": null, "Total_Cost": null, "Contribution (Local Community, LA, and the project)": null, "Time frame for the implementation": null, "photopath": null }, "geometry": { "type": "Point", "coordinates": [ 80.558288, 7.33645 ] } }
]
}
