{"type":"FeatureCollection","name":"SWC_ON","crs":{"type":"name","properties":{"name":"urn:ogc:def:crs:OGC:1.3:CRS84"}},"features":[
{"type":"Feature","properties":{"No.":5,"GND No.":"484D","GND Name":"Dimbulkumbura","Key Activities proposed for Soil and Water conservation":"4. Soil conservation practices - Bastiyawatta (70d)","Priority based on Soil Erosion Hazard":3,"N":7.146628,"E":80.797033,"Quantity":"4 ha","Proposed measure/s":"Live fencing/SALT\nStone terracing/lock and spills, as applied","Uniti_Cost":"250.00 m-1","Total_Cost":"1,000,000.00","Contribution (Local Community, LA, and the project)":"Labour and other basic services by the Local community","Time frame for the implementation":"0.25 Years","photopath":"https://raw.githubusercontent.com/MWS003-GIS/MWS003-GIS.github.io/main/IWWRMP/Data/EXD/200_photo/MWS_020_2/D (05)1.jpg"},"geometry":{"type":"Point","coordinates":[80.797033,7.146628]}},
{"type":"Feature","properties":{"No.":6,"GND No.":"484D","GND Name":"Dimbulkumbura","Key Activities proposed for Soil and Water conservation":"5. Soil conservation practices - Bastiyawatta (65d)","Priority based on Soil Erosion Hazard":4,"N":7.146524,"E":80.797446,"Quantity":"6 ha","Proposed measure/s":"Live fencing/SALT\nStone terracing/lock and spills, as applied","Uniti_Cost":"250.00 m-1","Total_Cost":"1,500,000.00","Contribution (Local Community, LA, and the project)":"Labour and other basic services by the Local community","Time frame for the implementation":"0.25 Years","photopath":"https://raw.githubusercontent.com/MWS003-GIS/MWS003-GIS.github.io/main/IWWRMP/Data/EXD/200_photo/MWS_020_2/D (05)2.jpg"},"geometry":{"type":"Point","coordinates":[80.797446,7.146524]}},
{"type":"Feature","properties":{"No.":7,"GND No.":"484D","GND Name":"Dimbulkumbura","Key Activities proposed for Soil and Water conservation":"6. Soil conservation practices - Henkumbura (70d)","Priority based on Soil Erosion Hazard":1,"N":7.144563,"E":80.799711,"Quantity":"4 ha","Proposed measure/s":"Live fencing/SALT\nStone terracing/lock and spills, as applied","Uniti_Cost":"250.00 m-1","Total_Cost":"1,000,000.00","Contribution (Local Community, LA, and the project)":"Labour and other basic services by the Local community","Time frame for the implementation":"0.25 Years","photopath":"https://raw.githubusercontent.com/MWS003-GIS/MWS003-GIS.github.io/main/IWWRMP/Data/EXD/200_photo/MWS_020_2/D (05)3.jpg"},"geometry":{"type":"Point","coordinates":[80.799711,7.144563]}},
{"type":"Feature","properties":{"No.":8,"GND No.":"484D","GND Name":"Dimbulkumbura","Key Activities proposed for Soil and Water conservation":"7. Soil conservation practices - Dimbul kumbura (85d)","Priority based on Soil Erosion Hazard":4,"N":7.14291,"E":80.802956,"Quantity":"6 ha","Proposed measure/s":"Live fencing/SALT\nStone terracing/lock and spills, as applied","Uniti_Cost":"250.00 m-1","Total_Cost":"1,500,000.00","Contribution (Local Community, LA, and the project)":"Labour and other basic services by the Local community","Time frame for the implementation":"0.25 Years","photopath":"https://raw.githubusercontent.com/MWS003-GIS/MWS003-GIS.github.io/main/IWWRMP/Data/EXD/200_photo/MWS_020_2/D (05)4.jpg"},"geometry":{"type":"Point","coordinates":[80.802956,7.14291]}},
{"type":"Feature","properties":{"No.":15,"GND No.":"491B","GND Name":"Endiribedda","Key Activities proposed for Soil and Water conservation":"6. Soil conservation practices - Endiribedda (65d)","Priority based on Soil Erosion Hazard":2,"N":7.180123,"E":80.833547,"Quantity":"36 ha","Proposed measure/s":"Live fencing/SALT\nStone terracing/lock and spills, as applied","Uniti_Cost":"250.00 m-1","Total_Cost":"9,000,000.00","Contribution (Local Community, LA, and the project)":"Labour and other basic services by the Local community","Time frame for the implementation":"1 Year","photopath":"Not_Available"},"geometry":{"type":"Point","coordinates":[80.833547,7.180123]}},
{"type":"Feature","properties":{"No.":16,"GND No.":"491B","GND Name":"Endiribedda","Key Activities proposed for Soil and Water conservation":"7. Soil conservation practices - Endiribedda (65d)","Priority based on Soil Erosion Hazard":5,"N":7.181508,"E":80.832698,"Quantity":"4 ha","Proposed measure/s":"Live fencing/SALT\nStone terracing/lock and spills, as applied","Uniti_Cost":"250.00 m-1","Total_Cost":"1,000,000.00","Contribution (Local Community, LA, and the project)":"Labour and other basic services by the Local community","Time frame for the implementation":"0.25 Years","photopath":"Not_Available"},"geometry":{"type":"Point","coordinates":[80.832698,7.181508]}},
{"type":"Feature","properties":{"No.":17,"GND No.":"491B","GND Name":"Endiribedda","Key Activities proposed for Soil and Water conservation":"8. Soil conservation practices - Endiribedda Gama Meda Kotasa (60d)","Priority based on Soil Erosion Hazard":1,"N":7.183207,"E":80.832182,"Quantity":"28 ha","Proposed measure/s":"Live fencing/SALT\nStone terracing/lock and spills, as applied","Uniti_Cost":"250.00 m-1","Total_Cost":"7,000,000.00","Contribution (Local Community, LA, and the project)":"Labour and other basic services by the Local community","Time frame for the implementation":"0.5 Years","photopath":"Not_Available"},"geometry":{"type":"Point","coordinates":[80.832182,7.183207]}},
{"type":"Feature","properties":{"No.":18,"GND No.":"491B","GND Name":"Endiribedda","Key Activities proposed for Soil and Water conservation":"9. Soil conservation practices - Near Randenigala Reservoir (80d)","Priority based on Soil Erosion Hazard":1,"N":7.184966,"E":80.833375,"Quantity":"8 ha","Proposed measure/s":"Live fencing/SALT\nStone terracing/lock and spills, as applied","Uniti_Cost":"250.00 m-1","Total_Cost":"2,000,000.00","Contribution (Local Community, LA, and the project)":"Labour and other basic services by Local community","Time frame for the implementation":"0.25 Years","photopath":"Not_Available"},"geometry":{"type":"Point","coordinates":[80.833375,7.184966]}},
{"type":"Feature","properties":{"No.":21,"GND No.":"489B","GND Name":"Uda Galauda","Key Activities proposed for Soil and Water conservation":"3. Soil conservation practices - Kalugolla Yaaya (55d)","Priority based on Soil Erosion Hazard":1,"N":7.155512,"E":80.817025,"Quantity":"12 ha","Proposed measure/s":"Live fencing/SALT\nStone terracing/lock and spills, as applied","Uniti_Cost":"250.00 m-1","Total_Cost":"3,000,000.00","Contribution (Local Community, LA, and the project)":"Labour and other basic services by the Local community","Time frame for the implementation":"0.25 Years","photopath":"https://raw.githubusercontent.com/MWS003-GIS/MWS003-GIS.github.io/main/IWWRMP/Data/EXD/200_photo/MWS_020_2/UGU (05)1.jpg"},"geometry":{"type":"Point","coordinates":[80.817025,7.155512]}},
{"type":"Feature","properties":{"No.":22,"GND No.":"489B","GND Name":"Uda Galauda","Key Activities proposed for Soil and Water conservation":"4. Soil conservation practices - Iluk Kumbura (60d)","Priority based on Soil Erosion Hazard":2,"N":7.156909,"E":80.815289,"Quantity":"64 ha","Proposed measure/s":"Live fencing/SALT\nStone terracing/lock and spills, as applied","Uniti_Cost":"250.00 m-1","Total_Cost":"16,000,000.00","Contribution (Local Community, LA, and the project)":"Labour and other basic services by the Local community","Time frame for the implementation":"0.25 Years","photopath":"https://raw.githubusercontent.com/MWS003-GIS/MWS003-GIS.github.io/main/IWWRMP/Data/EXD/200_photo/MWS_020_2/UGU (05)2.jpg"},"geometry":{"type":"Point","coordinates":[80.815289,7.156909]}},
{"type":"Feature","properties":{"No.":23,"GND No.":"489B","GND Name":"Uda Galauda","Key Activities proposed for Soil and Water conservation":"5. Soil conservation practices- Kirinda (40d)","Priority based on Soil Erosion Hazard":1,"N":7.155883,"E":80.819474,"Quantity":"18 ha","Proposed measure/s":"Live fencing/SALT\nStone terracing/lock and spills, as applied","Uniti_Cost":"250.00 m-1","Total_Cost":"4,500,000.00","Contribution (Local Community, LA, and the project)":"Labour and other basic services by Local community","Time frame for the implementation":"0.25 Years","photopath":"https://raw.githubusercontent.com/MWS003-GIS/MWS003-GIS.github.io/main/IWWRMP/Data/EXD/200_photo/MWS_020_2/UGU (05)3.jpg"},"geometry":{"type":"Point","coordinates":[80.819474,7.155883]}},
{"type":"Feature","properties":{"No.":24,"GND No.":"489B","GND Name":"Uda Galauda","Key Activities proposed for Soil and Water conservation":"6. Soil conservation practices - Kirinda (Bambaragahapitiya) (75d)","Priority based on Soil Erosion Hazard":5,"N":7.15651,"E":80.82018,"Quantity":"18 ha","Proposed measure/s":"Live fencing/SALT\nStone terracing/lock and spills, as applied","Uniti_Cost":"250.00 m-1","Total_Cost":"4,500,000.00","Contribution (Local Community, LA, and the project)":"Labour and other basic services by the Local community","Time frame for the implementation":"0.25 Years","photopath":"https://raw.githubusercontent.com/MWS003-GIS/MWS003-GIS.github.io/main/IWWRMP/Data/EXD/200_photo/MWS_020_2/UGU (05)4.jpg"},"geometry":{"type":"Point","coordinates":[80.82018,7.15651]}},
{"type":"Feature","properties":{"No.":25,"GND No.":"489B","GND Name":"Uda Galauda","Key Activities proposed for Soil and Water conservation":"7. Soil conservation practices - (Kirinda) (70d)","Priority based on Soil Erosion Hazard":1,"N":7.15665,"E":80.82021,"Quantity":"12 ha","Proposed measure/s":"Live fencing/SALT\nStone terracing/lock and spills, as applied","Uniti_Cost":"250.00 m-1","Total_Cost":"3,000,000.00","Contribution (Local Community, LA, and the project)":"Labour and other basic services by the Local community","Time frame for the implementation":"0.25 Years","photopath":"https://raw.githubusercontent.com/MWS003-GIS/MWS003-GIS.github.io/main/IWWRMP/Data/EXD/200_photo/MWS_020_2/UGU (05)5.jpg"},"geometry":{"type":"Point","coordinates":[80.82021,7.15665]}}
]}