{"type":"FeatureCollection","name":"SWC_OFF","crs":{"type":"name","properties":{"name":"urn:ogc:def:crs:OGC:1.3:CRS84"}},"features":[
{"type":"Feature","properties":{"No.":1,"GND No.":"484D","GND Name":"Dimbulkumbura","Key Activities proposed for Soil and Water conservation":"1. Renovation of natural drains - Koothaiwatta minor stream","Priority based on Soil Erosion Hazard":5,"N":7.146668,"E":80.802837,"Quantity":"1.3 km","Proposed measure/s":"Clearing and planting some trees along the banks (Areca nut) and other conservation practices","Total_Cost":"130,000.00","Contribution (Local Community, LA, and the project)":"Labour and other basic services by the Local community/ Shramadana","Time frame for the implementation":"0.25 Years","photopath":"https://raw.githubusercontent.com/MWS003-GIS/MWS003-GIS.github.io/main/IWWRMP/Data/EXD/200_photo/MWS_020_2/D (02)1.jpg"},"geometry":{"type":"Point","coordinates":[80.802837,7.146668]}},
{"type":"Feature","properties":{"No.":2,"GND No.":"484D","GND Name":"Dimbulkumbura","Key Activities proposed for Soil and Water conservation":"2. Renovation of natural drains - Penanwatta minor stream","Priority based on Soil Erosion Hazard":5,"N":7.149639,"E":80.804665,"Quantity":"1.3 km","Proposed measure/s":"Clearing and planting some trees along the banks (Areca nut) and other conservation practices","Total_Cost":"130,000.00","Contribution (Local Community, LA, and the project)":"Labour and other basic services by the Local community/ Shramadana","Time frame for the implementation":"0.25 Years","photopath":"https://raw.githubusercontent.com/MWS003-GIS/MWS003-GIS.github.io/main/IWWRMP/Data/EXD/200_photo/MWS_020_2/D (02)2.jpg"},"geometry":{"type":"Point","coordinates":[80.804665,7.149639]}},
{"type":"Feature","properties":{"No.":3,"GND No.":"484D","GND Name":"Dimbulkumbura","Key Activities proposed for Soil and Water conservation":"2. Renovation of natural drains - Penanwatta minor stream","Priority based on Soil Erosion Hazard":1,"N":7.14998,"E":80.804543,"Quantity":"-","Proposed measure/s":"-","Total_Cost":"-","Contribution (Local Community, LA, and the project)":"-","Time frame for the implementation":"-","photopath":"https://raw.githubusercontent.com/MWS003-GIS/MWS003-GIS.github.io/main/IWWRMP/Data/EXD/200_photo/MWS_020_2/D (02)2.jpg"},"geometry":{"type":"Point","coordinates":[80.804543,7.14998]}},
{"type":"Feature","properties":{"No.":4,"GND No.":"484D","GND Name":"Dimbulkumbura","Key Activities proposed for Soil and Water conservation":"3. Renovation of natural drains - Maha Kandura waterfall","Priority based on Soil Erosion Hazard":1,"N":7.143906,"E":80.80164,"Quantity":"2.4 km","Proposed measure/s":"Clearing and planting some trees along the banks (Areca nut) and other conservation practices","Total_Cost":"240,000.00","Contribution (Local Community, LA, and the project)":"Labour and other basic services by the Local community/ Shramadana","Time frame for the implementation":"0.25 Years","photopath":"https://raw.githubusercontent.com/MWS003-GIS/MWS003-GIS.github.io/main/IWWRMP/Data/EXD/200_photo/MWS_020_2/D (02)3.jpg"},"geometry":{"type":"Point","coordinates":[80.80164,7.143906]}},
{"type":"Feature","properties":{"No.":10,"GND No.":"491B","GND Name":"Endiribedda","Key Activities proposed for Soil and Water conservation":"1. Renovation of natural drains - Minor stream 1","Priority based on Soil Erosion Hazard":5,"N":7.180426,"E":80.83377,"Quantity":"800 m","Proposed measure/s":"Clearing and planting some trees along the banks (Areca nut) and other conservation practices","Total_Cost":"130,000.00","Contribution (Local Community, LA, and the project)":"Labour and other basic services by the Local community/ Shramadana","Time frame for the implementation":"0.25 Years","photopath":"Not_Available"},"geometry":{"type":"Point","coordinates":[80.83377,7.180426]}},
{"type":"Feature","properties":{"No.":11,"GND No.":"491B","GND Name":"Endiribedda","Key Activities proposed for Soil and Water conservation":"2. Renovation of natural drains - Andiribedda stream","Priority based on Soil Erosion Hazard":5,"N":7.180426,"E":80.83377,"Quantity":"3 km","Proposed measure/s":"Clearing and planting some trees along the banks (Areca nut) and other conservation practices","Total_Cost":"130,000.00","Contribution (Local Community, LA, and the project)":"Labour and other basic services by the Local community/ Shramadana","Time frame for the implementation":"0.25 Years","photopath":"Not_Available"},"geometry":{"type":"Point","coordinates":[80.83377,7.180426]}},
{"type":"Feature","properties":{"No.":12,"GND No.":"491B","GND Name":"Endiribedda","Key Activities proposed for Soil and Water conservation":"3. Renovation of natural drains - Ulpath yaaya minor stream","Priority based on Soil Erosion Hazard":5,"N":7.180768,"E":80.83306,"Quantity":"2.5 km","Proposed measure/s":"Clearing and planting some trees along the banks (Areca nut) and other conservation practices","Total_Cost":"130,000.00","Contribution (Local Community, LA, and the project)":"Labour and other basic services by the Local community/ Shramadana","Time frame for the implementation":"0.25 Years","photopath":"Not_Available"},"geometry":{"type":"Point","coordinates":[80.83306,7.180768]}},
{"type":"Feature","properties":{"No.":13,"GND No.":"491B","GND Name":"Endiribedda","Key Activities proposed for Soil and Water conservation":"4. Renovation of natural drains - Mala minor stream","Priority based on Soil Erosion Hazard":5,"N":7.182407,"E":80.831907,"Quantity":"1.8 km","Proposed measure/s":"Clearing and planting some trees along the banks (Areca nut) and other conservation practices","Total_Cost":"130,000.00","Contribution (Local Community, LA, and the project)":"Labour and other basic services by the Local community/ Shramadana","Time frame for the implementation":"0.25 Years","photopath":"Not_Available"},"geometry":{"type":"Point","coordinates":[80.831907,7.182407]}},
{"type":"Feature","properties":{"No.":14,"GND No.":"491B","GND Name":"Endiribedda","Key Activities proposed for Soil and Water conservation":"5. Renovation of natural drains - Paradeyya Kewula minor stream","Priority based on Soil Erosion Hazard":2,"N":7.179788,"E":80.836212,"Quantity":"1.8 km","Proposed measure/s":"Clearing and planting some trees along the banks (Areca nut) and other conservation practices","Total_Cost":"130,000.00","Contribution (Local Community, LA, and the project)":"Labour and other basic services by the Local community/ Shramadana","Time frame for the implementation":"0.25 Years","photopath":"Not_Available"},"geometry":{"type":"Point","coordinates":[80.836212,7.179788]}},
{"type":"Feature","properties":{"No.":19,"GND No.":"489B","GND Name":"Uda Galauda","Key Activities proposed for Soil and Water conservation":"1. Renovation of natural drains - Iluk Kumbura minor stream","Priority based on Soil Erosion Hazard":1,"N":7.157853,"E":80.814831,"Quantity":"3.5 km","Proposed measure/s":"Clearing and planting some trees along the banks (Areca nut) and other conservation practices","Total_Cost":"350,000.00","Contribution (Local Community, LA, and the project)":"Labour and other basic services by the Local community/ Shramadana","Time frame for the implementation":"0.25 Years","photopath":"https://raw.githubusercontent.com/MWS003-GIS/MWS003-GIS.github.io/main/IWWRMP/Data/EXD/200_photo/MWS_020_2/UGU (02)1.jpg"},"geometry":{"type":"Point","coordinates":[80.814831,7.157853]}},
{"type":"Feature","properties":{"No.":20,"GND No.":"489B","GND Name":"Uda Galauda","Key Activities proposed for Soil and Water conservation":"2. Renovation of natural drains - Ketan minor stream","Priority based on Soil Erosion Hazard":1,"N":7.154829,"E":80.820065,"Quantity":"3.1 km","Proposed measure/s":"Clearing and planting some trees along the banks (Areca nut) and other conservation practices","Total_Cost":"310,000.00","Contribution (Local Community, LA, and the project)":"Labour and other basic services by the Local community/ Shramadana","Time frame for the implementation":"0.25 Years","photopath":"https://raw.githubusercontent.com/MWS003-GIS/MWS003-GIS.github.io/main/IWWRMP/Data/EXD/200_photo/MWS_020_2/UGU (02)2.jpg"},"geometry":{"type":"Point","coordinates":[80.820065,7.154829]}},
{"type":"Feature","properties":{"No.":26,"GND No.":"489B","GND Name":"Uda Galauda","Key Activities proposed for Soil and Water conservation":"8. Constructing a side wall/retaining wall - Ihala Gedara","Priority based on Soil Erosion Hazard":2,"N":7.161266,"E":80.811379,"Quantity":"6 m x 1.2 m","Proposed measure/s":"Retaining wall","Total_Cost":"14,400.00","Contribution (Local Community, LA, and the project)":"Labour and other basic services by the Local community","Time frame for the implementation":"0.5 Years","photopath":"https://raw.githubusercontent.com/MWS003-GIS/MWS003-GIS.github.io/main/IWWRMP/Data/EXD/200_photo/MWS_020_2/UGU (11)1.jpg"},"geometry":{"type":"Point","coordinates":[80.811379,7.161266]}},
{"type":"Feature","properties":{"No.":27,"GND No.":"489B","GND Name":"Uda Galauda","Key Activities proposed for Soil and Water conservation":"9. Constructing a side wall/retaining wall - Uda Galauda Vidyalaya","Priority based on Soil Erosion Hazard":3,"N":7.163117,"E":80.815629,"Quantity":"50 m x 4 m","Proposed measure/s":"Retaining wall","Total_Cost":"400,000.00","Contribution (Local Community, LA, and the project)":"Labour and other basic services by the Local community","Time frame for the implementation":"0.5 Years","photopath":"Not_Available"},"geometry":{"type":"Point","coordinates":[80.815629,7.163117]}}
]}