{"type":"FeatureCollection","name":"MI","crs":{"type":"name","properties":{"name":"urn:ogc:def:crs:OGC:1.3:CRS84"}},"features":[
{"type":"Feature","properties":{"No":1,"GND No.":1067,"Scheme":"Herakola main canal","N":7.151541,"E":80.556377,"Observation":"The total length of the canal between GND is 1Km. Some sections of this canal  have been developed (W=0.6m, H=0.3m). 30 Acres of paddy is cultivated from this canal. some sections are in severely dilapidated due to farmers encroaching on the canal  reser","Description":"Canal reservation protection by concrete lining  For  100mm thick , 0.3m  wide  and 0.3m high canal -double banking\n\nStream / canal  reservation protection by earth filling of  strip   of 1.5m to 2m wide  and average Depth of 0.5m\n\nVegetative cover impro","Amount (Rs.)":3784000,"photopath":"https://raw.githubusercontent.com/MWS003-GIS/MWS003-GIS.github.io/main/IWWRMP/Data/EXD/200_photo/MWS_135/Minor Irrigation - Herakola main canal (6).jpg"},"geometry":{"type":"Point","coordinates":[80.556377,7.151541]}},
{"type":"Feature","properties":{"No":2,"GND No.":1068,"Scheme":"Kosgolla anicut","N":7.152865,"E":80.559547,"Observation":"Although the anicut is in good condition, its wing walls are destroyed and the timber planks are missing. It is reported that this anicut feeds feeds about 20 acres of paddy fields.","Description":"Scarifying existing rock or concrete surface\n\nSupplying and fixing M.S. dowels spliced and dovetailed with wedge at one end 16mm dia. And 600mm long, boring holes to 0.3m depth in fixing\n\nConstruction of 2.0m high 1:3:6 (40mm) cement concrete Retaining W","Amount (Rs.)":1144000,"photopath":"https://raw.githubusercontent.com/MWS003-GIS/MWS003-GIS.github.io/main/IWWRMP/Data/EXD/200_photo/MWS_135/Minor Irrigation - Kosgolla anicut.jpg"},"geometry":{"type":"Point","coordinates":[80.559547,7.152865]}},
{"type":"Feature","properties":{"No":3,"GND No.":1070,"Scheme":"Pitapela canal","N":7.135263,"E":80.561268,"Observation":"The total length of the canal is 750m. Some sections of this canal  have been developed (W=0.45m, H=0.6m). 15 Acres of paddy is cultivated from this canal.","Description":"\nVegetative cover improving for narrow strips (1.5m-2.0m wide) with Arecanut seedlings at 1.5m spacing in 2 rows, Betel plants VP at 3m spacing in 1 row, Green gram as a cover crop\n\nMiscellaneous\n\nContingencies 10%","Amount (Rs.)":159500,"photopath":"https://raw.githubusercontent.com/MWS003-GIS/MWS003-GIS.github.io/main/IWWRMP/Data/EXD/200_photo/MWS_135/Minor Irrigation - Pitapela canal.jpg"},"geometry":{"type":"Point","coordinates":[80.561268,7.135263]}},
{"type":"Feature","properties":{"No":4,"GND No.":1070,"Scheme":"Pallewela anicut","N":7.132605,"E":80.561948,"Observation":"Although the anicut is in good condition, the connection between gate and tred bar is broken. The pitapela canal begins here.","Description":"Supplying & installing a suitable CI rod for the gate\n\nMiscellaneous\n\nContingencies 10%","Amount (Rs.)":29700,"photopath":"https://raw.githubusercontent.com/MWS003-GIS/MWS003-GIS.github.io/main/IWWRMP/Data/EXD/200_photo/MWS_135/Minor Irrigation - Pallewela anicut.jpg"},"geometry":{"type":"Point","coordinates":[80.561948,7.132605]}},
{"type":"Feature","properties":{"No":5,"GND No.":1070,"Scheme":"Rukattana Deniya canal - Warakapitiya","N":7.129349,"E":80.560023,"Observation":"The total length of the canal is 1 Km. Some sections of this canal  have been developed (W=0.3m, H=0.3m). 10 Acres of paddy is cultivated from this canal.","Description":"Canal reservation protection by concrete lining  For  100mm thick , 0.3m  wide  and 0.3m high canal -double banking\n\nStream / canal  reservation protection by earth filling of  strip   of 1.5m to 2m wide  and average Depth of 0.5m\n\nVegetative cover impro","Amount (Rs.)":1034000,"photopath":"https://raw.githubusercontent.com/MWS003-GIS/MWS003-GIS.github.io/main/IWWRMP/Data/EXD/200_photo/MWS_135/Minor Irrigation - Rukattana Deniya canal - Warakapitiya.jpg"},"geometry":{"type":"Point","coordinates":[80.560023,7.129349]}},
{"type":"Feature","properties":{"No":6,"GND No.":1076,"Scheme":"Monara Mote canal","N":7.125145,"E":80.564879,"Observation":"Some sections of this canal  have been developed (Side walls). 5 Acres of paddy is cultivated from this canal. some sections are in severely dilapidated due to farmers encroaching on the canal  reserve and the canal being broken. Too much water flows in","Description":"Construction of 1.0m high 1:3:6 (40mm) cement concrete Retaining Wall \n\nVegetative cover improving for narrow strips (1.5m-2.0m wide) with Arecanut seedlings at 1.5m spacing in 2 rows, Betel plants VP at 3m spacing in 1 row, Green gram as a cover crop\n\nM","Amount (Rs.)":808500,"photopath":"https://raw.githubusercontent.com/MWS003-GIS/MWS003-GIS.github.io/main/IWWRMP/Data/EXD/200_photo/MWS_135/Minor Irrigation - Monara Mote canal.jpg"},"geometry":{"type":"Point","coordinates":[80.564879,7.125145]}},
{"type":"Feature","properties":{"No":7,"GND No.":1076,"Scheme":"Lakshepihilla canal","N":7.124994,"E":80.565143,"Observation":"Some sections of this canal  have been developed (Side walls). 3 Acres of paddy is cultivated from this canal. some sections are in severely dilapidated due to farmers encroaching on the canal  reserve and the canal being broken. Too much water flows in","Description":"Canal reservation protection by concrete lining  For  100mm thick , 0.3m  wide  and 0.3m high canal -double banking\n\nVegetative cover improving for narrow strips (1.5m-2.0m wide) with Arecanut seedlings at 1.5m spacing in 2 rows, Betel plants VP at 3m sp","Amount (Rs.)":588500,"photopath":"https://raw.githubusercontent.com/MWS003-GIS/MWS003-GIS.github.io/main/IWWRMP/Data/EXD/200_photo/MWS_135/Minor Irrigation - Lakshe pihilla (5).jpg"},"geometry":{"type":"Point","coordinates":[80.565143,7.124994]}},
{"type":"Feature","properties":{"No":8,"GND No.":1076,"Scheme":"Raja ela","N":7.123914,"E":80.56363,"Observation":"Some sections of this canal  have been developed (Side walls). 5 Acres of paddy is cultivated from this canal. some sections are in severely dilapidated due to farmers encroaching on the canal  reserve and the canal being broken.","Description":"Canal reservation protection by concrete lining  For  100mm thick , 0.3m  wide  and 0.3m high canal -double banking\n\nVegetative cover improving for narrow strips (1.5m-2.0m wide) with Arecanut seedlings at 1.5m spacing in 2 rows, Betel plants VP at 3m sp","Amount (Rs.)":500500,"photopath":"https://raw.githubusercontent.com/MWS003-GIS/MWS003-GIS.github.io/main/IWWRMP/Data/EXD/200_photo/MWS_135/Streams - Raja Ela.jpg"},"geometry":{"type":"Point","coordinates":[80.56363,7.123914]}},
{"type":"Feature","properties":{"No":9,"GND No.":1073,"Scheme":"Bridge - Raja Ela from Ethgala north to the road tht connects to 8th narrow road","N":7.138547,"E":80.565438,"Observation":"The total length of the canal between GND is 1Km. Some sections of this canal  have been developed (W=0.9m, H=0.75m). 25 Acres of paddy is cultivated from this canal. some sections are in severely dilapidated due to farmers encroaching on the canal  rese","Description":"Canal reservation protection by concrete lining  For  100mm thick , 0.3m  wide  and 0.3m high canal -double banking\n\nStream / canal  reservation protection by earth filling of  strip   of 1.5m to 2m wide  and average Depth of 0.5m\n\nVegetative cover impro","Amount (Rs.)":1804000,"photopath":"https://raw.githubusercontent.com/MWS003-GIS/MWS003-GIS.github.io/main/IWWRMP/Data/EXD/200_photo/MWS_135/Medium Irrigation - Raja Ela from Ethgala north to the road tht connects to 8th narrow road (3).jpg"},"geometry":{"type":"Point","coordinates":[80.565438,7.138547]}},
{"type":"Feature","properties":{"No":10,"GND No.":1075,"Scheme":"Raja Ela","N":7.13628,"E":80.563141,"Observation":"The total length of the canal between GND is 1Km. Some sections of this canal  have been developed (W=0.9m, H=0.75m). Some sections are in severely dilapidated due to farmers encroaching on the canal  reserve and the canal being broken.","Description":"Canal reservation protection by concrete lining  For  100mm thick , 0.3m  wide  and 0.3m high canal -double banking\n\nVegetative cover improving for narrow strips (1.5m-2.0m wide) with Arecanut seedlings at 1.5m spacing in 2 rows, Betel plants VP at 3m sp","Amount (Rs.)":962500,"photopath":"https://raw.githubusercontent.com/MWS003-GIS/MWS003-GIS.github.io/main/IWWRMP/Data/EXD/200_photo/MWS_135/Medium Irrigation - Raja Ela.jpg"},"geometry":{"type":"Point","coordinates":[80.563141,7.13628]}},
{"type":"Feature","properties":{"No":11,"GND No.":1077,"Scheme":"Allocating and marking the reservation of the Dunhinda Ela from Ethgala Dunhinda to Gampolawela","N":7.146033,"E":80.574881,"Observation":"The total length of the canal between GND is 1Km. Some sections of this canal  have been developed (W=0.9m, H=0.75m). 125 Acres of paddy is cultivated from this canal. some sections are in severely dilapidated due to farmers encroaching on the canal  res","Description":"\nVegetative cover improving for narrow strips (1.5m-2.0m wide) with Arecanut seedlings at 1.5m spacing in 2 rows, Betel plants VP at 3m spacing in 1 row, Green gram as a cover crop\n\nMiscellaneous\n\nContingencies 10%","Amount (Rs.)":110000,"photopath":"https://raw.githubusercontent.com/MWS003-GIS/MWS003-GIS.github.io/main/IWWRMP/Data/EXD/200_photo/MWS_135/Medium Irrigation - Gampolawela raja ela.jpg"},"geometry":{"type":"Point","coordinates":[80.574881,7.146033]}},
{"type":"Feature","properties":{"No":12,"GND No.":1078,"Scheme":"Maligapurana - Meda ela","N":7.156154,"E":80.571379,"Observation":"The total length of the canal between GND is 1.5Km. Some sections of this canal  have been developed (W=1.2m, H=0.6m). 75 Acres of paddy is cultivated from this canal. some sections are in severely dilapidated due to farmers encroaching on the canal  res","Description":"Canal reservation protection by concrete lining  For  100mm thick , 0.3m  wide  and 0.3m high canal -double banking\n\nStream / canal  reservation protection by earth filling of  strip   of 1.5m to 2m wide  and average Depth of 0.5m\n\nVegetative cover impro","Amount (Rs.)":407000,"photopath":"https://raw.githubusercontent.com/MWS003-GIS/MWS003-GIS.github.io/main/IWWRMP/Data/EXD/200_photo/MWS_135/Medium Irrigation - Maligapurana - Meda ela.jpg"},"geometry":{"type":"Point","coordinates":[80.571379,7.156154]}}
]}