{"type":"FeatureCollection","name":"SWC_OFF","crs":{"type":"name","properties":{"name":"urn:ogc:def:crs:OGC:1.3:CRS84"}},"features":[
{"type":"Feature","properties":{"No.":3,"GND No.":1068,"GND Name":"Wallahagoda","Key Activities proposed for Soil and Water conservation":"1. Establishing a retaining wall - Bank collapsing - Wallahagoda school","Priority based on Soil Erosion Hazard":1,"N":7.149369,"E":80.564045,"Quantity":"30 m x 3 m","Proposed measure/s":"Retaining Wall (Concrete)","Total_Cost":3492500,"Contribution (Local Community, LA, and the project)":"By the project","Time frame for the implementation":"0.25 Years","photopath":"https://raw.githubusercontent.com/MWS003-GIS/MWS003-GIS.github.io/main/IWWRMP/Data/EXD/200_photo/MWS_135/Disaster - School (2).jpg"},"geometry":{"type":"Point","coordinates":[80.564045,7.149369]}},
{"type":"Feature","properties":{"No.":6,"GND No.":1073,"GND Name":"Ethgala North","Key Activities proposed for Soil and Water conservation":"1. Establishing a retaining wall - Risk of sinking the Awasaya due to Raja Ela flowing near the area - Awasaya/Living house for monks at Jayamalaramaya of Ethgala North","Priority based on Soil Erosion Hazard":1,"N":7.140931,"E":80.564674,"Quantity":"25 m x 3 m","Proposed measure/s":"Retaining Wall (Concrete)","Total_Cost":2909500,"Contribution (Local Community, LA, and the project)":"By the project","Time frame for the implementation":"0.25 Years","photopath":"https://raw.githubusercontent.com/MWS003-GIS/MWS003-GIS.github.io/main/IWWRMP/Data/EXD/200_photo/MWS_135/Disaster - AwasayaLiving house for monks at Jayamalaramaya of Ethgala North (2).jpg"},"geometry":{"type":"Point","coordinates":[80.564674,7.140931]}}
]}