{"type":"FeatureCollection","name":"WSP","crs":{"type":"name","properties":{"name":"urn:ogc:def:crs:OGC:1.3:CRS84"}},"features":[
{"type":"Feature","properties":{"No":1,"GND No.":1066,"Name of the Tank":"Ambagasthenna spring at Pitakanda Pathana area","N":7.140147,"E":80.542806,"Observation":"Although a well-developed water project is being implemented by the Pradeshiya sabha using this water source, there is no water filtering system.","Description":"Install a water treatment system\n\nWater Meter and Intall the meter\n\nChain link mesh fence 2.0m high (Gauge 12)with 48mm outer Dia. 2.3mm tk. GI pipe at 2.9m c/c uprights and 21mm Outer Dia. 1.8mm tk. GI vertical centre bracing. 48mm Outer Dia. 2.3mm tk.","Amount (Rs.)":709500,"photopath":"https://raw.githubusercontent.com/MWS003-GIS/MWS003-GIS.github.io/main/IWWRMP/Data/EXD/200_photo/MWS_135/Regularization of Community Water Schemes - Ambagasthenna.jpg"},"geometry":{"type":"Point","coordinates":[80.542806,7.140147]}},
{"type":"Feature","properties":{"No":2,"GND No.":1066,"Name of the Tank":"Ambagasthenna reservation","N":7.140147,"E":80.542806,"Observation":"This area may be about  2 acres of which about 60% are large trees, and is being illegally acquired because there are no boundaries. There are many springs.","Description":"Vegetative cover improving around the water source with Areca nut seedling in 1.5m x 1.5m grid, Kumbuk/ Mee/ Godapara/ Kaduru/ Aththikka/ Wal Del/ Kekuna/ randomly mixed seedlings and planting at 3.5m x 3.5 m grid interval\n\nSurveying and marking of bound","Amount (Rs.)":498300,"photopath":"https://raw.githubusercontent.com/MWS003-GIS/MWS003-GIS.github.io/main/IWWRMP/Data/EXD/200_photo/MWS_135/Water Catchment Area Conservation - Ambagasthenna reservation (3).jpg"},"geometry":{"type":"Point","coordinates":[80.542806,7.140147]}},
{"type":"Feature","properties":{"No":3,"GND No.":1067,"Name of the Tank":"Lanternhill C area","N":7.145535,"E":80.55417,"Observation":"This area may be about  50 acres of which about 50% are large trees, and is being illegally acquired because there are no boundaries. There are many springs and water is used privetly.","Description":"Vegetative cover improving around the water source with Areca nut seedling in 1.5m x 1.5m grid, Kumbuk/ Mee/ Godapara/ Kaduru/ Aththikka/ Wal Del/ Kekuna/ randomly mixed seedlings and planting at 3.5m x 3.5 m grid interval\n\nSurveying and marking of bound","Amount (Rs.)":585200,"photopath":"https://raw.githubusercontent.com/MWS003-GIS/MWS003-GIS.github.io/main/IWWRMP/Data/EXD/200_photo/MWS_135/Drinking Water Sources to be Conserved - Springs at Lanternhill C area (2).jpg"},"geometry":{"type":"Point","coordinates":[80.55417,7.145535]}},
{"type":"Feature","properties":{"No":4,"GND No.":1067,"Name of the Tank":"Halagama Bibila pihilla/ spout","N":7.140982,"E":80.563417,"Observation":"The well has been developed.","Description":"Fabricating & fixing security weld mesh in open type buildings in GI weld mesh 50mm x 50mm SWG 10, welded on 40mm x 40mm x 5mm angle frame complete with application of two coats enamel paint over two coats of anticorrosive paint and complete. All as per","Amount (Rs.)":242000,"photopath":"https://raw.githubusercontent.com/MWS003-GIS/MWS003-GIS.github.io/main/IWWRMP/Data/EXD/200_photo/MWS_135/Drinking Water Sources to be Conserved - Halagama Bibila pihilla (2).jpg"},"geometry":{"type":"Point","coordinates":[80.563417,7.140982]}},
{"type":"Feature","properties":{"No":5,"GND No.":1068,"Name of the Tank":"Ambuluwawa reservation","N":7.156857,"E":80.552719,"Observation":"This area may be about  15 acres of which about 40% are large trees, and is being illegally acquired because there are no boundaries. There are many springs and water is used privetly.","Description":"Vegetative cover improving around the water source with Areca nut seedling in 1.5m x 1.5m grid, Kumbuk/ Mee/ Godapara/ Kaduru/ Aththikka/ Wal Del/ Kekuna/ randomly mixed seedlings and planting at 3.5m x 3.5 m grid interval\n\nSurveying and marking of bound","Amount (Rs.)":695200,"photopath":"https://raw.githubusercontent.com/MWS003-GIS/MWS003-GIS.github.io/main/IWWRMP/Data/EXD/200_photo/MWS_135/Water Catchment Area Conservation - Ambuluwawa reservation (3).jpg"},"geometry":{"type":"Point","coordinates":[80.552719,7.156857]}},
{"type":"Feature","properties":{"No":6,"GND No.":1069,"Name of the Tank":"Galpoththa Hena","N":7.118756,"E":80.570198,"Observation":"It is difficult to reach the water source. The area of water source may be about 1 acre of which about 60% are large trees and Reserve land is being illegally acquired because the boundaries are not marked. There are many springs and water is used privet","Description":"Vegetative cover improving around the water source with Areca nut seedling in 1.5m x 1.5m grid, Kumbuk/ Mee/ Godapara/ Kaduru/ Aththikka/ Wal Del/ Kekuna/ randomly mixed seedlings and planting at 3.5m x 3.5 m grid interval\n\nSurveying and marking of bound","Amount (Rs.)":570900,"photopath":"https://raw.githubusercontent.com/MWS003-GIS/MWS003-GIS.github.io/main/IWWRMP/Data/EXD/200_photo/MWS_135/Water Catchment Area Conservation - Galpoththa Hena (3).jpg"},"geometry":{"type":"Point","coordinates":[80.570198,7.118756]}},
{"type":"Feature","properties":{"No":7,"GND No.":1069,"Name of the Tank":"Weweldoluwa Induvita spring","N":7.11584,"E":80.560325,"Observation":"It is difficult to reach the water source. The area of water source may be about 0.5 acres of which about 60% are large trees and Reserve land is being illegally acquired because the boundaries are not marked. There are many springs and water is used for","Description":"Vegetative cover improving around the water source with Areca nut seedling in 1.5m x 1.5m grid, Kumbuk/ Mee/ Godapara/ Kaduru/ Aththikka/ Wal Del/ Kekuna/ randomly mixed seedlings and planting at 3.5m x 3.5 m grid interval\n\nSurveying and marking of bound","Amount (Rs.)":492800,"photopath":"https://raw.githubusercontent.com/MWS003-GIS/MWS003-GIS.github.io/main/IWWRMP/Data/EXD/200_photo/MWS_135/Water Catchment Area Conservation - Weweldoluwa Induvita.jpg"},"geometry":{"type":"Point","coordinates":[80.560325,7.11584]}},
{"type":"Feature","properties":{"No":8,"GND No.":1069,"Name of the Tank":"Diyabubula spring","N":7.119812,"E":80.560736,"Observation":"This is a stream with spring water flowing through it and its reserve land is being illegally acquired because the boundaries are not marked. There are many springs and water is used for cultivation purposes.","Description":"Vegetative cover improving around the water source with Areca nut seedling in 1.5m x 1.5m grid, Kumbuk/ Mee/ Godapara/ Kaduru/ Aththikka/ Wal Del/ Kekuna/ randomly mixed seedlings and planting at 3.5m x 3.5 m grid interval\n\nSurveying and marking of bound","Amount (Rs.)":492800,"photopath":"https://raw.githubusercontent.com/MWS003-GIS/MWS003-GIS.github.io/main/IWWRMP/Data/EXD/200_photo/MWS_135/Streams - Diyabubula.jpg"},"geometry":{"type":"Point","coordinates":[80.560736,7.119812]}},
{"type":"Feature","properties":{"No":9,"GND No.":1070,"Name of the Tank":"Rukattana Deniya Ela Nawa Janapadaya","N":7.129043,"E":80.555988,"Observation":"This is a stream with spring water flowing through it, water is used privetly. The area of water source may be about 0.5 acres of which about 40% are large trees and Reserve land is being illegally acquired because the boundaries are not marked.","Description":"Vegetative cover improving around the water source with Areca nut seedling in 1.5m x 1.5m grid, Kumbuk/ Mee/ Godapara/ Kaduru/ Aththikka/ Wal Del/ Kekuna/ randomly mixed seedlings and planting at 3.5m x 3.5 m grid interval\n\nSurveying and marking of bound","Amount (Rs.)":570900,"photopath":"https://raw.githubusercontent.com/MWS003-GIS/MWS003-GIS.github.io/main/IWWRMP/Data/EXD/200_photo/MWS_135/Drinking Water Sources to be Conserved - Rukattana Deniya Ela.jpg"},"geometry":{"type":"Point","coordinates":[80.555988,7.129043]}},
{"type":"Feature","properties":{"No":10,"GND No.":1070,"Name of the Tank":"Ketawale canal, Breaksite Janapadaya","N":7.12691,"E":80.554906,"Observation":"This is a stream with spring water flowing through it, water is used privetly. Villagers reported that there is enough water throughout the year to start a new water project. The area of water source may be about 0.5 acres of which about 40% are large tr","Description":"Construction of a 2.5 m Long 0.75 m High Rubble Dam\n\nExcavation at ends and bottom to stack boulders?Labour\n\nSupplying of boulder and selected rubble (locally ) Rubble rate at quarry\n\nPlacing and aligning boulders in stable positions\n\nSupplyning of 1.5m","Amount (Rs.)":1644500,"photopath":"https://raw.githubusercontent.com/MWS003-GIS/MWS003-GIS.github.io/main/IWWRMP/Data/EXD/200_photo/MWS_135/Drinking Water Sources to be Conserved - Ketawale canal, Breaksite Janapadaya.jpg"},"geometry":{"type":"Point","coordinates":[80.554906,7.12691]}},
{"type":"Feature","properties":{"No":11,"GND No.":1070,"Name of the Tank":"Gatahe Well","N":7.124308,"E":80.559259,"Observation":"Located on boundary of the Udagama GND. The well is in a dilapidated condition and is used for bathing.","Description":"Reconstruction of a Well (L=3.5m, W=3m, and total H=1.2m \n\nClean around the well\n\n150mm x 225mm Random Rubble masonry work in 1:5 cement and sand mortar in structures\n\nPlaster 12mm thick in 1:3 cement and sand finished smooth with gray cement floating\n\nT","Amount (Rs.)":126500,"photopath":"https://raw.githubusercontent.com/MWS003-GIS/MWS003-GIS.github.io/main/IWWRMP/Data/EXD/200_photo/MWS_135/Drinking Water Sources to be Conserved - Getahe Well.jpg"},"geometry":{"type":"Point","coordinates":[80.559259,7.124308]}},
{"type":"Feature","properties":{"No":12,"GND No.":1075,"Name of the Tank":"Sarvodaya well","N":7.136689,"E":80.563793,"Observation":"Even though the well has been developed, the water in the well is leaking. (L=4m, W=0.7m, H=0.9m)","Description":"Plaster the well walls\n\nWire brush the well walls and clean the walls\n\nPlaster 12mm thick in 1:3 cement and sand finished smooth with gray cement floating\n\nTidying Up\n\nMarking boundaries around the land\n\nContigencies (10%)\n","Amount (Rs.)":77000,"photopath":"https://raw.githubusercontent.com/MWS003-GIS/MWS003-GIS.github.io/main/IWWRMP/Data/EXD/200_photo/MWS_135/Drinking Water Sources to be Conserved - Tube well (2).jpg"},"geometry":{"type":"Point","coordinates":[80.563793,7.136689]}},
{"type":"Feature","properties":{"No":13,"GND No.":1076,"Name of the Tank":"Ethgala - Lakshe pihilla","N":7.124729,"E":80.567645,"Observation":"The well has been developed. This area may be about  0.5 acres of which about 20% are large trees, and is being illegally acquired because there are no boundaries.","Description":"Vegetative cover improving around the water source with Areca nut seedling in 1.5m x 1.5m grid, Kumbuk/ Mee/ Godapara/ Kaduru/ Aththikka/ Wal Del/ Kekuna/ randomly mixed seedlings and planting at 3.5m x 3.5 m grid interval\n\nSurveying and marking of bound","Amount (Rs.)":576400,"photopath":"https://raw.githubusercontent.com/MWS003-GIS/MWS003-GIS.github.io/main/IWWRMP/Data/EXD/200_photo/MWS_135/Water Catchment Area Conservation - Lakshepihilla.jpg"},"geometry":{"type":"Point","coordinates":[80.567645,7.124729]}},
{"type":"Feature","properties":{"No":14,"GND No.":1076,"Name of the Tank":"Galpoththe canal, catchment area","N":7.122717,"E":80.565756,"Observation":"The well has been developed. This area may be about  1 acre of which about 30% are large trees, and is being illegally acquired because there are no boundaries. This is the reserve land of a stream where spring water flows.  In some places, small amounts","Description":"Paving available stone in the river banks and Planting trees\n\nDry rubble packing (with locally found rubble, size over 225mm )-Along the river banks\n\nVegetative cover improving around the water source with Areca nut seedling in 1.5m x 1.5m grid, Kumbuk/","Amount (Rs.)":756800,"photopath":"https://raw.githubusercontent.com/MWS003-GIS/MWS003-GIS.github.io/main/IWWRMP/Data/EXD/200_photo/MWS_135/Streams - Galpoththe canal.jpg"},"geometry":{"type":"Point","coordinates":[80.565756,7.122717]}},
{"type":"Feature","properties":{"No":15,"GND No.":1076,"Name of the Tank":"Catchment area of the canal near the Lak Hardware Shop","N":7.13126,"E":80.567875,"Observation":"The well has been developed. This area may be about  1 acre of which about 25% are large trees, and is being illegally acquired because there are no boundaries. This is the reserve land of a stream where spring water flows.  In some places, small amounts","Description":"Paving available stone in the river banks and Planting trees\n\nDry rubble packing (with locally found rubble, size over 225mm )-Along the river banks\n\nVegetative cover improving around the water source with Areca nut seedling in 1.5m x 1.5m grid, Kumbuk/","Amount (Rs.)":721600,"photopath":"https://raw.githubusercontent.com/MWS003-GIS/MWS003-GIS.github.io/main/IWWRMP/Data/EXD/200_photo/MWS_135/Water Catchment Area Conservation - Catchment area of the canal near the Lak Hardware Shop (4).jpg"},"geometry":{"type":"Point","coordinates":[80.567875,7.13126]}}
]}