{
  "type": "FeatureCollection",
  "name": "DWS",
  "crs": {
    "type": "name",
    "properties": {
      "name": "urn:ogc:def:crs:OGC:1.3:CRS84"
    }
  },
  "features": [
    {
      "type": "Feature",
      "properties": {
        "No": 1,
        "GND No.": "479A",
        "Scheme": "ParagehellWell",
        "N": 7.134353,
        "E": 80.793,
        "Observation": "reservatioinoallocatedthtanidilapidateancannobused.",
        "Description": "VegetativcoveimprovinwitArecnuseedlin1.5spacinisinglrowKumbukMeeGodaparaKaduruAththikkaWaDelKekunarandomlmixeseedlingandensplantina500mgriintervalapplyinocomposmanureNPfertilizermulchinwitstrawbanantreskianmaintenance\nVegetativcoveimprovin(1.5m-2.0widewitArecnuseedling1.5spacinitwrowsBeetlcreepeV3spacinisinglrowgreegraacovecroincludinapplyinocomposmanureNPfertilizeanmaintenanceConstructioocurtaiwal(0.075mthickwit1:2:(3/4\"concrete1/2dowela600m600mintervalanembeddewitchickemesh\nProvidinPVpipespipjointsetctconvewate",
        "Estimated Cost": "112,900",
        "photopath": "https://raw.githubusercontent.com/MWS003-GIS/MWS003-GIS.github.io/main/IWWRMP/Data/EXD/200_photo/MWS_019/ag3.jpg"
      },
      "geometry": {
        "type": "Point",
        "coordinates": [
          80.793,
          7.134353
        ]
      }
    },
    {
      "type": "Feature",
      "properties": {
        "No": 2,
        "GND No.": "479A",
        "Scheme": "EldorPubliWell",
        "N": 7.133686,
        "E": 80.78887,
        "Observation": "Leakageithtank.",
        "Description": "1/2thic1:cemenmortaplasterintprevenleakageilining\nConstructioocurtaiwal(0.075mthickwit1:2:(3/4\"concrete1/2dowela600m600mintervalanembeddewitchickemesh\nVegetativcoveimprovin(1.5m-2.0widewitArecnuseedling1.5spacinitwrowsBeetlcreepeV3spacinisinglrowGreegraacovecroincludinapplyinocomposmanureNPfertilizeanmaintenance",
        "Estimated Cost": "87,900",
        "photopath": "https://raw.githubusercontent.com/MWS003-GIS/MWS003-GIS.github.io/main/IWWRMP/Data/EXD/200_photo/MWS_019/ag12.jpg"
      },
      "geometry": {
        "type": "Point",
        "coordinates": [
          80.78887,
          7.133686
        ]
      }
    },
    {
      "type": "Feature",
      "properties": {
        "No": 3,
        "GND No.": "479B",
        "Scheme": "KoopiwaththUlpatha",
        "N": 7.125115,
        "E": 80.801615,
        "Observation": "ï¿Thsprinshalbcovere(L3mW-3musinnet\nconcretwalrequiretbconstructe(H-1.8mW-3mL-3mt-0.3m)\nï¿reservatioare(W-4.8mneetballocateAstripeï¿Thtanrequiretbuplifte(H-1.manTanshalbcovere(L-3mW-1.8musincoverinnet",
        "Description": "Providinnetcovethsprintprevendirfallinintthsprin\nConstructioo1:3:(1/2\"cconcretretaininwal(heigh1.8mtowidt0.15m0.60higstep03eaco0.15stewidtbottowidt0.60m\nVegetativcoveimprovinwitArecnuseedlin1.5spacinisinglrowKumbukMeeGodaparaKaduruAththikkaWaDelKekunarandomlmixeseedlingandensplantina500mgriintervalapplyinocomposmanureNPfertilizermulchinwitstrawbanantreskianmaintenance\n1:3:(1/2\"Cemenconcretehanmixinanplacing",
        "Estimated Cost": "141,000",
        "photopath": "https://raw.githubusercontent.com/MWS003-GIS/MWS003-GIS.github.io/main/IWWRMP/Data/EXD/200_photo/MWS_019/KA (01)1.jpg"
      },
      "geometry": {
        "type": "Point",
        "coordinates": [
          80.801615,
          7.125115
        ]
      }
    },
    {
      "type": "Feature",
      "properties": {
        "No": 4,
        "GND No.": "479B",
        "Scheme": "AlgenWateSpring",
        "N": 7.123261,
        "E": 80.793159,
        "Observation": "NCoveThembankmentneathsprinidilapidated",
        "Description": "VegetativcoveimprovinwitArecnuseedlin1.5spacinisinglrowKumbukMeeGodaparaKaduruAththikkaWaDelKekunarandomlmixeseedlingandensplantina500mgriintervalapplyinocomposmanureNPfertilizermulchinwitstrawbanantreskianmaintenance\nConstructioo1:3:(1/2\"cconcretretaininwal(heigh1.8mtowidt0.15m0.60higstep03eaco0.15stewidtbottowidt0.60m",
        "Estimated Cost": "110,700",
        "photopath": "Not_Available"
      },
      "geometry": {
        "type": "Point",
        "coordinates": [
          80.793159,
          7.123261
        ]
      }
    },
    {
      "type": "Feature",
      "properties": {
        "No": 5,
        "GND No.": "479B",
        "Scheme": "SprinneaUrakatipCanal",
        "N": 7.127423,
        "E": 80.799115,
        "Observation": "Thsworwatemixewitthsprinwateansprinstoraginoenough",
        "Description": "Constructioo1:3:(1/2\"cconcretretaininwal(heigh1.8mtowidt0.15m0.60higstep03eaco0.15stewidtbottowidt0.60m\nVegetativcoveimprovin(1.5m-2.0widewitArecnuseedling1.5spacinitwrowsBeetlcreepeV3spacinisinglrowgreegraacovecroincludinapplyinocomposmanureNPfertilizeanmaintenance",
        "Estimated Cost": "49,500",
        "photopath": "Not_Available"
      },
      "geometry": {
        "type": "Point",
        "coordinates": [
          80.799115,
          7.127423
        ]
      }
    },
    {
      "type": "Feature",
      "properties": {
        "No": 6,
        "GND No.": "479",
        "Scheme": "PanwattSpring",
        "N": 7.12848,
        "E": 80.794036,
        "Observation": "Sidwallardilapidateothsprin",
        "Description": "Constructioo1:3:(1/2\"cconcretretaininwal(heigh1.8mtowidt0.15m0.60higstep03eaco0.15stewidtbottowidt0.60m\nConstructioo1:3:(1/2\"cconcretretaininwal(heigh1.8mtowidt0.15m0.60higstep03eaco0.15stewidtbottowidt0.60m\n1/2thic1:cemenmortaplasterintprevenleakageilining\nConstructioocurtaiwal(0.075mthickwit1:2:(3/4\"concrete1/2dowela600m600mintervalanembeddewitchickemesh\nVegetativcoveimprovin(1.5m-2.0widewitArecnuseedling1.5spacinitwrowsBeetlcreepeV3spacinisinglrowgreegraacovecroincludinapplyinocomposmanureNPfertilizeanmaintenance\nProvidinPVpipespipjointsetctconvewate",
        "Estimated Cost": "251,000",
        "photopath": "https://raw.githubusercontent.com/MWS003-GIS/MWS003-GIS.github.io/main/IWWRMP/Data/EXD/200_photo/MWS_019/W (01)1.jpg"
      },
      "geometry": {
        "type": "Point",
        "coordinates": [
          80.794036,
          7.12848
        ]
      }
    },
    {
      "type": "Feature",
      "properties": {
        "No": 7,
        "GND No.": "479",
        "Scheme": "BomaluwSpring",
        "N": 7.12829,
        "E": 80.794964,
        "Observation": "Leakageithtank.",
        "Description": "Constructioo1:3:(1/2\"cconcretretaininwal(heigh1.8mtowidt0.15m0.60higstep03eaco0.15stewidtbottowidt0.60m\nConstructioo1:3:(1/2\"cconcretretaininwal(heigh1.8mtowidt0.15m0.60higstep03eaco0.15stewidtbottowidt0.60m\nVegetativcoveimprovin(1.5m-2.0widewitArecnuseedling1.5spacinitwrowsBeetlcreepeV3spacinisinglrowGreegraacovecroincludinapplyinocomposmanureNPfertilizeanmaintenance",
        "Estimated Cost": "169,200",
        "photopath": "Not_Available"
      },
      "geometry": {
        "type": "Point",
        "coordinates": [
          80.794964,
          7.12829
        ]
      }
    },
    {
      "type": "Feature",
      "properties": {
        "No": 8,
        "GND No.": "481A",
        "Scheme": "Nayawatt",
        "N": 7.113453,
        "E": 80.794083,
        "Observation": "Nomentionethboundarieforeservation\nNtanks\nLeakageothsprintank",
        "Description": "Vegetativcoveimprovin(1.5m-2.0widewitArecnuseedling1.5spacinitwrowsBeetlcreepeV3spacinisinglrowgreegraacovecroincludinapplyinocomposmanureNPfertilizeanmaintenance\nVegetativcoveimprovinwitArecnuseedlin1.5spacinisinglrowKumbukMeeGodaparaKaduruAththikkaWaDelKekunarandomlmixeseedlingandensplantina500mgriintervalapplyinocomposmanureNPfertilizermulchinwitstrawbanantreskianmaintenance\nConstructioocurtaiwal(0.075mthickwit1:2:(3/4\"concrete1/2dowela600m600mintervalanembeddewitchickemesh\nConstructiooConcretwatestoragtano2cusizinterna3mx3mx2.5",
        "Estimated Cost": "648,700",
        "photopath": "https://raw.githubusercontent.com/MWS003-GIS/MWS003-GIS.github.io/main/IWWRMP/Data/EXD/200_photo/MWS_019/Bk11.jpg"
      },
      "geometry": {
        "type": "Point",
        "coordinates": [
          80.794083,
          7.113453
        ]
      }
    },
    {
      "type": "Feature",
      "properties": {
        "No": 9,
        "GND No.": "481A",
        "Scheme": "GallindChena",
        "N": 7.111682,
        "E": 80.795719,
        "Observation": "Notmentiothboundarieforeservation\nLeakageothsprintank",
        "Description": "VegetativcoveimprovinwitArecnuseedlin1.5spacinisinglrowKumbukMeeGodaparaKaduruAththikkaWaDelKekunarandomlmixeseedlingandensplantina500mgriintervalapplyinocomposmanureNPfertilizermulchinwitstrawbanantreskianmaintenance\nVegetativcoveimprovin(1.5m-2.0widewitArecnuseedling1.5spacinitwrowsBeetlcreepeV3spacinisinglrowgreegraacovecroincludinapplyinocomposmanureNPfertilizeanmaintenance\nConstructioo1.2higRmasonrwal(witsectio0.60x0.600.45x0.60ove0.75widt0.15thicconcretscreedplasterinwit1:cemenmortaanbacfilling\nConstructioocurtaiwal(0.075mthickwit1:2:(3/4\"concrete1/2dowela600m600mintervalanembeddewitchickemesh\nProvidinbarwirfencwit0noo14barwirrowfixefirmlbetwee7fhigconcretposterectea2.0intervalalonthfence",
        "Estimated Cost": "317,900",
        "photopath": "Not_Available"
      },
      "geometry": {
        "type": "Point",
        "coordinates": [
          80.795719,
          7.111682
        ]
      }
    },
    {
      "type": "Feature",
      "properties": {
        "No": 10,
        "GND No.": "481B",
        "Scheme": "ThennewattSpring",
        "N": 7.113556,
        "E": 80.787585,
        "Observation": "NTanfostocwater",
        "Description": "ConstructiooConcretwatestoragtano2cusizinterna3mx3mx2.5\nImplementatiooWateTreatmenPlant\nProvidinPVpipespipjointsetctconvewate",
        "Estimated Cost": "565,000",
        "photopath": "https://raw.githubusercontent.com/MWS003-GIS/MWS003-GIS.github.io/main/IWWRMP/Data/EXD/200_photo/MWS_019/Dg13.jpg"
      },
      "geometry": {
        "type": "Point",
        "coordinates": [
          80.787585,
          7.113556
        ]
      }
    },
    {
      "type": "Feature",
      "properties": {
        "No": 11,
        "GND No.": "481B",
        "Scheme": "BallaEllSpring",
        "N": 7.113426,
        "E": 80.790107,
        "Observation": "NReservatioanthtank",
        "Description": "Vegetativcoveimprovin(1.5m-2.0widewitArecnuseedling1.5spacinitwrowsBeetlcreepeV3spacinisinglrowGreegraacovecroincludinapplyinocomposmanureNPfertilizeanmaintenance\nConstructiooConcretwatestoragtano2cusizinterna3mx3mx2.5",
        "Estimated Cost": "557,000",
        "photopath": "https://raw.githubusercontent.com/MWS003-GIS/MWS003-GIS.github.io/main/IWWRMP/Data/EXD/200_photo/MWS_019/Dg16.jpg"
      },
      "geometry": {
        "type": "Point",
        "coordinates": [
          80.790107,
          7.113426
        ]
      }
    },
    {
      "type": "Feature",
      "properties": {
        "No": 13,
        "GND No.": "481C",
        "Scheme": "ThSprinsurroundebhouse(N29284446",
        "N": 7.119464,
        "E": 80.783322,
        "Observation": "Nallocatiooreservanthntanfothstocwater",
        "Description": "Providinbarwirfencwit0noo14barwirrowfixefirmlbetwee7fhigconcretposterectea2.0intervalalonthfence\nVegetativcoveimprovin(1.5m-2.0widewitArecnuseedling1.5spacinitwrowsBeetlcreepeV3spacinisinglrowGreegraacovecroincludinapplyinocomposmanureNPfertilizeanmaintenance\nBoulde/Rubbldam(SABOacrosstreamttrasediment-Siz3(Lx2(Wx1(H\nsupplyinfixin9diaCasirogateHoiscomplet",
        "Estimated Cost": "1,023,000",
        "photopath": "https://raw.githubusercontent.com/MWS003-GIS/MWS003-GIS.github.io/main/IWWRMP/Data/EXD/200_photo/MWS_019/RJ1 (2).jpg"
      },
      "geometry": {
        "type": "Point",
        "coordinates": [
          80.783322,
          7.119464
        ]
      }
    },
    {
      "type": "Feature",
      "properties": {
        "No": 14,
        "GND No.": "481C",
        "Scheme": "WelapahalSpring",
        "N": 7.118538,
        "E": 80.786487,
        "Observation": "Noallocatiooreserve",
        "Description": "Vegetativcoveimprovin(1.5m-2.0widewitArecnuseedling1.5spacinitwrowsBeetlcreepeV3spacinisinglrowGreegraacovecroincludinapplyinocomposmanureNPfertilizeanmaintenance",
        "Estimated Cost": "23,500",
        "photopath": "Not_Available"
      },
      "geometry": {
        "type": "Point",
        "coordinates": [
          80.786487,
          7.118538
        ]
      }
    },
    {
      "type": "Feature",
      "properties": {
        "No": 15,
        "GND No.": "481",
        "Scheme": "WetakolMadiththa",
        "N": 7.120667,
        "E": 80.788384,
        "Observation": "wateleakagefrosidwallancannostocthwater",
        "Description": "1:3:(1/2\"Cemenconcretehanmixinanplacing\nConstructioo1.2higRmasonrwal(witsectio0.60x0.600.45x0.60ove0.75widt0.15thicconcretscreedplasterinwit1:cemenmortaanbacfilling\nProvidinbarwirfencwit0noo14barwirrowfixefirmlbetwee7fhigconcretposterectea2.0intervalalonthfence\nVegetativcoveimprovin(1.5m-2.0widewitArecnuseedling1.5spacinitwrowsBeetlcreepeV3spacinisinglrowgreegraacovecroincludinapplyinocomposmanureNPfertilizeanmaintenance",
        "Estimated Cost": "507,300",
        "photopath": "https://raw.githubusercontent.com/MWS003-GIS/MWS003-GIS.github.io/main/IWWRMP/Data/EXD/200_photo/MWS_019/Dp5.jpg"
      },
      "geometry": {
        "type": "Point",
        "coordinates": [
          80.788384,
          7.120667
        ]
      }
    },
    {
      "type": "Feature",
      "properties": {
        "No": 16,
        "GND No.": "481",
        "Scheme": "KatuwaPitiySpring",
        "N": 7.121899,
        "E": 80.793958,
        "Observation": "Noallocatiooreserve",
        "Description": "VegetativcoveimprovinwitArecnuseedlin1.5spacinisinglrowKumbukMeeGodaparaKaduruAththikkaWaDelKekunarandomlmixeseedlingandensplantina500mgriintervalapplyinocomposmanureNPfertilizermulchinwitstrawbanantreskianmaintenance",
        "Estimated Cost": "26,700",
        "photopath": "Not_Available"
      },
      "geometry": {
        "type": "Point",
        "coordinates": [
          80.793958,
          7.121899
        ]
      }
    },
    {
      "type": "Feature",
      "properties": {
        "No": 17,
        "GND No.": "481D",
        "Scheme": "HunnaArawWateSpring",
        "N": 7.118852,
        "E": 80.795831,
        "Observation": "wateoswordmixetthspring",
        "Description": "Constructioo1:3:(1/2\"cconcretretaininwal(heigh1.8mtowidt0.15m0.60higstep03eaco0.15stewidtbottowidt0.60m\nWateQualitTestneetbconducted\nVegetativcoveimprovin(1.5m-2.0widewitArecnuseedling1.5spacinitwrowsBeetlcreepeV3spacinisinglrowgreegraacovecroincludinapplyinocomposmanureNPfertilizeanmaintenance",
        "Estimated Cost": "189,700",
        "photopath": "https://raw.githubusercontent.com/MWS003-GIS/MWS003-GIS.github.io/main/IWWRMP/Data/EXD/200_photo/MWS_019/W (02)5.jpg"
      },
      "geometry": {
        "type": "Point",
        "coordinates": [
          80.795831,
          7.118852
        ]
      }
    },
    {
      "type": "Feature",
      "properties": {
        "No": 18,
        "GND No.": "481D",
        "Scheme": "WadawalGederSpring",
        "N": 7.1159,
        "E": 80.800895,
        "Observation": "wateoswordmixetthspring",
        "Description": "Constructioo1:3:(1/2\"cconcretretaininwal(heigh1.8mtowidt0.15m0.60higstep03eaco0.15stewidtbottowidt0.60m\nWateQualitTestneetbconducted\nVegetativcoveimprovin(1.5m-2.0widewitArecnuseedling1.5spacinitwrowsBeetlcreepeV3spacinisinglrowGreegraacovecroincludinapplyinocomposmanureNPfertilizeanmaintenance",
        "Estimated Cost": "189,700",
        "photopath": "https://raw.githubusercontent.com/MWS003-GIS/MWS003-GIS.github.io/main/IWWRMP/Data/EXD/200_photo/MWS_019/W (02)4.jpg"
      },
      "geometry": {
        "type": "Point",
        "coordinates": [
          80.800895,
          7.1159
        ]
      }
    },
    {
      "type": "Feature",
      "properties": {
        "No": 19,
        "GND No.": "481D",
        "Scheme": "ThSprinneaKumaradasa'House",
        "N": 7.115268,
        "E": 80.799054,
        "Observation": "NTank",
        "Description": "Constructioo1:3:(1/2\"cconcretretaininwal(heigh1.8mtowidt0.15m0.60higstep03eaco0.15stewidtbottowidt0.60m\nVegetativcoveimprovinwitArecnuseedlin1.5spacinisinglrowKumbukMeeGodaparaKaduruAththikkaWaDelKekunarandomlmixeseedlingandensplantina500mgriintervalapplyinocomposmanureNPfertilizermulchinwitstrawbanantreskianmaintenance\nVegetativcoveimprovin(1.5m-2.0widewitArecnuseedling1.5spacinitwrowsBeetlcreepeV3spacinisinglrowGreegraacovecroincludinapplyinocomposmanureNPfertilizeanmaintenance",
        "Estimated Cost": "216,300",
        "photopath": "https://raw.githubusercontent.com/MWS003-GIS/MWS003-GIS.github.io/main/IWWRMP/Data/EXD/200_photo/MWS_019/W (01)4.jpg"
      },
      "geometry": {
        "type": "Point",
        "coordinates": [
          80.799054,
          7.115268
        ]
      }
    },
    {
      "type": "Feature",
      "properties": {
        "No": 20,
        "GND No.": "481D",
        "Scheme": "ThsprinstortanneaKumaradasa'house",
        "N": 7.11533,
        "E": 80.799024,
        "Observation": "Tanidilapidated",
        "Description": "Tanneedtbcleane\nRehabilitatioosurroundin\nVegetativcoveimprovin(1.5m-2.0widewitArecnuseedling1.5spacinitwrowsBeetlcreepeV3spacinisinglrowGreegraacovecroincludinapplyinocomposmanureNPfertilizeanmaintenance",
        "Estimated Cost": "28,500",
        "photopath": "https://raw.githubusercontent.com/MWS003-GIS/MWS003-GIS.github.io/main/IWWRMP/Data/EXD/200_photo/MWS_019/W (01)1.jpg"
      },
      "geometry": {
        "type": "Point",
        "coordinates": [
          80.799024,
          7.11533
        ]
      }
    },
    {
      "type": "Feature",
      "properties": {
        "No": 21,
        "GND No.": "481D",
        "Scheme": "HapugahamullSpring",
        "N": 7.113992,
        "E": 80.799666,
        "Observation": "Tanidilapidateanmixewitlanwater",
        "Description": "Constructioocurtaiwal(0.075mthickwit1:2:(3/4\"concrete1/2dowela600m600mintervalanembeddewitchickemesh\nVegetativcoveimprovin(1.5m-2.0widewitArecnuseedling1.5spacinitwrowsBeetlcreepeV3spacinisinglrowgreegraacovecroincludinapplyinocomposmanureNPfertilizeanmaintenance\nProvidinnetcovethsprintprevendirfallinintthsprin",
        "Estimated Cost": "43,700",
        "photopath": "Not_Available"
      },
      "geometry": {
        "type": "Point",
        "coordinates": [
          80.799666,
          7.113992
        ]
      }
    },
    {
      "type": "Feature",
      "properties": {
        "No": 24,
        "GND No.": "482",
        "Scheme": "MahapitiyTanSpringcollection",
        "N": 7.141116,
        "E": 80.787393,
        "Observation": "noallocatioreservfothspringanwatedefilemenbsludge",
        "Description": "Vegetativcoveimprovin(1.5m-2.0widewitArecnuseedling1.5spacinitwrowsBeetlcreepeV3spacinisinglrowgreegraacovecroincludinapplyinocomposmanureNPfertilizeanmaintenance\nVegetativcoveimprovinwitArecnuseedlin1.5spacinisinglrowKumbukMeeGodaparaKaduruAththikkaWaDelKekunarandomlmixeseedlingandensplantina500mgriintervalapplyinocomposmanureNPfertilizermulchinwitstrawbanantreskianmaintenance\nWateQualitTestneetbconducted\nConstructiooConcretwatestoragtano2cusizinterna3mx3mx2.5",
        "Estimated Cost": "765,800",
        "photopath": "https://raw.githubusercontent.com/MWS003-GIS/MWS003-GIS.github.io/main/IWWRMP/Data/EXD/200_photo/MWS_019/dk5.jpg"
      },
      "geometry": {
        "type": "Point",
        "coordinates": [
          80.787393,
          7.141116
        ]
      }
    },
    {
      "type": "Feature",
      "properties": {
        "No": 25,
        "GND No.": "482A",
        "Scheme": "IlangamuwWateSpring",
        "N": 7.129874,
        "E": 80.780365,
        "Observation": "Nboundariefothreservatioanlandslidothbanothkandura",
        "Description": "Vegetativcoveimprovin(1.5m-2.0widewitArecnuseedling1.5spacinitwrowsBeetlcreepeV3spacinisinglrowGreegraacovecroincludinapplyinocomposmanureNPfertilizeanmaintenance\nProvidinbarwirfencwit0noo14barwirrowfixefirmlbetwee7fhigconcretposterectea2.0intervalalonthfence\nConstructioo1:3:(1/2\"cconcretretaininwal(heigh1.2mtowidt0.15m0.60higstep02eaco0.15stewidtbottowidt0.45m\nConservatiooancienplace",
        "Estimated Cost": "1,470,500",
        "photopath": "https://raw.githubusercontent.com/MWS003-GIS/MWS003-GIS.github.io/main/IWWRMP/Data/EXD/200_photo/MWS_019/Um5.4.jpg"
      },
      "geometry": {
        "type": "Point",
        "coordinates": [
          80.780365,
          7.129874
        ]
      }
    },
    {
      "type": "Feature",
      "properties": {
        "No": 26,
        "GND No.": "482B",
        "Scheme": "DenikSpring",
        "N": 7.136327,
        "E": 80.783238,
        "Observation": "Nboundariefothreservatioanaccumulatioolanwatetthtank",
        "Description": "Providinbarwirfencwit0noo14barwirrowfixefirmlbetwee7fhigconcretposterectea2.0intervalalonthfence\nVegetativcoveimprovinwitArecnuseedlin1.5spacinisinglrowKumbukMeeGodaparaKaduruAththikkaWaDelKekunarandomlmixeseedlingandensplantina500mgriintervalapplyinocomposmanureNPfertilizermulchinwitstrawbanantreskianmaintenance\nVegetativcoveimprovin(1.5m-2.0widewitArecnuseedling1.5spacinitwrowsBeetlcreepeV3spacinisinglrowGreegraacovecroincludinapplyinocomposmanureNPfertilizeanmaintenance\nConstructioo1.2higRmasonrwal(witsectio0.60x0.600.45x0.60ove0.75widt0.15thicscreeconcreteplasterinwit1:cemenmortaanbacfilling",
        "Estimated Cost": "451,800",
        "photopath": "https://raw.githubusercontent.com/MWS003-GIS/MWS003-GIS.github.io/main/IWWRMP/Data/EXD/200_photo/MWS_019/Wg6.jpg"
      },
      "geometry": {
        "type": "Point",
        "coordinates": [
          80.783238,
          7.136327
        ]
      }
    },
    {
      "type": "Feature",
      "properties": {
        "No": 27,
        "GND No.": "482B",
        "Scheme": "UdubittarPelSpring",
        "N": 7.134595,
        "E": 80.784661,
        "Observation": "noconservation",
        "Description": "Constructioocurtaiwal(0.075mthickwit1:2:(3/4\"concrete1/2dowela600m600mintervalanembeddewitchickemesh\nVegetativcoveimprovinwitArecnuseedlin1.5spacinisinglrowKumbukMeeGodaparaKaduruAththikkaWaDelKekunarandomlmixeseedlingandensplantina500mgriintervalapplyinocomposmanureNPfertilizermulchinwitstrawbanantreskianmaintenance\nVegetativcoveimprovin(1.5m-2.0widewitArecnuseedling1.5spacinitwrowsBeetlcreepeV3spacinisinglrowGreegraacovecroincludinapplyinocomposmanureNPfertilizeanmaintenance",
        "Estimated Cost": "67,600",
        "photopath": "Not_Available"
      },
      "geometry": {
        "type": "Point",
        "coordinates": [
          80.784661,
          7.134595
        ]
      }
    },
    {
      "type": "Feature",
      "properties": {
        "No": 28,
        "GND No.": "482B",
        "Scheme": "UraketuwWell",
        "N": 7.131839,
        "E": 80.786514,
        "Observation": "Noallocatiooreservanleakagothtank",
        "Description": "Vegetativcoveimprovin(1.5m-2.0widewitArecnuseedling1.5spacinitwrowsBeetlcreepeV3spacinisinglrowGreegraacovecroincludinapplyinocomposmanureNPfertilizeanmaintenance\nConstructioocurtaiwal(0.075mthickwit1:2:(3/4\"concrete1/2dowela600m600mintervalanembeddewitchickemesh",
        "Estimated Cost": "76,100",
        "photopath": "https://raw.githubusercontent.com/MWS003-GIS/MWS003-GIS.github.io/main/IWWRMP/Data/EXD/200_photo/MWS_019/Wg14.jpg"
      },
      "geometry": {
        "type": "Point",
        "coordinates": [
          80.786514,
          7.131839
        ]
      }
    },
    {
      "type": "Feature",
      "properties": {
        "No": 29,
        "GND No.": "482B",
        "Scheme": "UrundeniyWell",
        "N": 7.133895,
        "E": 80.782042,
        "Observation": "Sworwatemiwitwelwater",
        "Description": "Constructioo1:3:(1/2\"cconcretretaininwal(heigh1.8mtowidt0.15m0.60higstep03eaco0.15stewidtbottowidt0.60m\nVegetativcoveimprovin(1.5m-2.0widewitArecnuseedling1.5spacinitwrowsBeetlcreepeV3spacinisinglrowGreegraacovecroincludinapplyinocomposmanureNPfertilizeanmaintenance",
        "Estimated Cost": "137,700",
        "photopath": "Not_Available"
      },
      "geometry": {
        "type": "Point",
        "coordinates": [
          80.782042,
          7.133895
        ]
      }
    },
    {
      "type": "Feature",
      "properties": {
        "No": 30,
        "GND No.": "482/C",
        "Scheme": "UdawelPathanKelSpring",
        "N": 7.141574,
        "E": 80.781804,
        "Observation": "sludgimixewitthwelwatea",
        "Description": "ConstructiooConcretwatestoragtano2cusizinterna3mx3mx2.5",
        "Estimated Cost": "550,000",
        "photopath": "https://raw.githubusercontent.com/MWS003-GIS/MWS003-GIS.github.io/main/IWWRMP/Data/EXD/200_photo/MWS_019/UP (04)2.jpg"
      },
      "geometry": {
        "type": "Point",
        "coordinates": [
          80.781804,
          7.141574
        ]
      }
    },
    {
      "type": "Feature",
      "properties": {
        "No": 31,
        "GND No.": "482/C",
        "Scheme": "thweliUdawelPathanReservation",
        "N": 7.141519,
        "E": 80.781947,
        "Observation": "Leakagowatedutdilapidateconstructionantherinembankmenothsidsoiwasheintthwell",
        "Description": "ConstructiooConcretwatestoragtano2cusizinterna3mx3mx2.5\nfaucet\nConstructioo1:3:(1/2\"cconcretretaininwal(heigh1.2mtowidt0.15m0.60higstep02eaco0.15stewidtbottowidt0.45m",
        "Estimated Cost": "636,000",
        "photopath": "Not_Available"
      },
      "geometry": {
        "type": "Point",
        "coordinates": [
          80.781947,
          7.141519
        ]
      }
    },
    {
      "type": "Feature",
      "properties": {
        "No": 32,
        "GND No.": "484C",
        "Scheme": "PallPihillSpring",
        "N": 7.137278,
        "E": 80.796612,
        "Observation": "Noallocatiooreserve",
        "Description": "Vegetativcoveimprovin(1.5m-2.0widewitArecnuseedling1.5spacinitwrowsBeetlcreepeV3spacinisinglrowGreegraacovecroincludinapplyinocomposmanureNPfertilizeanmaintenance\nProvidinbarwirfencwit0noo14barwirrowfixefirmlbetwee7fhigconcretposterectea2.0intervalalonthfence",
        "Estimated Cost": "68,800",
        "photopath": "https://raw.githubusercontent.com/MWS003-GIS/MWS003-GIS.github.io/main/IWWRMP/Data/EXD/200_photo/MWS_019/ym6.jpg"
      },
      "geometry": {
        "type": "Point",
        "coordinates": [
          80.796612,
          7.137278
        ]
      }
    },
    {
      "type": "Feature",
      "properties": {
        "No": 33,
        "GND No.": "484A",
        "Scheme": "ElandawMinostreaSpring",
        "N": 7.13803,
        "E": 80.804117,
        "Observation": "watequalitnocheckedanshowefaucebroken",
        "Description": "WateQualitTest\nFauceneedtbinstalle",
        "Estimated Cost": "15,000",
        "photopath": "https://raw.githubusercontent.com/MWS003-GIS/MWS003-GIS.github.io/main/IWWRMP/Data/EXD/200_photo/MWS_019/Bm4.jpg"
      },
      "geometry": {
        "type": "Point",
        "coordinates": [
          80.804117,
          7.13803
        ]
      }
    },
    {
      "type": "Feature",
      "properties": {
        "No": 34,
        "GND No.": "484A",
        "Scheme": "NikathennWatershed",
        "N": 7.134434,
        "E": 80.805781,
        "Observation": "Noallocatiooreserve",
        "Description": "VegetativcoveimprovinwitArecnuseedlin1.5spacinisinglrowKumbukMeeGodaparaKaduruAththikkaWaDelKekunarandomlmixeseedlingandensplantina500mgriintervalapplyinocomposmanureNPfertilizermulchinwitstrawbanantreskianmaintenance",
        "Estimated Cost": "53,400",
        "photopath": "https://raw.githubusercontent.com/MWS003-GIS/MWS003-GIS.github.io/main/IWWRMP/Data/EXD/200_photo/MWS_019/Bm8.1.jpg"
      },
      "geometry": {
        "type": "Point",
        "coordinates": [
          80.805781,
          7.134434
        ]
      }
    },
    {
      "type": "Feature",
      "properties": {
        "No": 35,
        "GND No.": "484",
        "Scheme": "AmbagahamullPihilla",
        "N": 7.13125,
        "E": 80.803298,
        "Observation": "wateimpurbtreleaves\nNcover\nwastewate",
        "Description": "Providinnetcovethsprintprevendirfallinintthsprin\nProvidinbarwirfencwit0noo14barwirrowfixefirmlbetwee7fhigconcretposterectea2.0intervalalonthfence\nConstructioo1.2higRmasonrwal(witsectio0.60x0.600.45x0.60ove0.75widt0.15thicscreeconcreteplasterinwit1:cemenmortaanbacfilling\nVegetativcoveimprovin(1.5m-2.0widewitArecnuseedling1.5spacinitwrowsBeetlcreepeV3spacinisinglrowGreegraacovecroincludinapplyinocomposmanureNPfertilizeanmaintenance",
        "Estimated Cost": "104,200",
        "photopath": "https://raw.githubusercontent.com/MWS003-GIS/MWS003-GIS.github.io/main/IWWRMP/Data/EXD/200_photo/MWS_019/pw13.jpg"
      },
      "geometry": {
        "type": "Point",
        "coordinates": [
          80.803298,
          7.13125
        ]
      }
    },
    {
      "type": "Feature",
      "properties": {
        "No": 36,
        "GND No.": "484",
        "Scheme": "Hunukotuwa",
        "N": 7.128317,
        "E": 80.807543,
        "Observation": "wateleakage",
        "Description": "ConstructiooConcretwatestoragtano2cusizinterna3mx3mx2.5m",
        "Estimated Cost": "550,000",
        "photopath": "https://raw.githubusercontent.com/MWS003-GIS/MWS003-GIS.github.io/main/IWWRMP/Data/EXD/200_photo/MWS_019/pw14.jpg"
      },
      "geometry": {
        "type": "Point",
        "coordinates": [
          80.807543,
          7.128317
        ]
      }
    },
    {
      "type": "Feature",
      "properties": {
        "No": 37,
        "GND No.": "484",
        "Scheme": "AmbagahamullPihilla",
        "N": 7.13125,
        "E": 80.803298,
        "Observation": "watepollutiobtreleaves\nNcover\nwastewate",
        "Description": "Providinnetcovethsprintprevendirfallinintthsprin\nProvidinbarwirfencwit0noo14barwirrowfixefirmlbetwee7fhigconcretposterectea2.0intervalalonthfence\nConstructioo1.2higRmasonrwal(witsectio0.60x0.600.45x0.60ove0.75widt0.15thicconcretscreedplasterinwit1:cemenmortaanbacfilling\nVegetativcoveimprovin(1.5m-2.0widewitArecnuseedling1.5spacinitwrowsBeetlcreepeV3spacinisinglrowgreegraacovecroincludinapplyinocomposmanureNPfertilizeanmaintenance",
        "Estimated Cost": "104,200",
        "photopath": "https://raw.githubusercontent.com/MWS003-GIS/MWS003-GIS.github.io/main/IWWRMP/Data/EXD/200_photo/MWS_019/pw13.jpg"
      },
      "geometry": {
        "type": "Point",
        "coordinates": [
          80.803298,
          7.13125
        ]
      }
    },
    {
      "type": "Feature",
      "properties": {
        "No": 38,
        "GND No.": "484",
        "Scheme": "Hunukotuwa",
        "N": 7.128317,
        "E": 80.807543,
        "Observation": "wateleakage",
        "Description": "ConstructiooConcretwatestoragtano2cusizinterna3mx3mx2.5m",
        "Estimated Cost": "550,000",
        "photopath": "https://raw.githubusercontent.com/MWS003-GIS/MWS003-GIS.github.io/main/IWWRMP/Data/EXD/200_photo/MWS_019/pw28.jpg"
      },
      "geometry": {
        "type": "Point",
        "coordinates": [
          80.807543,
          7.128317
        ]
      }
    }
  ]
}