{
"type": "FeatureCollection",
"name": "SR",
"crs": { "type": "name", "properties": { "name": "urn:ogc:def:crs:OGC:1.3:CRS84" } },
"features": [
{ "type": "Feature", "properties": { "No": 1, "GND No.": "479A", "Name of the Torrent/ Stream": "Elle Oya", "N": 7.13393, "E": 80.791615, "Current status": "soil erosion on both sides of banks/along the banks", "Description": "Vegetative cover improving with Areca nut seedling @ 1.5m spacing in a single row, Kumbuk/ Mee/ Godapara/ Kaduru/ Aththikka/ Wal Del/ Kekuna/ randomly mixed seedlings and dense planting at 500mm grid interval, applying of compost manure, NPK fertilizer, mulching with straw/ banana tree skin and maintenance\nVegetative cover improving (1.5m-2.0m wide) with Areca nut seedlings @ 1.5m spacing in two rows, Beetle creeper VP @ 3m spacing in a single row, green gram as a cover crop including applying of compost manure, NPK fertilizer and maintenance\nStream / canal reservation protection by earth filling of strip of 1.5m to 2m wide and average Depth of 0.5m, turfing to new sloping soil surface (DAD D 01) or planting single row of vetiver grass with eco-friendly edible plants like Gotukola, Mukunuwenna, Thampala etc. including application of compost manure and 02 months maintenance", "Amount (LKR)": "166,400", "photopath": "https://raw.githubusercontent.com/MWS003-GIS/MWS003-GIS.github.io/main/IWWRMP/Data/EXD/200_photo/MWS_019/ag14.1.jpg" }, "geometry": { "type": "Point", "coordinates": [ 80.791615, 7.13393 ] } },
{ "type": "Feature", "properties": { "No": 2, "GND No.": "479A", "Name of the Torrent/ Stream": "torrent coming from Gopala (Gedirithi torrent) ", "N": 7.134255, "E": 80.791553, "Current status": "soil erosion on both sides of banks/along the banks", "Description": "Construction of leader drain across streams -1m (W) x1m (H) \nVegetative cover improving with Areca nut seedling @ 1.5m spacing in a single row, Kumbuk/ Mee/ Godapara/ Kaduru/ Aththikka/ Wal Del/ Kekuna/ randomly mixed seedlings and dense planting at 500mm grid interval, applying of compost manure, NPK fertilizer, mulching with straw/ banana tree skin and maintenance\nStream / canal reservation protection by earth filling of strip of 1.5m to 2m wide and average Depth of 0.5m, turfing to new sloping soil surface (DAD D 01) or planting single row of vetiver grass with eco-friendly edible plants like Gotukola, Mukunuwenna, Thampala etc. including application of compost manure and 02 months maintenance", "Amount (LKR)": "125,700", "photopath": "https://raw.githubusercontent.com/MWS003-GIS/MWS003-GIS.github.io/main/IWWRMP/Data/EXD/200_photo/MWS_019/ag6.2.jpg" }, "geometry": { "type": "Point", "coordinates": [ 80.791553, 7.134255 ] } },
{ "type": "Feature", "properties": { "No": 3, "GND No.": "479A", "Name of the Torrent/ Stream": " Aldora torrent", "N": 7.133686, "E": 80.78887, "Current status": "soil erosion on both sides of banks/along the banks", "Description": "Vegetative cover improving with Areca nut seedling @ 1.5m spacing in a single row, Kumbuk/ Mee/ Godapara/ Kaduru/ Aththikka/ Wal Del/ Kekuna/ randomly mixed seedlings and dense planting at 500mm grid interval, applying of compost manure, NPK fertilizer, mulching with straw/ banana tree skin and maintenance\nStream / canal reservation protection by earth filling of strip of 1.5m to 2m wide and average Depth of 0.5m, turfing to new sloping soil surface (DAD D 01) or planting single row of vetiver grass with eco-friendly edible plants like Gotukola, Mukunuwenna, Thampala etc. including application of compost manure and 02 months maintenance", "Amount (LKR)": "75,700", "photopath": "https://raw.githubusercontent.com/MWS003-GIS/MWS003-GIS.github.io/main/IWWRMP/Data/EXD/200_photo/MWS_019/ag8.1.jpg" }, "geometry": { "type": "Point", "coordinates": [ 80.78887, 7.133686 ] } },
{ "type": "Feature", "properties": { "No": 4, "GND No.": "479A", "Name of the Torrent/ Stream": "Demada torrent", "N": 7.132838, "E": 80.789925, "Current status": "soil erosion on both sides of banks/along the banks", "Description": "Vegetative cover improving with Areca nut seedling @ 1.5m spacing in a single row, Kumbuk/ Mee/ Godapara/ Kaduru/ Aththikka/ Wal Del/ Kekuna/ randomly mixed seedlings and dense planting at 500mm grid interval, applying of compost manure, NPK fertilizer, mulching with straw/ banana tree skin and maintenance\nVegetative cover improving (1.5m-2.0m wide) with Areca nut seedlings @ 1.5m spacing in two rows, Beetle creeper VP @ 3m spacing in a single row, green gram as a cover crop including applying of compost manure, NPK fertilizer and maintenanceStream / canal reservation protection by earth filling of strip of 1.5m to 2m wide and average Depth of 0.5m, turfing to new sloping soil surface (DAD D 01) or planting single row of vetiver grass with eco-friendly edible plants like Gotukola, Mukunuwenna, Thampala etc. including application of compost manure and 02 months maintenance", "Amount (LKR)": "99,200", "photopath": "https://raw.githubusercontent.com/MWS003-GIS/MWS003-GIS.github.io/main/IWWRMP/Data/EXD/200_photo/MWS_019/ag8.jpg" }, "geometry": { "type": "Point", "coordinates": [ 80.789925, 7.132838 ] } },
{ "type": "Feature", "properties": { "No": 5, "GND No.": "479B", "Name of the Torrent/ Stream": "Kopiwatta torrent", "N": 7.125111, "E": 80.792213, "Current status": "Soil Erosion", "Description": "Vegetative cover improving (1.5m-2.0m wide) with Areca nut seedlings @ 1.5m spacing in two rows, Beetle creeper VP @ 3m spacing in a single row, green gram as a cover crop including applying of compost manure, NPK fertilizer and maintenance\nVegetative cover improving with Areca nut seedling @ 1.5m spacing in a single row, Kumbuk/ Mee/ Godapara/ Kaduru/ Aththikka/ Wal Del/ Kekuna/ randomly mixed seedlings and dense planting at 500mm grid interval, applying of compost manure, NPK fertilizer, mulching with straw/ banana tree skin and maintenance\nStream / canal reservation protection by earth filling of strip of 1.5m to 2m wide and average Depth of 0.5m, turfing to new sloping soil surface (DAD D 01) or planting single row of vetiver grass with eco-friendly edible plants like Gotukola, Mukunuwenna, Thampala etc. including application of compost manure and 02 months maintenance", "Amount (LKR)": "145,100", "photopath": "https://raw.githubusercontent.com/MWS003-GIS/MWS003-GIS.github.io/main/IWWRMP/Data/EXD/200_photo/MWS_019/KA (02)1.jpg" }, "geometry": { "type": "Point", "coordinates": [ 80.792213, 7.125111 ] } },
{ "type": "Feature", "properties": { "No": 6, "GND No.": "479B", "Name of the Torrent/ Stream": null, "N": 7.126995, "E": 80.797579, "Current status": "Soil Erosion", "Description": "Vegetative cover improving (1.5m-2.0m wide) with Areca nut seedlings @ 1.5m spacing in two rows, Beetle creeper VP @ 3m spacing in a single row, green gram as a cover crop including applying of compost manure, NPK fertilizer and maintenance", "Amount (LKR)": "99,200", "photopath": "https://raw.githubusercontent.com/MWS003-GIS/MWS003-GIS.github.io/main/IWWRMP/Data/EXD/200_photo/MWS_019/KA (02)2.jpg" }, "geometry": { "type": "Point", "coordinates": [ 80.797579, 7.126995 ] } },
{ "type": "Feature", "properties": { "No": 8, "GND No.": "479B", "Name of the Torrent/ Stream": "Urakempe torrent (Seasonal) ", "N": 7.127188, "E": 80.798351, "Current status": "Soil Erosion", "Description": "Construction of 1.2m high RR masonry wall (with section 0.60x0.60, 0.45x0.60) over 0.75m width x 0.15m thick concrete screed, plastering with 1:3 cement mortar and back filling\nVegetative cover improving (1.5m-2.0m wide) with Areca nut seedlings @ 1.5m spacing in two rows, Beetle creeper VP @ 3m spacing in a single row, green gram as a cover crop including applying of compost manure, NPK fertilizer and maintenance\nVegetative cover improving with Areca nut seedling @ 1.5m spacing in a single row, Kumbuk/ Mee/ Godapara/ Kaduru/ Aththikka/ Wal Del/ Kekuna/ randomly mixed seedlings and dense planting at 500mm grid interval, applying of compost manure, NPK fertilizer, mulching with straw/ banana tree skin and maintenance\nStream / canal reservation protection by earth filling of strip of 1.5m to 2m wide and average Depth of 0.5m, turfing to new sloping soil surface (DAD D 01) or planting single row of vetiver grass with eco-friendly edible plants like Gotukola, Mukunuwenna, Thampala etc. including application of compost manure and 02 months maintenance", "Amount (LKR)": "261,600", "photopath": "https://raw.githubusercontent.com/MWS003-GIS/MWS003-GIS.github.io/main/IWWRMP/Data/EXD/200_photo/MWS_019/KA (14)1.jpg" }, "geometry": { "type": "Point", "coordinates": [ 80.798351, 7.127188 ] } },
{ "type": "Feature", "properties": { "No": 9, "GND No.": "479B", "Name of the Torrent/ Stream": "torrent from Bomaluwa", "N": 7.127961, "E": 80.79708, "Current status": "Soil Erosion", "Description": "Vegetative cover improving with Areca nut seedling @ 1.5m spacing in a single row, Kumbuk/ Mee/ Godapara/ Kaduru/ Aththikka/ Wal Del/ Kekuna/ randomly mixed seedlings and dense planting at 500mm grid interval, applying of compost manure, NPK fertilizer, mulching with straw/ banana tree skin and maintenance\nStream / canal reservation protection by earth filling of strip of 1.5m to 2m wide and average Depth of 0.5m, turfing to new sloping soil surface (DAD D 01) or planting single row of vetiver grass with eco-friendly edible plants like Gotukola, Mukunuwenna, Thampala etc. including application of compost manure and 02 months maintenance", "Amount (LKR)": "75,700", "photopath": "https://raw.githubusercontent.com/MWS003-GIS/MWS003-GIS.github.io/main/IWWRMP/Data/EXD/200_photo/MWS_019/KA (04)2.jpg" }, "geometry": { "type": "Point", "coordinates": [ 80.79708, 7.127961 ] } },
{ "type": "Feature", "properties": { "No": 10, "GND No.": "479", "Name of the Torrent/ Stream": " Warawa torrent", "N": 7.131546, "E": 80.793363, "Current status": "soil erosion on both sides of banks/along the banks", "Description": "Vegetative cover improving (1.5m-2.0m wide) with Areca nut seedlings @ 1.5m spacing in two rows, Beetle creeper VP @ 3m spacing in a single row, green gram as a cover crop including applying of compost manure, NPK fertilizer and maintenance\nVegetative cover improving with Areca nut seedling @ 1.5m spacing in a single row, Kumbuk/ Mee/ Godapara/ Kaduru/ Aththikka/ Wal Del/ Kekuna/ randomly mixed seedlings and dense planting at 500mm grid interval, applying of compost manure, NPK fertilizer, mulching with straw/ banana tree skin and maintenance\nStream / canal reservation protection by earth filling of strip of 1.5m to 2m wide and average Depth of 0.5m, turfing to new sloping soil surface (DAD D 01) or planting single row of vetiver grass with eco-friendly edible plants like Gotukola, Mukunuwenna, Thampala etc. including application of compost manure and 02 months maintenance", "Amount (LKR)": "99,200", "photopath": "https://raw.githubusercontent.com/MWS003-GIS/MWS003-GIS.github.io/main/IWWRMP/Data/EXD/200_photo/MWS_019/W (04)8.jpg" }, "geometry": { "type": "Point", "coordinates": [ 80.793363, 7.131546 ] } },
{ "type": "Feature", "properties": { "No": 11, "GND No.": "479", "Name of the Torrent/ Stream": "Pansale torrent", "N": 7.127104, "E": 80.794357, "Current status": "soil erosion on both sides of banks", "Description": "Construction of leader drain across streams -1m (W) x1m (H) \nVegetative cover improving (1.5m-2.0m wide) with Areca nut seedlings @ 1.5m spacing in two rows, Beetle creeper VP @ 3m spacing in a single row, green gram as a cover crop including applying of compost manure, NPK fertilizer and maintenance\nStream / canal reservation protection by earth filling of strip of 1.5m to 2m wide and average Depth of 0.5m, turfing to new sloping soil surface (DAD D 01) or planting single row of vetiver grass with eco-friendly edible plants like Gotukola, Mukunuwenna, Thampala etc. including application of compost manure and 02 months maintenance", "Amount (LKR)": "95,800", "photopath": "https://raw.githubusercontent.com/MWS003-GIS/MWS003-GIS.github.io/main/IWWRMP/Data/EXD/200_photo/MWS_019/W (02)2.jpg" }, "geometry": { "type": "Point", "coordinates": [ 80.794357, 7.127104 ] } },
{ "type": "Feature", "properties": { "No": 12, "GND No.": "481 A ", "Name of the Torrent/ Stream": "Anguru torrent", "N": 7.113422, "E": 80.792002, "Current status": "Erosion of banks on both sides", "Description": "Vegetative cover improving (1.5m-2.0m wide) with Areca nut seedlings @ 1.5m spacing in two rows, Beetle creeper VP @ 3m spacing in a single row, green gram as a cover crop including applying of compost manure, NPK fertilizer and maintenance\nVegetative cover improving with Areca nut seedling @ 1.5m spacing in a single row, Kumbuk/ Mee/ Godapara/ Kaduru/ Aththikka/ Wal Del/ Kekuna/ randomly mixed seedlings and dense planting at 500mm grid interval, applying of compost manure, NPK fertilizer, mulching with straw/ banana tree skin and maintenance\nStream / canal reservation protection by earth filling of strip of 1.5m to 2m wide and average Depth of 0.5m, turfing to new sloping soil surface (DAD D 01) or planting single row of vetiver grass with eco-friendly edible plants like Gotukola, Mukunuwenna, Thampala etc. including application of compost manure and 02 months maintenance", "Amount (LKR)": "145,100", "photopath": "https://raw.githubusercontent.com/MWS003-GIS/MWS003-GIS.github.io/main/IWWRMP/Data/EXD/200_photo/MWS_019/Bk2.jpg" }, "geometry": { "type": "Point", "coordinates": [ 80.792002, 7.113422 ] } },
{ "type": "Feature", "properties": { "No": 13, "GND No.": "481 A ", "Name of the Torrent/ Stream": "Meda torrent", "N": 7.113137, "E": 80.791833, "Current status": "Erosion of banks on both sides", "Description": "Vegetative cover improving (1.5m-2.0m wide) with Areca nut seedlings @ 1.5m spacing in two rows, Beetle creeper VP @ 3m spacing in a single row, green gram as a cover crop including applying of compost manure, NPK fertilizer and maintenance\nVegetative cover improving with Areca nut seedling @ 1.5m spacing in a single row, Kumbuk/ Mee/ Godapara/ Kaduru/ Aththikka/ Wal Del/ Kekuna/ randomly mixed seedlings and dense planting at 500mm grid interval, applying of compost manure, NPK fertilizer, mulching with straw/ banana tree skin and maintenance\nStream / canal reservation protection by earth filling of strip of 1.5m to 2m wide and average Depth of 0.5m, turfing to new sloping soil surface (DAD D 01) or planting single row of vetiver grass with eco-friendly edible plants like Gotukola, Mukunuwenna, Thampala etc. including application of compost manure and 02 months maintenance", "Amount (LKR)": "145,100", "photopath": "https://raw.githubusercontent.com/MWS003-GIS/MWS003-GIS.github.io/main/IWWRMP/Data/EXD/200_photo/MWS_019/Bk15.jpg" }, "geometry": { "type": "Point", "coordinates": [ 80.791833, 7.113137 ] } },
{ "type": "Feature", "properties": { "No": 14, "GND No.": "481 B", "Name of the Torrent/ Stream": "Ballan Ella torrent", "N": 7.114509, "E": 80.792811, "Current status": "Erosion of banks on both sides", "Description": "Vegetative cover improving (1.5m-2.0m wide) with Areca nut seedlings @ 1.5m spacing in two rows, Beetle creeper VP @ 3m spacing in a single row, green gram as a cover crop including applying of compost manure, NPK fertilizer and maintenance\nVegetative cover improving with Areca nut seedling @ 1.5m spacing in a single row, Kumbuk/ Mee/ Godapara/ Kaduru/ Aththikka/ Wal Del/ Kekuna/ randomly mixed seedlings and dense planting at 500mm grid interval, applying of compost manure, NPK fertilizer, mulching with straw/ banana tree skin and maintenance\nStream / canal reservation protection by earth filling of strip of 1.5m to 2m wide and average Depth of 0.5m, turfing to new sloping soil surface (DAD D 01) or planting single row of vetiver grass with eco-friendly edible plants like Gotukola, Mukunuwenna, Thampala etc. including application of compost manure and 02 months maintenance", "Amount (LKR)": "191,000", "photopath": "https://raw.githubusercontent.com/MWS003-GIS/MWS003-GIS.github.io/main/IWWRMP/Data/EXD/200_photo/MWS_019/Dg22.jpg" }, "geometry": { "type": "Point", "coordinates": [ 80.792811, 7.114509 ] } },
{ "type": "Feature", "properties": { "No": 15, "GND No.": "481 B", "Name of the Torrent/ Stream": "torrent from Rathland tank", "N": 7.116298, "E": 80.788776, "Current status": "Erosion of banks on both sides", "Description": "Vegetative cover improving (1.5m-2.0m wide) with Areca nut seedlings @ 1.5m spacing in two rows, Beetle creeper VP @ 3m spacing in a single row, green gram as a cover crop including applying of compost manure, NPK fertilizer and maintenance\nVegetative cover improving with Areca nut seedling @ 1.5m spacing in a single row, Kumbuk/ Mee/ Godapara/ Kaduru/ Aththikka/ Wal Del/ Kekuna/ randomly mixed seedlings and dense planting at 500mm grid interval, applying of compost manure, NPK fertilizer, mulching with straw/ banana tree skin and maintenance\nStream / canal reservation protection by earth filling of strip of 1.5m to 2m wide and average Depth of 0.5m, turfing to new sloping soil surface (DAD D 01) or planting single row of vetiver grass with eco-friendly edible plants like Gotukola, Mukunuwenna, Thampala etc. including application of compost manure and 02 months maintenance", "Amount (LKR)": "145,100", "photopath": "https://raw.githubusercontent.com/MWS003-GIS/MWS003-GIS.github.io/main/IWWRMP/Data/EXD/200_photo/MWS_019/Dg17.1.jpg" }, "geometry": { "type": "Point", "coordinates": [ 80.788776, 7.116298 ] } },
{ "type": "Feature", "properties": { "No": 16, "GND No.": "481 C", "Name of the Torrent/ Stream": "torrent that separates colony no 45 & 46 ", "N": 7.113917, "E": 80.782611, "Current status": "Erosion of banks on both sides", "Description": "Construction of leader drain across streams -1m (W) x1m (H) \nVegetative cover improving (1.5m-2.0m wide) with Areca nut seedlings @ 1.5m spacing in two rows, Beetle creeper VP @ 3m spacing in a single row, green gram as a cover crop including applying of compost manure, NPK fertilizer and maintenance\nStream / canal reservation protection by earth filling of strip of 1.5m to 2m wide and average Depth of 0.5m, turfing to new sloping soil surface (DAD D 01) or planting single row of vetiver grass with eco-friendly edible plants like Gotukola, Mukunuwenna, Thampala etc. including application of compost manure and 02 months maintenance", "Amount (LKR)": "119,300", "photopath": "https://raw.githubusercontent.com/MWS003-GIS/MWS003-GIS.github.io/main/IWWRMP/Data/EXD/200_photo/MWS_019/RJ5.jpg" }, "geometry": { "type": "Point", "coordinates": [ 80.782611, 7.113917 ] } },
{ "type": "Feature", "properties": { "No": 17, "GND No.": "481 C", "Name of the Torrent/ Stream": "torrent from No 29,28,44.46 Spring", "N": 7.115902, "E": 80.782035, "Current status": "water wasted and flowed into the DEHIPE lake", "Description": "_", "Amount (LKR)": null, "photopath": "https://raw.githubusercontent.com/MWS003-GIS/MWS003-GIS.github.io/main/IWWRMP/Data/EXD/200_photo/MWS_019/RJ3.jpg" }, "geometry": { "type": "Point", "coordinates": [ 80.782035, 7.115902 ] } },
{ "type": "Feature", "properties": { "No": 18, "GND No.": "481", "Name of the Torrent/ Stream": "Galpotta torrent", "N": 7.118944, "E": 80.789947, "Current status": "Erosion of banks on both sides", "Description": "Vegetative cover improving with Areca nut seedling @ 1.5m spacing in a single row, Kumbuk/ Mee/ Godapara/ Kaduru/ Aththikka/ Wal Del/ Kekuna/ randomly mixed seedlings and dense planting at 500mm grid interval, applying of compost manure, NPK fertilizer, mulching with straw/ banana tree skin and maintenance\nStream / canal reservation protection by earth filling of strip of 1.5m to 2m wide and average Depth of 0.5m, turfing to new sloping soil surface (DAD D 01) or planting single row of vetiver grass with eco-friendly edible plants like Gotukola, Mukunuwenna, Thampala etc. including application of compost manure and 02 months maintenance", "Amount (LKR)": "98,100", "photopath": "https://raw.githubusercontent.com/MWS003-GIS/MWS003-GIS.github.io/main/IWWRMP/Data/EXD/200_photo/MWS_019/Dp11.jpg" }, "geometry": { "type": "Point", "coordinates": [ 80.789947, 7.118944 ] } },
{ "type": "Feature", "properties": { "No": 19, "GND No.": "481", "Name of the Torrent/ Stream": "Meewata Kotte Seasonal Canal", "N": 7.119866, "E": 80.789029, "Current status": "Erosion of banks on both sides on rainy days", "Description": "Construction of leader drain across streams -1m (W) x1m (H)\nVegetative cover improving (1.5m-2.0m wide) with Areca nut seedlings @ 1.5m spacing in two rows, Beetle creeper VP @ 3m spacing in a single row, Green gram as a cover crop including applying of compost manure, NPK fertilizer and maintenance \nStream / canal reservation protection by earth filling of strip of 1.5m to 2m wide and average Depth of 0.5m, turfing to new sloping soil surface (DAD D 01) or planting single row of vetiver grass with eco-friendly edible plants like Gotukola, Mukunuwenna, Thampala etc. including application of compost manure and 02 months maintenance", "Amount (LKR)": "119,300", "photopath": "https://raw.githubusercontent.com/MWS003-GIS/MWS003-GIS.github.io/main/IWWRMP/Data/EXD/200_photo/MWS_019/Dp8.1.jpg" }, "geometry": { "type": "Point", "coordinates": [ 80.789029, 7.119866 ] } },
{ "type": "Feature", "properties": { "No": 20, "GND No.": "481", "Name of the Torrent/ Stream": "Seasonal Canal that separates Dehipe and Wilwala", "N": 7.1215, "E": 80.793231, "Current status": "Erosion of banks on both sides on rainy days", "Description": "Vegetative cover improving (1.5m-2.0m wide) with Areca nut seedlings @ 1.5m spacing in two rows, Beetle creeper VP @ 3m spacing in a single row, green gram as a cover crop including applying of compost manure, NPK fertilizer and maintenance\nVegetative cover improving with Areca nut seedling @ 1.5m spacing in a single row, Kumbuk/ Mee/ Godapara/ Kaduru/ Aththikka/ Wal Del/ Kekuna/ randomly mixed seedlings and dense planting at 500mm grid interval, applying of compost manure, NPK fertilizer, mulching with straw/ banana tree skin and maintenance\nStream / canal reservation protection by earth filling of strip of 1.5m to 2m wide and average Depth of 0.5m, turfing to new sloping soil surface (DAD D 01) or planting single row of vetiver grass with eco-friendly edible plants like Gotukola, Mukunuwenna, Thampala etc. including application of compost manure and 02 months maintenance", "Amount (LKR)": "191,000", "photopath": "https://raw.githubusercontent.com/MWS003-GIS/MWS003-GIS.github.io/main/IWWRMP/Data/EXD/200_photo/MWS_019/Dp16.jpg" }, "geometry": { "type": "Point", "coordinates": [ 80.793231, 7.1215 ] } },
{ "type": "Feature", "properties": { "No": 21, "GND No.": "481", "Name of the Torrent/ Stream": "Kumbukgaha Mula torrent", "N": 7.121899, "E": 80.793958, "Current status": "Erosion of banks on both sides", "Description": "Vegetative cover improving (1.5m-2.0m wide) with Areca nut seedlings @ 1.5m spacing in two rows, Beetle creeper VP @ 3m spacing in a single row, green gram as a cover crop including applying of compost manure, NPK fertilizer and maintenance\nVegetative cover improving with Areca nut seedling @ 1.5m spacing in a single row, Kumbuk/ Mee/ Godapara/ Kaduru/ Aththikka/ Wal Del/ Kekuna/ randomly mixed seedlings and dense planting at 500mm grid interval, applying of compost manure, NPK fertilizer, mulching with straw/ banana tree skin and maintenance\nStream / canal reservation protection by earth filling of strip of 1.5m to 2m wide and average Depth of 0.5m, turfing to new sloping soil surface (DAD D 01) or planting single row of vetiver grass with eco-friendly edible plants like Gotukola, Mukunuwenna, Thampala etc. including application of compost manure and 02 months maintenance", "Amount (LKR)": "191,000", "photopath": "https://raw.githubusercontent.com/MWS003-GIS/MWS003-GIS.github.io/main/IWWRMP/Data/EXD/200_photo/MWS_019/Dp10.jpg" }, "geometry": { "type": "Point", "coordinates": [ 80.793958, 7.121899 ] } },
{ "type": "Feature", "properties": { "No": 22, "GND No.": "481 D", "Name of the Torrent/ Stream": "Thagampatta Oya", "N": 7.119181, "E": 80.79643, "Current status": "Soil Erosion", "Description": "Vegetative cover improving (1.5m-2.0m wide) with Areca nut seedlings @ 1.5m spacing in two rows, Beetle creeper VP @ 3m spacing in a single row, green gram as a cover crop including applying of compost manure, NPK fertilizer and maintenance\nVegetative cover improving with Areca nut seedling @ 1.5m spacing in a single row, Kumbuk/ Mee/ Godapara/ Kaduru/ Aththikka/ Wal Del/ Kekuna/ randomly mixed seedlings and dense planting at 500mm grid interval, applying of compost manure, NPK fertilizer, mulching with straw/ banana tree skin and maintenance\nStream / canal reservation protection by earth filling of strip of 1.5m to 2m wide and average Depth of 0.5m, turfing to new sloping soil surface (DAD D 01) or planting single row of vetiver grass with eco-friendly edible plants like Gotukola, Mukunuwenna, Thampala etc. including application of compost manure and 02 months maintenance", "Amount (LKR)": "71,600", "photopath": "https://raw.githubusercontent.com/MWS003-GIS/MWS003-GIS.github.io/main/IWWRMP/Data/EXD/200_photo/MWS_019/W (04)6.jpg" }, "geometry": { "type": "Point", "coordinates": [ 80.79643, 7.119181 ] } },
{ "type": "Feature", "properties": { "No": 23, "GND No.": "481 D", "Name of the Torrent/ Stream": "Hiyadala torrent 1", "N": 7.115336, "E": 80.800899, "Current status": "Soil Erosion", "Description": "Vegetative cover improving (1.5m-2.0m wide) with Areca nut seedlings @ 1.5m spacing in two rows, Beetle creeper VP @ 3m spacing in a single row, green gram as a cover crop including applying of compost manure, NPK fertilizer and maintenance\nVegetative cover improving with Areca nut seedling @ 1.5m spacing in a single row, Kumbuk/ Mee/ Godapara/ Kaduru/ Aththikka/ Wal Del/ Kekuna/ randomly mixed seedlings and dense planting at 500mm grid interval, applying of compost manure, NPK fertilizer, mulching with straw/ banana tree skin and maintenance\nStream / canal reservation protection by earth filling of strip of 1.5m to 2m wide and average Depth of 0.5m, turfing to new sloping soil surface (DAD D 01) or planting single row of vetiver grass with eco-friendly edible plants like Gotukola, Mukunuwenna, Thampala etc. including application of compost manure and 02 months maintenance", "Amount (LKR)": "236,900", "photopath": "https://raw.githubusercontent.com/MWS003-GIS/MWS003-GIS.github.io/main/IWWRMP/Data/EXD/200_photo/MWS_019/W (02)3.jpg" }, "geometry": { "type": "Point", "coordinates": [ 80.800899, 7.115336 ] } },
{ "type": "Feature", "properties": { "No": 24, "GND No.": "481 D", "Name of the Torrent/ Stream": "Hiyadala torrent 2", "N": 7.11254, "E": 80.799448, "Current status": "Soil Erosion", "Description": "Vegetative cover improving (1.5m-2.0m wide) with Areca nut seedlings @ 1.5m spacing in two rows, Beetle creeper VP @ 3m spacing in a single row, green gram as a cover crop including applying of compost manure, NPK fertilizer and maintenance\nVegetative cover improving with Areca nut seedling @ 1.5m spacing in a single row, Kumbuk/ Mee/ Godapara/ Kaduru/ Aththikka/ Wal Del/ Kekuna/ randomly mixed seedlings and dense planting at 500mm grid interval, applying of compost manure, NPK fertilizer, mulching with straw/ banana tree skin and maintenance\nStream / canal reservation protection by earth filling of strip of 1.5m to 2m wide and average Depth of 0.5m, turfing to new sloping soil surface (DAD D 01) or planting single row of vetiver grass with eco-friendly edible plants like Gotukola, Mukunuwenna, Thampala etc. including application of compost manure and 02 months maintenance", "Amount (LKR)": "236,900", "photopath": "https://raw.githubusercontent.com/MWS003-GIS/MWS003-GIS.github.io/main/IWWRMP/Data/EXD/200_photo/MWS_019/W (01)2.jpg" }, "geometry": { "type": "Point", "coordinates": [ 80.799448, 7.11254 ] } },
{ "type": "Feature", "properties": { "No": 25, "GND No.": "481 D", "Name of the Torrent/ Stream": "Waliwetiya torrent", "N": 7.113232, "E": 80.800824, "Current status": "Soil Erosion", "Description": "Vegetative cover improving (1.5m-2.0m wide) with Areca nut seedlings @ 1.5m spacing in two rows, Beetle creeper VP @ 3m spacing in a single row, green gram as a cover crop including applying of compost manure, NPK fertilizer and maintenance\nVegetative cover improving with Areca nut seedling @ 1.5m spacing in a single row, Kumbuk/ Mee/ Godapara/ Kaduru/ Aththikka/ Wal Del/ Kekuna/ randomly mixed seedlings and dense planting at 500mm grid interval, applying of compost manure, NPK fertilizer, mulching with straw/ banana tree skin and maintenance\nStream / canal reservation protection by earth filling of strip of 1.5m to 2m wide and average Depth of 0.5m, turfing to new sloping soil surface (DAD D 01) or planting single row of vetiver grass with eco-friendly edible plants like Gotukola, Mukunuwenna, Thampala etc. including application of compost manure and 02 months maintenance", "Amount (LKR)": "145,100", "photopath": "https://raw.githubusercontent.com/MWS003-GIS/MWS003-GIS.github.io/main/IWWRMP/Data/EXD/200_photo/MWS_019/W (01)3.jpg" }, "geometry": { "type": "Point", "coordinates": [ 80.800824, 7.113232 ] } },
{ "type": "Feature", "properties": { "No": 26, "GND No.": "481 D", "Name of the Torrent/ Stream": "Waliwetiya Seasonal Canal", "N": 7.111568, "E": 80.800883, "Current status": "Soil Erosion", "Description": "Vegetative cover improving (1.5m-2.0m wide) with Areca nut seedlings @ 1.5m spacing in two rows, Beetle creeper VP @ 3m spacing in a single row, Green gram as a cover crop including applying of compost manure, NPK fertilizer and maintenance\nVegetative cover improving with Areca nut seedling @ 1.5m spacing in a single row, Kumbuk/ Mee/ Godapara/ Kaduru/ Aththikka/ Wal Del/ Kekuna/ randomly mixed seedlings and dense planting at 500mm grid interval, applying of compost manure, NPK fertilizer, mulching with straw/ banana tree skin and maintenance\nStream / canal reservation protection by earth filling of strip of 1.5m to 2m wide and average Depth of 0.5m, turfing to new sloping soil surface (DAD D 01) or planting single row of vetiver grass with eco-friendly edible plants like Gotukola, Mukunuwenna, Thampala etc. including application of compost manure and 02 months maintenance", "Amount (LKR)": "145,100", "photopath": "https://raw.githubusercontent.com/MWS003-GIS/MWS003-GIS.github.io/main/IWWRMP/Data/EXD/200_photo/MWS_019/W (04)3.jpg" }, "geometry": { "type": "Point", "coordinates": [ 80.800883, 7.111568 ] } },
{ "type": "Feature", "properties": { "No": 27, "GND No.": "482", "Name of the Torrent/ Stream": "torrent near Denike Pihilla", "N": 7.138354, "E": 80.782258, "Current status": "Erosion of banks on both sides", "Description": "Vegetative cover improving (1.5m-2.0m wide) with Areca nut seedlings @ 1.5m spacing in two rows, Beetle creeper VP @ 3m spacing in a single row, Green gram as a cover crop including applying of compost manure, NPK fertilizer and maintenance\nVegetative cover improving with Areca nut seedling @ 1.5m spacing in a single row, Kumbuk/ Mee/ Godapara/ Kaduru/ Aththikka/ Wal Del/ Kekuna/ randomly mixed seedlings and dense planting at 500mm grid interval, applying of compost manure, NPK fertilizer, mulching with straw/ banana tree skin and maintenance\nStream / canal reservation protection by earth filling of strip of 1.5m to 2m wide and average Depth of 0.5m, turfing to new sloping soil surface (DAD D 01) or planting single row of vetiver grass with eco-friendly edible plants like Gotukola, Mukunuwenna, Thampala etc. including application of compost manure and 02 months maintenance", "Amount (LKR)": "145,100", "photopath": "https://raw.githubusercontent.com/MWS003-GIS/MWS003-GIS.github.io/main/IWWRMP/Data/EXD/200_photo/MWS_019/dk10.1.jpg" }, "geometry": { "type": "Point", "coordinates": [ 80.782258, 7.138354 ] } },
{ "type": "Feature", "properties": { "No": 28, "GND No.": "482", "Name of the Torrent/ Stream": " torrent near Uda Aswedduma Paddy field", "N": 7.139217, "E": 80.785588, "Current status": "Erosion of banks on both sides", "Description": "Vegetative cover improving with Areca nut seedling @ 1.5m spacing in a single row, Kumbuk/ Mee/ Godapara/ Kaduru/ Aththikka/ Wal Del/ Kekuna/ randomly mixed seedlings and dense planting at 500mm grid interval, applying of compost manure, NPK fertilizer, mulching with straw/ banana tree skin and maintenance\nStream / canal reservation protection by earth filling of strip of 1.5m to 2m wide and average Depth of 0.5m, turfing to new sloping soil surface (DAD D 01) or planting single row of vetiver grass with eco-friendly edible plants like Gotukola, Mukunuwenna, Thampala etc. including application of compost manure and 02 months maintenance", "Amount (LKR)": "98,100", "photopath": "https://raw.githubusercontent.com/MWS003-GIS/MWS003-GIS.github.io/main/IWWRMP/Data/EXD/200_photo/MWS_019/dk10.jpg" }, "geometry": { "type": "Point", "coordinates": [ 80.785588, 7.139217 ] } },
{ "type": "Feature", "properties": { "No": 29, "GND No.": "482 A", "Name of the Torrent/ Stream": "Ilangamuwa torrent", "N": 7.129874, "E": 80.780365, "Current status": "Erosion of banks on both sides", "Description": "Vegetative cover improving with Areca nut seedling @ 1.5m spacing in a single row, Kumbuk/ Mee/ Godapara/ Kaduru/ Aththikka/ Wal Del/ Kekuna/ randomly mixed seedlings and dense planting at 500mm grid interval, applying of compost manure, NPK fertilizer, mulching with straw/ banana tree skin and maintenance\nStream / canal reservation protection by earth filling of strip of 1.5m to 2m wide and average Depth of 0.5m, turfing to new sloping soil surface (DAD D 01) or planting single row of vetiver grass with eco-friendly edible plants like Gotukola, Mukunuwenna, Thampala etc. including application of compost manure and 02 months maintenance", "Amount (LKR)": "64,500", "photopath": "https://raw.githubusercontent.com/MWS003-GIS/MWS003-GIS.github.io/main/IWWRMP/Data/EXD/200_photo/MWS_019/Um6.jpg" }, "geometry": { "type": "Point", "coordinates": [ 80.780365, 7.129874 ] } },
{ "type": "Feature", "properties": { "No": 30, "GND No.": "482 A", "Name of the Torrent/ Stream": "Kalagolla torrent", "N": 7.132995, "E": 80.778627, "Current status": "Erosion of banks on both sides", "Description": "Vegetative cover improving with Areca nut seedling @ 1.5m spacing in a single row, Kumbuk/ Mee/ Godapara/ Kaduru/ Aththikka/ Wal Del/ Kekuna/ randomly mixed seedlings and dense planting at 500mm grid interval, applying of compost manure, NPK fertilizer, mulching with straw/ banana tree skin and maintenance\nVegetative cover improving, replanting bamboo species and vetiver grass or riparian species at 500mm grid interval including applying of compost manure, NPK fertilizer and maintenance\nStream / canal reservation protection by earth filling of strip of 1.5m to 2m wide and average Depth of 0.5m, turfing to new sloping soil surface (DAD D 01) or planting single row of vetiver grass with eco-friendly edible plants like Gotukola, Mukunuwenna, Thampala etc. including application of compost manure and 02 months maintenance", "Amount (LKR)": "125,100", "photopath": "https://raw.githubusercontent.com/MWS003-GIS/MWS003-GIS.github.io/main/IWWRMP/Data/EXD/200_photo/MWS_019/Um13.jpg" }, "geometry": { "type": "Point", "coordinates": [ 80.778627, 7.132995 ] } },
{ "type": "Feature", "properties": { "No": 31, "GND No.": "482 A", "Name of the Torrent/ Stream": "Ilangamuwa mala Kandura", "N": 7.129874, "E": 80.780365, "Current status": "Erosion of banks on both sides", "Description": "Construction of leader drain across streams -1m (W) x1m (H) \nConstruction of 1:3:6 (1 1/2\") ct concrete retaining wall (height 0.9m, top width 0.15m, 0.45m high steps x 02, each of 0.15m step width & bottom width 0.45m) \nVegetative cover improving (1.5m-2.0m wide) with Areca nut seedlings @ 1.5m spacing in two rows, Beetle creeper VP @ 3m spacing in a single row, Green gram as a cover crop including applying of compost manure, NPK fertilizer and maintenance\nStream / canal reservation protection by earth filling of strip of 1.5m to 2m wide and average Depth of 0.5m, turfing to new sloping soil surface (DAD D 01) or planting single row of vetiver grass with eco-friendly edible plants like Gotukola, Mukunuwenna, Thampala etc. including application of compost manure and 02 months maintenance", "Amount (LKR)": "504,600", "photopath": "https://raw.githubusercontent.com/MWS003-GIS/MWS003-GIS.github.io/main/IWWRMP/Data/EXD/200_photo/MWS_019/Um14.jpg" }, "geometry": { "type": "Point", "coordinates": [ 80.780365, 7.129874 ] } },
{ "type": "Feature", "properties": { "No": 32, "GND No.": "482 B", "Name of the Torrent/ Stream": "Hunukotuwa Seasonal Canal", "N": 7.13642, "E": 80.783335, "Current status": "Erosion of banks on both sides on rainy days", "Description": "Construction of leader drain across streams -1m (W) x1m (H) \nVegetative cover improving (1.5m-2.0m wide) with Areca nut seedlings @ 1.5m spacing in two rows, Beetle creeper VP @ 3m spacing in a single row, Green gram as a cover crop including applying of compost manure, NPK fertilizer and maintenance\nStream / canal reservation protection by earth filling of strip of 1.5m to 2m wide and average Depth of 0.5m, turfing to new sloping soil surface (DAD D 01) or planting single row of vetiver grass with eco-friendly edible plants like Gotukola, Mukunuwenna, Thampala etc. including application of compost manure and 02 months maintenance", "Amount (LKR)": "54,600", "photopath": "https://raw.githubusercontent.com/MWS003-GIS/MWS003-GIS.github.io/main/IWWRMP/Data/EXD/200_photo/MWS_019/Um10.jpg" }, "geometry": { "type": "Point", "coordinates": [ 80.783335, 7.13642 ] } },
{ "type": "Feature", "properties": { "No": 33, "GND No.": "482 B", "Name of the Torrent/ Stream": "Humantharawa torrent", "N": 7.135171, "E": 80.78586, "Current status": "Erosion of banks on both sides", "Description": "Vegetative cover improving with Areca nut seedling @ 1.5m spacing in a single row, Kumbuk/ Mee/ Godapara/ Kaduru/ Aththikka/ Wal Del/ Kekuna/ randomly mixed seedlings and dense planting at 500mm grid interval, applying of compost manure, NPK fertilizer, mulching with straw/ banana tree skin and maintenance\nStream / canal reservation protection by earth filling of strip of 1.5m to 2m wide and average Depth of 0.5m, turfing to new sloping soil surface (DAD D 01) or planting single row of vetiver grass with eco-friendly edible plants like Gotukola, Mukunuwenna, Thampala etc. including application of compost manure and 02 months maintenance", "Amount (LKR)": "98,100", "photopath": "https://raw.githubusercontent.com/MWS003-GIS/MWS003-GIS.github.io/main/IWWRMP/Data/EXD/200_photo/MWS_019/Um9.jpg" }, "geometry": { "type": "Point", "coordinates": [ 80.78586, 7.135171 ] } },
{ "type": "Feature", "properties": { "No": 34, "GND No.": "482 B", "Name of the Torrent/ Stream": " torrent near the road\n(Infront of the School) ", "N": 7.135457, "E": 80.784574, "Current status": "Erosion of banks on both sides on rainy days", "Description": "Construction of leader drain across streams -1m (W) x1m (H) \nVegetative cover improving (1.5m-2.0m wide) with Areca nut seedlings @ 1.5m spacing in two rows, Beetle creeper VP @ 3m spacing in a single row, green gram as a cover crop including applying of compost manure, NPK fertilizer and maintenance\nStream / canal reservation protection by earth filling of strip of 1.5m to 2m wide and average Depth of 0.5m, turfing to new sloping soil surface (DAD D 01) or planting single row of vetiver grass with eco-friendly edible plants like Gotukola, Mukunuwenna, Thampala etc. including application of compost manure and 02 months maintenance", "Amount (LKR)": "54,600", "photopath": "https://raw.githubusercontent.com/MWS003-GIS/MWS003-GIS.github.io/main/IWWRMP/Data/EXD/200_photo/MWS_019/Um1.1.jpg" }, "geometry": { "type": "Point", "coordinates": [ 80.784574, 7.135457 ] } },
{ "type": "Feature", "properties": { "No": 35, "GND No.": "482 B", "Name of the Torrent/ Stream": "Galpotta Uyana torrent\n (Arawa) ", "N": 7.134637, "E": 80.784841, "Current status": "Erosion of banks on both sides", "Description": "Vegetative cover improving (1.5m-2.0m wide) with Areca nut seedlings @ 1.5m spacing in two rows, Beetle creeper VP @ 3m spacing in a single row, green gram as a cover crop including applying of compost manure, NPK fertilizer and maintenance\nStream / canal reservation protection by earth filling of strip of 1.5m to 2m wide and average Depth of 0.5m, turfing to new sloping soil surface (DAD D 01) or planting single row of vetiver grass with eco-friendly edible plants like Gotukola, Mukunuwenna, Thampala etc. including application of compost manure and 02 months maintenance", "Amount (LKR)": "91,700", "photopath": "https://raw.githubusercontent.com/MWS003-GIS/MWS003-GIS.github.io/main/IWWRMP/Data/EXD/200_photo/MWS_019/Um5.1.jpg" }, "geometry": { "type": "Point", "coordinates": [ 80.784841, 7.134637 ] } },
{ "type": "Feature", "properties": { "No": 36, "GND No.": "482 B", "Name of the Torrent/ Stream": "torrent across the Dedunu Ela", "N": 7.131791, "E": 80.785455, "Current status": "Erosion of banks on both sides on rainy days", "Description": "Construction of leader drain across streams -1m (W) x1m (H) \nVegetative cover improving (1.5m-2.0m wide) with Areca nut seedlings @ 1.5m spacing in two rows, Beetle creeper VP @ 3m spacing in a single row, green gram as a cover crop including applying of compost manure, NPK fertilizer and maintenance\nStream / canal reservation protection by earth filling of strip of 1.5m to 2m wide and average Depth of 0.5m, turfing to new sloping soil surface (DAD D 01) or planting single row of vetiver grass with eco-friendly edible plants like Gotukola, Mukunuwenna, Thampala etc. including application of compost manure and 02 months maintenance", "Amount (LKR)": "54,600", "photopath": "-" }, "geometry": { "type": "Point", "coordinates": [ 80.785455, 7.131791 ] } },
{ "type": "Feature", "properties": { "No": 37, "GND No.": "482 B", "Name of the Torrent/ Stream": "Urundeniya torrent", "N": 7.133972, "E": 80.781437, "Current status": "soil Erosion of banks on both sides", "Description": "Vegetative cover improving with Areca nut seedling @ 1.5m spacing in a single row, Kumbuk/ Mee/ Godapara/ Kaduru/ Aththikka/ Wal Del/ Kekuna/ randomly mixed seedlings and dense planting at 500mm grid interval, applying of compost manure, NPK fertilizer, mulching with straw/ banana tree skin and maintenance\nVegetative cover improving, replanting bamboo species and vetiver grass or riparian species at 500mm grid interval including applying of compost manure, NPK fertilizer and maintenance\nStream / canal reservation protection by earth filling of strip of 1.5m to 2m wide and average Depth of 0.5m, turfing to new sloping soil surface (DAD D 01) or planting single row of vetiver grass with eco-friendly edible plants like Gotukola, Mukunuwenna, Thampala etc. including application of compost manure and 02 months maintenance", "Amount (LKR)": "125,100", "photopath": "https://raw.githubusercontent.com/MWS003-GIS/MWS003-GIS.github.io/main/IWWRMP/Data/EXD/200_photo/MWS_019/Um10.jpg" }, "geometry": { "type": "Point", "coordinates": [ 80.781437, 7.133972 ] } },
{ "type": "Feature", "properties": { "No": 38, "GND No.": "482/C", "Name of the Torrent/ Stream": "Wewa Landa torrent 1", "N": 7.141032, "E": 80.778963, "Current status": "Soil Erosion", "Description": "Construction of leader drain across streams -1m (W) x1m (H) \nVegetative cover improving (1.5m-2.0m wide) with Areca nut seedlings @ 1.5m spacing in two rows, Beetle creeper VP @ 3m spacing in a single row, green gram as a cover crop including applying of compost manure, NPK fertilizer and maintenance\nStream / canal reservation protection by earth filling of strip of 1.5m to 2m wide and average Depth of 0.5m, turfing to new sloping soil surface (DAD D 01) or planting single row of vetiver grass with eco-friendly edible plants like Gotukola, Mukunuwenna, Thampala etc. including application of compost manure and 02 months maintenance", "Amount (LKR)": "141,700", "photopath": "https://raw.githubusercontent.com/MWS003-GIS/MWS003-GIS.github.io/main/IWWRMP/Data/EXD/200_photo/MWS_019/UP (04)2.jpg" }, "geometry": { "type": "Point", "coordinates": [ 80.778963, 7.141032 ] } },
{ "type": "Feature", "properties": { "No": 39, "GND No.": "482/C", "Name of the Torrent/ Stream": "Wewa Landa torrent 1", "N": 7.141434, "E": 80.77944, "Current status": "Soil Erosion", "Description": "Vegetative cover improving with Areca nut seedling @ 1.5m spacing in a single row, Kumbuk/ Mee/ Godapara/ Kaduru/ Aththikka/ Wal Del/ Kekuna/ randomly mixed seedlings and dense planting at 500mm grid interval, applying of compost manure, NPK fertilizer, mulching with straw/ banana tree skin and maintenance\nVegetative cover improving, replanting bamboo species and vetiver grass or riparian species at 500mm grid interval including applying of compost manure, NPK fertilizer and maintenance\nStream / canal reservation protection by earth filling of strip of 1.5m to 2m wide and average Depth of 0.5m, turfing to new sloping soil surface (DAD D 01) or planting single row of vetiver grass with eco-friendly edible plants like Gotukola, Mukunuwenna, Thampala etc. including application of compost manure and 02 months maintenance", "Amount (LKR)": "125,100", "photopath": "https://raw.githubusercontent.com/MWS003-GIS/MWS003-GIS.github.io/main/IWWRMP/Data/EXD/200_photo/MWS_019/UP (05)1.jpg" }, "geometry": { "type": "Point", "coordinates": [ 80.77944, 7.141434 ] } },
{ "type": "Feature", "properties": { "No": 40, "GND No.": "482/C", "Name of the Torrent/ Stream": "Buwella torrent", "N": 7.141238, "E": 80.779809, "Current status": "Soil Erosion", "Description": "Construction of leader drain across streams -1m (W) x1m (H) \nVegetative cover improving (1.5m-2.0m wide) with Areca nut seedlings @ 1.5m spacing in two rows, Beetle creeper VP @ 3m spacing in a single row, Green gram as a cover crop including applying of compost manure, NPK fertilizer and maintenance\nStream / canal reservation protection by earth filling of strip of 1.5m to 2m wide and average Depth of 0.5m, turfing to new sloping soil surface (DAD D 01) or planting single row of vetiver grass with eco-friendly edible plants like Gotukola, Mukunuwenna, Thampala etc. including application of compost manure and 02 months maintenance", "Amount (LKR)": "141,700", "photopath": "https://raw.githubusercontent.com/MWS003-GIS/MWS003-GIS.github.io/main/IWWRMP/Data/EXD/200_photo/MWS_019/UP (02)4.jpg" }, "geometry": { "type": "Point", "coordinates": [ 80.779809, 7.141238 ] } },
{ "type": "Feature", "properties": { "No": 41, "GND No.": "482/C", "Name of the Torrent/ Stream": "Udawela Pathana torrent", "N": 7.141218, "E": 80.782291, "Current status": "Soil Erosion", "Description": "Construction of leader drain across streams -1m (W) x1m (H) \nVegetative cover improving (1.5m-2.0m wide) with Areca nut seedlings @ 1.5m spacing in two rows, Beetle creeper VP @ 3m spacing in a single row, Green gram as a cover crop including applying of compost manure, NPK fertilizer and maintenance\nStream / canal reservation protection by earth filling of strip of 1.5m to 2m wide and average Depth of 0.5m, turfing to new sloping soil surface (DAD D 01) or planting single row of vetiver grass with eco-friendly edible plants like Gotukola, Mukunuwenna, Thampala etc. including application of compost manure and 02 months maintenance", "Amount (LKR)": "141,700", "photopath": "https://raw.githubusercontent.com/MWS003-GIS/MWS003-GIS.github.io/main/IWWRMP/Data/EXD/200_photo/MWS_019/UP (01)1.jpg" }, "geometry": { "type": "Point", "coordinates": [ 80.782291, 7.141218 ] } },
{ "type": "Feature", "properties": { "No": 42, "GND No.": "483 A", "Name of the Torrent/ Stream": "Maa Ela Seasonal canal", "N": 7.124398, "E": 80.784215, "Current status": "Erosion of banks on both sides", "Description": "Vegetative cover improving with Areca nut seedling @ 1.5m spacing in a single row, Kumbuk/ Mee/ Godapara/ Kaduru/ Aththikka/ Wal Del/ Kekuna/ randomly mixed seedlings and dense planting at 500mm grid interval, applying of compost manure, NPK fertilizer, mulching with straw/ banana tree skin and maintenance\nVegetative cover improving (1.5m-2.0m wide) with Areca nut seedlings @ 1.5m spacing in two rows, Beetle creeper VP @ 3m spacing in a single row, Green gram as a cover crop including applying of compost manure, NPK fertilizer and maintenance\nStream / canal reservation protection by earth filling of strip of 1.5m to 2m wide and average Depth of 0.5m, turfing to new sloping soil surface (DAD D 01) or planting single row of vetiver grass with eco-friendly edible plants like Gotukola, Mukunuwenna, Thampala etc. including application of compost manure and 02 months maintenance", "Amount (LKR)": "87,500", "photopath": "https://raw.githubusercontent.com/MWS003-GIS/MWS003-GIS.github.io/main/IWWRMP/Data/EXD/200_photo/MWS_019/A (02)1.jpg" }, "geometry": { "type": "Point", "coordinates": [ 80.784215, 7.124398 ] } },
{ "type": "Feature", "properties": { "No": 43, "GND No.": "483", "Name of the Torrent/ Stream": "Pan Wewa torrent", "N": 7.123825, "E": 80.784729, "Current status": "Erosion of banks on both sides", "Description": "Vegetative cover improving with Areca nut seedling @ 1.5m spacing in a single row, Kumbuk/ Mee/ Godapara/ Kaduru/ Aththikka/ Wal Del/ Kekuna/ randomly mixed seedlings and dense planting at 500mm grid interval, applying of compost manure, NPK fertilizer, mulching with straw/ banana tree skin and maintenance\nStream / canal reservation protection by earth filling of strip of 1.5m to 2m wide and average Depth of 0.5m, turfing to new sloping soil surface (DAD D 01) or planting single row of vetiver grass with eco-friendly edible plants like Gotukola, Mukunuwenna, Thampala etc. including application of compost manure and 02 months maintenance", "Amount (LKR)": "98,100", "photopath": "https://raw.githubusercontent.com/MWS003-GIS/MWS003-GIS.github.io/main/IWWRMP/Data/EXD/200_photo/MWS_019/V17.1.jpg" }, "geometry": { "type": "Point", "coordinates": [ 80.784729, 7.123825 ] } },
{ "type": "Feature", "properties": { "No": 44, "GND No.": "483", "Name of the Torrent/ Stream": "Mul Oya Maha torrent", "N": 7.124362, "E": 80.784023, "Current status": "Erosion of banks on both sides", "Description": "Vegetative cover improving with Areca nut seedling @ 1.5m spacing in a single row, Kumbuk/ Mee/ Godapara/ Kaduru/ Aththikka/ Wal Del/ Kekuna/ randomly mixed seedlings and dense planting at 500mm grid interval, applying of compost manure, NPK fertilizer, mulching with straw/ banana tree skin and maintenance\nStream / canal reservation protection by earth filling of strip of 1.5m to 2m wide and average Depth of 0.5m, turfing to new sloping soil surface (DAD D 01) or planting single row of vetiver grass with eco-friendly edible plants like Gotukola, Mukunuwenna, Thampala etc. including application of compost manure and 02 months maintenance", "Amount (LKR)": "98,100", "photopath": "https://raw.githubusercontent.com/MWS003-GIS/MWS003-GIS.github.io/main/IWWRMP/Data/EXD/200_photo/MWS_019/V6.jpg" }, "geometry": { "type": "Point", "coordinates": [ 80.784023, 7.124362 ] } },
{ "type": "Feature", "properties": { "No": 45, "GND No.": "483", "Name of the Torrent/ Stream": "Canal located in Wilwala Rajamaha Vihara Maluwe Kande", "N": 7.123891, "E": 80.783806, "Current status": "on rainy days, there is a heavy flow of water coming to the temple", "Description": "Construction of 1:3:6 (1 1/2\") ct concrete retaining wall (height 0.9m, top width 0.15m, 0.45m high steps x 02, each of 0.15m step width & bottom width 0.45m)\nVegetative cover improving (1.5m-2.0m wide) with Areca nut seedlings @ 1.5m spacing in two rows, Beetle creeper VP @ 3m spacing in a single row, Green gram as a cover crop including applying of compost manure, NPK fertilizer and maintenance ", "Amount (LKR)": "497,000", "photopath": "https://raw.githubusercontent.com/MWS003-GIS/MWS003-GIS.github.io/main/IWWRMP/Data/EXD/200_photo/MWS_019/V4.jpg" }, "geometry": { "type": "Point", "coordinates": [ 80.783806, 7.123891 ] } },
{ "type": "Feature", "properties": { "No": 46, "GND No.": "484 C", "Name of the Torrent/ Stream": "Paddarawa torrent", "N": 7.137998, "E": 80.793962, "Current status": "Vegetative cover improving with Areca nut seedling @ 1.5m spacing in a single row, Kumbuk/ Mee/ Godapara/ Kaduru/ Aththikka/ Wal Del/ Kekuna/ randomly mixed seedlings and dense planting at 500mm grid interval, applying of compost manure, NPK fertilizer, mulching with straw/ banana tree skin and maintenance\nVegetative cover improving (1.5m-2.0m wide) with Areca nut seedlings @ 1.5m spacing in two rows, Beetle creeper VP @ 3m spacing in a single row, Green gram as a cover crop including applying of compost manure, NPK fertilizer and maintenance", "Description": "65,100", "Amount (LKR)": null, "photopath": "https://raw.githubusercontent.com/MWS003-GIS/MWS003-GIS.github.io/main/IWWRMP/Data/EXD/200_photo/MWS_019/ym7.jpg" }, "geometry": { "type": "Point", "coordinates": [ 80.793962, 7.137998 ] } },
{ "type": "Feature", "properties": { "No": 47, "GND No.": "484 C", "Name of the Torrent/ Stream": "Hapugahalanda torrent", "N": 7.138799, "E": 80.795732, "Current status": "Construction of leader drain across streams -1m (W) x1m (H) \nVegetative cover improving with Areca nut seedling @ 1.5m spacing in a single row, Kumbuk/ Mee/ Godapara/ Kaduru/ Aththikka/ Wal Del/ Kekuna/ randomly mixed seedlings and dense planting at 500mm grid interval, applying of compost manure, NPK fertilizer, mulching with straw/ banana tree skin and maintenance", "Description": "103,400", "Amount (LKR)": null, "photopath": "https://raw.githubusercontent.com/MWS003-GIS/MWS003-GIS.github.io/main/IWWRMP/Data/EXD/200_photo/MWS_019/ym13.jpg" }, "geometry": { "type": "Point", "coordinates": [ 80.795732, 7.138799 ] } },
{ "type": "Feature", "properties": { "No": 48, "GND No.": "484 C", "Name of the Torrent/ Stream": "torrent near Pinthaliya", "N": 7.136953, "E": 80.79903, "Current status": "Construction of leader drain across streams -1m (W) x1m (H)\nVegetative cover improving (1.5m-2.0m wide) with Areca nut seedlings @ 1.5m spacing in two rows, Beetle creeper VP @ 3m spacing in a single row, Green gram as a cover crop including applying of compost manure, NPK fertilizer and maintenance ", "Description": "61,700", "Amount (LKR)": null, "photopath": "https://raw.githubusercontent.com/MWS003-GIS/MWS003-GIS.github.io/main/IWWRMP/Data/EXD/200_photo/MWS_019/ym6.jpg" }, "geometry": { "type": "Point", "coordinates": [ 80.79903, 7.136953 ] } },
{ "type": "Feature", "properties": { "No": 49, "GND No.": "484 C", "Name of the Torrent/ Stream": "torrent near H.H. Shantha Bandara", "N": 7.134718, "E": 80.798621, "Current status": "Erosion of banks on both sides", "Description": "Construction of leader drain across streams -1m (W) x1m (H) \nVegetative cover improving (1.5m-2.0m wide) with Areca nut seedlings @ 1.5m spacing in two rows, Beetle creeper VP @ 3m spacing in a single row, Green gram as a cover crop including applying of compost manure, NPK fertilizer and maintenance\nStream / canal reservation protection by earth filling of strip of 1.5m to 2m wide and average Depth of 0.5m, Turfing to new sloping soil surface (DAD D 01) or planting single row of vetiver grass with eco-friendly edible plants like Gotukola, Mukunuwenna, Thampala etc. including application of compost manure and 02 months maintenance", "Amount (LKR)": "141,700", "photopath": "https://raw.githubusercontent.com/MWS003-GIS/MWS003-GIS.github.io/main/IWWRMP/Data/EXD/200_photo/MWS_019/ym4.jpg" }, "geometry": { "type": "Point", "coordinates": [ 80.798621, 7.134718 ] } },
{ "type": "Feature", "properties": { "No": 50, "GND No.": "484 A", "Name of the Torrent/ Stream": "Hapugaha watta torrent", "N": 7.13838, "E": 80.802973, "Current status": "Erosion of banks on both sides", "Description": "Vegetative cover improving with Areca nut seedling @ 1.5m spacing in a single row, Kumbuk/ Mee/ Godapara/ Kaduru/ Aththikka/ Wal Del/ Kekuna/ randomly mixed seedlings and dense planting at 500mm grid interval, applying of compost manure, NPK fertilizer, mulching with straw/ banana tree skin and maintenance\nVegetative cover improving (1.5m-2.0m wide) with Areca nut seedlings @ 1.5m spacing in two rows, Beetle creeper VP @ 3m spacing in a single row, Green gram as a cover crop including applying of compost manure, NPK fertilizer and maintenance\nStream / canal reservation protection by earth filling of strip of 1.5m to 2m wide and average Depth of 0.5m, Turfing to new sloping soil surface (DAD D 01) or planting single row of vetiver grass with eco-friendly edible plants like Gotukola, Mukunuwenna, Thampala etc. including application of compost manure and 02 months maintenance", "Amount (LKR)": "145,100", "photopath": "https://raw.githubusercontent.com/MWS003-GIS/MWS003-GIS.github.io/main/IWWRMP/Data/EXD/200_photo/MWS_019/Bm9.1.jpg" }, "geometry": { "type": "Point", "coordinates": [ 80.802973, 7.13838 ] } },
{ "type": "Feature", "properties": { "No": 51, "GND No.": "484 A", "Name of the Torrent/ Stream": "Elandarawa torrent", "N": 7.13803, "E": 80.804117, "Current status": "Erosion of banks on both sides", "Description": "Vegetative cover improving with Areca nut seedling @ 1.5m spacing in a single row, Kumbuk/ Mee/ Godapara/ Kaduru/ Aththikka/ Wal Del/ Kekuna/ randomly mixed seedlings and dense planting at 500mm grid interval, applying of compost manure, NPK fertilizer, mulching with straw/ banana tree skin and maintenance\nVegetative cover improving (1.5m-2.0m wide) with Areca nut seedlings @ 1.5m spacing in two rows, Beetle creeper VP @ 3m spacing in a single row, Green gram as a cover crop including applying of compost manure, NPK fertilizer and maintenance\nStream / canal reservation protection by earth filling of strip of 1.5m to 2m wide and average Depth of 0.5m, Turfing to new sloping soil surface (DAD D 01) or planting single row of vetiver grass with eco-friendly edible plants like Gotukola, Mukunuwenna, Thampala etc. including application of compost manure and 02 months maintenance", "Amount (LKR)": "145,100", "photopath": "https://raw.githubusercontent.com/MWS003-GIS/MWS003-GIS.github.io/main/IWWRMP/Data/EXD/200_photo/MWS_019/Bm2.jpg" }, "geometry": { "type": "Point", "coordinates": [ 80.804117, 7.13803 ] } },
{ "type": "Feature", "properties": { "No": 52, "GND No.": "484-B", "Name of the Torrent/ Stream": " Illaketiya torrent 1", "N": 7.14361, "E": 80.788491, "Current status": "Erosion of banks on both sides", "Description": "Construction of leader drain across streams -1m (W) x1m (H) \nVegetative cover improving (1.5m-2.0m wide) with Areca nut seedlings @ 1.5m spacing in two rows, Beetle creeper VP @ 3m spacing in a single row, Green gram as a cover crop including applying of compost manure, NPK fertilizer and maintenance\nStream / canal reservation protection by earth filling of strip of 1.5m to 2m wide and average Depth of 0.5m, Turfing to new sloping soil surface (DAD D 01) or planting single row of vetiver grass with eco-friendly edible plants like Gotukola, Mukunuwenna, Thampala etc. including application of compost manure and 02 months maintenance", "Amount (LKR)": "55,800", "photopath": "https://raw.githubusercontent.com/MWS003-GIS/MWS003-GIS.github.io/main/IWWRMP/Data/EXD/200_photo/MWS_019/MR (04)6.jpg" }, "geometry": { "type": "Point", "coordinates": [ 80.788491, 7.14361 ] } },
{ "type": "Feature", "properties": { "No": 53, "GND No.": "484-B", "Name of the Torrent/ Stream": "Illaketiya torrent 2", "N": 7.14331, "E": 80.788843, "Current status": "Erosion of banks on both sides", "Description": "Construction of leader drain across streams -1m (W) x1m (H) \nVegetative cover improving (1.5m-2.0m wide) with Areca nut seedlings @ 1.5m spacing in two rows, Beetle creeper VP @ 3m spacing in a single row, Green gram as a cover crop including applying of compost manure, NPK fertilizer and maintenance\nStream / canal reservation protection by earth filling of strip of 1.5m to 2m wide and average Depth of 0.5m, Turfing to new sloping soil surface (DAD D 01) or planting single row of vetiver grass with eco-friendly edible plants like Gotukola, Mukunuwenna, Thampala etc. including application of compost manure and 02 months maintenance", "Amount (LKR)": "55,800", "photopath": "https://raw.githubusercontent.com/MWS003-GIS/MWS003-GIS.github.io/main/IWWRMP/Data/EXD/200_photo/MWS_019/MR (04)5.jpg" }, "geometry": { "type": "Point", "coordinates": [ 80.788843, 7.14331 ] } },
{ "type": "Feature", "properties": { "No": 54, "GND No.": "484 C", "Name of the Torrent/ Stream": " Illaketiya torrent 3", "N": 7.144161, "E": 80.788727, "Current status": "Erosion of banks on both sides", "Description": "Construction of leader drain across streams -1m (W) x1m (H) \nVegetative cover improving (1.5m-2.0m wide) with Areca nut seedlings @ 1.5m spacing in two rows, Beetle creeper VP @ 3m spacing in a single row, Green gram as a cover crop including applying of compost manure, NPK fertilizer and maintenance\nStream / canal reservation protection by earth filling of strip of 1.5m to 2m wide and average Depth of 0.5m, Turfing to new sloping soil surface (DAD D 01) or planting single row of vetiver grass with eco-friendly edible plants like Gotukola, Mukunuwenna, Thampala etc. including application of compost manure and 02 months maintenance", "Amount (LKR)": "19,100", "photopath": "https://raw.githubusercontent.com/MWS003-GIS/MWS003-GIS.github.io/main/IWWRMP/Data/EXD/200_photo/MWS_019/MR (05)2.1.jpg" }, "geometry": { "type": "Point", "coordinates": [ 80.788727, 7.144161 ] } },
{ "type": "Feature", "properties": { "No": 55, "GND No.": "484 C", "Name of the Torrent/ Stream": "Jambugaha watta torrent", "N": 7.143899, "E": 80.788706, "Current status": "Erosion of banks on both sides", "Description": "Construction of leader drain across streams -1m (W) x1m (H) \nVegetative cover improving (1.5m-2.0m wide) with Areca nut seedlings @ 1.5m spacing in two rows, Beetle creeper VP @ 3m spacing in a single row, Green gram as a cover crop including applying of compost manure, NPK fertilizer and maintenance\nStream / canal reservation protection by earth filling of strip of 1.5m to 2m wide and average Depth of 0.5m, Turfing to new sloping soil surface (DAD D 01) or planting single row of vetiver grass with eco-friendly edible plants like Gotukola, Mukunuwenna, Thampala etc. including application of compost manure and 02 months maintenance", "Amount (LKR)": "233,500", "photopath": "https://raw.githubusercontent.com/MWS003-GIS/MWS003-GIS.github.io/main/IWWRMP/Data/EXD/200_photo/MWS_019/ym7.jpg" }, "geometry": { "type": "Point", "coordinates": [ 80.788706, 7.143899 ] } },
{ "type": "Feature", "properties": { "No": 56, "GND No.": "484 C", "Name of the Torrent/ Stream": " Illaketiya torrent 4", "N": 7.144119, "E": 80.787432, "Current status": "Erosion of banks on both sides", "Description": "Construction of leader drain across streams -1m (W) x1m (H)\nVegetative cover improving (1.5m-2.0m wide) with Areca nut seedlings @ 1.5m spacing in two rows, Beetle creeper VP @ 3m spacing in a single row, Green gram as a cover crop including applying of compost manure, NPK fertilizer and maintenance \nStream / canal reservation protection by earth filling of strip of 1.5m to 2m wide and average Depth of 0.5m, Turfing to new sloping soil surface (DAD D 01) or planting single row of vetiver grass with eco-friendly edible plants like Gotukola, Mukunuwenna, Thampala etc. including application of compost manure and 02 months maintenance", "Amount (LKR)": "32,900", "photopath": "https://raw.githubusercontent.com/MWS003-GIS/MWS003-GIS.github.io/main/IWWRMP/Data/EXD/200_photo/MWS_019/ym5.jpg" }, "geometry": { "type": "Point", "coordinates": [ 80.787432, 7.144119 ] } },
{ "type": "Feature", "properties": { "No": 57, "GND No.": "484 C", "Name of the Torrent/ Stream": "Bomaluwa torrent", "N": 7.142418, "E": 80.792883, "Current status": "Erosion of banks on both sides", "Description": "Vegetative cover improving with Areca nut seedling @ 1.5m spacing in a single row, Kumbuk/ Mee/ Godapara/ Kaduru/ Aththikka/ Wal Del/ Kekuna/ randomly mixed seedlings and dense planting at 500mm grid interval, applying of compost manure, NPK fertilizer, mulching with straw/ banana tree skin and maintenance\nStream / canal reservation protection by earth filling of strip of 1.5m to 2m wide and average Depth of 0.5m, Turfing to new sloping soil surface (DAD D 01) or planting single row of vetiver grass with eco-friendly edible plants like Gotukola, Mukunuwenna, Thampala etc. including application of compost manure and 02 months maintenance", "Amount (LKR)": "145,100", "photopath": "https://raw.githubusercontent.com/MWS003-GIS/MWS003-GIS.github.io/main/IWWRMP/Data/EXD/200_photo/MWS_019/ym17.jpg" }, "geometry": { "type": "Point", "coordinates": [ 80.792883, 7.142418 ] } },
{ "type": "Feature", "properties": { "No": 59, "GND No.": "484 C", "Name of the Torrent/ Stream": "Thotupala torrent", "N": 7.140364, "E": 80.793251, "Current status": "Erosion of banks on both sides", "Description": "Vegetative cover improving with Areca nut seedling @ 1.5m spacing in a single row, Kumbuk/ Mee/ Godapara/ Kaduru/ Aththikka/ Wal Del/ Kekuna/ randomly mixed seedlings and dense planting at 500mm grid interval, applying of compost manure, NPK fertilizer, mulching with straw/ banana tree skin and maintenance\nVegetative cover improving (1.5m-2.0m wide) with Areca nut seedlings @ 1.5m spacing in two rows, Beetle creeper VP @ 3m spacing in a single row, Green gram as a cover crop including applying of compost manure, NPK fertilizer and maintenance\nStream / canal reservation protection by earth filling of strip of 1.5m to 2m wide and average Depth of 0.5m, Turfing to new sloping soil surface (DAD D 01) or planting single row of vetiver grass with eco-friendly edible plants like Gotukola, Mukunuwenna, Thampala etc. including application of compost manure and 02 months maintenance", "Amount (LKR)": "145,100", "photopath": "https://raw.githubusercontent.com/MWS003-GIS/MWS003-GIS.github.io/main/IWWRMP/Data/EXD/200_photo/MWS_019/ym11.jpg" }, "geometry": { "type": "Point", "coordinates": [ 80.793251, 7.140364 ] } },
{ "type": "Feature", "properties": { "No": 60, "GND No.": "484", "Name of the Torrent/ Stream": "Ihalagama torrent", "N": 7.132388, "E": 80.801563, "Current status": "Erosion of banks on both sides", "Description": "Vegetative cover improving with Areca nut seedling @ 1.5m spacing in a single row, Kumbuk/ Mee/ Godapara/ Kaduru/ Aththikka/ Wal Del/ Kekuna/ randomly mixed seedlings and dense planting at 500mm grid interval, applying of compost manure, NPK fertilizer, mulching with straw/ banana tree skin and maintenance\nStream / canal reservation protection by earth filling of strip of 1.5m to 2m wide and average Depth of 0.5m, Turfing to new sloping soil surface (DAD D 01) or planting single row of vetiver grass with eco-friendly edible plants like Gotukola, Mukunuwenna, Thampala etc. including application of compost manure and 02 months maintenance", "Amount (LKR)": "120,500", "photopath": "https://raw.githubusercontent.com/MWS003-GIS/MWS003-GIS.github.io/main/IWWRMP/Data/EXD/200_photo/MWS_019/pw6.jpg" }, "geometry": { "type": "Point", "coordinates": [ 80.801563, 7.132388 ] } },
{ "type": "Feature", "properties": { "No": 61, "GND No.": "484", "Name of the Torrent/ Stream": "Kandegolla torrent", "N": 7.131352, "E": 80.801373, "Current status": "Erosion of banks on both sides", "Description": "Vegetative cover improving with Areca nut seedling @ 1.5m spacing in a single row, Kumbuk/ Mee/ Godapara/ Kaduru/ Aththikka/ Wal Del/ Kekuna/ randomly mixed seedlings and dense planting at 500mm grid interval, applying of compost manure, NPK fertilizer, mulching with straw/ banana tree skin and maintenance\nStream / canal reservation protection by earth filling of strip of 1.5m to 2m wide and average Depth of 0.5m, Turfing to new sloping soil surface (DAD D 01) or planting single row of vetiver grass with eco-friendly edible plants like Gotukola, Mukunuwenna, Thampala etc. including application of compost manure and 02 months maintenance", "Amount (LKR)": "120,500", "photopath": "https://raw.githubusercontent.com/MWS003-GIS/MWS003-GIS.github.io/main/IWWRMP/Data/EXD/200_photo/MWS_019/pw4.1.jpg" }, "geometry": { "type": "Point", "coordinates": [ 80.801373, 7.131352 ] } },
{ "type": "Feature", "properties": { "No": 62, "GND No.": "484", "Name of the Torrent/ Stream": "Puhul Pona torrent", "N": 7.130562, "E": 80.802618, "Current status": "Erosion of banks on both sides", "Description": "Vegetative cover improving with Areca nut seedling @ 1.5m spacing in a single row, Kumbuk/ Mee/ Godapara/ Kaduru/ Aththikka/ Wal Del/ Kekuna/ randomly mixed seedlings and dense planting at 500mm grid interval, applying of compost manure, NPK fertilizer, mulching with straw/ banana tree skin and maintenance\nVegetative cover improving (1.5m-2.0m wide) with Areca nut seedlings @ 1.5m spacing in two rows, Beetle creeper VP @ 3m spacing in a single row, Green gram as a cover crop including applying of compost manure, NPK fertilizer and maintenance\nStream / canal reservation protection by earth filling of strip of 1.5m to 2m wide and average Depth of 0.5m, Turfing to new sloping soil surface (DAD D 01) or planting single row of vetiver grass with eco-friendly edible plants like Gotukola, Mukunuwenna, Thampala etc. including application of compost manure and 02 months maintenance", "Amount (LKR)": "145,100", "photopath": "https://raw.githubusercontent.com/MWS003-GIS/MWS003-GIS.github.io/main/IWWRMP/Data/EXD/200_photo/MWS_019/pw11.jpg" }, "geometry": { "type": "Point", "coordinates": [ 80.802618, 7.130562 ] } },
{ "type": "Feature", "properties": { "No": 63, "GND No.": "484", "Name of the Torrent/ Stream": "torrent near school", "N": 7.132994, "E": 80.802841, "Current status": "Erosion of banks on both sides", "Description": "Vegetative cover improving with Areca nut seedling @ 1.5m spacing in a single row, Kumbuk/ Mee/ Godapara/ Kaduru/ Aththikka/ Wal Del/ Kekuna/ randomly mixed seedlings and dense planting at 500mm grid interval, applying of compost manure, NPK fertilizer, mulching with straw/ banana tree skin and maintenance\nVegetative cover improving (1.5m-2.0m wide) with Areca nut seedlings @ 1.5m spacing in two rows, Beetle creeper VP @ 3m spacing in a single row, Green gram as a cover crop including applying of compost manure, NPK fertilizer and maintenance\nStream / canal reservation protection by earth filling of strip of 1.5m to 2m wide and average Depth of 0.5m, Turfing to new sloping soil surface (DAD D 01) or planting single row of vetiver grass with eco-friendly edible plants like Gotukola, Mukunuwenna, Thampala etc. including application of compost manure and 02 months maintenance", "Amount (LKR)": "145,100", "photopath": "https://raw.githubusercontent.com/MWS003-GIS/MWS003-GIS.github.io/main/IWWRMP/Data/EXD/200_photo/MWS_019/pw1.1.jpg" }, "geometry": { "type": "Point", "coordinates": [ 80.802841, 7.132994 ] } },
{ "type": "Feature", "properties": { "No": 64, "GND No.": "484", "Name of the Torrent/ Stream": "Bittara pela torrent", "N": 7.130595, "E": 80.803034, "Current status": "Soil erosion and bring soil to the paddy fields through rainwater", "Description": "Vegetative cover improving with Areca nut seedling @ 1.5m spacing in a single row, Kumbuk/ Mee/ Godapara/ Kaduru/ Aththikka/ Wal Del/ Kekuna/ randomly mixed seedlings and dense planting at 500mm grid interval, applying of compost manure, NPK fertilizer, mulching with straw/ banana tree skin and maintenance\nVegetative cover improving (1.5m-2.0m wide) with Areca nut seedlings @ 1.5m spacing in two rows, Beetle creeper VP @ 3m spacing in a single row, Green gram as a cover crop including applying of compost manure, NPK fertilizer and maintenance\nStream / canal reservation protection by earth filling of strip of 1.5m to 2m wide and average Depth of 0.5m, Turfing to new sloping soil surface (DAD D 01) or planting single row of vetiver grass with eco-friendly edible plants like Gotukola, Mukunuwenna, Thampala etc. including application of compost manure and 02 months maintenance", "Amount (LKR)": "87,500", "photopath": "https://raw.githubusercontent.com/MWS003-GIS/MWS003-GIS.github.io/main/IWWRMP/Data/EXD/200_photo/MWS_019/pw26.jpg" }, "geometry": { "type": "Point", "coordinates": [ 80.803034, 7.130595 ] } },
{ "type": "Feature", "properties": { "No": 65, "GND No.": "484", "Name of the Torrent/ Stream": "Elle Oya", "N": 7.12782, "E": 80.802475, "Current status": "Erosion of banks on both sides", "Description": "Vegetative cover improving with Areca nut seedling @ 1.5m spacing in a single row, Kumbuk/ Mee/ Godapara/ Kaduru/ Aththikka/ Wal Del/ Kekuna/ randomly mixed seedlings and dense planting at 500mm grid interval, applying of compost manure, NPK fertilizer, mulching with straw/ banana tree skin and maintenance\nVegetative cover improving (1.5m-2.0m wide) with Areca nut seedlings @ 1.5m spacing in two rows, Beetle creeper VP @ 3m spacing in a single row, Green gram as a cover crop including applying of compost manure, NPK fertilizer and maintenance\nStream / canal reservation protection by earth filling of strip of 1.5m to 2m wide and average Depth of 0.5m, Turfing to new sloping soil surface (DAD D 01) or planting single row of vetiver grass with eco-friendly edible plants like Gotukola, Mukunuwenna, Thampala etc. including application of compost manure and 02 months maintenance", "Amount (LKR)": "145,100", "photopath": "https://raw.githubusercontent.com/MWS003-GIS/MWS003-GIS.github.io/main/IWWRMP/Data/EXD/200_photo/MWS_019/pw21.jpg" }, "geometry": { "type": "Point", "coordinates": [ 80.802475, 7.12782 ] } },
{ "type": "Feature", "properties": { "No": 66, "GND No.": "484", "Name of the Torrent/ Stream": " Seasonal Canal", "N": 7.129745, "E": 80.805825, "Current status": "Erosion of banks on both sides", "Description": "Construction of leader drain across streams -1m (W) x1m (H) \nVegetative cover improving (1.5m-2.0m wide) with Areca nut seedlings @ 1.5m spacing in two rows, Beetle creeper VP @ 3m spacing in a single row, Green gram as a cover crop including applying of compost manure, NPK fertilizer and maintenance\nStream / canal reservation protection by earth filling of strip of 1.5m to 2m wide and average Depth of 0.5m, Turfing to new sloping soil surface (DAD D 01) or planting single row of vetiver grass with eco-friendly edible plants like Gotukola, Mukunuwenna, Thampala etc. including application of compost manure and 02 months maintenance", "Amount (LKR)": "141,700", "photopath": "https://raw.githubusercontent.com/MWS003-GIS/MWS003-GIS.github.io/main/IWWRMP/Data/EXD/200_photo/MWS_019/pw2.1.jpg" }, "geometry": { "type": "Point", "coordinates": [ 80.805825, 7.129745 ] } },
{ "type": "Feature", "properties": { "No": 67, "GND No.": "484", "Name of the Torrent/ Stream": "Hunukotuwa torrent", "N": 7.128304, "E": 80.807651, "Current status": "Erosion of banks on both sides", "Description": "Construction of leader drain across streams -1m (W) x1m (H) \nVegetative cover improving (1.5m-2.0m wide) with Areca nut seedlings @ 1.5m spacing in two rows, Beetle creeper VP @ 3m spacing in a single row, Green gram as a cover crop including applying of compost manure, NPK fertilizer and maintenance\nStream / canal reservation protection by earth filling of strip of 1.5m to 2m wide and average Depth of 0.5m, Turfing to new sloping soil surface (DAD D 01) or planting single row of vetiver grass with eco-friendly edible plants like Gotukola, Mukunuwenna, Thampala etc. including application of compost manure and 02 months maintenance", "Amount (LKR)": "141,700", "photopath": "https://raw.githubusercontent.com/MWS003-GIS/MWS003-GIS.github.io/main/IWWRMP/Data/EXD/200_photo/MWS_019/pw28.jpg" }, "geometry": { "type": "Point", "coordinates": [ 80.807651, 7.128304 ] } }
]
}
