{
  "type": "FeatureCollection",
  "name": "WP",
  "crs": {
    "type": "name",
    "properties": {
      "name": "urn:ogc:def:crs:OGC:1.3:CRS84"
    }
  },
  "features": [
    {
      "type": "Feature",
      "properties": {
        "No.": 10,
        "GND No.": "482 A",
        "GN Division": "Udalumada",
        "Non-point sources of pollution": "Informal disposal of household wastes/garbage (shampoo and soap covers) - Illa Golla water spring",
        "N": 7.129874,
        "E": 80.780365,
        "Point sources of pollution": "Preparing a separate place in home gardens for disposing household waste\nAwareness program on how to dispose of household waste properly and converting it to usable products such as compost\nFacilitating garbage collection",
        "Add. N ": "50,000.00",
        "Add. E ": "Local/Central governments ",
        "Recommended water quality improvement measures": "0.5 Years",
        "Unit Cost (Rs.)": null,
        "Total Cost (Rs.)": null,
        "Contributions (Local Community, LA, Project)": null,
        "Time frame for the implementation": null,
        "photopath": "https://raw.githubusercontent.com/MWS003-GIS/MWS003-GIS.github.io/main/IWWRMP/Data/EXD/200_photo/MWS_019/Um15.jpg"
      },
      "geometry": {
        "type": "Point",
        "coordinates": [
          80.780365,
          7.129874
        ]
      }
    }
  ]
}