{"type":"FeatureCollection","name":"DWS","crs":{"type":"name","properties":{"name":"urn:ogc:def:crs:OGC:1.3:CRS84"}},"features":[
{"type":"Feature","properties":{"No":1,"GND No.":"485/A","Scheme":"Galwala Spring","N":7.21447,"E":80.7923,"Observation":"-","Description":"No reservation and surrounding is prone to annual fires. Recommend to make dense planting of mixed vegetation comprising Agave/Aloe vera/Akkapana/Areca nut trees /Kithul/Kumbuk/Mee/ Godapara/Kaduru/Aththikka/Wal del/Riparian plants of randomly mixed seedlings at 500 mm grid interval.4. Apply mulching, organic manure and NPK fertilizer. Covered area 300 m2. ","Estimated Cost":"160,000","photopath":"https://raw.githubusercontent.com/MWS003-GIS/MWS003-GIS.github.io/main/IWWRMP/Data/EXD/200_photo/MWS_014/bg11.jpg"},"geometry":{"type":"Point","coordinates":[80.7923,7.21447]}},
{"type":"Feature","properties":{"No":2,"GND No.":"485/A","Scheme":"Bolpane Spring","N":7.21488,"E":80.7921,"Observation":"-","Description":"No reservation and surrounding is prone to annual fires. Recommend to make dense planting of mixed vegetation comprising Agave/Aloe vera/Akkapana/Areca nut trees /Kithul/Kumbuk/Mee/ Godapara/Kaduru/Aththikka/Wal del/Riparian plants of randomly mixed seedlings at 500 mm grid interval.4. Apply mulching, organic manure and NPK fertilizer. Covered area 200 m2. ","Estimated Cost":"107,000","photopath":"Not_Available"},"geometry":{"type":"Point","coordinates":[80.7921,7.21488]}},
{"type":"Feature","properties":{"No":3,"GND No.":"485/A","Scheme":"Hunugala Spring","N":7.2163,"E":80.787657,"Observation":"-","Description":"No reservation and surrounding is prone to annual fires. Recommend to make dense planting of mixed vegetation comprising Agave/Aloe vera/Akkapana/Areca nut trees /Kithul/Kumbuk/Mee/ Godapara/Kaduru/Aththikka/Wal del/Riparian plants of randomly mixed seedlings at 500 mm grid interval.4. Apply mulching, organic manure and NPK fertilizer. Covered area 300 m2. ","Estimated Cost":"160,000","photopath":"https://raw.githubusercontent.com/MWS003-GIS/MWS003-GIS.github.io/main/IWWRMP/Data/EXD/200_photo/MWS_014/bg17.jpg"},"geometry":{"type":"Point","coordinates":[80.787657,7.2163]}},
{"type":"Feature","properties":{"No":4,"GND No.":"485/A","Scheme":"Gammadda Spring","N":7.21062,"E":80.784254,"Observation":"-","Description":"No reservation and surrounding is prone to annual fires. Recommend to make dense planting of mixed vegetation comprising Agave/Aloe vera/Akkapana/Areca nut trees /Kithul/Kumbuk/Mee/ Godapara/Kaduru/Aththikka/Wal del/Riparian plants of randomly mixed seedlings at 500 mm grid interval.4. Apply mulching, organic manure and NPK fertilizer. Covered area 300 m2. ","Estimated Cost":"160,000","photopath":"https://raw.githubusercontent.com/MWS003-GIS/MWS003-GIS.github.io/main/IWWRMP/Data/EXD/200_photo/MWS_014/bg22.jpg"},"geometry":{"type":"Point","coordinates":[80.784254,7.21062]}},
{"type":"Feature","properties":{"No":5,"GND No.":"485/B","Scheme":"Kombagolla Linda","N":7.22202,"E":80.785092,"Observation":"-","Description":"No reservation and surrounding is prone to annual fires. Recommend to make dense planting of mixed vegetation comprising Agave/Aloe vera/Akkapana/Areca nut trees /Kithul/Kumbuk/Mee/ Godapara/Kaduru/Aththikka/Wal del/Riparian plants of randomly mixed seedlings at 500 mm grid interval.4. Apply mulching, organic manure and NPK fertilizer. Covered area 300 m2. ","Estimated Cost":"160,000","photopath":"Not_Available"},"geometry":{"type":"Point","coordinates":[80.785092,7.22202]}},
{"type":"Feature","properties":{"No":6,"GND No.":"485/B","Scheme":"Kuda Linda","N":7.22179,"E":80.785597,"Observation":"-","Description":"No reservation and surrounding is prone to annual fires. Recommend to make dense planting of mixed vegetation comprising Agave/Aloe vera/Akkapana/Areca nut trees /Kithul/Kumbuk/Mee/ Godapara/Kaduru/Aththikka/Wal del/Riparian plants of randomly mixed seedlings at 500 mm grid interval.4. Apply mulching, organic manure and NPK fertilizer. Covered area 300 m2. ","Estimated Cost":"160,000","photopath":"Not_Available"},"geometry":{"type":"Point","coordinates":[80.785597,7.22179]}},
{"type":"Feature","properties":{"No":7,"GND No.":"485/B","Scheme":"Aswadduma Linda","N":7.21598,"E":80.786419,"Observation":"-","Description":"No reservation and surrounding is prone to annual fires. Recommend to make dense planting of mixed vegetation comprising Agave/Aloe vera/Akkapana/Areca nut trees /Kithul/Kumbuk/Mee/ Godapara/Kaduru/Aththikka/Wal del/Riparian plants of randomly mixed seedlings at 500 mm grid interval.4. Apply mulching, organic manure and NPK fertilizer. Covered area 200 m2. ","Estimated Cost":"107,000","photopath":"Not_Available"},"geometry":{"type":"Point","coordinates":[80.786419,7.21598]}},
{"type":"Feature","properties":{"No":8,"GND No.":"485/B","Scheme":"Well in front of the Victoria National School","N":7.21844,"E":80.786588,"Observation":"-","Description":"No reservation and surrounding is prone to annual fires. Recommend to make dense planting of mixed vegetation comprising Agave/Aloe vera/Akkapana/Areca nut trees /Kithul/Kumbuk/Mee/ Godapara/Kaduru/Aththikka/Wal del/Riparian plants of randomly mixed seedlings at 500 mm grid interval.4. Apply mulching, organic manure and NPK fertilizer. Covered area 200 m2. ","Estimated Cost":"107,000","photopath":"Not_Available"},"geometry":{"type":"Point","coordinates":[80.786588,7.21844]}},
{"type":"Feature","properties":{"No":9,"GND No.":"488 /A","Scheme":"Bodhigolla Agro well (Spring)","N":7.19779,"E":80.79324,"Observation":"-","Description":"No reservation and surrounding is prone to annual fires. Recommend to make dense planting of mixed vegetation comprising Agave/Aloe vera/Akkapana/Areca nut trees /Kithul/Kumbuk/Mee/ Godapara/Kaduru/Aththikka/Wal del/Riparian plants of randomly mixed seedlings at 500 mm grid interval.4. Apply mulching, organic manure and NPK fertilizer. Covered area 200 m2. ","Estimated Cost":"107,000","photopath":"https://raw.githubusercontent.com/MWS003-GIS/MWS003-GIS.github.io/main/IWWRMP/Data/EXD/200_photo/MWS_014/HT (01)1.jpg"},"geometry":{"type":"Point","coordinates":[80.79324,7.19779]}},
{"type":"Feature","properties":{"No":10,"GND No.":"488 /A","Scheme":"Hakuruthale Linda (Spring)","N":7.1992,"E":80.800143,"Observation":"-","Description":"No reservation and surrounding is prone to annual fires. Recommend to make dense planting of mixed vegetation comprising Agave/Aloe vera/Akkapana/Areca nut trees /Kithul/Kumbuk/Mee/ Godapara/Kaduru/Aththikka/Wal del/Riparian plants of randomly mixed seedlings at 500 mm grid interval.4. Apply mulching, organic manure and NPK fertilizer. Covered area 200 m2. ","Estimated Cost":"107,000","photopath":"https://raw.githubusercontent.com/MWS003-GIS/MWS003-GIS.github.io/main/IWWRMP/Data/EXD/200_photo/MWS_014/HT (01)2.jpg"},"geometry":{"type":"Point","coordinates":[80.800143,7.1992]}},
{"type":"Feature","properties":{"No":11,"GND No.":"488/B","Scheme":"Hanthana Linda (Spring)","N":7.18774,"E":80.807726,"Observation":"-","Description":"No reservation and surrounding is prone to annual fires. Recommend to make dense planting of mixed vegetation comprising Agave/Aloe vera/Thel edaru/Akkapana/Areca nut trees /Kithul/Kumbuk/Mee/ Godapara/Kaduru/Aththikka/Wal del/Riparian plants of randomly mixed seedlings at 500 mm grid interval.4. Apply mulching, organic manure and NPK fertilizer. Covered area 200 m2. ","Estimated Cost":"107,000","photopath":"https://raw.githubusercontent.com/MWS003-GIS/MWS003-GIS.github.io/main/IWWRMP/Data/EXD/200_photo/MWS_014/HK (01)1.jpg"},"geometry":{"type":"Point","coordinates":[80.807726,7.18774]}},
{"type":"Feature","properties":{"No":12,"GND No.":"489/E","Scheme":"Spring near Pihilla","N":7.17524,"E":80.818223,"Observation":"-","Description":"No reservation and surrounding is prone to annual fires. Recommend to make dense planting of mixed vegetation comprising Agave/Aloe vera/Thel edaru/Akkapana/Areca nut trees /Kithul/Kumbuk/Mee/ Godapara/Kaduru/Aththikka/Wal del/Riparian plants of randomly mixed seedlings at 500 mm grid interval.4. Apply mulching, organic manure and NPK fertilizer. Covered area 300 m2. ","Estimated Cost":"160,000","photopath":"https://raw.githubusercontent.com/MWS003-GIS/MWS003-GIS.github.io/main/IWWRMP/Data/EXD/200_photo/MWS_014/GU (01)1.jpg"},"geometry":{"type":"Point","coordinates":[80.818223,7.17524]}},
{"type":"Feature","properties":{"No":13,"GND No.":"489","Scheme":"Meegaha Alla Spring","N":7.1622,"E":80.82049,"Observation":"-","Description":"No reservation and surrounding is prone to annual fires. Recommend to make dense planting of mixed vegetation comprising Agave/Aloe vera/Thel edaru/Akkapana/Areca nut trees /Kithul/Kumbuk/Mee/ Godapara/Kaduru/Aththikka/Wal del/Riparian plants of randomly mixed seedlings at 500 mm grid interval.4. Apply mulching, organic manure and NPK fertilizer. Covered area 200 m2. 5. Construction of cylindrical ferro cement storage tank of 35 cum capacity - size internal 3m dia x4m high","Estimated Cost":"437,000","photopath":"https://raw.githubusercontent.com/MWS003-GIS/MWS003-GIS.github.io/main/IWWRMP/Data/EXD/200_photo/MWS_014/GD (01)1.jpg"},"geometry":{"type":"Point","coordinates":[80.82049,7.1622]}},
{"type":"Feature","properties":{"No":14,"GND No.":"489","Scheme":"Badiyawa Spring- Gala uda Junier school","N":7.16833,"E":80.82307,"Observation":"-","Description":"No reservation and surrounding is prone to annual fires. Recommend 1. To make dense planting of mixed vegetation comprising Agave/Aloe vera/Thel edaru/Akkapana/Areca nut trees /Kithul/Kumbuk/Mee/ Godapara/Kaduru/Aththikka/Wal del/Riparian plants of randomly mixed seedlings at 500 mm grid interval.4. Apply mulching, organic manure and NPK fertilizer. Covered area 600 m2. 2. 2. To construct reinforced concrete storage tank of 20 cu.m (3m x3m x2.5m)","Estimated Cost":"870,000","photopath":"https://raw.githubusercontent.com/MWS003-GIS/MWS003-GIS.github.io/main/IWWRMP/Data/EXD/200_photo/MWS_014/GD (01)2.jpg"},"geometry":{"type":"Point","coordinates":[80.82307,7.16833]}},
{"type":"Feature","properties":{"No":15,"GND No.":"489","Scheme":"Gabokka Spring","N":7.17501,"E":80.811365,"Observation":"-","Description":"Request and picture are not clear to give any recommendation","Estimated Cost":"https://raw.githubusercontent.com/MWS003-GIS/MWS003-GIS.github.io/main/IWWRMP/Data/EXD/200_photo/MWS_014/GD (01)3.jpg","photopath":"Not_Available"},"geometry":{"type":"Point","coordinates":[80.811365,7.17501]}},
{"type":"Feature","properties":{"No":16,"GND No.":"489A","Scheme":"Dulgahayata Watta Pihilla","N":7.18145,"E":80.798096,"Observation":"-","Description":"No reservation. Recommend to make dense planting of mixed vegetation comprising Agave/Areca nut trees /Kithul/Kumbuk/Mee/ Godapara/Kaduru/Aththikka/Wal del/Riparian plants of randomly mixed seedlings at 500 mm grid interval.4. Apply mulching, organic manure and NPK fertilizer. Covered area 200 m2. ","Estimated Cost":"107,000","photopath":"https://raw.githubusercontent.com/MWS003-GIS/MWS003-GIS.github.io/main/IWWRMP/Data/EXD/200_photo/MWS_014/un4.jpg"},"geometry":{"type":"Point","coordinates":[80.798096,7.18145]}},
{"type":"Feature","properties":{"No":17,"GND No.":"489A","Scheme":"Maha Spring","N":7.18321,"E":80.80333,"Observation":"-","Description":"No reservation. Recommend to make dense planting of mixed vegetation comprising Agave/Areca nut trees /Kithul/Kumbuk/Mee/ Godapara/Kaduru/Aththikka/Wal del/Riparian plants of randomly mixed seedlings at 500 mm grid interval.4. Apply mulching, organic manure and NPK fertilizer. Covered area 300 m2. 5. Construct an open storage tank of size 3mx2mx1m (high) using rubble masonry and cement sand plastering smooth.","Estimated Cost":"335,000","photopath":"https://raw.githubusercontent.com/MWS003-GIS/MWS003-GIS.github.io/main/IWWRMP/Data/EXD/200_photo/MWS_014/un10.jpg"},"geometry":{"type":"Point","coordinates":[80.80333,7.18321]}}
]}