{"type":"FeatureCollection","name":"MT","crs":{"type":"name","properties":{"name":"urn:ogc:def:crs:OGC:1.3:CRS84"}},"features":[
{"type":"Feature","properties":{"Name_of_Tank":"Bandiyawa Wewa","Custodians":"DAD","N":7.16407,"E":80.81693,"Remarks":"Good Condition Recommended to improve reservation & Desilting","photopath":"Not_Available"},"geometry":{"type":"Point","coordinates":[80.81693,7.16407]}},
{"type":"Feature","properties":{"Name_of_Tank":"Goda Iluk Wewa","Custodians":"DAD","N":7.168988,"E":80.811382,"Remarks":"Recommended to reconstruct the sluice Up stream protection, improve reservation","photopath":"Not_Available"},"geometry":{"type":"Point","coordinates":[80.811382,7.168988]}},
{"type":"Feature","properties":{"Name_of_Tank":"Mi Aththa Wewa","Custodians":"DAD","N":7.1949,"E":80.8077,"Remarks":"Recommended sluice repair, improve earthen bund, improve reservation","photopath":"https://raw.githubusercontent.com/MWS003-GIS/MWS003-GIS.github.io/main/IWWRMP/Data/EXD/200_photo/MWS_014/HK (04)5.jpg"},"geometry":{"type":"Point","coordinates":[80.8077,7.1949]}},
{"type":"Feature","properties":{"Name_of_Tank":"Bodhigolla Wewa","Custodians":"DAD","N":7.19791,"E":80.79408,"Remarks":"Good Condition Recommended to improve reservation, capacity enhancement, US protection","photopath":"https://raw.githubusercontent.com/MWS003-GIS/MWS003-GIS.github.io/main/IWWRMP/Data/EXD/200_photo/MWS_014/HK (04)1.jpg"},"geometry":{"type":"Point","coordinates":[80.79408,7.19791]}}
]}