{"type":"FeatureCollection","name":"SR","crs":{"type":"name","properties":{"name":"urn:ogc:def:crs:OGC:1.3:CRS84"}},"features":[
{"type":"Feature","properties":{"No":1,"GND No.":"485/A","Scheme":"Matiwala minor stream 1","N":7.213649,"E":80.788785,"Observation":"-","Description":"Moderate soil erosion of land on both sides (100m length). Recommend 1. Make dense planting of mixed vegetation comprising Agave/Areca nut trees /Kithul/Kumbuk/Mee/ Godapara/Kaduru/Aththikka/Wal del/Kekuna /Mango/local fruits/randomly mixed seedlings at 500 mm grid interval.2. Apply mulching, organic manure and NPK fertilizer. Covered area 200 m2. ","Amount (Rs.)":"107,000","photopath":"https://raw.githubusercontent.com/MWS003-GIS/MWS003-GIS.github.io/main/IWWRMP/Data/EXD/200_photo/MWS_014/bg7.jpg"},"geometry":{"type":"Point","coordinates":[80.788785,7.213649]}},
{"type":"Feature","properties":{"No":2,"GND No.":"485/A","Scheme":"Matiwala minor stream 2","N":7.213666,"E":80.7888,"Observation":"-","Description":"Moderate soil erosion of land on both sides (200m length). Recommend 1. Make dense planting of mixed vegetation comprising Agave/Areca nut trees /Kithul/Kumbuk/Mee/ Godapara/Kaduru/Aththikka/Wal del/Kekuna /Mango/local fruits/randomly mixed seedlings at 500 mm grid interval.2. Apply mulching, organic manure and NPK fertilizer. Covered area 300 m2. ","Amount (Rs.)":"160,000","photopath":"https://raw.githubusercontent.com/MWS003-GIS/MWS003-GIS.github.io/main/IWWRMP/Data/EXD/200_photo/MWS_014/bg8.jpg"},"geometry":{"type":"Point","coordinates":[80.7888,7.213666]}},
{"type":"Feature","properties":{"No":3,"GND No.":"485/B","Scheme":"Minor stream near Mr. Robert's house","N":7.221433,"E":80.787081,"Observation":"-","Description":"Moderate soil erosion of land on both sides (200m length). Recommend 1. Make dense planting of mixed vegetation comprising Agave/Areca nut trees /Kithul/Kumbuk/Mee/ Godapara/Kaduru/Aththikka/Wal del/Kekuna /Mango/local fruits/randomly mixed seedlings at 500 mm grid interval.2. Apply mulching, organic manure and NPK fertilizer. Covered area 300 m2. ","Amount (Rs.)":"160,000","photopath":"https://raw.githubusercontent.com/MWS003-GIS/MWS003-GIS.github.io/main/IWWRMP/Data/EXD/200_photo/MWS_014/wk6.jpg"},"geometry":{"type":"Point","coordinates":[80.787081,7.221433]}},
{"type":"Feature","properties":{"No":4,"GND No.":"485/B","Scheme":"Minor stream near Podi Appu's house","N":7.222937,"E":80.787257,"Observation":"-","Description":"Moderate soil erosion of land on both sides (100m length). Recommend 1. Make dense planting of mixed vegetation comprising Agave/Areca nut trees /Kithul/Kumbuk/Mee/ Godapara/Kaduru/Aththikka/Wal del/Kekuna /Mango/local fruits/randomly mixed seedlings at 500 mm grid interval.2. Apply mulching, organic manure and NPK fertilizer. Covered area 200 m2. ","Amount (Rs.)":"107,000","photopath":"https://raw.githubusercontent.com/MWS003-GIS/MWS003-GIS.github.io/main/IWWRMP/Data/EXD/200_photo/MWS_014/wk8.jpg"},"geometry":{"type":"Point","coordinates":[80.787257,7.222937]}},
{"type":"Feature","properties":{"No":5,"GND No.":"485/B","Scheme":"Demini Ara minor stream","N":7.222477,"E":80.788987,"Observation":"-","Description":"Soil erosion of land on both sides (over 2.5 km length). Recommend 1. Construct (2mx2mx1m) three SABO- boulder dams across the stream locations where canal is steep. 2. Make dense planting of mixed vegetation comprising Agave/Areca nut trees /Kithul/Kumbuk/Mee/ Godapara/Kaduru/Aththikka/Wal del/Kekuna /Mango/local fruits/randomly mixed seedlings at 500 mm grid interval.4. Apply mulching, organic manure and NPK fertilizer. Covered area 1000 m2.","Amount (Rs.)":"714,000","photopath":"https://raw.githubusercontent.com/MWS003-GIS/MWS003-GIS.github.io/main/IWWRMP/Data/EXD/200_photo/MWS_014/wk11.jpg"},"geometry":{"type":"Point","coordinates":[80.788987,7.222477]}},
{"type":"Feature","properties":{"No":6,"GND No.":"485/B","Scheme":"Minor stream across the Badulu road","N":7.221305,"E":80.7887,"Observation":"-","Description":"Moderate soil erosion of embankments (about 50m length). Recommend for both sides to plant single row of Areca nut seedling @ 1m spacing and gaps filled with Vetiver grass and maintain for 3 months until roots are established.","Amount (Rs.)":"27,000","photopath":"https://raw.githubusercontent.com/MWS003-GIS/MWS003-GIS.github.io/main/IWWRMP/Data/EXD/200_photo/MWS_014/wk13.jpg"},"geometry":{"type":"Point","coordinates":[80.7887,7.221305]}},
{"type":"Feature","properties":{"No":7,"GND No.":"485/B","Scheme":"Minor sub stream flows to Demini Arawa","N":7.218759,"E":80.787647,"Observation":"-","Description":"Soil erosion of land on both sides (about 1.5 km length). Recommend 1. Construct (2mx2mx1m) four SABO- boulder dams across the stream locations where canal is steep. 2. Make dense planting of mixed vegetation comprising Agave/Areca nut trees /Kithul/Kumbuk/Mee/ Godapara/Kaduru/Aththikka/Wal del/Kekuna /Mango/local fruits/randomly mixed seedlings at 500 mm grid interval.4. Apply mulching, organic manure and NPK fertilizer. Covered area 1000 m2.","Amount (Rs.)":"774,000","photopath":"https://raw.githubusercontent.com/MWS003-GIS/MWS003-GIS.github.io/main/IWWRMP/Data/EXD/200_photo/MWS_014/wk15.jpg"},"geometry":{"type":"Point","coordinates":[80.787647,7.218759]}},
{"type":"Feature","properties":{"No":8,"GND No.":"485/B","Scheme":"Minor stream flows from Bogala Kanda","N":7.221648,"E":80.785513,"Observation":"-","Description":"Soil erosion of land on both sides (about 500m length). Recommend 1. Construct (2mx2mx1m) one SABO- boulder dams across the stream locations where canal is steep. 2. Make dense planting of mixed vegetation comprising Agave/Areca nut trees / Kithul/ Kumbuk/Mee/ Godapara/ Kaduru/ Aththikka/Wal del/Kekuna /Mango/local fruits/randomly mixed seedlings at 500 mm grid interval.4. Apply mulching, organic manure and NPK fertilizer. Covered area 600 m2.","Amount (Rs.)":"380,000","photopath":"Not_Available"},"geometry":{"type":"Point","coordinates":[80.785513,7.221648]}},
{"type":"Feature","properties":{"No":9,"GND No.":"488 /A","Scheme":"Bodhigolla minor stream 1","N":7.199153,"E":80.793559,"Observation":"-","Description":"Soil erosion of land on both sides (about 2.5km length). Recommendation \n1. Construct (2mx2mx1m) four SABO- boulder dams across the stream locations where canal is steep. 2. Make dense planting of mixed vegetation comprising Agave/Areca nut trees /Kithul/Kumbuk/Mee/ Godapara/Kaduru/Aththikka/Wal del/Kekuna /Mango/local fruits/randomly mixed seedlings at 500 mm grid interval.\n3. Apply mulching, organic manure and NPK fertilizer. Covered area 1500 m2.","Amount (Rs.)":"1,041,000","photopath":"https://raw.githubusercontent.com/MWS003-GIS/MWS003-GIS.github.io/main/IWWRMP/Data/EXD/200_photo/MWS_014/HT (02)1.jpg"},"geometry":{"type":"Point","coordinates":[80.793559,7.199153]}},
{"type":"Feature","properties":{"No":10,"GND No.":"488 /A","Scheme":"Bodhigolla minor stream 2","N":7.19843,"E":80.793674,"Observation":"-","Description":"Soil erosion of land on both sides (about 2km length). Recommend 1. Construct (2mx2mx1m) three SABO- boulder dams across the stream locations where canal is steep. 2. Make dense planting of mixed vegetation comprising Agave/Areca nut trees /Kithul/Kumbuk/Mee/ Godapara/ Kaduru/ Aththikka/Wal del/Kekuna /Mango/ local fruits/randomly mixed seedlings at 500 mm grid interval.4. Apply mulching, organic manure and NPK fertilizer. Covered area 1500 m2.","Amount (Rs.)":"981,000","photopath":"https://raw.githubusercontent.com/MWS003-GIS/MWS003-GIS.github.io/main/IWWRMP/Data/EXD/200_photo/MWS_014/HT (02)2.jpg"},"geometry":{"type":"Point","coordinates":[80.793674,7.19843]}},
{"type":"Feature","properties":{"No":11,"GND No.":"488 /A","Scheme":"Hakuruthale minor stream","N":7.199192,"E":80.800261,"Observation":"-","Description":"Soil erosion of embankments (about 1.5km length). Recommend for both sides to plant single row of Areca nut seedling @ 1m spacing and gaps filled with Vetiver grass and maintain for 3 months until roots are established. Length 1500m","Amount (Rs.)":"405,000","photopath":"https://raw.githubusercontent.com/MWS003-GIS/MWS003-GIS.github.io/main/IWWRMP/Data/EXD/200_photo/MWS_014/HT (02)3.jpg"},"geometry":{"type":"Point","coordinates":[80.800261,7.199192]}},
{"type":"Feature","properties":{"No":12,"GND No.":"488/B","Scheme":"Hilpan minor stream","N":7.18815,"E":80.80755,"Observation":"-","Description":"Soil erosion of land on both sides (about 500m length). Recommend 1. Construct (3mx2mx1m) two SABO- boulder dams across the stream locations where canal is steep. 2. Make dense planting of mixed vegetation comprising Agave/Areca nut trees /Kithul/Kumbuk/Mee/ Godapara/Kaduru/Aththikka/Wal del/Kekuna /Mango/local fruits/randomly mixed seedlings at 500 mm grid interval.4. Apply mulching, organic manure and NPK fertilizer. Covered area 1000 m2.","Amount (Rs.)":"654,000","photopath":"https://raw.githubusercontent.com/MWS003-GIS/MWS003-GIS.github.io/main/IWWRMP/Data/EXD/200_photo/MWS_014/HK (02)1.jpg"},"geometry":{"type":"Point","coordinates":[80.80755,7.18815]}},
{"type":"Feature","properties":{"No":13,"GND No.":"488/B","Scheme":"Murunga watta minor stream","N":7.195121,"E":80.812566,"Observation":"-","Description":"Soil erosion of land on both sides (about 1.5km length). Recommend 1. Construct (3mx2mx1m) three SABO- boulder dams across the stream locations where canal is steep. 2. Make dense planting of mixed vegetation comprising Agave/Areca nut trees /Kithul/Kumbuk/Mee/ Godapara/Kaduru/Aththikka/Wal del/Kekuna /Mango/local fruits/randomly mixed seedlings at 500 mm grid interval.4. Apply mulching, organic manure and NPK fertilizer. Covered area 1500 m2.","Amount (Rs.)":"1,071,000","photopath":"https://raw.githubusercontent.com/MWS003-GIS/MWS003-GIS.github.io/main/IWWRMP/Data/EXD/200_photo/MWS_014/HK (02)2.jpg"},"geometry":{"type":"Point","coordinates":[80.812566,7.195121]}},
{"type":"Feature","properties":{"No":14,"GND No.":"489 C","Scheme":"Diyathala Kanda minor stream","N":7.165706,"E":80.808852,"Observation":"-","Description":"Soil erosion of land on both sides (about 500m length). Recommend 1. Construct (3mx2mx1m) one SABO- boulder dams across the stream locations where canal is steep. 2. Make dense planting of mixed vegetation comprising Agave/ Areca nut trees /Kithul/ Kumbuk/ Mee/ Godapara/ Kaduru/ Aththikka/Wal del/Kekuna /Mango/ local fruits/randomly mixed seedlings at 500 mm grid interval.4. Apply mulching, organic manure and NPK fertilizer. Covered area 500 m2.","Amount (Rs.)":"357,000","photopath":"Not_Available"},"geometry":{"type":"Point","coordinates":[80.808852,7.165706]}},
{"type":"Feature","properties":{"No":15,"GND No.":"489 C","Scheme":"minor stream","N":7.166363,"E":80.80882,"Observation":"-","Description":"Soil erosion of land on both sides (about 500m length). Recommend 1. Construct (3mx2mx1m) one SABO- boulder dams across the stream locations where canal is steep. 2. Make dense planting of mixed vegetation comprising Agave/Areca nut trees /Kithul/ Kumbuk/ Mee/ Godapara/ Kaduru/ Aththikka/Wal del/Kekuna /Mango/ local fruits/randomly mixed seedlings at 500 mm grid interval.4. Apply mulching, organic manure and NPK fertilizer. Covered area 500 m2.","Amount (Rs.)":"357,000","photopath":"Not_Available"},"geometry":{"type":"Point","coordinates":[80.80882,7.166363]}},
{"type":"Feature","properties":{"No":17,"GND No.":"489 C","Scheme":"Kotiya Gala minor stream","N":7.164435,"E":80.814653,"Observation":"-","Description":"Soil erosion of land on both sides (about 500m length). Recommend 1. Construct (3mx2mx1m) one SABO- boulder dams across the stream locations where canal is steep. 2. Make dense planting of mixed vegetation comprising Agave/Areca nut trees /Kithul/ Kumbuk/ Mee/ Godapara/ Kaduru/Aththikka/Wal del/Kekuna /Mango/local fruits/randomly mixed seedlings at 500 mm grid interval.4. Apply mulching, organic manure and NPK fertilizer. Covered area 500 m2.","Amount (Rs.)":"357,000","photopath":"Not_Available"},"geometry":{"type":"Point","coordinates":[80.814653,7.164435]}},
{"type":"Feature","properties":{"No":18,"GND No.":"489 C","Scheme":"Badiyawa Mala minor stream","N":7.165286,"E":80.814837,"Observation":"-","Description":"Soil erosion of land on both sides (about 300m length). 1. Make dense planting of mixed vegetation comprising Agave/Areca nut trees /Kithul/Kumbuk/Mee/ Godapara/ Kaduru/Aththikka/Wal del/Kekuna /Mango/local fruits/randomly mixed seedlings at 500 mm grid interval.2. Apply mulching, organic manure and NPK fertilizer. Covered area 500 m2.","Amount (Rs.)":"250,000","photopath":"Not_Available"},"geometry":{"type":"Point","coordinates":[80.814837,7.165286]}},
{"type":"Feature","properties":{"No":19,"GND No.":"489 D","Scheme":"Morakatiya minor stream","N":7.183902,"E":80.79606,"Observation":"-","Description":"Soil erosion of embankments (about 500m length). Recommend for both sides to plant single row of Areca nut seedling @ 1m spacing and gaps filled with Vetiver grass and maintain for 3 months until roots are established. Length 500m","Amount (Rs.)":"135,000","photopath":"https://raw.githubusercontent.com/MWS003-GIS/MWS003-GIS.github.io/main/IWWRMP/Data/EXD/200_photo/MWS_014/ub3.jpg"},"geometry":{"type":"Point","coordinates":[80.79606,7.183902]}},
{"type":"Feature","properties":{"No":20,"GND No.":"489 D","Scheme":"Galekade minor stream","N":7.184002,"E":80.801768,"Observation":"-","Description":"Soil erosion of embankments (about 700m length). Recommend for both sides to plant single row of Areca nut seedling @ 1m spacing and gaps filled with Vetiver grass and maintain for 3 months until roots are established. Length700m","Amount (Rs.)":"189,000","photopath":"https://raw.githubusercontent.com/MWS003-GIS/MWS003-GIS.github.io/main/IWWRMP/Data/EXD/200_photo/MWS_014/ub8.jpg"},"geometry":{"type":"Point","coordinates":[80.801768,7.184002]}},
{"type":"Feature","properties":{"No":21,"GND No.":"489 D","Scheme":"Thanne Hewala minor stream","N":7.187163,"E":80.802565,"Observation":"-","Description":"Soil erosion of embankments (about 500m length). Recommend for both sides to plant single row of Areca nut seedling @ 1m spacing and gaps filled with Vetiver grass and maintain for 3 months until roots are established. Length500m","Amount (Rs.)":"135,000","photopath":"https://raw.githubusercontent.com/MWS003-GIS/MWS003-GIS.github.io/main/IWWRMP/Data/EXD/200_photo/MWS_014/ub10.jpg"},"geometry":{"type":"Point","coordinates":[80.802565,7.187163]}},
{"type":"Feature","properties":{"No":22,"GND No.":"489 D","Scheme":"From Keena mankada minor stream","N":7.186394,"E":80.801024,"Observation":"-","Description":"Soil erosion of embankments (about 1km length). Recommend 1. to Construct (2mx2mx1m) three SABO- boulder dams across the stream locations where canal is steep. 2.Recommend for both sides to plant single row of Areca nut seedling @ 1m spacing and gaps filled with Vetiver grass and maintain for 3 months until roots are established. Length 1km","Amount (Rs.)":"450,000","photopath":"https://raw.githubusercontent.com/MWS003-GIS/MWS003-GIS.github.io/main/IWWRMP/Data/EXD/200_photo/MWS_014/ub15.jpg"},"geometry":{"type":"Point","coordinates":[80.801024,7.186394]}},
{"type":"Feature","properties":{"No":23,"GND No.":"489/E","Scheme":"Gama minor stream","N":7.175304,"E":80.818218,"Observation":"-","Description":"Soil erosion of land on both sides (about 1km length). Recommend 1. Construct (3mx2mx1m) Two SABO- boulder dams across the stream locations where canal is steep. 2. Make dense planting of mixed vegetation comprising Agave/Areca nut /Kithul/Kumbuk/Mee/ Godapara/ Kaduru/Aththikka/Wal del/Kekuna /Mango/local fruits/ randomly mixed seedlings at 500 mm grid interval.4. Apply mulching, organic manure and NPK fertilizer. Covered area 1000 m2.","Amount (Rs.)":"714,000","photopath":"https://raw.githubusercontent.com/MWS003-GIS/MWS003-GIS.github.io/main/IWWRMP/Data/EXD/200_photo/MWS_014/GU (02)1.jpg"},"geometry":{"type":"Point","coordinates":[80.818218,7.175304]}},
{"type":"Feature","properties":{"No":24,"GND No.":"489","Scheme":"Gama minor stream","N":7.164725,"E":80.819054,"Observation":"-","Description":"Soil erosion of land on both sides (over 2km length). Recommend 1. Construct (3mx2mx1m) Three SABO- boulder dams across the stream locations where canal is steep. 2. Make dense planting of mixed vegetation comprising Agave/Areca nut / Kithul/ Kumbuk/Mee/ Godapara/Kaduru/ Aththikka/Wal del/Kekuna /Mango/ local fruits/randomly mixed seedlings at 500 mm grid interval.4. Apply mulching, organic manure and NPK fertilizer. Covered area 1500 m2.","Amount (Rs.)":"1,071,000","photopath":"https://raw.githubusercontent.com/MWS003-GIS/MWS003-GIS.github.io/main/IWWRMP/Data/EXD/200_photo/MWS_014/GD (02)1.jpg"},"geometry":{"type":"Point","coordinates":[80.819054,7.164725]}},
{"type":"Feature","properties":{"No":25,"GND No.":"489","Scheme":"Rambukgete minor stream","N":7.173954,"E":80.814555,"Observation":"-","Description":"Soil erosion of embankments (over 1.5m length). Recommend for both sides to plant single row of Areca nut seedling @ 1m spacing and gaps filled with Vetiver grass and maintain for 3 months until roots are established. Length 1km","Amount (Rs.)":"270,000","photopath":"https://raw.githubusercontent.com/MWS003-GIS/MWS003-GIS.github.io/main/IWWRMP/Data/EXD/200_photo/MWS_014/GD (02)2.jpg"},"geometry":{"type":"Point","coordinates":[80.814555,7.173954]}},
{"type":"Feature","properties":{"No":26,"GND No.":"489","Scheme":"Galbokka minor stream 1","N":7.175092,"E":80.811844,"Observation":"-","Description":"Soil erosion of embankments (about 300m length). 1. Recommend for both sides to plant single row of Areca nut seedling @ 1m spacing and gaps filled with Vetiver grass and maintain for 3 months until roots are established. Length 1km. 2. To provide three numbers of 500mmx500mmx 300mm high concrete junction boxes to facilitate joining of indigenous open conduits made out of bamboo/Areca stems etc.","Amount (Rs.)":"99,000","photopath":"https://raw.githubusercontent.com/MWS003-GIS/MWS003-GIS.github.io/main/IWWRMP/Data/EXD/200_photo/MWS_014/GD (02)3.jpg"},"geometry":{"type":"Point","coordinates":[80.811844,7.175092]}},
{"type":"Feature","properties":{"No":27,"GND No.":"489","Scheme":"Galbokka minor stream 2","N":7.174908,"E":80.811287,"Observation":"-","Description":"Soil erosion of embankments (about 200m length). Recommend for both sides to plant single row of Areca nut seedling @ 1m spacing and gaps filled with Vetiver grass and maintain for 3 months until roots are established. Length 200m.","Amount (Rs.)":"54,000","photopath":"https://raw.githubusercontent.com/MWS003-GIS/MWS003-GIS.github.io/main/IWWRMP/Data/EXD/200_photo/MWS_014/GD (02)4.jpg"},"geometry":{"type":"Point","coordinates":[80.811287,7.174908]}},
{"type":"Feature","properties":{"No":28,"GND No.":"489A","Scheme":"Dulgaha Watta minor stream","N":7.181451,"E":80.798096,"Observation":"-","Description":"Soil erosion of embankments (over 1.5m length). 1. Recommend for both sides to plant single row of Areca nut seedling @ 1m spacing and gaps filled with Vetiver grass and maintain for 3 months until roots are established. Length 1km. 2. To provide 500mmx500mmx 300mm high concrete junction boxes to facilitate joining of indegenoius open conduits made out of bamboo/Areca stems etc","Amount (Rs.)":"270,000","photopath":"https://raw.githubusercontent.com/MWS003-GIS/MWS003-GIS.github.io/main/IWWRMP/Data/EXD/200_photo/MWS_014/un5.jpg"},"geometry":{"type":"Point","coordinates":[80.798096,7.181451]}},
{"type":"Feature","properties":{"No":29,"GND No.":"489A","Scheme":"Thotupala minor stream (Maha minor stream)","N":7.182193,"E":80.79891,"Observation":"-","Description":"Soil erosion of land on both sides (about 1km length). Recommend 1. Construct (3mx2mx1m) three numbers of SABO- boulder dams across the stream locations where canal is steep. 2. Make dense planting of mixed vegetation comprising Agave/Areca nut /Kithul/ Kumbuk/ Mee/ Godapara/ Kaduru/ Aththikka/ Wal del/Kekuna /Mango/local fruits/ randomly mixed seedlings at 500 mm grid interval.4. Apply mulching, organic manure and NPK fertilizer. Covered area 1500 m2.","Amount (Rs.)":"1,071,000","photopath":"https://raw.githubusercontent.com/MWS003-GIS/MWS003-GIS.github.io/main/IWWRMP/Data/EXD/200_photo/MWS_014/un7.jpg"},"geometry":{"type":"Point","coordinates":[80.79891,7.182193]}},
{"type":"Feature","properties":{"No":30,"GND No.":"489A","Scheme":"Naaya minor stream","N":7.183558,"E":80.802342,"Observation":"-","Description":"Soil erosion of land on both sides (about 1.5km length). Recommend 1. Construct (2mx2mx1m) five numbers of SABO- boulder dams across the stream locations where canal is steep. 2. Make dense planting of mixed vegetation comprising Agave/Areca nut trees /Kithul/Kumbuk/Mee/ Godapara/Kaduru/Aththikka/Wal del/Kekuna /Mango/local fruits randomly mixed seedlings at 500 mm grid interval.4. Apply mulching, organic manure and NPK fertilizer. Covered area 2000 m2.","Amount (Rs.)":"1,368,000","photopath":"https://raw.githubusercontent.com/MWS003-GIS/MWS003-GIS.github.io/main/IWWRMP/Data/EXD/200_photo/MWS_014/un9.jpg"},"geometry":{"type":"Point","coordinates":[80.802342,7.183558]}},
{"type":"Feature","properties":{"No":31,"GND No.":"489A","Scheme":"Ulpatha minor stream","N":7.183205,"E":80.80333,"Observation":"-","Description":"Soil erosion of land on both sides (over 1km length). Recommend 1. Construct (2mx2mx1m) three numbers of SABO- boulder dams across the stream locations where canal is steep. 2. Make dense planting of mixed vegetation comprising Agave/Areca nut trees /Kithul/ Kumbuk/ Mee/ Godapara/ Kaduru/ Aththikka/Wal del/Kekuna /Mango/local fruits/randomly mixed seedlings at 500 mm grid interval.4. Apply mulching, organic manure and NPK fertilizer. Covered area 1000 m2.","Amount (Rs.)":"714,000","photopath":"https://raw.githubusercontent.com/MWS003-GIS/MWS003-GIS.github.io/main/IWWRMP/Data/EXD/200_photo/MWS_014/un11.jpg"},"geometry":{"type":"Point","coordinates":[80.80333,7.183205]}},
{"type":"Feature","properties":{"No":32,"GND No.":"489A","Scheme":"Kobokura minor stream","N":7.178225,"E":80.797961,"Observation":"-","Description":"Soil erosion of land on both sides (about 2km length). Recommend 1. Construct (2mx2mx1m) six numbers of SABO- boulder dams across the stream locations where canal is steep. 2. Make dense planting of mixed vegetation comprising Agave/Areca nut trees /Kithul/Kumbuk/Mee/ Godapara/Kaduru/Aththikka/Wal del/Kekuna /Mango/local fruits randomly mixed seedlings at 500 mm grid interval.4. Apply mulching, organic manure and NPK fertilizer. Covered area 1500 m2.","Amount (Rs.)":"1,161,000","photopath":"https://raw.githubusercontent.com/MWS003-GIS/MWS003-GIS.github.io/main/IWWRMP/Data/EXD/200_photo/MWS_014/un22.jpg"},"geometry":{"type":"Point","coordinates":[80.797961,7.178225]}}
]}