{"type":"FeatureCollection","name":"SWC_ON","crs":{"type":"name","properties":{"name":"urn:ogc:def:crs:OGC:1.3:CRS84"}},"features":[
{"type":"Feature","properties":{"No.":"6","GND No.":"485A","GND Name":"Bogahalanda","Key Activities proposed for Soil and Water conservation":"6. Soil conservation practices - Unagolla (40d)","Priority based on Soil Erosion Hazard":3.0,"N":7.211772,"E":80.786756,"Quantity":"2.8 ha","Proposed measure/s":"Live fencing/SALT\nStone terracing/lock and spills, as applied","Uniti_Cost":"250.00 m-1","Total_Cost":"700,000.00","Contribution (Local Community, LA, and the project)":"Labour and other basic services by the Local community","Time frame for the implementation":"0.25 Years","photopath":"https://raw.githubusercontent.com/MWS003-GIS/MWS003-GIS.github.io/main/IWWRMP/Data/EXD/200_photo/MWS_014/bg1.jpg"},"geometry":{"type":"Point","coordinates":[80.786756,7.211772]}},
{"type":"Feature","properties":{"No.":"7","GND No.":"485A","GND Name":"Bogahalanda","Key Activities proposed for Soil and Water conservation":"7. Soil conservation practices - Bolapane (70d)","Priority based on Soil Erosion Hazard":5.0,"N":7.2138,"E":80.79013,"Quantity":"28 ha","Proposed measure/s":"Live fencing/SALT\nStone terracing/lock and spills, as applied","Uniti_Cost":"250.00 m-1","Total_Cost":"7,000,000.00","Contribution (Local Community, LA, and the project)":"Labour and other basic services by the Local community","Time frame for the implementation":"0.5 Years","photopath":"https://raw.githubusercontent.com/MWS003-GIS/MWS003-GIS.github.io/main/IWWRMP/Data/EXD/200_photo/MWS_014/bg9.jpg"},"geometry":{"type":"Point","coordinates":[80.79013,7.2138]}},
{"type":"Feature","properties":{"No.":"8","GND No.":"485A","GND Name":"Bogahalanda","Key Activities proposed for Soil and Water conservation":"8. Soil conservation practices - Bolapane (75d)","Priority based on Soil Erosion Hazard":5.0,"N":7.21505,"E":80.7932,"Quantity":"1 ha","Proposed measure/s":"Live fencing/SALT\nStone terracing/lock and spills, as applied","Uniti_Cost":"250.00 m-1","Total_Cost":"250,000.00","Contribution (Local Community, LA, and the project)":"Labour and other basic services by the Local community","Time frame for the implementation":"0.25 Years","photopath":"https://raw.githubusercontent.com/MWS003-GIS/MWS003-GIS.github.io/main/IWWRMP/Data/EXD/200_photo/MWS_014/bg10.jpg"},"geometry":{"type":"Point","coordinates":[80.7932,7.21505]}},
{"type":"Feature","properties":{"No.":"9","GND No.":"485A","GND Name":"Bogahalanda","Key Activities proposed for Soil and Water conservation":"9. Soil conservation practices - Bolapane (70d)","Priority based on Soil Erosion Hazard":5.0,"N":7.21384,"E":80.79001,"Quantity":"1 ha","Proposed measure/s":"Live fencing/SALT\nStone terracing/lock and spills, as applied","Uniti_Cost":"250.00 m-1","Total_Cost":"250,000.00","Contribution (Local Community, LA, and the project)":"Labour and other basic services by the Local community","Time frame for the implementation":"0.25 Years","photopath":"https://raw.githubusercontent.com/MWS003-GIS/MWS003-GIS.github.io/main/IWWRMP/Data/EXD/200_photo/MWS_014/bg12.jpg"},"geometry":{"type":"Point","coordinates":[80.79001,7.21384]}},
{"type":"Feature","properties":{"No.":"10","GND No.":"485A","GND Name":"Bogahalanda","Key Activities proposed for Soil and Water conservation":"10. Soil conservation practices - Bogahalanda (40d)","Priority based on Soil Erosion Hazard":3.0,"N":7.21066,"E":80.786945,"Quantity":"4 ha","Proposed measure/s":"Live fencing/SALT\nStone terracing/lock and spills, as applied","Uniti_Cost":"250.00 m-1","Total_Cost":"1,000,000.00","Contribution (Local Community, LA, and the project)":"Labour and other basic services by the Local community","Time frame for the implementation":"0.25 Years","photopath":"https://raw.githubusercontent.com/MWS003-GIS/MWS003-GIS.github.io/main/IWWRMP/Data/EXD/200_photo/MWS_014/bg21.jpg"},"geometry":{"type":"Point","coordinates":[80.786945,7.21066]}},
{"type":"Feature","properties":{"No.":"12","GND No.":"489E","GND Name":"Galauda North","Key Activities proposed for Soil and Water conservation":"2. Soil conservation practices - Pihillawatta (45d)","Priority based on Soil Erosion Hazard":2.0,"N":7.174926,"E":80.81763,"Quantity":"2 ha","Proposed measure/s":"Live fencing/SALT\nStone terracing/lock and spills, as applied","Uniti_Cost":"250.00 m-1","Total_Cost":"500,000.00","Contribution (Local Community, LA, and the project)":"Labour and other basic services by the Local community","Time frame for the implementation":"0.25 Years","photopath":"https://raw.githubusercontent.com/MWS003-GIS/MWS003-GIS.github.io/main/IWWRMP/Data/EXD/200_photo/MWS_014/GU (05)1.jpg"},"geometry":{"type":"Point","coordinates":[80.81763,7.174926]}},
{"type":"Feature","properties":{"No.":"13","GND No.":"489E","GND Name":"Galauda North","Key Activities proposed for Soil and Water conservation":"3. Soil conservation practices - Kooraketiya (70d)","Priority based on Soil Erosion Hazard":5.0,"N":7.176988,"E":80.817742,"Quantity":"2 ha","Proposed measure/s":"Live fencing/SALT\nStone terracing/lock and spills, as applied","Uniti_Cost":"250.00 m-1","Total_Cost":"500,000.00","Contribution (Local Community, LA, and the project)":"Labour and other basic services by the Local community","Time frame for the implementation":"0.25 Years","photopath":"https://raw.githubusercontent.com/MWS003-GIS/MWS003-GIS.github.io/main/IWWRMP/Data/EXD/200_photo/MWS_014/GU (05)2.jpg"},"geometry":{"type":"Point","coordinates":[80.817742,7.176988]}},
{"type":"Feature","properties":{"No.":"14","GND No.":"489E","GND Name":"Galauda North","Key Activities proposed for Soil and Water conservation":"4. Soil conservation practices - Yakkawala (60d)","Priority based on Soil Erosion Hazard":4.0,"N":7.176874,"E":80.818488,"Quantity":"0.5 ha","Proposed measure/s":"Live fencing/SALT\nStone terracing/lock and spills, as applied","Uniti_Cost":"250.00 m-1","Total_Cost":"125,000.00","Contribution (Local Community, LA, and the project)":"Labour and other basic services by the Local community","Time frame for the implementation":"0.25 Years","photopath":"https://raw.githubusercontent.com/MWS003-GIS/MWS003-GIS.github.io/main/IWWRMP/Data/EXD/200_photo/MWS_014/GU (05)3.jpg"},"geometry":{"type":"Point","coordinates":[80.818488,7.176874]}},
{"type":"Feature","properties":{"No.":"15","GND No.":"489E","GND Name":"Galauda North","Key Activities proposed for Soil and Water conservation":"5. Soil conservation practices - Kooraketiya (70d)","Priority based on Soil Erosion Hazard":1.0,"N":7.178147,"E":80.818965,"Quantity":"1.25 ha","Proposed measure/s":"Live fencing/SALT\nStone terracing/lock and spills, as applied","Uniti_Cost":"250.00 m-1","Total_Cost":"312,500.00","Contribution (Local Community, LA, and the project)":"Labour and other basic services by the Local community","Time frame for the implementation":"0.25 Years","photopath":"https://raw.githubusercontent.com/MWS003-GIS/MWS003-GIS.github.io/main/IWWRMP/Data/EXD/200_photo/MWS_014/GU (05)4.jpg"},"geometry":{"type":"Point","coordinates":[80.818965,7.178147]}},
{"type":"Feature","properties":{"No.":"16","GND No.":"489E","GND Name":"Galauda North","Key Activities proposed for Soil and Water conservation":"6. Soil conservation practices - Kooraketiya (70d)","Priority based on Soil Erosion Hazard":5.0,"N":7.179478,"E":80.818997,"Quantity":"0.4 ha","Proposed measure/s":"Live fencing/SALT\nStone terracing/lock and spills, as applied","Uniti_Cost":"250.00 m-1","Total_Cost":"100,000.00","Contribution (Local Community, LA, and the project)":"Labour and other basic services by the Local community","Time frame for the implementation":"0.25 Years","photopath":"https://raw.githubusercontent.com/MWS003-GIS/MWS003-GIS.github.io/main/IWWRMP/Data/EXD/200_photo/MWS_014/GU (05)5.jpg"},"geometry":{"type":"Point","coordinates":[80.818997,7.179478]}},
{"type":"Feature","properties":{"No.":"17","GND No.":"489E","GND Name":"Galauda North","Key Activities proposed for Soil and Water conservation":"7. Soil conservation practices - Kooraketiya (75d)","Priority based on Soil Erosion Hazard":1.0,"N":7.179705,"E":80.819021,"Quantity":"0.4 ha","Proposed measure/s":"Live fencing/SALT\nStone terracing/lock and spills, as applied","Uniti_Cost":"250.00 m-1","Total_Cost":"100,000.00","Contribution (Local Community, LA, and the project)":"Labour and other basic services by the Local community","Time frame for the implementation":"0.25 Years","photopath":"https://raw.githubusercontent.com/MWS003-GIS/MWS003-GIS.github.io/main/IWWRMP/Data/EXD/200_photo/MWS_014/GU (05)6.jpg"},"geometry":{"type":"Point","coordinates":[80.819021,7.179705]}},
{"type":"Feature","properties":{"No.":"18","GND No.":"489E","GND Name":"Galauda North","Key Activities proposed for Soil and Water conservation":"8. Soil conservation practices - Galbokka (80d)","Priority based on Soil Erosion Hazard":5.0,"N":7.1761,"E":80.81216,"Quantity":"8 ha","Proposed measure/s":"Live fencing/SALT\nStone terracing/lock and spills, as applied","Uniti_Cost":"250.00 m-1","Total_Cost":"2,000,000.00","Contribution (Local Community, LA, and the project)":"Labour and other basic services by the Local community","Time frame for the implementation":"0.5 Years","photopath":"https://raw.githubusercontent.com/MWS003-GIS/MWS003-GIS.github.io/main/IWWRMP/Data/EXD/200_photo/MWS_014/GU (05)7.jpg"},"geometry":{"type":"Point","coordinates":[80.81216,7.1761]}},
{"type":"Feature","properties":{"No.":"19","GND No.":"489E","GND Name":"Galauda North","Key Activities proposed for Soil and Water conservation":"9. Soil conservation practices - Mee Gas Alla (85d)","Priority based on Soil Erosion Hazard":1.0,"N":7.16206,"E":80.82378,"Quantity":"0.5 ha","Proposed measure/s":"Live fencing/SALT\nStone terracing/lock and spills, as applied","Uniti_Cost":"250.00 m-1","Total_Cost":"125,000.00","Contribution (Local Community, LA, and the project)":"Labour and other basic services by the Local community","Time frame for the implementation":"0.25 Years","photopath":"https://raw.githubusercontent.com/MWS003-GIS/MWS003-GIS.github.io/main/IWWRMP/Data/EXD/200_photo/MWS_014/GU (05)8.jpg"},"geometry":{"type":"Point","coordinates":[80.82378,7.16206]}},
{"type":"Feature","properties":{"No.":"24","GND No.":"489","GND Name":"Galauda South","Key Activities proposed for Soil and Water conservation":"10. Soil conservation practices - Tea Watta (75d)","Priority based on Soil Erosion Hazard":5.0,"N":7.164158,"E":80.822109,"Quantity":"2.4 ha","Proposed measure/s":"Live fencing/SALT\nStone terracing/lock and spills, as applied","Uniti_Cost":"250.00 m-1","Total_Cost":"600,000.00","Contribution (Local Community, LA, and the project)":"Labour and other basic services by the Local community","Time frame for the implementation":"0.25 Years","photopath":"https://raw.githubusercontent.com/MWS003-GIS/MWS003-GIS.github.io/main/IWWRMP/Data/EXD/200_photo/MWS_014/GD (05)1.jpg"},"geometry":{"type":"Point","coordinates":[80.822109,7.164158]}},
{"type":"Feature","properties":{"No.":"25","GND No.":"489","GND Name":"Galauda South","Key Activities proposed for Soil and Water conservation":"5. Soil conservation practices - Badiyawa (70d)","Priority based on Soil Erosion Hazard":5.0,"N":7.164417,"E":80.819264,"Quantity":"12 ha","Proposed measure/s":"Live fencing/SALT\nStone terracing/lock and spills, as applied","Uniti_Cost":"250.00 m-1","Total_Cost":"3,000,000.00","Contribution (Local Community, LA, and the project)":"Labour and other basic services by the Local community","Time frame for the implementation":"0.5 Years","photopath":"https://raw.githubusercontent.com/MWS003-GIS/MWS003-GIS.github.io/main/IWWRMP/Data/EXD/200_photo/MWS_014/GD (05)2.jpg"},"geometry":{"type":"Point","coordinates":[80.819264,7.164417]}},
{"type":"Feature","properties":{"No.":"26","GND No.":"489","GND Name":"Galauda South","Key Activities proposed for Soil and Water conservation":"6. Soil conservation practices - Wahugala (60d)","Priority based on Soil Erosion Hazard":1.0,"N":7.166277,"E":80.817128,"Quantity":"16 ha","Proposed measure/s":"Live fencing/SALT\nStone terracing/lock and spills, as applied","Uniti_Cost":"250.00 m-1","Total_Cost":"4,000,000.00","Contribution (Local Community, LA, and the project)":"Labour and other basic services by the Local community","Time frame for the implementation":"0.5 Years","photopath":"https://raw.githubusercontent.com/MWS003-GIS/MWS003-GIS.github.io/main/IWWRMP/Data/EXD/200_photo/MWS_014/GD (05)3.jpg"},"geometry":{"type":"Point","coordinates":[80.817128,7.166277]}},
{"type":"Feature","properties":{"No.":"27","GND No.":"489","GND Name":"Galauda South","Key Activities proposed for Soil and Water conservation":"7. Soil conservation practices - Watapuluwa Thenna (60d)","Priority based on Soil Erosion Hazard":5.0,"N":7.168575,"E":80.81679,"Quantity":"2 ha","Proposed measure/s":"Live fencing/SALT\nStone terracing/lock and spills, as applied","Uniti_Cost":"250.00 m-1","Total_Cost":"500,000.00","Contribution (Local Community, LA, and the project)":"Labour and other basic services by the Local community","Time frame for the implementation":"0.25 Years","photopath":"https://raw.githubusercontent.com/MWS003-GIS/MWS003-GIS.github.io/main/IWWRMP/Data/EXD/200_photo/MWS_014/GD (05)4.jpg"},"geometry":{"type":"Point","coordinates":[80.81679,7.168575]}},
{"type":"Feature","properties":{"No.":"28","GND No.":"489","GND Name":"Galauda South","Key Activities proposed for Soil and Water conservation":"8. Soil conservation practices - Bogahamula Hena (45d)","Priority based on Soil Erosion Hazard":5.0,"N":7.168145,"E":80.816488,"Quantity":"0.5 ha","Proposed measure/s":"Live fencing/SALT\nStone terracing/lock and spills, as applied","Uniti_Cost":"250.00 m-1","Total_Cost":"125,000.00","Contribution (Local Community, LA, and the project)":"Labour and other basic services by the Local community","Time frame for the implementation":"0.25 Years","photopath":"https://raw.githubusercontent.com/MWS003-GIS/MWS003-GIS.github.io/main/IWWRMP/Data/EXD/200_photo/MWS_014/GD (05)5.jpg"},"geometry":{"type":"Point","coordinates":[80.816488,7.168145]}},
{"type":"Feature","properties":{"No.":"29","GND No.":"489","GND Name":"Galauda South","Key Activities proposed for Soil and Water conservation":"9. Soil conservation practices - Bogahamula Hena (60d)","Priority based on Soil Erosion Hazard":5.0,"N":7.167582,"E":80.817168,"Quantity":"2 ha","Proposed measure/s":"Live fencing/SALT\nStone terracing/lock and spills, as applied","Uniti_Cost":"250.00 m-1","Total_Cost":"500,000.00","Contribution (Local Community, LA, and the project)":"Labour and other basic services by the Local community","Time frame for the implementation":"0.25 Years","photopath":"https://raw.githubusercontent.com/MWS003-GIS/MWS003-GIS.github.io/main/IWWRMP/Data/EXD/200_photo/MWS_014/GD (05)6.jpg"},"geometry":{"type":"Point","coordinates":[80.817168,7.167582]}},
{"type":"Feature","properties":{"No.":"30","GND No.":"489","GND Name":"Galauda South","Key Activities proposed for Soil and Water conservation":"10. Soil conservation practices - Wahugala (60d)","Priority based on Soil Erosion Hazard":3.0,"N":7.165575,"E":80.818267,"Quantity":"2.8 ha","Proposed measure/s":"Live fencing/SALT\nStone terracing/lock and spills, as applied","Uniti_Cost":"250.00 m-1","Total_Cost":"700,000.00","Contribution (Local Community, LA, and the project)":"Labour and other basic services by the Local community","Time frame for the implementation":"0.25 Years","photopath":"https://raw.githubusercontent.com/MWS003-GIS/MWS003-GIS.github.io/main/IWWRMP/Data/EXD/200_photo/MWS_014/GD (05)7.jpg"},"geometry":{"type":"Point","coordinates":[80.818267,7.165575]}},
{"type":"Feature","properties":{"No.":"31","GND No.":"489","GND Name":"Galauda South","Key Activities proposed for Soil and Water conservation":"11. Soil conservation practices - Badiyawa (45d)","Priority based on Soil Erosion Hazard":1.0,"N":7.164352,"E":80.817615,"Quantity":"1.6 ha","Proposed measure/s":"Live fencing/SALT\nStone terracing/lock and spills, as applied","Uniti_Cost":"250.00 m-1","Total_Cost":"400,000.00","Contribution (Local Community, LA, and the project)":"Labour and other basic services by the Local community","Time frame for the implementation":"0.25 Years","photopath":"https://raw.githubusercontent.com/MWS003-GIS/MWS003-GIS.github.io/main/IWWRMP/Data/EXD/200_photo/MWS_014/GD (05)8.jpg"},"geometry":{"type":"Point","coordinates":[80.817615,7.164352]}},
{"type":"Feature","properties":{"No.":"32","GND No.":"489","GND Name":"Galauda South","Key Activities proposed for Soil and Water conservation":"12. Soil conservation practices - Rambukgate (60d)","Priority based on Soil Erosion Hazard":3.0,"N":7.173955,"E":80.814538,"Quantity":"1 ha","Proposed measure/s":"Live fencing/SALT\nStone terracing/lock and spills, as applied","Uniti_Cost":"250.00 m-1","Total_Cost":"250,000.00","Contribution (Local Community, LA, and the project)":"Labour and other basic services by the Local community","Time frame for the implementation":"0.25 Years","photopath":"https://raw.githubusercontent.com/MWS003-GIS/MWS003-GIS.github.io/main/IWWRMP/Data/EXD/200_photo/MWS_014/GD (05)9.jpg"},"geometry":{"type":"Point","coordinates":[80.814538,7.173955]}},
{"type":"Feature","properties":{"No.":"36","GND No.":"488A","GND Name":"Hakuruthale","Key Activities proposed for Soil and Water conservation":"4. Soil conservation practices - Bodhigolla (70d)","Priority based on Soil Erosion Hazard":1.0,"N":7.21792,"E":80.793411,"Quantity":"8 ha","Proposed measure/s":"Live fencing/SALT\nStone terracing/lock and spills, as applied","Uniti_Cost":"250.00 m-1","Total_Cost":"2,000,000.00","Contribution (Local Community, LA, and the project)":"Labour and other basic services by the Local community","Time frame for the implementation":"0.25 Years","photopath":"https://raw.githubusercontent.com/MWS003-GIS/MWS003-GIS.github.io/main/IWWRMP/Data/EXD/200_photo/MWS_014/HT (05)1.jpg"},"geometry":{"type":"Point","coordinates":[80.793411,7.21792]}},
{"type":"Feature","properties":{"No.":"37","GND No.":"488A","GND Name":"Hakuruthale","Key Activities proposed for Soil and Water conservation":"5. Soil conservation practices - Bodhigolla (45d)","Priority based on Soil Erosion Hazard":1.0,"N":7.200924,"E":80.794594,"Quantity":"16 ha","Proposed measure/s":"Live fencing/SALT\nStone terracing/lock and spills, as applied","Uniti_Cost":"250.00 m-1","Total_Cost":"4,000,000.00","Contribution (Local Community, LA, and the project)":"Labour and other basic services by the Local community","Time frame for the implementation":"0.25 Years","photopath":"https://raw.githubusercontent.com/MWS003-GIS/MWS003-GIS.github.io/main/IWWRMP/Data/EXD/200_photo/MWS_014/HT (05)2.jpg"},"geometry":{"type":"Point","coordinates":[80.794594,7.200924]}},
{"type":"Feature","properties":{"No.":"38","GND No.":"488A","GND Name":"Hakuruthale","Key Activities proposed for Soil and Water conservation":"6. Soil conservation practices - Bodhigolla (45d)","Priority based on Soil Erosion Hazard":1.0,"N":7.197529,"E":80.794379,"Quantity":"10 ha","Proposed measure/s":"Live fencing/SALT\nStone terracing/lock and spills, as applied","Uniti_Cost":"250.00 m-1","Total_Cost":"2,500,000.00","Contribution (Local Community, LA, and the project)":"Labour and other basic services by the Local community","Time frame for the implementation":"0.25 Years","photopath":"https://raw.githubusercontent.com/MWS003-GIS/MWS003-GIS.github.io/main/IWWRMP/Data/EXD/200_photo/MWS_014/HT (05)3.jpg"},"geometry":{"type":"Point","coordinates":[80.794379,7.197529]}},
{"type":"Feature","properties":{"No.":"39","GND No.":"488A","GND Name":"Hakuruthale","Key Activities proposed for Soil and Water conservation":"7. Soil conservation practices - Bodhigolla (75d)","Priority based on Soil Erosion Hazard":1.0,"N":7.196757,"E":80.793184,"Quantity":"14 ha","Proposed measure/s":"Live fencing/SALT\nStone terracing/lock and spills, as applied","Uniti_Cost":"250.00 m-1","Total_Cost":"3,500,000.00","Contribution (Local Community, LA, and the project)":"Labour and other basic services by the Local community","Time frame for the implementation":"0.25 Years","photopath":"https://raw.githubusercontent.com/MWS003-GIS/MWS003-GIS.github.io/main/IWWRMP/Data/EXD/200_photo/MWS_014/HT (05)4.jpg"},"geometry":{"type":"Point","coordinates":[80.793184,7.196757]}},
{"type":"Feature","properties":{"No.":"40","GND No.":"488A","GND Name":"Hakuruthale","Key Activities proposed for Soil and Water conservation":"8. Soil conservation practices - Hakuruthale Sri Sumangalaramaya (70d)","Priority based on Soil Erosion Hazard":5.0,"N":7.199012,"E":80.798453,"Quantity":"1.5 ha","Proposed measure/s":"Live fencing/SALT\nStone terracing/lock and spills, as applied","Uniti_Cost":"250.00 m-1","Total_Cost":"375,000.00","Contribution (Local Community, LA, and the project)":"Labour and other basic services by the Local community","Time frame for the implementation":"0.25 Years","photopath":"https://raw.githubusercontent.com/MWS003-GIS/MWS003-GIS.github.io/main/IWWRMP/Data/EXD/200_photo/MWS_014/HT (05)5.jpg"},"geometry":{"type":"Point","coordinates":[80.798453,7.199012]}},
{"type":"Feature","properties":{"No.":"41","GND No.":"488A","GND Name":"Hakuruthale","Key Activities proposed for Soil and Water conservation":"9. Soil conservation practices - Welikada Sri Dhalada Len Aranya Senasanaya (85d)","Priority based on Soil Erosion Hazard":2.0,"N":7.220906,"E":80.791194,"Quantity":"4 ha","Proposed measure/s":"Live fencing/SALT\nStone terracing/lock and spills, as applied","Uniti_Cost":"250.00 m-1","Total_Cost":"1,000,000.00","Contribution (Local Community, LA, and the project)":"Labour and other basic services by the Local community","Time frame for the implementation":"0.25 Years","photopath":"https://raw.githubusercontent.com/MWS003-GIS/MWS003-GIS.github.io/main/IWWRMP/Data/EXD/200_photo/MWS_014/HT (05)6.jpg"},"geometry":{"type":"Point","coordinates":[80.791194,7.220906]}},
{"type":"Feature","properties":{"No.":"46","GND No.":"488B","GND Name":"Hilpenkandura","Key Activities proposed for Soil and Water conservation":"3. Soil conservation practices - Hilpenkandura (75d)","Priority based on Soil Erosion Hazard":2.0,"N":7.18912,"E":80.80831,"Quantity":"32 ha","Proposed measure/s":"Live fencing/SALT\nStone terracing/lock and spills, as applied","Uniti_Cost":"250.00 m-1","Total_Cost":"8,000,000.00","Contribution (Local Community, LA, and the project)":"Labour and other basic services by the Local community","Time frame for the implementation":"0.5 Years","photopath":"https://raw.githubusercontent.com/MWS003-GIS/MWS003-GIS.github.io/main/IWWRMP/Data/EXD/200_photo/MWS_014/HK (05)1.jpg"},"geometry":{"type":"Point","coordinates":[80.80831,7.18912]}},
{"type":"Feature","properties":{"No.":"47","GND No.":"488B","GND Name":"Hilpenkandura","Key Activities proposed for Soil and Water conservation":"4. Soil conservation practices - Hilpenkandura (70d)","Priority based on Soil Erosion Hazard":4.0,"N":7.187935,"E":80.805778,"Quantity":"48 ha","Proposed measure/s":"Live fencing/SALT\nStone terracing/lock and spills, as applied","Uniti_Cost":"250.00 m-1","Total_Cost":"12,000,000.00","Contribution (Local Community, LA, and the project)":"Labour and other basic services by the Local community","Time frame for the implementation":"1 Year","photopath":"https://raw.githubusercontent.com/MWS003-GIS/MWS003-GIS.github.io/main/IWWRMP/Data/EXD/200_photo/MWS_014/HK (05)2.jpg"},"geometry":{"type":"Point","coordinates":[80.805778,7.187935]}},
{"type":"Feature","properties":{"No.":"48","GND No.":"488B","GND Name":"Hilpenkandura","Key Activities proposed for Soil and Water conservation":"5. Soil conservation practices - Kohombhagana (30d)","Priority based on Soil Erosion Hazard":1.0,"N":7.194799,"E":80.816994,"Quantity":"8 ha","Proposed measure/s":"Lock and spills\nStone terracing/live fencing, as applied","Uniti_Cost":"400.00 m-1","Total_Cost":"3,200,000.00","Contribution (Local Community, LA, and the project)":"Labour and other basic services by the Local community","Time frame for the implementation":"0.25 Years","photopath":"https://raw.githubusercontent.com/MWS003-GIS/MWS003-GIS.github.io/main/IWWRMP/Data/EXD/200_photo/MWS_014/HK (05)3.jpg"},"geometry":{"type":"Point","coordinates":[80.816994,7.194799]}},
{"type":"Feature","properties":{"No.":"55","GND No.":"489C","GND Name":"Udakanda","Key Activities proposed for Soil and Water conservation":"7. Soil conservation practices - Matala Mada (65d)","Priority based on Soil Erosion Hazard":5.0,"N":7.165575,"E":80.810151,"Quantity":"15.2 ha","Proposed measure/s":"Live fencing/SALT\nStone terracing/lock and spills, as applied","Uniti_Cost":"250.00 m-1","Total_Cost":"3,800,000.00","Contribution (Local Community, LA, and the project)":"Labour and other basic services by the Local community","Time frame for the implementation":"0.5 Years","photopath":"Not_Available"},"geometry":{"type":"Point","coordinates":[80.810151,7.165575]}},
{"type":"Feature","properties":{"No.":"56","GND No.":"489C","GND Name":"Udakanda","Key Activities proposed for Soil and Water conservation":"8. Soil conservation practices - Matala Mada (80d)","Priority based on Soil Erosion Hazard":5.0,"N":7.16673,"E":80.808322,"Quantity":"3.6 ha","Proposed measure/s":"Live fencing/SALT\nStone terracing/lock and spills, as applied","Uniti_Cost":"250.00 m-1","Total_Cost":"900,000.00","Contribution (Local Community, LA, and the project)":"Labour and other basic services by the Local community","Time frame for the implementation":"0.25 Years","photopath":"Not_Available"},"geometry":{"type":"Point","coordinates":[80.808322,7.16673]}},
{"type":"Feature","properties":{"No.":"57","GND No.":"489C","GND Name":"Udakanda","Key Activities proposed for Soil and Water conservation":"9. Soil conservation practices - Udakanda (70d)","Priority based on Soil Erosion Hazard":5.0,"N":7.163521,"E":80.806982,"Quantity":"8 ha","Proposed measure/s":"Live fencing/SALT\nStone terracing/lock and spills, as applied","Uniti_Cost":"250.00 m-1","Total_Cost":"2,000,000.00","Contribution (Local Community, LA, and the project)":"Labour and other basic services by the Local community","Time frame for the implementation":"0.5 Years","photopath":"Not_Available"},"geometry":{"type":"Point","coordinates":[80.806982,7.163521]}},
{"type":"Feature","properties":{"No.":"58","GND No.":"489C","GND Name":"Udakanda","Key Activities proposed for Soil and Water conservation":"10. Soil conservation practices - Wilpassa (70d)","Priority based on Soil Erosion Hazard":5.0,"N":7.162126,"E":80.80653,"Quantity":"1.6 ha","Proposed measure/s":"Live fencing/SALT\nStone terracing/lock and spills, as applied","Uniti_Cost":"250.00 m-1","Total_Cost":"400,000.00","Contribution (Local Community, LA, and the project)":"Labour and other basic services by the Local community","Time frame for the implementation":"0.25 Years","photopath":"Not_Available"},"geometry":{"type":"Point","coordinates":[80.80653,7.162126]}},
{"type":"Feature","properties":{"No.":"59","GND No.":"489C","GND Name":"Udakanda","Key Activities proposed for Soil and Water conservation":"11. Soil conservation practices - Wilpassa Tea Land (65d)","Priority based on Soil Erosion Hazard":5.0,"N":7.161551,"E":80.805767,"Quantity":"80 ha","Proposed measure/s":"Live fencing/SALT\nStone terracing/lock and spills, as applied","Uniti_Cost":"250.00 m-1","Total_Cost":"20,000,000.00","Contribution (Local Community, LA, and the project)":"Labour and other basic services by the Local community","Time frame for the implementation":"1 Year","photopath":"Not_Available"},"geometry":{"type":"Point","coordinates":[80.805767,7.161551]}},
{"type":"Feature","properties":{"No.":"60","GND No.":"489C","GND Name":"Udakanda","Key Activities proposed for Soil and Water conservation":"12. Soil conservation practices - Wilpassa (70d)","Priority based on Soil Erosion Hazard":4.0,"N":7.162639,"E":80.809092,"Quantity":"2 ha","Proposed measure/s":"Live fencing/SALT\nStone terracing/lock and spills, as applied","Uniti_Cost":"250.00 m-1","Total_Cost":"500,000.00","Contribution (Local Community, LA, and the project)":"Labour and other basic services by the Local community","Time frame for the implementation":"0.25 Years","photopath":"Not_Available"},"geometry":{"type":"Point","coordinates":[80.809092,7.162639]}},
{"type":"Feature","properties":{"No.":"61","GND No.":"489C","GND Name":"Udakanda","Key Activities proposed for Soil and Water conservation":"13. Soil conservation practices - Badiyawa (70d)","Priority based on Soil Erosion Hazard":1.0,"N":7.168572,"E":80.810922,"Quantity":"4.8 ha","Proposed measure/s":"Live fencing/SALT\nStone terracing/lock and spills, as applied","Uniti_Cost":"250.00 m-1","Total_Cost":"1,200,000.00","Contribution (Local Community, LA, and the project)":"Labour and other basic services by the Local community","Time frame for the implementation":"0.25 Years","photopath":"Not_Available"},"geometry":{"type":"Point","coordinates":[80.810922,7.168572]}},
{"type":"Feature","properties":{"No.":"68","GND No.":"489A","GND Name":"Udawatta East","Key Activities proposed for Soil and Water conservation":"6. Soil conservation practices - Udawatta East (40d)","Priority based on Soil Erosion Hazard":1.0,"N":7.182326,"E":80.795684,"Quantity":"12 ha","Proposed measure/s":"Live fencing/SALT\nStone terracing/lock and spills, as applied","Uniti_Cost":"250.00 m-1","Total_Cost":"3,000,000.00","Contribution (Local Community, LA, and the project)":"Labour and other basic services by the Local community","Time frame for the implementation":"0.5 Years","photopath":"https://raw.githubusercontent.com/MWS003-GIS/MWS003-GIS.github.io/main/IWWRMP/Data/EXD/200_photo/MWS_014/un1.jpg"},"geometry":{"type":"Point","coordinates":[80.795684,7.182326]}},
{"type":"Feature","properties":{"No.":"69","GND No.":"489A","GND Name":"Udawatta East","Key Activities proposed for Soil and Water conservation":"7. Soil conservation practices - Udawatta East (30d)","Priority based on Soil Erosion Hazard":1.0,"N":7.17858,"E":80.800124,"Quantity":"12 ha","Proposed measure/s":"Lock and spills\nStone terracing/live fencing, as applied","Uniti_Cost":"400.00 m-1","Total_Cost":"4,800,000.00","Contribution (Local Community, LA, and the project)":"Labour and other basic services by the Local community","Time frame for the implementation":"0.5 Years","photopath":"https://raw.githubusercontent.com/MWS003-GIS/MWS003-GIS.github.io/main/IWWRMP/Data/EXD/200_photo/MWS_014/un20.jpg"},"geometry":{"type":"Point","coordinates":[80.800124,7.17858]}},
{"type":"Feature","properties":{"No.":"70","GND No.":"489A","GND Name":"Udawatta East","Key Activities proposed for Soil and Water conservation":"8. Soil conservation practices - Udawatta East (80d)","Priority based on Soil Erosion Hazard":2.0,"N":7.17774,"E":80.801485,"Quantity":"20 ha","Proposed measure/s":"Live fencing/SALT\nStone terracing/lock and spills, as applied","Uniti_Cost":"250.00 m-1","Total_Cost":"5,000,000.00","Contribution (Local Community, LA, and the project)":"Labour and other basic services by the Local community","Time frame for the implementation":"0.5 Years","photopath":"https://raw.githubusercontent.com/MWS003-GIS/MWS003-GIS.github.io/main/IWWRMP/Data/EXD/200_photo/MWS_014/un21.jpg"},"geometry":{"type":"Point","coordinates":[80.801485,7.17774]}},
{"type":"Feature","properties":{"No.":"71","GND No.":"489A","GND Name":"Udawatta East","Key Activities proposed for Soil and Water conservation":"9. Soil conservation practices - Udawatta East (30d)","Priority based on Soil Erosion Hazard":1.0,"N":7.179976,"E":80.797069,"Quantity":"8 ha","Proposed measure/s":"Lock and spills\nStone terracing/live fencing, as applied","Uniti_Cost":"400.00 m-1","Total_Cost":"3,200,000.00","Contribution (Local Community, LA, and the project)":"Labour and other basic services by the Local community","Time frame for the implementation":"0.25 Years","photopath":"https://raw.githubusercontent.com/MWS003-GIS/MWS003-GIS.github.io/main/IWWRMP/Data/EXD/200_photo/MWS_014/un25.jpg"},"geometry":{"type":"Point","coordinates":[80.797069,7.179976]}},
{"type":"Feature","properties":{"No.":"76","GND No.":"489D","GND Name":"Udawatta West","Key Activities proposed for Soil and Water conservation":"5. Soil conservation practices (60d)","Priority based on Soil Erosion Hazard":5.0,"N":7.184407,"E":80.795732,"Quantity":"0.25","Proposed measure/s":"Live fencing/SALT\nStone terracing/lock and spills, as applied","Uniti_Cost":"250.00 m-1","Total_Cost":"3,000,000.00","Contribution (Local Community, LA, and the project)":"Labour and other basic services by the Local community","Time frame for the implementation":"0.5 Years","photopath":"https://raw.githubusercontent.com/MWS003-GIS/MWS003-GIS.github.io/main/IWWRMP/Data/EXD/200_photo/MWS_014/ub2.jpg"},"geometry":{"type":"Point","coordinates":[80.795732,7.184407]}},
{"type":"Feature","properties":{"No.":"77","GND No.":"489D","GND Name":"Udawatta West","Key Activities proposed for Soil and Water conservation":"6. Soil conservation practices (45d)","Priority based on Soil Erosion Hazard":1.0,"N":7.183617,"E":80.796791,"Quantity":"6.8","Proposed measure/s":"Live fencing/SALT\nStone terracing/lock and spills, as applied","Uniti_Cost":"250.00 m-1","Total_Cost":"1,700,000.00","Contribution (Local Community, LA, and the project)":"Labour and other basic services by the Local community","Time frame for the implementation":"0.5 Years","photopath":"https://raw.githubusercontent.com/MWS003-GIS/MWS003-GIS.github.io/main/IWWRMP/Data/EXD/200_photo/MWS_014/ub4.jpg"},"geometry":{"type":"Point","coordinates":[80.796791,7.183617]}},
{"type":"Feature","properties":{"No.":"78","GND No.":"489D","GND Name":"Udawatta West","Key Activities proposed for Soil and Water conservation":"7. Soil conservation practices (10d)","Priority based on Soil Erosion Hazard":1.0,"N":7.187733,"E":80.80234,"Quantity":"0.25","Proposed measure/s":"Lock and spills\nStone terracing/live fencing, as applied","Uniti_Cost":"400.00 m-1","Total_Cost":"100,000.00","Contribution (Local Community, LA, and the project)":"Labour and other basic services by the Local community","Time frame for the implementation":"0.5 Years","photopath":"https://raw.githubusercontent.com/MWS003-GIS/MWS003-GIS.github.io/main/IWWRMP/Data/EXD/200_photo/MWS_014/ub14.jpg"},"geometry":{"type":"Point","coordinates":[80.80234,7.187733]}},
{"type":"Feature","properties":{"No.":"79","GND No.":"489D","GND Name":"Udawatta West","Key Activities proposed for Soil and Water conservation":"8. Soil conservation practices (60d)","Priority based on Soil Erosion Hazard":4.0,"N":7.186166,"E":80.801444,"Quantity":"0.25","Proposed measure/s":"Live fencing/SALT\nStone terracing/lock and spills, as applied","Uniti_Cost":"250.00 m-1","Total_Cost":"62,500.00","Contribution (Local Community, LA, and the project)":"Labour and other basic services by the Local community","Time frame for the implementation":"0.5 Years","photopath":"https://raw.githubusercontent.com/MWS003-GIS/MWS003-GIS.github.io/main/IWWRMP/Data/EXD/200_photo/MWS_014/ub16.jpg"},"geometry":{"type":"Point","coordinates":[80.801444,7.186166]}},
{"type":"Feature","properties":{"No.":"80","GND No.":"489D","GND Name":"Udawatta West","Key Activities proposed for Soil and Water conservation":"9. Soil conservation practices (70d)","Priority based on Soil Erosion Hazard":4.0,"N":7.184333,"E":80.800937,"Quantity":"1","Proposed measure/s":"Live fencing/SALT\nStone terracing/lock and spills, as applied","Uniti_Cost":"250.00 m-1","Total_Cost":"250,000.00","Contribution (Local Community, LA, and the project)":"Labour and other basic services by the Local community","Time frame for the implementation":"0.5 Years","photopath":"https://raw.githubusercontent.com/MWS003-GIS/MWS003-GIS.github.io/main/IWWRMP/Data/EXD/200_photo/MWS_014/ub17.jpg"},"geometry":{"type":"Point","coordinates":[80.800937,7.184333]}},
{"type":"Feature","properties":{"No.":"87","GND No.":"485B","GND Name":"Welikada","Key Activities proposed for Soil and Water conservation":"7. Soil conservation practices (30d) - Victoria National School","Priority based on Soil Erosion Hazard":5.0,"N":7.22014,"E":80.785458,"Quantity":"0.25","Proposed measure/s":"Lock and spills\nStone terracing/live fencing, as applied","Uniti_Cost":"400.00 m-1","Total_Cost":"100,000.00","Contribution (Local Community, LA, and the project)":"Labour and other basic services by the Local community","Time frame for the implementation":"0.5 Years","photopath":"https://raw.githubusercontent.com/MWS003-GIS/MWS003-GIS.github.io/main/IWWRMP/Data/EXD/200_photo/MWS_014/wk3.jpg"},"geometry":{"type":"Point","coordinates":[80.785458,7.22014]}},
{"type":"Feature","properties":{"No.":"88","GND No.":"485B","GND Name":"Welikada","Key Activities proposed for Soil and Water conservation":"8. Soil conservation practices (60d) - Boundaries of Mahaweli Authority on both sides of the road","Priority based on Soil Erosion Hazard":4.0,"N":7.219973,"E":80.785543,"Quantity":"0.25","Proposed measure/s":"Live fencing/SALT\nStone terracing/lock and spills, as applied","Uniti_Cost":"250.00 m-1","Total_Cost":"62,500.00","Contribution (Local Community, LA, and the project)":"Labour and other basic services by the Local community","Time frame for the implementation":"0.5 Years","photopath":"https://raw.githubusercontent.com/MWS003-GIS/MWS003-GIS.github.io/main/IWWRMP/Data/EXD/200_photo/MWS_014/wk4.jpg"},"geometry":{"type":"Point","coordinates":[80.785543,7.219973]}},
{"type":"Feature","properties":{"No.":"89","GND No.":"485B","GND Name":"Welikada","Key Activities proposed for Soil and Water conservation":"9. Soil conservation practices (75d) - Welikada Sri Dhalada Len Aranya Senasanaya","Priority based on Soil Erosion Hazard":1.0,"N":7.223547,"E":80.787088,"Quantity":"40","Proposed measure/s":"Live fencing/SALT\nStone terracing/lock and spills, as applied","Uniti_Cost":"250.00 m-1","Total_Cost":"10,000,000.00","Contribution (Local Community, LA, and the project)":"Labour and other basic services by the Local community","Time frame for the implementation":"0.5 Years","photopath":"https://raw.githubusercontent.com/MWS003-GIS/MWS003-GIS.github.io/main/IWWRMP/Data/EXD/200_photo/MWS_014/wk10.jpg"},"geometry":{"type":"Point","coordinates":[80.787088,7.223547]}},
{"type":"Feature","properties":{"No.":"90","GND No.":"485B","GND Name":"Welikada","Key Activities proposed for Soil and Water conservation":"10. Soil conservation practices (70d) - Reservation land of reservoirs","Priority based on Soil Erosion Hazard":1.0,"N":7.222477,"E":80.788987,"Quantity":"80","Proposed measure/s":"Live fencing/SALT","Uniti_Cost":"250.00 m-1","Total_Cost":"20,000,000.00","Contribution (Local Community, LA, and the project)":"Labour and other basic services by the Local community","Time frame for the implementation":"0.5 Years","photopath":"https://raw.githubusercontent.com/MWS003-GIS/MWS003-GIS.github.io/main/IWWRMP/Data/EXD/200_photo/MWS_014/wk12.jpg"},"geometry":{"type":"Point","coordinates":[80.788987,7.222477]}},
{"type":"Feature","properties":{"No.":"91","GND No.":"485B","GND Name":"Welikada","Key Activities proposed for Soil and Water conservation":"11. Soil conservation practices (20d) - Near Badulu road","Priority based on Soil Erosion Hazard":1.0,"N":7.221348,"E":80.78891,"Quantity":"1.2","Proposed measure/s":"Lock and spills\nStone terracing/live fencing, as applied","Uniti_Cost":"400.00 m-1","Total_Cost":"480,000.00","Contribution (Local Community, LA, and the project)":"Labour and other basic services by the Local community","Time frame for the implementation":"0.5 Years","photopath":"https://raw.githubusercontent.com/MWS003-GIS/MWS003-GIS.github.io/main/IWWRMP/Data/EXD/200_photo/MWS_014/wk14.jpg"},"geometry":{"type":"Point","coordinates":[80.78891,7.221348]}},
{"type":"Feature","properties":{"No.":"92","GND No.":"485B","GND Name":"Welikada","Key Activities proposed for Soil and Water conservation":"12. Soil conservation practices (30d) - Welikada (Nawaragala)","Priority based on Soil Erosion Hazard":4.0,"N":7.218722,"E":80.787555,"Quantity":"2.4","Proposed measure/s":"Lock and spills\nStone terracing/live fencing, as applied","Uniti_Cost":"400.00 m-1","Total_Cost":"960,000.00","Contribution (Local Community, LA, and the project)":"Labour and other basic services by the Local community","Time frame for the implementation":"0.5 Years","photopath":"https://raw.githubusercontent.com/MWS003-GIS/MWS003-GIS.github.io/main/IWWRMP/Data/EXD/200_photo/MWS_014/wk16.jpg"},"geometry":{"type":"Point","coordinates":[80.787555,7.218722]}},
{"type":"Feature","properties":{"No.":"93","GND No.":"485B","GND Name":"Welikada","Key Activities proposed for Soil and Water conservation":"13. Soil conservation practices (60d) - Mahaweli Reservation (Boundaries)","Priority based on Soil Erosion Hazard":1.0,"N":7.226552,"E":80.787014,"Quantity":"4","Proposed measure/s":"Live fencing/SALT\nStone terracing/lock and spills, as applied","Uniti_Cost":"250.00 m-1","Total_Cost":"1,000,000.00","Contribution (Local Community, LA, and the project)":"Labour and other basic services by the Local community","Time frame for the implementation":"0.5 Years","photopath":"Not_Available"},"geometry":{"type":"Point","coordinates":[80.787014,7.226552]}},
{"type":"Feature","properties":{"No.":"94","GND No.":"485B","GND Name":"Welikada","Key Activities proposed for Soil and Water conservation":"14. Soil conservation practices (70d) - Lands close to Mahaweli reservation","Priority based on Soil Erosion Hazard":5.0,"N":7.22637,"E":80.78631,"Quantity":"60","Proposed measure/s":"Live fencing/SALT","Uniti_Cost":"250.00 m-1","Total_Cost":"15,000,000.00","Contribution (Local Community, LA, and the project)":"Labour and other basic services by the Local community","Time frame for the implementation":"0.5 Years","photopath":"Not_Available"},"geometry":{"type":"Point","coordinates":[80.78631,7.22637]}}
]}