{"type":"FeatureCollection","name":"WP","crs":{"type":"name","properties":{"name":"urn:ogc:def:crs:OGC:1.3:CRS84"}},"features":[
{"type":"Feature","properties":{"No.":7,"GND No.":"489A","GN Division":"Udawatta East","Non-point sources of pollution":"Improper discard of waste (Soap & shampoo packets) near the major spring","N":7.183205,"E":80.80333,"Point sources of pollution":"-","Add. N ":"-","Add. E ":"-","Recommended water quality improvement measures":"Preparing a separate bins/place for disposing waste\nAwareness programme on how to dispose household waste properly and converting them to usable products \nFacilitating garbage collection","Unit Cost (Rs.)":"-","Total Cost (Rs.)":"200000\n50000","Contributions (Local Community, LA, Project)":"Local/Central governments","Time frame for the implementation":"0.5 Years","photopath":"https://raw.githubusercontent.com/MWS003-GIS/MWS003-GIS.github.io/main/IWWRMP/Data/EXD/200_photo/MWS_014/un10.jpg"},"geometry":{"type":"Point","coordinates":[80.80333,7.183205]}},
{"type":"Feature","properties":{"No.":8,"GND No.":"489D","GN Division":"Udawatta West","Non-point sources of pollution":"Addition of agrochemicals to water paths - Wahalagama","N":7.182483,"E":80.799124,"Point sources of pollution":"-","Add. N ":"-","Add. E ":"-","Recommended water quality improvement measures":"Awareness programmes on how to use agrochamicals and dispose containers properly after use","Unit Cost (Rs.)":"-","Total Cost (Rs.)":"50,000.00","Contributions (Local Community, LA, Project)":"Local/Central governments","Time frame for the implementation":"0.5 Years","photopath":"https://raw.githubusercontent.com/MWS003-GIS/MWS003-GIS.github.io/main/IWWRMP/Data/EXD/200_photo/MWS_014/ub6.jpg"},"geometry":{"type":"Point","coordinates":[80.799124,7.182483]}},
{"type":"Feature","properties":{"No.":9,"GND No.":"485B","GN Division":"Welikada","Non-point sources of pollution":"Addition of agrochemicals to water paths - The cultivated Fields on both sides of the Badaulu road","N":7.221348,"E":80.78891,"Point sources of pollution":"-","Add. N ":"-","Add. E ":"-","Recommended water quality improvement measures":"Awareness programmes on how to use agrochamicals and dispose containers properly after use","Unit Cost (Rs.)":"-","Total Cost (Rs.)":"50,000.00","Contributions (Local Community, LA, Project)":"Local/Central governments","Time frame for the implementation":"0.5 Years","photopath":"https://raw.githubusercontent.com/MWS003-GIS/MWS003-GIS.github.io/main/IWWRMP/Data/EXD/200_photo/MWS_014/wk14.jpg"},"geometry":{"type":"Point","coordinates":[80.78891,7.221348]}}
]}