{
"type": "FeatureCollection",
"name": "MI",
"crs": { "type": "name", "properties": { "name": "urn:ogc:def:crs:OGC:1.3:CRS84" } },
"features": [
{ "type": "Feature", "properties": { "No": 4, "GND No. ": 728, "Scheme": "Puwakgolla anicut & ela", "N": 7.365134, "E": 80.709431, "Observation": "The cannel banks are iroded. wastes are deposited.  8 acres land that was cultivated vegetebles and paddy are not cultivanicut is fully damaged .need to remake the ful anicut.canal is damaged in 50 m length mentioned canal issue in sheet 4ated now due to lack of water. ", "Description": "Restoration of anicut\nImprovements to canal system\nContingencies 10%", "Amount (Rs.)": 1100000, "photopath": "https://raw.githubusercontent.com/MWS003-GIS/MWS003-GIS.github.io/main/IWWRMP/Data/EXD/200_photo/MWS_100_2/Puwakgolla canal.jpg" }, "geometry": { "type": "Point", "coordinates": [ 80.709431, 7.365134 ] } },
{ "type": "Feature", "properties": { "No": 5, "GND No. ": 728, "Scheme": "Wahuge pitiya anicut ela", "N": 7.367172, "E": 80.705282, "Observation": "fully damage the anicut cannot store enough water", "Description": "Restoration of anicut\nContingencies 10%", "Amount (Rs.)": 880000, "photopath": "https://raw.githubusercontent.com/MWS003-GIS/MWS003-GIS.github.io/main/IWWRMP/Data/EXD/200_photo/MWS_100_2/Wahugeoitiya canal.jpg" }, "geometry": { "type": "Point", "coordinates": [ 80.705282, 7.367172 ] } },
{ "type": "Feature", "properties": { "No": 6, "GND No. ": 728, "Scheme": "Alge pitiya ela", "N": 7.368486, "E": 80.705179, "Observation": "no proper construction so not proper water flow", "Description": "Canal reservation protection by concrete lining  For  100mm thick , 0.3m  wide  and 0.3m high canal -double banking\nStream / canal  reservation protection by earth filling a strip   of 1.5m to 2m wide  and average depth of 0.5m\nVegetative cover improving for narrow strips (1.5m-2.0m wide) with Arecanut seedlings at 1.5m spacing in 2 rows, Betel plants VP at 3m spacing in 1 row, Green gram as a cover crop\nMiscellaneous\nContingencies 10%", "Amount (Rs.)": 3619000, "photopath": "https://raw.githubusercontent.com/MWS003-GIS/MWS003-GIS.github.io/main/IWWRMP/Data/EXD/200_photo/MWS_100_2/Alge pitiya ela.jpg" }, "geometry": { "type": "Point", "coordinates": [ 80.705179, 7.368486 ] } },
{ "type": "Feature", "properties": { "No": 7, "GND No. ": 728, "Scheme": "Galgodeela", "N": 7.365641, "E": 80.7065, "Observation": "canai is concreted but in one location there is a heavy leackage to the high slope so water flow has damaged ", "Description": "Improvements to the canal\nContingencies 10%", "Amount (Rs.)": 110000, "photopath": "https://raw.githubusercontent.com/MWS003-GIS/MWS003-GIS.github.io/main/IWWRMP/Data/EXD/200_photo/MWS_100_2/Galgode canal.jpg" }, "geometry": { "type": "Point", "coordinates": [ 80.7065, 7.365641 ] } },
{ "type": "Feature", "properties": { "No": 8, "GND No. ": 728, "Scheme": "Wedikkara panguwa anicut & ela", "N": 7.368694, "E": 80.705121, "Observation": "cultivated 4 ac land from this ,come placesa has concreted ,some places have erroded a high", "Description": "Restoration of anicut\nRehabilitation of the canal\nContingencies 10%", "Amount (Rs.)": 1100000, "photopath": "https://raw.githubusercontent.com/MWS003-GIS/MWS003-GIS.github.io/main/IWWRMP/Data/EXD/200_photo/MWS_100_2/Wedikkarapanguwa canal and anicut.jpg" }, "geometry": { "type": "Point", "coordinates": [ 80.705121, 7.368694 ] } },
{ "type": "Feature", "properties": { "No": 9, "GND No. ": 728, "Scheme": "Nagahamulla anicut & ela", "N": 7.367412, "E": 80.711314, "Observation": "canal is fully concreted but not good quality,anicut is fully damged no anicut gate", "Description": "Providing anicut gate\nMiscellaneous\nContingencies 10%", "Amount (Rs.)": 275000, "photopath": "https://raw.githubusercontent.com/MWS003-GIS/MWS003-GIS.github.io/main/IWWRMP/Data/EXD/200_photo/MWS_100_2/Nagahamulla canal.jpg" }, "geometry": { "type": "Point", "coordinates": [ 80.711314, 7.367412 ] } },
{ "type": "Feature", "properties": { "No": 10, "GND No. ": 726, "Scheme": "Kurudugolla", "N": 7.365709, "E": 80.69255, "Observation": "4 ac of paddy and 1 ac of upland crop is cultivated", "Description": "Canal reservation protection by concrete lining  For  100mm thick , 0.3m  wide  and 0.3m high canal -double banking\n\nStream / canal  reservation protection by earth filling of  strip   of 1.5m to 2m wide  and average depth of 0.5m\n\nVegetative cover improving for narrow strips (1.5m-2.0m wide) with Arecanut seedlings at 1.5m spacing in 2 rows, Betel plants VP at 3m spacing in 1 row, Green gram as a cover crop\n\nMiscellaneous\n\nContingencies 10%", "Amount (Rs.)": 726000, "photopath": "https://raw.githubusercontent.com/MWS003-GIS/MWS003-GIS.github.io/main/IWWRMP/Data/EXD/200_photo/MWS_100_2/Kurudugolla canal anicut.jpg" }, "geometry": { "type": "Point", "coordinates": [ 80.69255, 7.365709 ] } },
{ "type": "Feature", "properties": { "No": 11, "GND No. ": 726, "Scheme": "Kolge Amuna", "N": 7.3597, "E": 80.693243, "Observation": "no proper canal avilable ,just a water flow", "Description": "Canal reservation protection by concrete lining  For  100mm thick , 0.3m  wide  and 0.3m high canal -double banking\nStream / canal  reservation protection by earth filling of  strip   of 1.5m to 2m wide  and average depth of 0.5m\nVegetative cover improving for narrow strips (1.5m-2.0m wide) with Arecanut seedlings at 1.5m spacing in 2 rows, Betel plants VP at 3m spacing in 1 row, Green gram as a cover crop\nMiscellaneous\nContingencies 10%\n\n", "Amount (Rs.)": 726000, "photopath": "https://raw.githubusercontent.com/MWS003-GIS/MWS003-GIS.github.io/main/IWWRMP/Data/EXD/200_photo/MWS_100_2/Kolge amuna canal.jpg" }, "geometry": { "type": "Point", "coordinates": [ 80.693243, 7.3597 ] } }
]
}
