{
  "type": "FeatureCollection",
  "name": "SWC_OFF",
  "crs": {
    "type": "name",
    "properties": {
      "name": "urn:ogc:def:crs:OGC:1.3:CRS84"
    }
  },
  "features": [
    {
      "type": "Feature",
      "properties": {
        "No.": 2,
        "GND No.": 9,
        "GND Name": "Hendeniya West",
        "Key Activities proposed for Soil and Water conservation": "1. Establishing a concrete drain - Hendeniya school land",
        "Priority based on Soil Erosion Hazard": 3,
        "N": 7.251498,
        "E": 80.580324,
        "Quantity": "100 m",
        "Proposed measure/s": "Concrete Drain",
        "Total_Cost": 6017000,
        "Contribution (Local Community, LA, and the project)": "By the project",
        "Time frame for the implementation": "0.25 Years",
        "photopath": "https://raw.githubusercontent.com/MWS003-GIS/MWS003-GIS.github.io/main/IWWRMP/Data/EXD/200_photo/MWS_123/Hendeniya primary school soil.jpg"
      },
      "geometry": {
        "type": "Point",
        "coordinates": [
          80.580324,
          7.251498
        ]
      }
    },
    {
      "type": "Feature",
      "properties": {
        "No.": 3,
        "GND No.": 16,
        "GND Name": "Alapalawala East",
        "Key Activities proposed for Soil and Water conservation": "Establishing a retaining wall - Kandy road at Alapalawala library",
        "Priority based on Soil Erosion Hazard": 2,
        "N": 7.241819,
        "E": 80.579622,
        "Quantity": "60 m x 3 m",
        "Proposed measure/s": "Retaining Wall (Concrete)",
        "Total_Cost": 6369000,
        "Contribution (Local Community, LA, and the project)": "By the project",
        "Time frame for the implementation": "0.25 Years",
        "photopath": "https://raw.githubusercontent.com/MWS003-GIS/MWS003-GIS.github.io/main/IWWRMP/Data/EXD/200_photo/MWS_123/Soil conservation near library.jpg"
      },
      "geometry": {
        "type": "Point",
        "coordinates": [
          80.579622,
          7.241819
        ]
      }
    }
  ]
}