{
  "type": "FeatureCollection",
  "name": "SWC_ON",
  "crs": {
    "type": "name",
    "properties": {
      "name": "urn:ogc:def:crs:OGC:1.3:CRS84"
    }
  },
  "features": [
    {
      "type": "Feature",
      "properties": {
        "No.": 3,
        "GND No.": 9,
        "GND Name": "Hendeniya West",
        "Key Activities proposed for Soil and Water conservation": "Soil conservation practices - Hendeniya school land  (35°-55°)",
        "Priority based on Soil Erosion Hazard": 3,
        "N": 7.251498,
        "E": 80.580324,
        "Quantity": "0.5 ha",
        "Proposed measure/s": "1. Establishing SALT  - 300 m\n2. Lock and spills - 100 m\n3. Stone terracing - 100 m\n4. Agronomic practices should be adapted at optimum level (conservation tillage, crop rotation and diversification, cover crops, mulching, contour farming, windbreaks and",
        "Uniti_Cost": "250.00 m-1\n400.00 m-1\n2500.00 m-1",
        "Total_Cost": 365000,
        "Contribution (Local Community, LA, and the project)": "Labour and other basic services by the Local community",
        "Time frame for the implementation": "0.25 Years",
        "photopath": "https://raw.githubusercontent.com/MWS003-GIS/MWS003-GIS.github.io/main/IWWRMP/Data/EXD/200_photo/MWS_123/Hendeniya primary school soil.jpg"
      },
      "geometry": {
        "type": "Point",
        "coordinates": [
          80.580324,
          7.251498
        ]
      }
    },
    {
      "type": "Feature",
      "properties": {
        "No.": 4,
        "GND No.": 21,
        "GND Name": "Penideniya",
        "Key Activities proposed for Soil and Water conservation": "1. Soil conservation practices -  National College of Education (35°-55°)",
        "Priority based on Soil Erosion Hazard": 1,
        "N": 7.254006,
        "E": 80.587892,
        "Quantity": "11 ha",
        "Proposed measure/s": "1. Establishing SALT  - 8000 m\n2. Lock and spills - 1500 m\n3. Stone terracing - 1500 m\n4. Agronomic practices should be adapted at optimum level (conservation tillage, crop rotation and diversification, cover crops, mulching, contour farming, windbreaks",
        "Uniti_Cost": "250.00 m-1\n400.00 m-1\n2500.00 m-1",
        "Total_Cost": 6350000,
        "Contribution (Local Community, LA, and the project)": "Labour and other basic services by the Local community",
        "Time frame for the implementation": "0.25 Years",
        "photopath": "https://raw.githubusercontent.com/MWS003-GIS/MWS003-GIS.github.io/main/IWWRMP/Data/EXD/200_photo/MWS_123/school 2.jpg"
      },
      "geometry": {
        "type": "Point",
        "coordinates": [
          80.587892,
          7.254006
        ]
      }
    }
  ]
}