{
  "type": "FeatureCollection",
  "name": "WSP",
  "crs": {
    "type": "name",
    "properties": {
      "name": "urn:ogc:def:crs:OGC:1.3:CRS84"
    }
  },
  "features": [
    {
      "type": "Feature",
      "properties": {
        "No": 25,
        "GND No.": 1,
        "Name of the Tank": "Well (a natural spring)",
        "N": 7.2583844,
        "E": 80.5607775,
        "Observation": "30 families used this well.  no proper drainage system.",
        "Description": "Preliminaries \n\nCleaning around the well and extending the concrete apron to a suitabledistance \n\nMiscellaneousMaking a drainage facility to the well to drain away used water using a suitable method and concreting the drain with 1.3.6 (40mm) mix\n\nMiscellaneous expenditure\n\nContingencies (10%)\n",
        "Amount (Rs.)": 34100,
        "photopath": "https://raw.githubusercontent.com/MWS003-GIS/MWS003-GIS.github.io/main/IWWRMP/Data/EXD/200_photo/MWS_123/gangoda natural spring (2).jpg"
      },
      "geometry": {
        "type": "Point",
        "coordinates": [
          80.5607775,
          7.2583844
        ]
      }
    },
    {
      "type": "Feature",
      "properties": {
        "No": 26,
        "GND No.": 4,
        "Name of the Tank": "Kuda Oya",
        "N": 7.25485,
        "E": 80.576815,
        "Observation": "the canal banks were eroded. the road was damaged.",
        "Description": "Preliminaries \n\nMarking boundaries of Kuda Oya\n\nMarking the boundary with visible land marks from a distance.\n\nVegetative cover improving  with planting Arecanut seedling in 1.5m x 1.5m grid, and planting Kumbuk/ Mee/ Godapara/ Kaduru/ Aththikka/ Wal Del/ Kekuna/ randomly mixed seedlings in 3.5m x 3.5 m grid\n\nSupplying of Arecanut seedlings (with five leaves)\n[to be planted in 1.5m x 1.5m grid]\n\nSupplying of Kumbuk/ Mee/ Godapara/ Kaduru/ Aththikka/ Wal Del/ Kekuna seedlings\n[to be planted in 3.5m x 3.5m grid]\n\nGround preparation & maintenance\n[7 L/days per 100.0Sqm x 2.0m]\n\nTidying up\n\nContingencies (10%)",
        "Amount (Rs.)": 610500,
        "photopath": "https://raw.githubusercontent.com/MWS003-GIS/MWS003-GIS.github.io/main/IWWRMP/Data/EXD/200_photo/MWS_123/kuda canal (2).jpg"
      },
      "geometry": {
        "type": "Point",
        "coordinates": [
          80.576815,
          7.25485
        ]
      }
    },
    {
      "type": "Feature",
      "properties": {
        "No": 27,
        "GND No.": 4,
        "Name of the Tank": "Nanu Oya",
        "N": 7.255196,
        "E": 80.57579,
        "Observation": "the canal banks were eroded. the road was damaged.",
        "Description": "Preliminaries \n\nMarking boundaries of Nanu Oya\n\nMarking the boundary with visible land marks from a distance.\n\nVegetative cover improving  with planting Arecanut seedling in 1.5m x 1.5m grid, and planting Kumbuk/ Mee/ Godapara/ Kaduru/ Aththikka/ Wal Del/ Kekuna/ randomly mixed seedlings in 3.5m x 3.5 m grid\n\nSupplying of Arecanut seedlings (with five leaves)\n[to be planted in 1.5m x 1.5m grid]\n\nSupplying of Kumbuk/ Mee/ Godapara/ Kaduru/ Aththikka/ Wal Del/ Kekuna seedlings\n[to be planted in 3.5m x 3.5m grid]\n\nGround preparation & maintenance\n[7 L/days per 100.0Sqm x 2.0m]\n\nTidying up\n\nContingencies (10%)",
        "Amount (Rs.)": 2057000,
        "photopath": "https://raw.githubusercontent.com/MWS003-GIS/MWS003-GIS.github.io/main/IWWRMP/Data/EXD/200_photo/MWS_123/nanu canal (1).jpg"
      },
      "geometry": {
        "type": "Point",
        "coordinates": [
          80.57579,
          7.255196
        ]
      }
    },
    {
      "type": "Feature",
      "properties": {
        "No": 28,
        "GND No.": 5,
        "Name of the Tank": "Nanu Oya",
        "N": 7.2597775,
        "E": 80.571491,
        "Observation": null,
        "Description": "Preliminaries \n\nMarking boundaries of Nanu Oya\n\nMarking the boundary with visible land marks from a distance.\n\nVegetative cover improving  with planting Arecanut seedling in 1.5m x 1.5m grid, and planting Kumbuk/ Mee/ Godapara/ Kaduru/ Aththikka/ Wal Del/ Kekuna/ randomly mixed seedlings in 3.5m x 3.5 m grid\n\nSupplying of Arecanut seedlings (with five leaves)\n[to be planted in 1.5m x 1.5m grid]\n\nSupplying of Kumbuk/ Mee/ Godapara/ Kaduru/ Aththikka/ Wal Del/ Kekuna seedlings\n[to be planted in 3.5m x 3.5m grid]\n\nGround preparation & maintenance\n[7 L/days per 100.0Sqm x 2.0m]\n\nTidying up\n\nContingencies (10%)",
        "Amount (Rs.)": 91300,
        "photopath": "https://raw.githubusercontent.com/MWS003-GIS/MWS003-GIS.github.io/main/IWWRMP/Data/EXD/200_photo/MWS_123/Nanu oya.jpg"
      },
      "geometry": {
        "type": "Point",
        "coordinates": [
          80.571491,
          7.2597775
        ]
      }
    },
    {
      "type": "Feature",
      "properties": {
        "No": 29,
        "GND No.": 6,
        "Name of the Tank": "Kuda Oya",
        "N": 7.255752,
        "E": 80.570102,
        "Observation": "Canal banks eroded; waste deposited.",
        "Description": "Preliminaries \n\nMarking boundaries of Nanu Oya\n\nMarking the boundary with visible land marks from a distance.\n\nVegetative cover improving  with planting Arecanut seedling in 1.5m x 1.5m grid, and planting Kumbuk/ Mee/ Godapara/ Kaduru/ Aththikka/ Wal Del/ Kekuna/ randomly mixed seedlings in 3.5m x 3.5 m grid\n\nSupplying of Arecanut seedlings (with five leaves)\n[to be planted in 1.5m x 1.5m grid]\n\nSupplying of Kumbuk/ Mee/ Godapara/ Kaduru/ Aththikka/ Wal Del/ Kekuna seedlings\n[to be planted in 3.5m x 3.5m grid]\n\nGround preparation & maintenance\n[7 L/days per 100.0Sqm x 2.0m]\n\nTidying up\n\nContingencies (10%)",
        "Amount (Rs.)": 1052700,
        "photopath": "https://raw.githubusercontent.com/MWS003-GIS/MWS003-GIS.github.io/main/IWWRMP/Data/EXD/200_photo/MWS_123/kuda canal (3).jpg"
      },
      "geometry": {
        "type": "Point",
        "coordinates": [
          80.570102,
          7.255752
        ]
      }
    },
    {
      "type": "Feature",
      "properties": {
        "No": 30,
        "GND No.": 7,
        "Name of the Tank": "Pinkumbura (well)",
        "N": 7.250568,
        "E": 80.573995,
        "Observation": "not using much,once cleaned but not in good condion now",
        "Description": "Dewatering and cleaning the well\n\nRepairs to outside of the well\n\nContingencies (10%)",
        "Amount (Rs.)": 22000,
        "photopath": "https://raw.githubusercontent.com/MWS003-GIS/MWS003-GIS.github.io/main/IWWRMP/Data/EXD/200_photo/MWS_123/Pinkubura well.jpg"
      },
      "geometry": {
        "type": "Point",
        "coordinates": [
          80.573995,
          7.250568
        ]
      }
    },
    {
      "type": "Feature",
      "properties": {
        "No": 31,
        "GND No.": 8,
        "Name of the Tank": "Well near Mr. Sunil's house",
        "N": 7.248922,
        "E": 80.577139,
        "Observation": "no issue",
        "Description": "Fabricating & fixing security weld mesh in OpenType buildings in GI weld mesh 50mm x 50mm  SWG 10, welded on 40mm x 40mm x 5mm  angle frame complete with application of two  coats enamel paint over two coats of  anticorrosive paint and complete. All as per detail drawing  No.CPC/CS/11/04/2017/TYPE?ST/07 - To cover the tank top\n\nClean around the well\n\nTiding up\n\nContingencies (10%)",
        "Amount (Rs.)": 72600,
        "photopath": "https://raw.githubusercontent.com/MWS003-GIS/MWS003-GIS.github.io/main/IWWRMP/Data/EXD/200_photo/MWS_123/well near sunils house.jpg"
      },
      "geometry": {
        "type": "Point",
        "coordinates": [
          80.577139,
          7.248922
        ]
      }
    },
    {
      "type": "Feature",
      "properties": {
        "No": 32,
        "GND No.": 12,
        "Name of the Tank": "Govt well near the blacksmithing workplace",
        "N": 7.240347,
        "E": 80.585224,
        "Observation": "due to the soil erosion from the above mountain water is not clear ,no cover",
        "Description": "Fabricating & fixing security weld mesh in OpenType buildings in GI weld mesh 50mm x 50mm  SWG 10, welded on 40mm x 40mm x 5mm  angle frame complete with application of two  coats enamel paint over two coats of  anticorrosive paint and complete. All as per detail drawing  No.CPC/CS/11/04/2017/TYPE?ST/07 - To cover the tank top\n\nClean around the well\n\nTiding up\n\nContingencies (10%)",
        "Amount (Rs.)": 106700,
        "photopath": "https://raw.githubusercontent.com/MWS003-GIS/MWS003-GIS.github.io/main/IWWRMP/Data/EXD/200_photo/MWS_123/well near kammala.jpg"
      },
      "geometry": {
        "type": "Point",
        "coordinates": [
          80.585224,
          7.240347
        ]
      }
    },
    {
      "type": "Feature",
      "properties": {
        "No": 33,
        "GND No.": 12,
        "Name of the Tank": "Pathaha Linda near the community hall of Palakgedara",
        "N": 7.244986,
        "E": 80.582615,
        "Observation": "damaged walls of the well due to trees nearby ,using when no water avilable",
        "Description": "Cleaning around the well\n\nRemoval of trees that damage the walls of the well\n\nRepair damages to walls\n\nContingancies 10%",
        "Amount (Rs.)": 24750,
        "photopath": "https://raw.githubusercontent.com/MWS003-GIS/MWS003-GIS.github.io/main/IWWRMP/Data/EXD/200_photo/MWS_123/Hathiyadeniya well.jpg"
      },
      "geometry": {
        "type": "Point",
        "coordinates": [
          80.582615,
          7.244986
        ]
      }
    },
    {
      "type": "Feature",
      "properties": {
        "No": 34,
        "GND No.": 12,
        "Name of the Tank": "Medagodawatta well",
        "N": 7.241908,
        "E": 80.586745,
        "Observation": "deu to the above soil slopy soil cut water is not clear ,no cover",
        "Description": "Fabricating & fixing security weld mesh in OpenType buildings in GI weld mesh 50mm x 50mm  SWG 10, welded on 40mm x 40mm x 5mm  angle frame complete with application of two  coats enamel paint over two coats of  anticorrosive paint and complete. All as per detail drawing  No.CPC/CS/11/04/2017/TYPE?ST/07 - To cover the tank top\n\nClean around the well\n\nTiding up\n\nContingencies (10%)",
        "Amount (Rs.)": 63800,
        "photopath": "https://raw.githubusercontent.com/MWS003-GIS/MWS003-GIS.github.io/main/IWWRMP/Data/EXD/200_photo/MWS_123/medagodawatta well.jpg"
      },
      "geometry": {
        "type": "Point",
        "coordinates": [
          80.586745,
          7.241908
        ]
      }
    },
    {
      "type": "Feature",
      "properties": {
        "No": 35,
        "GND No.": 16,
        "Name of the Tank": "Near Pitawalayaya paddy field",
        "N": 7.243861,
        "E": 80.57767,
        "Observation": "well is in good condition",
        "Description": "Fabricating & fixing security weld mesh in OpenType buildings in GI weld mesh 50mm x 50mm  SWG 10, welded on 40mm x 40mm x 5mm  angle frame complete with application of two  coats enamel paint over two coats of  anticorrosive paint and complete. All as per detail drawing  No.CPC/CS/11/04/2017/TYPE?ST/07 - To cover the tank top\n\nClean around the well\n\nTiding up\n\nContingencies (10%)",
        "Amount (Rs.)": 49500,
        "photopath": "https://raw.githubusercontent.com/MWS003-GIS/MWS003-GIS.github.io/main/IWWRMP/Data/EXD/200_photo/MWS_123/well near pitwala yaya canal.jpg"
      },
      "geometry": {
        "type": "Point",
        "coordinates": [
          80.57767,
          7.243861
        ]
      }
    },
    {
      "type": "Feature",
      "properties": {
        "No": 36,
        "GND No.": 16,
        "Name of the Tank": "Near Mr. Wickkramasinghe's house",
        "N": 7.24175,
        "E": 80.577214,
        "Observation": "good condition no cover",
        "Description": "Fabricating & fixing security weld mesh in OpenType buildings in GI weld mesh 50mm x 50mm  SWG 10, welded on 40mm x 40mm x 5mm  angle frame complete with application of two  coats enamel paint over two coats of  anticorrosive paint and complete. All as per detail drawing  No.CPC/CS/11/04/2017/TYPE?ST/07 - To cover the tank top\n\nRepair the damage in the concrete walls\n\nMiscellaneous\n\nContingencies (10%)",
        "Amount (Rs.)": 49500,
        "photopath": "https://raw.githubusercontent.com/MWS003-GIS/MWS003-GIS.github.io/main/IWWRMP/Data/EXD/200_photo/MWS_123/well near wikramasinge house.jpg"
      },
      "geometry": {
        "type": "Point",
        "coordinates": [
          80.577214,
          7.24175
        ]
      }
    },
    {
      "type": "Feature",
      "properties": {
        "No": 37,
        "GND No.": 16,
        "Name of the Tank": "well near pitawala paddy field canal",
        "N": 7.241892,
        "E": 80.577502,
        "Observation": "co cover no other issue",
        "Description": "Fabricating & fixing security weld mesh in OpenType buildings in GI weld mesh 50mm x 50mm  SWG 10, welded on 40mm x 40mm x 5mm  angle frame complete with application of two  coats enamel paint over two coats of  anticorrosive paint and complete. All as per detail drawing  No.CPC/CS/11/04/2017/TYPE?ST/07 - To cover the tank top\n\nRepair the damage in the concrete walls\n\nMiscellaneous\n\nContingencies (10%)",
        "Amount (Rs.)": 31900,
        "photopath": "https://raw.githubusercontent.com/MWS003-GIS/MWS003-GIS.github.io/main/IWWRMP/Data/EXD/200_photo/MWS_123/well near darmasena house.jpg"
      },
      "geometry": {
        "type": "Point",
        "coordinates": [
          80.577502,
          7.241892
        ]
      }
    },
    {
      "type": "Feature",
      "properties": {
        "No": 38,
        "GND No.": 20,
        "Name of the Tank": "Both banks of the Mahaweli River",
        "N": 7.245777,
        "E": 80.595334,
        "Observation": "bank errosion happen in several places",
        "Description": "Preliminaries \n\nMarking boundaries  \n\nMarking the boundary with visible land marks from a distance.\n\nVegetative cover improving  with planting Arecanut seedling in 1.5m x 1.5m grid, and planting Kumbuk/ Mee/ Godapara/ Kaduru/ Aththikka/ Wal Del/ Kekuna/ randomly mixed seedlings in 3.5m x 3.5 m grid\n\nSupplying of Arecanut seedlings (with five leaves)\n[to be planted in 1.5m x 1.5m grid]\n\nSupplying of Kumbuk/ Mee/ Godapara/ Kaduru/ Aththikka/ Wal Del/ Kekuna seedlings\n[to be planted in 3.5m x 3.5m grid]\n\nGround preparation & maintenance\n[7 L/days per 100.0Sqm x 2.0m]\n\nTidying up\n\nContingencies (10%)",
        "Amount (Rs.)": 118800,
        "photopath": "Not_Available"
      },
      "geometry": {
        "type": "Point",
        "coordinates": [
          80.595334,
          7.245777
        ]
      }
    },
    {
      "type": "Feature",
      "properties": {
        "No": 39,
        "GND No.": 21,
        "Name of the Tank": "Katulanda public well",
        "N": 7.253343,
        "E": 80.590684,
        "Observation": "No any issues of the well. they request covering wall and net",
        "Description": "Fabricating & fixing security weld mesh in OpenType buildings in GI weld mesh 50mm x 50mm  SWG 10, welded on 40mm x 40mm x 5mm  angle frame complete with application of two  coats enamel paint over two coats of  anticorrosive paint and complete. All as per detail drawing  No.CPC/CS/11/04/2017/TYPE?ST/07 - To cover the tank top\n\nClean around the well\n\nTiding up\n\nContingencies (10%)",
        "Amount (Rs.)": 140800,
        "photopath": "https://raw.githubusercontent.com/MWS003-GIS/MWS003-GIS.github.io/main/IWWRMP/Data/EXD/200_photo/MWS_123/Katulanda public well_8896.jpg"
      },
      "geometry": {
        "type": "Point",
        "coordinates": [
          80.590684,
          7.253343
        ]
      }
    },
    {
      "type": "Feature",
      "properties": {
        "No": 40,
        "GND No.": 74,
        "Name of the Tank": "Deniya well",
        "N": 7.23106,
        "E": 80.568766,
        "Observation": "used by many people ,leacges in concrete cover and bathing water again flow to the well",
        "Description": "Fabricating & fixing security weld mesh in OpenType buildings in GI weld mesh 50mm x 50mm  SWG 10, welded on 40mm x 40mm x 5mm  angle frame complete with application of two  coats enamel paint over two coats of  anticorrosive paint and complete. All as per detail drawing  No.CPC/CS/11/04/2017/TYPE?ST/07 - To cover the tank top\n\nRepairs to  leakages of  the well\n\nTiding up\n\nContingencies 10%",
        "Amount (Rs.)": 80300,
        "photopath": "https://raw.githubusercontent.com/MWS003-GIS/MWS003-GIS.github.io/main/IWWRMP/Data/EXD/200_photo/MWS_123/Deniya well.jpg"
      },
      "geometry": {
        "type": "Point",
        "coordinates": [
          80.568766,
          7.23106
        ]
      }
    },
    {
      "type": "Feature",
      "properties": {
        "No": 41,
        "GND No.": 74,
        "Name of the Tank": "Horekote well",
        "N": 7.233303,
        "E": 80.566563,
        "Observation": "using in dry period ,leackage inside",
        "Description": "Fabricating & fixing security weld mesh in OpenType buildings in GI weld mesh 50mm x 50mm  SWG 10, welded on 40mm x 40mm x 5mm  angle frame complete with application of two  coats enamel paint over two coats of  anticorrosive paint and complete. All as per detail drawing  No.CPC/CS/11/04/2017/TYPE?ST/07 - To cover the tank top\n\nRepairs to  leakages of  the well\n\nTiding up\n\nContingencies 10%",
        "Amount (Rs.)": 80300,
        "photopath": "https://raw.githubusercontent.com/MWS003-GIS/MWS003-GIS.github.io/main/IWWRMP/Data/EXD/200_photo/MWS_123/Horekote well.jpg"
      },
      "geometry": {
        "type": "Point",
        "coordinates": [
          80.566563,
          7.233303
        ]
      }
    },
    {
      "type": "Feature",
      "properties": {
        "No": 42,
        "GND No.": 74,
        "Name of the Tank": "Horekote tube well",
        "N": 7.233105,
        "E": 80.56702,
        "Observation": "not using abundand",
        "Description": "Replacing the jack of the tube well \n\nRepairs around   the well\n\nContingencies 10%",
        "Amount (Rs.)": 55000,
        "photopath": "https://raw.githubusercontent.com/MWS003-GIS/MWS003-GIS.github.io/main/IWWRMP/Data/EXD/200_photo/MWS_123/Horekote tube well.jpg"
      },
      "geometry": {
        "type": "Point",
        "coordinates": [
          80.56702,
          7.233105
        ]
      }
    },
    {
      "type": "Feature",
      "properties": {
        "No": 43,
        "GND No.": 85,
        "Name of the Tank": "Public well",
        "N": 7.244213,
        "E": 80.558646,
        "Observation": "overflowing to the well",
        "Description": "Repairs to the walls of the well\n\nRepairs to  around   the well\n\nContingencies 10%",
        "Amount (Rs.)": 22000,
        "photopath": "https://raw.githubusercontent.com/MWS003-GIS/MWS003-GIS.github.io/main/IWWRMP/Data/EXD/200_photo/MWS_123/public well deliwala.jpg"
      },
      "geometry": {
        "type": "Point",
        "coordinates": [
          80.558646,
          7.244213
        ]
      }
    },
    {
      "type": "Feature",
      "properties": {
        "No": 44,
        "GND No.": 88,
        "Name of the Tank": "The water tank that was constructed for the spring starting the top of the mountain",
        "N": 7.240663,
        "E": 80.549206,
        "Observation": "leakages in the some places in the well",
        "Description": "Repairs to the leakages of the well\n\nRepairs to  around   the well\n\nContingencies 10%",
        "Amount (Rs.)": 16500,
        "photopath": "https://raw.githubusercontent.com/MWS003-GIS/MWS003-GIS.github.io/main/IWWRMP/Data/EXD/200_photo/MWS_123/well.jpg"
      },
      "geometry": {
        "type": "Point",
        "coordinates": [
          80.549206,
          7.240663
        ]
      }
    },
    {
      "type": "Feature",
      "properties": {
        "No": 45,
        "GND No.": 91,
        "Name of the Tank": "Weli Linda",
        "N": 7.231337,
        "E": 80.561353,
        "Observation": "very natural place .no cover",
        "Description": "Supplying and installing a 2000 L capacity water tank made of polymer materials of approved quality on a sand bed. \n\nFixing necessary PVC fittings as directed. \n\nContingancies 10%\n\n",
        "Amount (Rs.)": 55000,
        "photopath": "https://raw.githubusercontent.com/MWS003-GIS/MWS003-GIS.github.io/main/IWWRMP/Data/EXD/200_photo/MWS_123/Vali lida.jpg"
      },
      "geometry": {
        "type": "Point",
        "coordinates": [
          80.561353,
          7.231337
        ]
      }
    },
    {
      "type": "Feature",
      "properties": {
        "No": 46,
        "GND No.": 92,
        "Name of the Tank": "Lin Hathara",
        "N": 7.23293,
        "E": 80.552709,
        "Observation": "leackages in the wells",
        "Description": "Fabricating & fixing security weld mesh in OpenType buildings in GI weld mesh 50mm x 50mm  SWG 10, welded on 40mm x 40mm x 5mm  angle frame complete with application of two  coats enamel paint over two coats of  anticorrosive paint and complete. All as per detail drawing  No.CPC/CS/11/04/2017/TYPE?ST/07 - To cover the tank top\n\nRepairs to  leakages of  the wells\n\nTiding up\n\nContingencies 10%\n",
        "Amount (Rs.)": 200200,
        "photopath": "https://raw.githubusercontent.com/MWS003-GIS/MWS003-GIS.github.io/main/IWWRMP/Data/EXD/200_photo/MWS_123/4 wells.jpg"
      },
      "geometry": {
        "type": "Point",
        "coordinates": [
          80.552709,
          7.23293
        ]
      }
    }
  ]
}