{"type":"FeatureCollection","name":"DWS","crs":{"type":"name","properties":{"name":"urn:ogc:def:crs:OGC:1.3:CRS84"}},"features":[
{"type":"Feature","properties":{"No":5,"GND No.":"75 E","Scheme":"Kottakopiya","N":6.997092,"E":80.994555,"Observation":"A tube well must be built because there is no water.","Description":"Drilling of tube well (5m deep) with supplying and fixing of 0.5 HP x 4\" Dia tube well pump including all necessary connections and constructing a protective cell for the pump and mounting the same to good working order\n\nMiscellaneous\n\nContingencies 10%","Estimated Cost":148500,"photopath":"https://raw.githubusercontent.com/MWS003-GIS/MWS003-GIS.github.io/main/IWWRMP/Data/EXD/200_photo/MWS_070/IMG_20250930_102545 Kottakopiya proposed tube well location.jpg"},"geometry":{"type":"Point","coordinates":[80.994555,6.997092]}}
]}