{"type":"FeatureCollection","name":"MI","crs":{"type":"name","properties":{"name":"urn:ogc:def:crs:OGC:1.3:CRS84"}},"features":[
{"type":"Feature","properties":{"No":69,"GND No.":"55 C","Scheme":"Medahinna pahala Ela","N":6.9487,"E":80.991533,"Observation":"About 1000m long earthen canal, Command area 15.0 acres","Description":"Construction of Anicut\n\nSite preparation before construction & setting-out\n\nConstruction of 1.2 m high Weir across stream excluding abutments and stop planks\n\nConstruction of 1.5m high 1:3:6 (40mm) cement concrete Retaining Wall\n\n75mm tk. Stop planks (ku","Amount (Rs.)":1122000,"photopath":"https://raw.githubusercontent.com/MWS003-GIS/MWS003-GIS.github.io/main/IWWRMP/Data/EXD/200_photo/MWS_070/IMG_20250919_142216 Medahinna pahala ela.jpg"},"geometry":{"type":"Point","coordinates":[80.991533,6.9487]}},
{"type":"Feature","properties":{"No":64,"GND No.":"55 C","Scheme":"Weragama Ela","N":6.96361,"E":80.983442,"Observation":"The total length of the canal 5000m, out of which 3000m concreted. Command area 24.0acres","Description":"Canal reservation protection by concrete lining  For  100mm thick , 0.3m  wide  and 0.3m high canal -double banking\n\nStream / canal  reservation protection by earth filling of  strip   of 1.5m to 2m wide  and average Depth of 0.5m\n\nVegetative cover impro","Amount (Rs.)":1606000,"photopath":"https://raw.githubusercontent.com/MWS003-GIS/MWS003-GIS.github.io/main/IWWRMP/Data/EXD/200_photo/MWS_070/IMG_20250919_102752 Weragama canal.jpg"},"geometry":{"type":"Point","coordinates":[80.983442,6.96361]}},
{"type":"Feature","properties":{"No":67,"GND No.":"55 C","Scheme":"Thabakumbura Ela","N":6.95291,"E":80.976531,"Observation":"The total length of the canal 2000m, out of which 500m concreted. Command area 12.0acres","Description":"Canal reservation protection by concrete lining  For  100mm thick , 0.3m  wide  and 0.3m high canal -double banking\n\nStream / canal  reservation protection by earth filling of  strip   of 1.5m to 2m wide  and average Depth of 0.5m\n\nVegetative cover impro","Amount (Rs.)":1606000,"photopath":"https://raw.githubusercontent.com/MWS003-GIS/MWS003-GIS.github.io/main/IWWRMP/Data/EXD/200_photo/MWS_070/IMG_20250919_110619 Thabakubura canal.jpg"},"geometry":{"type":"Point","coordinates":[80.976531,6.95291]}},
{"type":"Feature","properties":{"No":72,"GND No.":"56 D","Scheme":"Gedarawelayaya Canal","N":6.945411,"E":81.009884,"Observation":"The total length of the canal 400m, out of which 300m concreted. Command area 8.5acres","Description":"Canal reservation protection by concrete lining  For  100mm thick , 0.3m  wide  and 0.3m high canal -double banking\n\nStream / canal  reservation protection by earth filling of  strip   of 1.5m to 2m wide  and average Depth of 0.5m\n\nVegetative cover impro","Amount (Rs.)":770000,"photopath":"https://raw.githubusercontent.com/MWS003-GIS/MWS003-GIS.github.io/main/IWWRMP/Data/EXD/200_photo/MWS_070/IMG_20251003_103629 Gedarawela yaya anicut.jpg"},"geometry":{"type":"Point","coordinates":[81.009884,6.945411]}},
{"type":"Feature","properties":{"No":76,"GND No.":"56 E","Scheme":"Stream in the upper side of Gunakandura","N":6.939307,"E":80.997386,"Observation":"The total length of the canal 1200m, out of which 300m concreted. Command area 10.0acres","Description":"Canal reservation protection by concrete lining  For  100mm thick , 0.3m  wide  and 0.3m high canal -double banking\n\nStream / canal  reservation protection by earth filling of  strip   of 1.5m to 2m wide  and average Depth of 0.5m\n\nVegetative cover impro","Amount (Rs.)":1606000,"photopath":"https://raw.githubusercontent.com/MWS003-GIS/MWS003-GIS.github.io/main/IWWRMP/Data/EXD/200_photo/MWS_070/IMG_20251002_132137 Gurukandura ihala kotasa ela.jpg"},"geometry":{"type":"Point","coordinates":[80.997386,6.939307]}},
{"type":"Feature","properties":{"No":78,"GND No.":"75 B","Scheme":"Dunukepotha Ela","N":6.974653,"E":81.019189,"Observation":"The total length of the canal 250m, out of which 70m concreted. Command area 5.0acres","Description":"Canal reservation protection by concrete lining  For  100mm thick , 0.3m  wide  and 0.3m high canal -double banking\n\nStream / canal  reservation protection by earth filling of  strip   of 1.5m to 2m wide  and average Depth of 0.5m\n\nVegetative cover impro","Amount (Rs.)":770000,"photopath":"https://raw.githubusercontent.com/MWS003-GIS/MWS003-GIS.github.io/main/IWWRMP/Data/EXD/200_photo/MWS_070/IMG_20251001_103553 Dunukepotha canal.jpg"},"geometry":{"type":"Point","coordinates":[81.019189,6.974653]}},
{"type":"Feature","properties":{"No":77,"GND No.":"75 B","Scheme":"Lokanarawa Ela","N":6.975897,"E":81.011814,"Observation":"About 250m long earthen canal, Command area 1.5 acres","Description":"Site preparation before construction & setting-out\n\nConstruction of 1.2 m high Weir across stream excluding abutments and stop planks \n\nConstruction of 1.5m high 1:3:6 (40mm) cement concrete Retaining Wall \n\n75mm tk. Stop planks (kumbuk ) with 10mm dia.","Amount (Rs.)":1254000,"photopath":"https://raw.githubusercontent.com/MWS003-GIS/MWS003-GIS.github.io/main/IWWRMP/Data/EXD/200_photo/MWS_070/IMG_20251001_095337 Lokanarawa canal.jpg"},"geometry":{"type":"Point","coordinates":[81.011814,6.975897]}},
{"type":"Feature","properties":{"No":80,"GND No.":"75 D","Scheme":"Pahala Kendagolla Ela","N":6.954465,"E":80.998199,"Observation":"About 250m long earthen canal, Command area 3 acres","Description":"Canal reservation protection by concrete lining  For  100mm thick , 0.3m  wide  and 0.3m high canal -double banking\n\nStream / canal  reservation protection by earth filling of  strip   of 1.5m to 2m wide  and average Depth of 0.5m\n\nVegetative cover impro","Amount (Rs.)":770000,"photopath":"https://raw.githubusercontent.com/MWS003-GIS/MWS003-GIS.github.io/main/IWWRMP/Data/EXD/200_photo/MWS_070/IMG_20250926_104225 Pahala kendagolla canal.jpg"},"geometry":{"type":"Point","coordinates":[80.998199,6.954465]}},
{"type":"Feature","properties":{"No":79,"GND No.":"75 D","Scheme":"Ambalankapuwa Ela","N":6.946981,"E":80.999261,"Observation":"About 1000m long earthen canal, Command area 6 acres","Description":"Canal reservation protection by concrete lining  For  100mm thick , 0.3m  wide  and 0.3m high canal -double banking\n\nStream / canal  reservation protection by earth filling of  strip   of 1.5m to 2m wide  and average Depth of 0.5m\n\nVegetative cover impro","Amount (Rs.)":1606000,"photopath":"https://raw.githubusercontent.com/MWS003-GIS/MWS003-GIS.github.io/main/IWWRMP/Data/EXD/200_photo/MWS_070/IMG_20250926_101234 Ambalan kapuwa canal.jpg"},"geometry":{"type":"Point","coordinates":[80.999261,6.946981]}},
{"type":"Feature","properties":{"No":81,"GND No.":"75 D","Scheme":"Eranawela Ela and Anicut","N":6.958608,"E":81.0039,"Observation":"The total length of the canal 550m, out of which 100m concreted. Command area 7.5acres","Description":"Construction of 12.5m long anicut\n\nSite preparation before construction & setting-out\n\nConstruction of 1.5 m high Weir across stream / river excluding abutments and stop planks\n\nConstruction of 1.8m high 1:3:6 (40mm) cement concrete Retaining Wall \n\n75mm","Amount (Rs.)":4372500,"photopath":"https://raw.githubusercontent.com/MWS003-GIS/MWS003-GIS.github.io/main/IWWRMP/Data/EXD/200_photo/MWS_070/IMG_20250926_133913 Eranawela canal.jpg"},"geometry":{"type":"Point","coordinates":[81.0039,6.958608]}},
{"type":"Feature","properties":{"No":74,"GND No.":"75 D","Scheme":"Lindakumbura yaya canal","N":6.948855,"E":81.013565,"Observation":"The total length of the canal 600m, out of which 50m concreted. Command area 5.5acres","Description":"Canal reservation protection by concrete lining  For  100mm thick , 0.3m  wide  and 0.3m high canal -double banking\n\nStream / canal  reservation protection by earth filling of  strip   of 1.5m to 2m wide  and average Depth of 0.5m\n\nVegetative cover impro","Amount (Rs.)":1540000,"photopath":"Not_Available"},"geometry":{"type":"Point","coordinates":[81.013565,6.948855]}}
]}