{"type":"FeatureCollection","name":"WSP","crs":{"type":"name","properties":{"name":"urn:ogc:def:crs:OGC:1.3:CRS84"}},"features":[
{"type":"Feature","properties":{"No":7,"GND No.":"55 C","Name of the Tank":"Udakele reserve","N":6.945963,"E":80.986422,"Observation":"The land belongs to DS Office","Description":"100 Kumbuk Tree Plantation and Marking  Reservation\n\nSupplying of Kumbuk seedlings [to be planted in 3.5m x 3.5m grid]\n\nSupplying of NPK fertilizer [0.10kg/plant]\n\nGround preparation & maintenance [7 L/days per 100.0m x 2.0m]\n\nPlanting & fertilizer appli","Amount (Rs.)":363000,"photopath":"https://raw.githubusercontent.com/MWS003-GIS/MWS003-GIS.github.io/main/IWWRMP/Data/EXD/200_photo/MWS_070/IMG_20250919_095212 Udakele reserve.jpg"},"geometry":{"type":"Point","coordinates":[80.986422,6.945963]}},
{"type":"Feature","properties":{"No":8,"GND No.":"55 C","Name of the Tank":"Medahinna","N":6.942826,"E":80.988792,"Observation":"The land belongs to Malwaththa plantation.used for drinking and bathing","Description":"100 Kumbuk Tree Plantation and Marking  Reservation\n\nSupplying of Kumbuk seedlings [to be planted in 3.5m x 3.5m grid]\n\nSupplying of NPK fertilizer [0.10kg/plant]\n\nGround preparation & maintenance [7 L/days per 100.0m x 2.0m]\n\nPlanting & fertilizer appli","Amount (Rs.)":363000,"photopath":"https://raw.githubusercontent.com/MWS003-GIS/MWS003-GIS.github.io/main/IWWRMP/Data/EXD/200_photo/MWS_070/IMG_20250919_100243Medahinna reserve spring.jpg"},"geometry":{"type":"Point","coordinates":[80.988792,6.942826]}},
{"type":"Feature","properties":{"No":9,"GND No.":"55 C","Name of the Tank":"Etampitiya watta-Part 1","N":6.942391,"E":80.981935,"Observation":"A  Tank is constructed (3.9 m x 3.0 m x1.6 m, L*W*H).Water is leaking from the tank.The land belongs to Malwaththa plantation.used for drinking and bathing","Description":"Replaster the Tank Walls and Provide a Cover Net\n\nClean around the tank\n\nWire brush the existing plasters in the wall\n\nPlaster 12mm thick in 1:3 cement and sand finished smooth with gray cement floating\n\nFabricating & fixing security weld mesh in open ty","Amount (Rs.)":195800,"photopath":"https://raw.githubusercontent.com/MWS003-GIS/MWS003-GIS.github.io/main/IWWRMP/Data/EXD/200_photo/MWS_070/IMG_20250919_092948 Etampitiya waththa 1 kotasa reserve.jpg"},"geometry":{"type":"Point","coordinates":[80.981935,6.942391]}},
{"type":"Feature","properties":{"No":10,"GND No.":"55 C","Name of the Tank":"Etampitiya watta-Part 1","N":6.942391,"E":80.981935,"Observation":"The land belongs to Malwaththa plantation","Description":"50 Kumbuk Tree Plantation and Marking  Reservation\n\nSupplying of Kumbuk seedlings [to be planted in 3.5m x 3.5m grid]\n\nSupplying of NPK fertilizer [0.10kg/plant]\n\nGround preparation & maintenance [7 L/days per 100.0m x 2.0m]\n\nPlanting & fertilizer applic","Amount (Rs.)":353100,"photopath":"https://raw.githubusercontent.com/MWS003-GIS/MWS003-GIS.github.io/main/IWWRMP/Data/EXD/200_photo/MWS_070/IMG_20250919_092948 Etampitiya waththa 1 kotasa reserve.jpg"},"geometry":{"type":"Point","coordinates":[80.981935,6.942391]}},
{"type":"Feature","properties":{"No":11,"GND No.":"56D","Name of the Tank":"Maragahakele spring","N":6.946809,"E":81.006249,"Observation":"The land belongs to DS Office","Description":"50 Kumbuk Tree Plantation and Marking  Reservation\n\nSupplying of Kumbuk seedlings [to be planted in 3.5m x 3.5m grid]\n\nSupplying of NPK fertilizer [0.10kg/plant]\n\nGround preparation & maintenance [7 L/days per 100.0m x 2.0m]\n\nPlanting & fertilizer applic","Amount (Rs.)":353100,"photopath":"https://raw.githubusercontent.com/MWS003-GIS/MWS003-GIS.github.io/main/IWWRMP/Data/EXD/200_photo/MWS_070/IMG_20251003_121241 Maragaha kele reserve.jpg"},"geometry":{"type":"Point","coordinates":[81.006249,6.946809]}},
{"type":"Feature","properties":{"No":12,"GND No.":"56D","Name of the Tank":"Wetake Spring","N":6.95244,"E":81.009454,"Observation":"The fountain is in the shape of a Lake.","Description":"50 Kumbuk Tree Plantation and Marking  Reservation\n\nSupplying of Kumbuk seedlings [to be planted in 3.5m x 3.5m grid]\n\nSupplying of NPK fertilizer [0.10kg/plant]\n\nGround preparation & maintenance [7 L/days per 100.0m x 2.0m]\n\nPlanting & fertilizer applic","Amount (Rs.)":353100,"photopath":"https://raw.githubusercontent.com/MWS003-GIS/MWS003-GIS.github.io/main/IWWRMP/Data/EXD/200_photo/MWS_070/IMG_20251003_100939 Wetake reserve.jpg"},"geometry":{"type":"Point","coordinates":[81.009454,6.95244]}},
{"type":"Feature","properties":{"No":13,"GND No.":"56D","Name of the Tank":"Dangara wetiya spring","N":6.948902,"E":81.012536,"Observation":"The land belongs to DS Office","Description":"50 Kumbuk Tree Plantation and Marking  Reservation\n\nSupplying of Kumbuk seedlings [to be planted in 3.5m x 3.5m grid]\n\nSupplying of NPK fertilizer [0.10kg/plant]\n\nGround preparation & maintenance [7 L/days per 100.0m x 2.0m]\n\nPlanting & fertilizer applic","Amount (Rs.)":353100,"photopath":"https://raw.githubusercontent.com/MWS003-GIS/MWS003-GIS.github.io/main/IWWRMP/Data/EXD/200_photo/MWS_070/IMG_20251003_112713 Dagarawetiya spring.jpg"},"geometry":{"type":"Point","coordinates":[81.012536,6.948902]}},
{"type":"Feature","properties":{"No":14,"GND No.":"56D","Name of the Tank":"Alakola gulawa Spring","N":6.945391,"E":81.010277,"Observation":"The land belongs to DS Office","Description":"50 Kumbuk Tree Plantation and Marking  Reservation\n\nSupplying of Kumbuk seedlings [to be planted in 3.5m x 3.5m grid]\n\nSupplying of NPK fertilizer [0.10kg/plant]\n\nGround preparation & maintenance [7 L/days per 100.0m x 2.0m]\n\nPlanting & fertilizer applic","Amount (Rs.)":408100,"photopath":"https://raw.githubusercontent.com/MWS003-GIS/MWS003-GIS.github.io/main/IWWRMP/Data/EXD/200_photo/MWS_070/IMG_20251003_102950 Alakola ulaha reserve.jpg"},"geometry":{"type":"Point","coordinates":[81.010277,6.945391]}},
{"type":"Feature","properties":{"No":15,"GND No.":"56D","Name of the Tank":"Gedarawela peella","N":6.944459,"E":81.012206,"Observation":"The peella is in Dilapidated status.used for bathing","Description":"Construction of 10m long 300mm x 300mm (width x height) Rectangular Con. Canal\n\nSite preparation & setting out\n\nEarth excavation for foundation or quarry materials and haul the surplus materials up to 30m by Manually.\n\nSpreading , Levelling and Compactin","Amount (Rs.)":337700,"photopath":"https://raw.githubusercontent.com/MWS003-GIS/MWS003-GIS.github.io/main/IWWRMP/Data/EXD/200_photo/MWS_070/IMG_20251003_104755 Gedarawela peella.jpg"},"geometry":{"type":"Point","coordinates":[81.012206,6.944459]}},
{"type":"Feature","properties":{"No":16,"GND No.":"56D","Name of the Tank":"Wetake Reserve","N":6.952056,"E":81.009574,"Observation":"The land belongs to Malwaththa plantation","Description":"100 Kumbuk Tree Plantation and Marking  Reservation\n\nSupplying of Kumbuk seedlings [to be planted in 3.5m x 3.5m grid]\n\nSupplying of NPK fertilizer [0.10kg/plant]\n\nGround preparation & maintenance [7 L/days per 100.0m x 2.0m]\n\nPlanting & fertilizer appli","Amount (Rs.)":363000,"photopath":"https://raw.githubusercontent.com/MWS003-GIS/MWS003-GIS.github.io/main/IWWRMP/Data/EXD/200_photo/MWS_070/IMG_20251003_100939 Wetake reserve.jpg"},"geometry":{"type":"Point","coordinates":[81.009574,6.952056]}},
{"type":"Feature","properties":{"No":17,"GND No.":"56 E","Name of the Tank":"Kokatiya rodaya wathu reserve","N":6.943325,"E":80.993582,"Observation":"The land belongs to Malwaththa plantation","Description":"25 Kumbuk Tree Plantation and Marking  Reservation\n\nSupplying of Kumbuk seedlings [to be planted in 3.5m x 3.5m grid]\n\nSupplying of NPK fertilizer [0.10kg/plant]\n\nGround preparation & maintenance [7 L/days per 100.0m x 2.0m]\n\nPlanting & fertilizer applic","Amount (Rs.)":341000,"photopath":"https://raw.githubusercontent.com/MWS003-GIS/MWS003-GIS.github.io/main/IWWRMP/Data/EXD/200_photo/MWS_070/IMG_20251002_141028 Kokatiya roda reserve.jpg"},"geometry":{"type":"Point","coordinates":[80.993582,6.943325]}},
{"type":"Feature","properties":{"No":18,"GND No.":"56 E","Name of the Tank":"Kingrose store line","N":6.931001,"E":81.012194,"Observation":"A  Tank is constructed (1.9 m x 1.9 m x1.2 m, L*W*H).Water is leaking from the tank.The land belongs to Malwaththa plantation.used for drinking and bathing","Description":"Construction of a Water Tank ((2.0m x2.0m x 1.5m)\n\nSite preparation & setting out\n\nPlywood form work including making, fixing & removing for structure ?05 uses\n\nCutting, Bending & Placing tor steel reinforcement bars\n\n1:2:4 concrete with concrete mixer","Amount (Rs.)":320100,"photopath":"https://raw.githubusercontent.com/MWS003-GIS/MWS003-GIS.github.io/main/IWWRMP/Data/EXD/200_photo/MWS_070/IMG_20251002_114515 Kinros(A) kotasa Field Nu-03.jpg"},"geometry":{"type":"Point","coordinates":[81.012194,6.931001]}},
{"type":"Feature","properties":{"No":19,"GND No.":"56 E","Name of the Tank":"Spring near Kingrose Kovil","N":6.931502,"E":81.010315,"Observation":"The land belongs to Malwaththa plantation.used for drinking and bathing","Description":"Construction of a Water Tank ((2.5m x2.5m x 1.5m)\n\nSite preparation & setting out\n\nPlywood form work including making, fixing & removing for structure ?05 uses\n\n150mm x 225mm Random Rubble masonry work in 1:5 cement and sand mortar in structures\n\n1:2:4 c","Amount (Rs.)":302500,"photopath":"https://raw.githubusercontent.com/MWS003-GIS/MWS003-GIS.github.io/main/IWWRMP/Data/EXD/200_photo/MWS_070/IMG_20251002_112017 Kinrose kovila asala spring.jpg"},"geometry":{"type":"Point","coordinates":[81.010315,6.931502]}},
{"type":"Feature","properties":{"No":20,"GND No.":"56 E","Name of the Tank":"Spring near the Kingrose part 11","N":6.935745,"E":81.012168,"Observation":"The land belongs to Malwaththa plantation.","Description":"100 Kumbuk Tree Plantation and Marking  Reservation\n\nSupplying of Kumbuk seedlings [to be planted in 3.5m x 3.5m grid]\n\nSupplying of NPK fertilizer [0.10kg/plant]\n\nGround preparation & maintenance [7 L/days per 100.0m x 2.0m]\n\nPlanting & fertilizer appli","Amount (Rs.)":363000,"photopath":"https://raw.githubusercontent.com/MWS003-GIS/MWS003-GIS.github.io/main/IWWRMP/Data/EXD/200_photo/MWS_070/IMG_20251002_120011  Kinros(A) kotasa Field Nu-11.jpg"},"geometry":{"type":"Point","coordinates":[81.012168,6.935745]}},
{"type":"Feature","properties":{"No":21,"GND No.":"56 E","Name of the Tank":"Kingrose A Kotasa Field Nu -03","N":6.932046,"E":81.0096646,"Observation":"The land belongs to Malwaththa plantation.","Description":"30 Kumbuk Tree Plantation and Marking  Reservation\n\nSupplying of Kumbuk seedlings [to be planted in 3.5m x 3.5m grid]\n\nSupplying of NPK fertilizer [0.10kg/plant]\n\nGround preparation & maintenance [7 L/days per 100.0m x 2.0m]\n\nPlanting & fertilizer applic","Amount (Rs.)":346500,"photopath":"https://raw.githubusercontent.com/MWS003-GIS/MWS003-GIS.github.io/main/IWWRMP/Data/EXD/200_photo/MWS_070/IMG_20251002_114515 Kinros(A) kotasa Field Nu-03.jpg"},"geometry":{"type":"Point","coordinates":[81.0096646,6.932046]}},
{"type":"Feature","properties":{"No":22,"GND No.":"56 E","Name of the Tank":"Deensland village reserve","N":6.942829,"E":81.00105,"Observation":"The land belongs to DS Office","Description":"10 Kumbuk Tree Plantation \n\nSupplying of Kumbuk seedlings [to be planted in 3.5m x 3.5m grid]\n\nSupplying of NPK fertilizer [0.10kg/plant]\n\nGround preparation & maintenance [7 L/days per 100.0m x 2.0m]\n\nPlanting & fertilizer application [2.0 L/days per 10","Amount (Rs.)":299200,"photopath":"https://raw.githubusercontent.com/MWS003-GIS/MWS003-GIS.github.io/main/IWWRMP/Data/EXD/200_photo/MWS_070/IMG_20251002_133822 Deensland reserve.jpg"},"geometry":{"type":"Point","coordinates":[81.00105,6.942829]}},
{"type":"Feature","properties":{"No":23,"GND No.":"56 E","Name of the Tank":"Gurukandura reserve","N":6.936122,"E":80.996067,"Observation":"The land belongs to DS Office","Description":"10 Kumbuk Tree Plantation \n\nSupplying of Kumbuk seedlings [to be planted in 3.5m x 3.5m grid]\n\nSupplying of NPK fertilizer [0.10kg/plant]\n\nGround preparation & maintenance [7 L/days per 100.0m x 2.0m]\n\nPlanting & fertilizer application [2.0 L/days per 10","Amount (Rs.)":299200,"photopath":"https://raw.githubusercontent.com/MWS003-GIS/MWS003-GIS.github.io/main/IWWRMP/Data/EXD/200_photo/MWS_070/IMG_20251002_125830 Gurukandura reserve.jpg"},"geometry":{"type":"Point","coordinates":[80.996067,6.936122]}},
{"type":"Feature","properties":{"No":24,"GND No.":"56 E","Name of the Tank":"Boogahaella water reserve","N":6.937205,"E":81.00394,"Observation":"The land belongs to DS Office","Description":"10 Kumbuk Tree Plantation \n\nSupplying of Kumbuk seedlings [to be planted in 3.5m x 3.5m grid]\n\nSupplying of NPK fertilizer [0.10kg/plant]\n\nGround preparation & maintenance [7 L/days per 100.0m x 2.0m]\n\nPlanting & fertilizer application [2.0 L/days per 10","Amount (Rs.)":150700,"photopath":"https://raw.githubusercontent.com/MWS003-GIS/MWS003-GIS.github.io/main/IWWRMP/Data/EXD/200_photo/MWS_070/IMG_20251002_124929 Bogahaella reserve.jpg"},"geometry":{"type":"Point","coordinates":[81.00394,6.937205]}},
{"type":"Feature","properties":{"No":25,"GND No.":"75 A","Name of the Tank":"Ambalan Kele","N":6.961386,"E":81.00893,"Observation":"The land belongs to DS Office","Description":"30 Kumbuk Tree Plantation and Marking  Reservation\n\nSupplying of Kumbuk seedlings [to be planted in 3.5m x 3.5m grid]\n\nSupplying of NPK fertilizer [0.10kg/plant]\n\nGround preparation & maintenance [7 L/days per 100.0m x 2.0m]\n\nPlanting & fertilizer applic","Amount (Rs.)":350900,"photopath":"https://raw.githubusercontent.com/MWS003-GIS/MWS003-GIS.github.io/main/IWWRMP/Data/EXD/200_photo/MWS_070/IMG_20251007_112956 Ambalankele reserve.jpg"},"geometry":{"type":"Point","coordinates":[81.00893,6.961386]}},
{"type":"Feature","properties":{"No":26,"GND No.":"75 A","Name of the Tank":"Ulpath ketiya","N":6.963535,"E":80.994984,"Observation":"The land belongs to DS Office","Description":"100 Kumbuk Tree Plantation and Marking  Reservation\n\nSupplying of Kumbuk seedlings [to be planted in 3.5m x 3.5m grid]\n\nSupplying of NPK fertilizer [0.10kg/plant]\n\nGround preparation & maintenance [7 L/days per 100.0m x 2.0m]\n\nPlanting & fertilizer appli","Amount (Rs.)":363000,"photopath":"https://raw.githubusercontent.com/MWS003-GIS/MWS003-GIS.github.io/main/IWWRMP/Data/EXD/200_photo/MWS_070/IMG_20251007_103615 Ulpathketiya spring.jpg"},"geometry":{"type":"Point","coordinates":[80.994984,6.963535]}},
{"type":"Feature","properties":{"No":27,"GND No.":"75 A","Name of the Tank":"Sapugolla","N":6.968296,"E":81.006377,"Observation":"The land belongs to DS Office","Description":"25 Kumbuk Tree Plantation and Marking  Reservation\n\nSupplying of Kumbuk seedlings [to be planted in 3.5m x 3.5m grid]\n\nSupplying of NPK fertilizer [0.10kg/plant]\n\nGround preparation & maintenance [7 L/days per 100.0m x 2.0m]\n\nPlanting & fertilizer applic","Amount (Rs.)":347600,"photopath":"https://raw.githubusercontent.com/MWS003-GIS/MWS003-GIS.github.io/main/IWWRMP/Data/EXD/200_photo/MWS_070/IMG_20251007_111538 Sapugolla reserve.jpg"},"geometry":{"type":"Point","coordinates":[81.006377,6.968296]}},
{"type":"Feature","properties":{"No":28,"GND No.":"75 A","Name of the Tank":"Kosgolla","N":6.975312,"E":81.0056,"Observation":"The land belongs to DS Office","Description":"25 Kumbuk Tree Plantation and Marking  Reservation\n\nSupplying of Kumbuk seedlings [to be planted in 3.5m x 3.5m grid]\n\nSupplying of NPK fertilizer [0.10kg/plant]\n\nGround preparation & maintenance [7 L/days per 100.0m x 2.0m]\n\nPlanting & fertilizer applic","Amount (Rs.)":347600,"photopath":"https://raw.githubusercontent.com/MWS003-GIS/MWS003-GIS.github.io/main/IWWRMP/Data/EXD/200_photo/MWS_070/IMG_20251007_114854 Kosgolla reserve.jpg"},"geometry":{"type":"Point","coordinates":[81.0056,6.975312]}},
{"type":"Feature","properties":{"No":29,"GND No.":"75B","Name of the Tank":"Ilukpalassa Spring","N":6.964168,"E":81.012721,"Observation":"used for drinking and bathing","Description":"Construction of a Water Tank ((1.0m x1.0m x 1.0m)\n\nSite preparation & setting out\n\nPlywood form work including making, fixing & removing for structure ?05 uses\n\nCutting, Bending & Placing tor steel reinforcement bars\n\n1:2:4 concrete with concrete mixer","Amount (Rs.)":324500,"photopath":"https://raw.githubusercontent.com/MWS003-GIS/MWS003-GIS.github.io/main/IWWRMP/Data/EXD/200_photo/MWS_070/IMG_20251001_120312 Ilukpelassa spring.jpg"},"geometry":{"type":"Point","coordinates":[81.012721,6.964168]}},
{"type":"Feature","properties":{"No":30,"GND No.":"75B","Name of the Tank":"Pattipola Spring","N":6.974463,"E":81.014831,"Observation":"A  Tank is constructed (1.6 m x 1.6 m x1.7 m, L*W*H).used for drinking and bathing","Description":"Polymer Water Tank 2000 lit\n\nInstallation of tank and necessary fittings\n\nTidying Up\n\nContigencies (10%)","Amount (Rs.)":55000,"photopath":"https://raw.githubusercontent.com/MWS003-GIS/MWS003-GIS.github.io/main/IWWRMP/Data/EXD/200_photo/MWS_070/IMG_20251001_092219 pattipola spring.jpg"},"geometry":{"type":"Point","coordinates":[81.014831,6.974463]}},
{"type":"Feature","properties":{"No":31,"GND No.":"75B","Name of the Tank":"Kahawatta Peella","N":6.965359,"E":81.020244,"Observation":"A peela has constructed.used for drinking and bathing","Description":"Construction of a Water Tank ((1.0m x1.0m x 1.0m)\n\nSite preparation & setting out\n\nPlywood form work including making, fixing & removing for structure ?05 uses\n\nCutting, Bending & Placing tor steel reinforcement bars\n\n1:2:4 concrete with concrete mixer","Amount (Rs.)":159500,"photopath":"https://raw.githubusercontent.com/MWS003-GIS/MWS003-GIS.github.io/main/IWWRMP/Data/EXD/200_photo/MWS_070/IMG_20251001_110915 Kahawaththa peella.jpg"},"geometry":{"type":"Point","coordinates":[81.020244,6.965359]}},
{"type":"Feature","properties":{"No":32,"GND No.":"75 D","Name of the Tank":"Pahala kendagolla water catchment area","N":6.954526,"E":80.999804,"Observation":"The land belongs to DS Office","Description":"50 Kumbuk Tree Plantation and Marking  Reservation\n\nSupplying of Kumbuk seedlings [to be planted in 3.5m x 3.5m grid]\n\nSupplying of NPK fertilizer [0.10kg/plant]\n\nGround preparation & maintenance [7 L/days per 100.0m x 2.0m]\n\nPlanting & fertilizer applic","Amount (Rs.)":358600,"photopath":"https://raw.githubusercontent.com/MWS003-GIS/MWS003-GIS.github.io/main/IWWRMP/Data/EXD/200_photo/MWS_070/IMG_20250926_103656 Kenndagolla pahala reserve.jpg"},"geometry":{"type":"Point","coordinates":[80.999804,6.954526]}},
{"type":"Feature","properties":{"No":33,"GND No.":"75 D","Name of the Tank":"Ihala kendagolla water catchment area","N":6.950932,"E":80.997274,"Observation":"The land belongs to Malwaththa plantation.","Description":"25 Kumbuk Tree Plantation and Marking  Reservation\n\nSupplying of Kumbuk seedlings [to be planted in 3.5m x 3.5m grid]\n\nSupplying of NPK fertilizer [0.10kg/plant]\n\nGround preparation & maintenance [7 L/days per 100.0m x 2.0m]\n\nPlanting & fertilizer applic","Amount (Rs.)":346500,"photopath":"https://raw.githubusercontent.com/MWS003-GIS/MWS003-GIS.github.io/main/IWWRMP/Data/EXD/200_photo/MWS_070/IMG_20250926_102706 Kenndagolla ihala reserve.jpg"},"geometry":{"type":"Point","coordinates":[80.997274,6.950932]}},
{"type":"Feature","properties":{"No":34,"GND No.":"75 D","Name of the Tank":"Erenawala water catchment area","N":6.955903,"E":81.003881,"Observation":"The land belongs to DS Office","Description":"50 Kumbuk Tree Plantation and Marking  Reservation\n\nSupplying of Kumbuk seedlings [to be planted in 3.5m x 3.5m grid]\n\nSupplying of NPK fertilizer [0.10kg/plant]\n\nGround preparation & maintenance [7 L/days per 100.0m x 2.0m]\n\nPlanting & fertilizer applic","Amount (Rs.)":358600,"photopath":"https://raw.githubusercontent.com/MWS003-GIS/MWS003-GIS.github.io/main/IWWRMP/Data/EXD/200_photo/MWS_070/IMG_20250926_124027.jpg"},"geometry":{"type":"Point","coordinates":[81.003881,6.955903]}},
{"type":"Feature","properties":{"No":35,"GND No.":"75 D","Name of the Tank":"Wewa kotasa water catchment area","N":6.962311,"E":80.998896,"Observation":"The land belongs to DS Office","Description":"50 Kumbuk Tree Plantation and Marking  Reservation\n\nSupplying of Kumbuk seedlings [to be planted in 3.5m x 3.5m grid]\n\nSupplying of NPK fertilizer [0.10kg/plant]\n\nGround preparation & maintenance [7 L/days per 100.0m x 2.0m]\n\nPlanting & fertilizer applic","Amount (Rs.)":358600,"photopath":"https://raw.githubusercontent.com/MWS003-GIS/MWS003-GIS.github.io/main/IWWRMP/Data/EXD/200_photo/MWS_070/IMG_20250926_124008 Wewa kotasa reserve.jpg"},"geometry":{"type":"Point","coordinates":[80.998896,6.962311]}},
{"type":"Feature","properties":{"No":36,"GND No.":"75 E","Name of the Tank":"Panukele","N":6.993518,"E":81.000787,"Observation":"The land belongs to DS Office","Description":"50 Kumbuk Tree Plantation and Marking  Reservation\n\nSupplying of Kumbuk seedlings [to be planted in 3.5m x 3.5m grid]\n\nSupplying of NPK fertilizer [0.10kg/plant]\n\nGround preparation & maintenance [7 L/days per 100.0m x 2.0m]\n\nPlanting & fertilizer applic","Amount (Rs.)":358600,"photopath":"https://raw.githubusercontent.com/MWS003-GIS/MWS003-GIS.github.io/main/IWWRMP/Data/EXD/200_photo/MWS_070/IMG_20250930_092229 panukele reserve.jpg"},"geometry":{"type":"Point","coordinates":[81.000787,6.993518]}},
{"type":"Feature","properties":{"No":37,"GND No.":"75 E","Name of the Tank":"Kosgahamada arawa","N":6.99583,"E":80.993556,"Observation":"The land belongs to DS Office","Description":"Construction of a Water Tank ((1.0m x1.0m x 1.0m)\n\nSite preparation & setting out\n\nPlywood form work including making, fixing & removing for structure ?05 uses\n\nCutting, Bending & Placing tor steel reinforcement bars\n\n1:2:4 concrete with concrete mixer","Amount (Rs.)":460900,"photopath":"https://raw.githubusercontent.com/MWS003-GIS/MWS003-GIS.github.io/main/IWWRMP/Data/EXD/200_photo/MWS_070/IMG_20250930_111557 Kosgaha mada reserve.jpg"},"geometry":{"type":"Point","coordinates":[80.993556,6.99583]}},
{"type":"Feature","properties":{"No":39,"GND No.":"75 E","Name of the Tank":"Illuk arawa","N":6.992737,"E":80.993847,"Observation":"A  Tank is constructed (1.95 m x 1.95 m x1.25 m, L*W*H).used for drinking and bathing","Description":"Construction of a filteration tank and necessary fittings\n\nContigencies (10%)","Amount (Rs.)":330000,"photopath":"https://raw.githubusercontent.com/MWS003-GIS/MWS003-GIS.github.io/main/IWWRMP/Data/EXD/200_photo/MWS_070/IMG_20250930_125208 iluk arawa spring.jpg"},"geometry":{"type":"Point","coordinates":[80.993847,6.992737]}},
{"type":"Feature","properties":{"No":40,"GND No.":"75 E","Name of the Tank":"Nelumandiya","N":6.993358,"E":80.994552,"Observation":"The land belongs to DS Office","Description":"100 Kumbuk Tree Plantation\n\nSupplying of Kumbuk seedlings [to be planted in 3.5m x 3.5m grid]\n\nSupplying of NPK fertilizer [0.10kg/plant]\n\nGround preparation & maintenance [7 L/days per 100.0m x 2.0m]\n\nPlanting & fertilizer application [2.0 L/days per 10","Amount (Rs.)":308000,"photopath":"https://raw.githubusercontent.com/MWS003-GIS/MWS003-GIS.github.io/main/IWWRMP/Data/EXD/200_photo/MWS_070/IMG_20250930_130036 Nelumandiya reserve.jpg"},"geometry":{"type":"Point","coordinates":[80.994552,6.993358]}},
{"type":"Feature","properties":{"No":41,"GND No.":"75 E","Name of the Tank":"Mookalana","N":6.983244,"E":80.996013,"Observation":"The land belongs to DS Office","Description":"50 Kumbuk Tree Plantation \n\nSupplying of Kumbuk seedlings [to be planted in 3.5m x 3.5m grid]\n\nSupplying of NPK fertilizer [0.10kg/plant]\n\nGround preparation & maintenance [7 L/days per 100.0m x 2.0m]\n\nPlanting & fertilizer application [2.0 L/days per 10","Amount (Rs.)":303600,"photopath":"https://raw.githubusercontent.com/MWS003-GIS/MWS003-GIS.github.io/main/IWWRMP/Data/EXD/200_photo/MWS_070/IMG_20250930_140151 Mukalana Reserve.jpg"},"geometry":{"type":"Point","coordinates":[80.996013,6.983244]}},
{"type":"Feature","properties":{"No":42,"GND No.":"75 E","Name of the Tank":"Miriskotuwa spring","N":6.995622,"E":80.990674,"Observation":"The land belongs to DS Office","Description":"100 Kumbuk Tree Plantation\n\nSupplying of Kumbuk seedlings [to be planted in 3.5m x 3.5m grid]\n\nSupplying of NPK fertilizer [0.10kg/plant]\n\nGround preparation & maintenance [7 L/days per 100.0m x 2.0m]\n\nPlanting & fertilizer application [2.0 L/days per 10","Amount (Rs.)":610500,"photopath":"https://raw.githubusercontent.com/MWS003-GIS/MWS003-GIS.github.io/main/IWWRMP/Data/EXD/200_photo/MWS_070/IMG_20250930_113847 Miriskotuwa spring.jpg"},"geometry":{"type":"Point","coordinates":[80.990674,6.995622]}},
{"type":"Feature","properties":{"No":43,"GND No.":"75E","Name of the Tank":"Viyagaspolathenna","N":6.998945,"E":80.993089,"Observation":"The land belongs to DS Office","Description":"50 Kumbuk Tree Plantation \n\nSupplying of Kumbuk seedlings [to be planted in 3.5m x 3.5m grid]\n\nSupplying of NPK fertilizer [0.10kg/plant]\n\nGround preparation & maintenance [7 L/days per 100.0m x 2.0m]\n\nPlanting & fertilizer application [2.0 L/days per 10","Amount (Rs.)":303600,"photopath":"https://raw.githubusercontent.com/MWS003-GIS/MWS003-GIS.github.io/main/IWWRMP/Data/EXD/200_photo/MWS_070/IMG_20250930_103728 Viyagaspola thenna reserve.jpg"},"geometry":{"type":"Point","coordinates":[80.993089,6.998945]}},
{"type":"Feature","properties":{"No":44,"GND No.":"75 E","Name of the Tank":"Uvaketawala watta","N":6.990053,"E":81.001179,"Observation":"A peela has constructed. Used for drinking and bathing. The land belongs to DS Office","Description":"\n\nConcrete the Bottom of the Peella\n\nSite preparation & setting out\n\nPlywood form work including making, fixing & removing for structure ?05 uses\n\n1:3:6 (40mm) concrete with concrete mixer  (volume batching)\n\nTidying Up\n\n50 Kumbuk Tree Plantation \n\nSuppl","Amount (Rs.)":333300,"photopath":"https://raw.githubusercontent.com/MWS003-GIS/MWS003-GIS.github.io/main/IWWRMP/Data/EXD/200_photo/MWS_070/IMG_20250930_095747 Uva ketawela waththa peella.jpg"},"geometry":{"type":"Point","coordinates":[81.001179,6.990053]}},
{"type":"Feature","properties":{"No":45,"GND No.":"75 E","Name of the Tank":"Udaulpatha reserve","N":6.981439,"E":80.991443,"Observation":"The land belongs to DS Office","Description":"50 Kumbuk Tree Plantation and Marking  Reservation\n\nSupplying of Kumbuk seedlings [to be planted in 3.5m x 3.5m grid]\n\nSupplying of NPK fertilizer [0.10kg/plant]\n\nGround preparation & maintenance [7 L/days per 100.0m x 2.0m]\n\nPlanting & fertilizer applic","Amount (Rs.)":358600,"photopath":"https://raw.githubusercontent.com/MWS003-GIS/MWS003-GIS.github.io/main/IWWRMP/Data/EXD/200_photo/MWS_070/IMG_20250930_143451 Udaulpatha reserve.jpg"},"geometry":{"type":"Point","coordinates":[80.991443,6.981439]}}
]}