{"type":"FeatureCollection","name":"SWC_ON","crs":{"type":"name","properties":{"name":"urn:ogc:def:crs:OGC:1.3:CRS84"}},"features":[
{"type":"Feature","properties":{"No.":1,"GND No.":"67C","GND Name":"Ambegoda","Key Activities proposed for Soil and Water conservation":"1. Soil conservation practices -  Developing the Nayawatta land (35°-60°)","Priority based on Soil Erosion Hazard":1,"N":6.841579,"E":80.973207,"Quantity":"4 ha","Proposed measure/s":"1. Live fencing/SALT  - 2500 m, 2. Lock and spills - 1000 m, 3. Stone terracing - 500 m, 4. Agronomic practices should be adapted at optimum level (conservation tillage, crop rotation and diversification, cover crops, mulching, contour farming, windbreak","Uniti_Cost":"250.00 m-1, 400.00 m-1, 2500.00 m-1","Total_Cost":2275000,"Contribution (Local Community, LA, and the project)":"Labour and other basic services by the Local community","Time frame for the implementation":"0.25 Years","photopath":"https://raw.githubusercontent.com/MWS003-GIS/MWS003-GIS.github.io/main/IWWRMP/Data/EXD/200_photo/MWS_065_1/Cultivated lands (8).jpg"},"geometry":{"type":"Point","coordinates":[80.973207,6.841579]}}
]}