{
"type": "FeatureCollection",
"name": "Landslides",
"crs": { "type": "name", "properties": { "name": "urn:ogc:def:crs:OGC:1.3:CRS84" } },
"features": [
{ "type": "Feature", "properties": { "No.": 2, "GN Division No.": 402, "GN Division": "Marawanagoda", "Landslides": "Land sinking - Mr. Nandhasena's house in Hadeniya Madhawala", "N": 7.343844, "E": 80.558421, "NBRO Recommendation N/A": "Needs NBRO concern", "Proposed Measures": "Follow recommendations of NBRO having consulted. Construction of a retaining wall (30 m x 3 m)", "photopath": "https://raw.githubusercontent.com/MWS003-GIS/MWS003-GIS.github.io/main/IWWRMP/Data/EXD/200_photo/MWS_115_1/Mr.Nandhasena's house in Hadeniya Madhawala_2.jpg" }, "geometry": { "type": "Point", "coordinates": [ 80.558421, 7.343844 ] } },
{ "type": "Feature", "properties": { "No.": 3, "GN Division No.": 398, "GN Division": "Kumburegama", "Landslides": "Land sinking - Part of Nuganga River", "N": 7.355915, "E": 80.551056, "NBRO Recommendation N/A": "Needs NBRO concern", "Proposed Measures": "Constructing a retaining wall (15 m x 3 m). Follow recommendations of NBRO having consulted.", "photopath": "https://raw.githubusercontent.com/MWS003-GIS/MWS003-GIS.github.io/main/IWWRMP/Data/EXD/200_photo/MWS_115_1/Part of Nuganga river_1.jpg" }, "geometry": { "type": "Point", "coordinates": [ 80.551056, 7.355915 ] } },
{ "type": "Feature", "properties": { "No.": 4, "GN Division No.": 401, "GN Division": "Namaltenna", "Landslides": "Landsliding - Mr. K.D. Karunadasa's house area", "N": 7.369158, "E": 80.552078, "NBRO Recommendation N/A": "Needs NBRO concern", "Proposed Measures": "Constructing a retaining wall (10 m x 3 m). Follow recommendations of NBRO having consulted.", "photopath": "https://raw.githubusercontent.com/MWS003-GIS/MWS003-GIS.github.io/main/IWWRMP/Data/EXD/200_photo/MWS_115_1/Mr.K.D.Karunadasa's house area_2.jpg" }, "geometry": { "type": "Point", "coordinates": [ 80.552078, 7.369158 ] } },
{ "type": "Feature", "properties": { "No.": 5, "GN Division No.": 358, "GN Division": "Niyangoda", "Landslides": "1. Landsliding - Niyawe wasama dheniya In kandy kurunegala Road", "N": 7.345074, "E": 80.548876, "NBRO Recommendation N/A": "NBRO is aware", "Proposed Measures": "Alternative lands have been provided. Follow the recommendations of NBRO.", "photopath": "https://raw.githubusercontent.com/MWS003-GIS/MWS003-GIS.github.io/main/IWWRMP/Data/EXD/200_photo/MWS_115_1/Disaster  Niyawe wasama dheniya In kandy kurunegala Road.jpg" }, "geometry": { "type": "Point", "coordinates": [ 80.548876, 7.345074 ] } },
{ "type": "Feature", "properties": { "No.": 6, "GN Division No.": 358, "GN Division": "Niyangoda", "Landslides": "2. Landsliding - Near Mr. P.R. Amaranayake's home", "N": 7.345688, "E": 80.548002, "NBRO Recommendation N/A": "NBRO is aware", "Proposed Measures": "Alternative lands have been provided. Follow the recommendations of NBRO.", "photopath": "https://raw.githubusercontent.com/MWS003-GIS/MWS003-GIS.github.io/main/IWWRMP/Data/EXD/200_photo/MWS_115_1/Disaster  Near Mr. P.R. Amaranayake's home  Niyangoda.jpg" }, "geometry": { "type": "Point", "coordinates": [ 80.548002, 7.345688 ] } },
{ "type": "Feature", "properties": { "No.": 7, "GN Division No.": 358, "GN Division": "Niyangoda", "Landslides": "3. Landsliding - Near Mrs.Anuruddika Welimanna's house", "N": 7.344913, "E": 80.548956, "NBRO Recommendation N/A": "Needs NBRO concern", "Proposed Measures": "Alternative lands should be provided. Follow the recommendations of NBRO having consulted.", "photopath": "https://raw.githubusercontent.com/MWS003-GIS/MWS003-GIS.github.io/main/IWWRMP/Data/EXD/200_photo/MWS_115_1/Disaster  Near Mrs.Anuruddika Welimanna's house.jpg" }, "geometry": { "type": "Point", "coordinates": [ 80.548956, 7.344913 ] } },
{ "type": "Feature", "properties": { "No.": 8, "GN Division No.": 403, "GN Division": "Niyambepola", "Landslides": "1. Bank collapse on the road - Kahatage Road", "N": 7.35072, "E": 80.55556, "NBRO Recommendation N/A": "Needs NBRO concern", "Proposed Measures": "Constructing a retaining wall (30 m x 3 m). Follow recommendations of NBRO having consulted.", "photopath": "https://raw.githubusercontent.com/MWS003-GIS/MWS003-GIS.github.io/main/IWWRMP/Data/EXD/200_photo/MWS_115_1/Kahatage road.jpg" }, "geometry": { "type": "Point", "coordinates": [ 80.55556, 7.35072 ] } },
{ "type": "Feature", "properties": { "No.": 9, "GN Division No.": 403, "GN Division": "Niyambepola", "Landslides": "2. Road erosion - Hapiland Road", "N": 7.350709, "E": 80.561514, "NBRO Recommendation N/A": "Needs NBRO concern", "Proposed Measures": "Constructing a retaining wall (20 m x 3 m). Follow recommendations of NBRO having consulted.", "photopath": "https://raw.githubusercontent.com/MWS003-GIS/MWS003-GIS.github.io/main/IWWRMP/Data/EXD/200_photo/MWS_115_1/Hapiland road_1.jpg" }, "geometry": { "type": "Point", "coordinates": [ 80.561514, 7.350709 ] } },
{ "type": "Feature", "properties": { "No.": 10, "GN Division No.": 403, "GN Division": "Niyambepola", "Landslides": "3. Landslide - Mr. Umanga Dasanayaka, House Road", "N": 7.348802, "E": 80.560988, "NBRO Recommendation N/A": "Needs NBRO concern", "Proposed Measures": "Follow recommendations of NBRO having consulted.", "photopath": "Not_Available" }, "geometry": { "type": "Point", "coordinates": [ 80.560988, 7.348802 ] } },
{ "type": "Feature", "properties": { "No.": 11, "GN Division No.": 362, "GN Division": "Ethamulla", "Landslides": "Landsliding - Athamulla Kopiwatta Colony", "N": 7.362573, "E": 80.539628, "NBRO Recommendation N/A": "NBRO is aware", "Proposed Measures": "Follow recommendations of NBRO having consulted. Soil conservation is needed. Repair sidewall and construct a drainage system.", "photopath": "https://raw.githubusercontent.com/MWS003-GIS/MWS003-GIS.github.io/main/IWWRMP/Data/EXD/200_photo/MWS_115_1/Athamulla kopiwatta colony_1.jpg" }, "geometry": { "type": "Point", "coordinates": [ 80.539628, 7.362573 ] } }
]
}
