{"type":"FeatureCollection","name":"MI","crs":{"type":"name","properties":{"name":"urn:ogc:def:crs:OGC:1.3:CRS84"}},"features":[
{"type":"Feature","properties":{"No":1,"GND No.":399,"Scheme":"Anicut and canal in dheniyaya","N":7.364503,"E":80.55478,"Observation":"banks are eroded. Sand accumulation in paddy fields. NO protective plants in reservation.","Description":"Stream / canal  reservation protection by earth filling of  strip   of 1.5m to 2m wide  and average Depth of 0.5m\nVegetative cover improving for narrow strips (1.5m-2.0m wide) with Arecanut seedlings at 1.5m spacing in 2 rows, Betel plants VP at 3m spac","Amount (Rs.)":418000,"photopath":"https://raw.githubusercontent.com/MWS003-GIS/MWS003-GIS.github.io/main/IWWRMP/Data/EXD/200_photo/MWS_115_1/Anicut and canal in dheniyaya.jpg"},"geometry":{"type":"Point","coordinates":[80.55478,7.364503]}},
{"type":"Feature","properties":{"No":2,"GND No.":399,"Scheme":"Mahaunawa canal","N":7.364784,"E":80.550656,"Observation":"no proper lining for canal, canal banks are eroded. No plants in reservation area.","Description":"Canal reservation protection by concrete lining  For  100mm thick , 0.3m  wide  and 0.3m high canal -double banking\nStream / canal  reservation protection by earth filling of  strip   of 1.5m to 2m wide  and average Depth of 0.5m\nVegetative cover improvement","Amount (Rs.)":1413500,"photopath":"https://raw.githubusercontent.com/MWS003-GIS/MWS003-GIS.github.io/main/IWWRMP/Data/EXD/200_photo/MWS_115_1/Mahaunawa canal_2.jpg"},"geometry":{"type":"Point","coordinates":[80.550656,7.364784]}},
{"type":"Feature","properties":{"No":3,"GND No.":399,"Scheme":"Pitadheniya yaye canal ( soil wall)","N":7.364406,"E":80.550654,"Observation":"Canal entrance path has been sunk for several locations, canal banks are eroded.","Description":"Canal reservation protection by concrete lining  For  100mm thick , 0.3m  wide  and 0.3m high canal -double banking\nStream / canal  reservation protection by earth filling of  strip   of 1.5m to 2m wide  and average Depth of 0.5m\nVegetative cover improvement","Amount (Rs.)":1628000,"photopath":"https://raw.githubusercontent.com/MWS003-GIS/MWS003-GIS.github.io/main/IWWRMP/Data/EXD/200_photo/MWS_115_1/Pitadheniya yaye canal ( soil wall).jpg"},"geometry":{"type":"Point","coordinates":[80.550654,7.364406]}},
{"type":"Feature","properties":{"No":4,"GND No.":402,"Scheme":"Weerakkodi yaye Canal","N":7.345297,"E":80.556164,"Observation":"No plantation in reservation areas, Damaged canal","Description":"Canal reservation protection by concrete lining  For  100mm thick , 0.3m  wide  and 0.3m high canal -double banking\nStream / canal  reservation protection by earth filling of  strip   of 1.5m to 2m wide  and average Depth of 0.5m\nVegetative cover improvement","Amount (Rs.)":1562000,"photopath":"https://raw.githubusercontent.com/MWS003-GIS/MWS003-GIS.github.io/main/IWWRMP/Data/EXD/200_photo/MWS_115_1/Weerakkodi yaye Canal_2.jpg"},"geometry":{"type":"Point","coordinates":[80.556164,7.345297]}},
{"type":"Feature","properties":{"No":5,"GND No.":400,"Scheme":"Udadheniyaya canal","N":7.369515,"E":80.544566,"Observation":"canal path is blocked. No Plantation in reservation area.","Description":"Canal reservation protection by concrete lining  For  100mm thick , 0.3m  wide  and 0.3m high canal -double banking\n\nStream / canal  reservation protection by earth filling of  strip   of 1.5m to 2m wide  and average Depth of 0.5m\n\nVegetative cover impro","Amount (Rs.)":3674000,"photopath":"https://raw.githubusercontent.com/MWS003-GIS/MWS003-GIS.github.io/main/IWWRMP/Data/EXD/200_photo/MWS_115_1/Udadheniyaya canal_2.jpg"},"geometry":{"type":"Point","coordinates":[80.544566,7.369515]}},
{"type":"Feature","properties":{"No":6,"GND No.":400,"Scheme":"Siyabalawatta canal","N":7.366808,"E":80.545405,"Observation":"Canal banks are eroded. No Plantation in reservation area.","Description":"Canal reservation protection by concrete lining  For  100mm thick , 0.3m  wide  and 0.3m high canal -double banking\nStream / canal  reservation protection by earth filling of  strip   of 1.5m to 2m wide  and average Depth of 0.5m\nVegetative cover improvement","Amount (Rs.)":1699500,"photopath":"https://raw.githubusercontent.com/MWS003-GIS/MWS003-GIS.github.io/main/IWWRMP/Data/EXD/200_photo/MWS_115_1/Siyabalawatta canal_1.jpg"},"geometry":{"type":"Point","coordinates":[80.545405,7.366808]}},
{"type":"Feature","properties":{"No":7,"GND No.":398,"Scheme":"Piga oya ( near Kumburegama Anicut)","N":7.357079,"E":80.554278,"Observation":"Banks are eroded. Sand accumulation in paddy fields. NO protective plants in reservation.","Description":"Construction of 1.8m high 1:3:6 (40mm) cement concrete Retaining Wall  on either sides of the canal\nPlanting Bamboo species and Vetiver grass or Riparian species\nMiscellaneous\nContingencies 10%","Amount (Rs.)":2750000,"photopath":"https://raw.githubusercontent.com/MWS003-GIS/MWS003-GIS.github.io/main/IWWRMP/Data/EXD/200_photo/MWS_115_1/Piga oya ( near Kumburegama Anicut)_2.jpg"},"geometry":{"type":"Point","coordinates":[80.554278,7.357079]}},
{"type":"Feature","properties":{"No":8,"GND No.":398,"Scheme":"Wall of Piga oya (near Muthukeliyawa Bridge)","N":7.352799,"E":80.554442,"Observation":"Banks are eroded. Sand accumulation in paddy fields. NO protective plants in reservation.","Description":"Construction of 1.8m high 1:3:6 (40mm) cement concrete Retaining Wall  on either sides of the canal\nStream / canal  reservation protection by earth filling of  strip   of 1.5m to 2m wide  and average Depth of 0.5m on either sides of the canal\nPlanting","Amount (Rs.)":973500,"photopath":"https://raw.githubusercontent.com/MWS003-GIS/MWS003-GIS.github.io/main/IWWRMP/Data/EXD/200_photo/MWS_115_1/Wall of Piga oya (near Muthukeliyawa Bridge)_1.jpg"},"geometry":{"type":"Point","coordinates":[80.554442,7.352799]}},
{"type":"Feature","properties":{"No":9,"GND No.":401,"Scheme":"Iruwanpana yaya","N":7.371623,"E":80.549734,"Observation":"Shortage of proper lined drains leads to canal banks erosion. Nonprotective plants in reservation.","Description":"Canal reservation protection by concrete lining  For  100mm thick , 0.3m  wide  and 0.3m high canal -double banking\nStream / canal  reservation protection by earth filling of  strip   of 1.5m to 2m wide  and average Depth of 0.5m\nVegetative cover improvement","Amount (Rs.)":1562000,"photopath":"https://raw.githubusercontent.com/MWS003-GIS/MWS003-GIS.github.io/main/IWWRMP/Data/EXD/200_photo/MWS_115_1/Iruwanpana yaya_2.jpg"},"geometry":{"type":"Point","coordinates":[80.549734,7.371623]}},
{"type":"Feature","properties":{"No":10,"GND No.":401,"Scheme":"Berawadheniya kuburuyaya","N":7.369143,"E":80.55216,"Observation":"Canal has completely blocked for almost entire length.","Description":"Earth excavation and haul the surplus materials up to 1.6 km distance by Machinery. (This rate is excluding of transporting of machinery)\nVegetative cover improving for narrow strips (1.5m-2.0m wide) with Arecanut seedlings at 1.5m spacing in 2 rows, ","Amount (Rs.)":407000,"photopath":"https://raw.githubusercontent.com/MWS003-GIS/MWS003-GIS.github.io/main/IWWRMP/Data/EXD/200_photo/MWS_115_1/Berawadheniya kuburuyaya_2.jpg"},"geometry":{"type":"Point","coordinates":[80.55216,7.369143]}},
{"type":"Feature","properties":{"No":11,"GND No.":401,"Scheme":"Hakwari kuburuyaya","N":7.371945,"E":80.552915,"Observation":"Canal has blocked for 200m. No plants in reservation.","Description":"Stream / canal  reservation protection by earth filling of  strip   of 1.5m to 2m wide  and average Depth of 0.5m\nVegetative cover improving for narrow strips (1.5m-2.0m wide) with Arecanut seedlings at 1.5m spacing in 2 rows, Betel plants VP at 3m spac","Amount (Rs.)":280500,"photopath":"https://raw.githubusercontent.com/MWS003-GIS/MWS003-GIS.github.io/main/IWWRMP/Data/EXD/200_photo/MWS_115_1/Hakwari kuburuyaya_1.jpg"},"geometry":{"type":"Point","coordinates":[80.552915,7.371945]}},
{"type":"Feature","properties":{"No":12,"GND No.":358,"Scheme":"Karadhi yaya canal","N":7.348815,"E":80.553974,"Observation":"canal banks are eroded.  No plantation reservation area.","Description":"Canal reservation protection by concrete lining  For  100mm thick , 0.3m  wide  and 0.3m high canal -double banking\nStream / canal  reservation protection by earth filling of  strip   of 1.5m to 2m wide  and average Depth of 0.5m\nVegetative cover improvement","Amount (Rs.)":1699500,"photopath":"https://raw.githubusercontent.com/MWS003-GIS/MWS003-GIS.github.io/main/IWWRMP/Data/EXD/200_photo/MWS_115_1/Karadhi yaya canal.jpg"},"geometry":{"type":"Point","coordinates":[80.553974,7.348815]}},
{"type":"Feature","properties":{"No":13,"GND No.":358,"Scheme":"Kalaldhora canal","N":7.349007,"E":80.554421,"Observation":"canal banks are eroded.  No plantation reservation area.","Description":"Canal reservation protection by concrete lining  For  100mm thick , 0.3m  wide  and 0.3m high canal -double banking\nStream / canal  reservation protection by earth filling of  strip   of 1.5m to 2m wide  and average Depth of 0.5m\nVegetative cover improvement","Amount (Rs.)":1837000,"photopath":"https://raw.githubusercontent.com/MWS003-GIS/MWS003-GIS.github.io/main/IWWRMP/Data/EXD/200_photo/MWS_115_1/Kalaldhora canal.jpg"},"geometry":{"type":"Point","coordinates":[80.554421,7.349007]}},
{"type":"Feature","properties":{"No":14,"GND No.":403,"Scheme":"Canal in Nilkotanga yaya","N":7.350057,"E":80.562921,"Observation":"During rain period over flow and damage canal, but not cultivate due to ohers reasons","Description":"Canal reservation protection by concrete lining  For  100mm thick , 0.3m  wide  and 0.3m high canal -double banking\nStream / canal  reservation protection by earth filling of  strip   of 1.5m to 2m wide  and average Depth of 0.5m\nVegetative cover improvement","Amount (Rs.)":1974500,"photopath":"https://raw.githubusercontent.com/MWS003-GIS/MWS003-GIS.github.io/main/IWWRMP/Data/EXD/200_photo/MWS_115_1/Canal in Nilkotanga yaya_2.jpg"},"geometry":{"type":"Point","coordinates":[80.562921,7.350057]}},
{"type":"Feature","properties":{"No":15,"GND No.":403,"Scheme":"Canal in paradhandawa","N":7.351529,"E":80.555201,"Observation":"No proper drainage due to no clearance along the canal","Description":"Canal reservation protection by concrete lining  For  100mm thick , 0.3m  wide  and 0.3m high canal -double banking\nStream / canal  reservation protection by earth filling of  strip   of 1.5m to 2m wide  and average Depth of 0.5m\nVegetative cover improvement","Amount (Rs.)":1974500,"photopath":"https://raw.githubusercontent.com/MWS003-GIS/MWS003-GIS.github.io/main/IWWRMP/Data/EXD/200_photo/MWS_115_1/Canal in paradhandawa.jpg"},"geometry":{"type":"Point","coordinates":[80.555201,7.351529]}},
{"type":"Feature","properties":{"No":16,"GND No.":403,"Scheme":"Canal in hawaanga oaddy field","N":7.35186,"E":80.555199,"Observation":"No proper drainage due to no clearance along the canal","Description":"Light jungle clearing with vegetation, thorny bushes, undergrowth and less than 300 trees up to 300mm girth, and few isolated trees of less than 900mm girth including cutting uprooting and heaping on approved places Manually.\nDry Silt removing from Canal","Amount (Rs.)":236500,"photopath":"https://raw.githubusercontent.com/MWS003-GIS/MWS003-GIS.github.io/main/IWWRMP/Data/EXD/200_photo/MWS_115_1/Canal in hawaanga oaddy field_1.jpg"},"geometry":{"type":"Point","coordinates":[80.555199,7.35186]}},
{"type":"Feature","properties":{"No":17,"GND No.":359,"Scheme":"Pallekade paddy field","N":7.35192,"E":80.549299,"Observation":"canal banks are eroded. Sand accumulation paddy fields.","Description":"Canal reservation protection by concrete lining  For  100mm thick , 0.3m  wide  and 0.3m high canal -double banking\nStream / canal  reservation protection by earth filling of  strip   of 1.5m to 2m wide  and average Depth of 0.5m\nVegetative cover improvement","Amount (Rs.)":467500,"photopath":"https://raw.githubusercontent.com/MWS003-GIS/MWS003-GIS.github.io/main/IWWRMP/Data/EXD/200_photo/MWS_115_1/Pallekade paddy field_1.jpg"},"geometry":{"type":"Point","coordinates":[80.549299,7.35192]}},
{"type":"Feature","properties":{"No":18,"GND No.":362,"Scheme":"Matipala golla paddy field","N":7.361349,"E":80.539747,"Observation":"Canal banks are eroded. Sand accumulation in paddy fields.","Description":"Stream / canal  reservation protection by earth filling of  strip   of 1.5m to 2m wide  and average Depth of 0.5m\nVegetative cover improving for narrow strips (1.5m-2.0m wide) with Arecanut seedlings at 1.5m spacing in 2 rows, Betel plants VP at 3m spac","Amount (Rs.)":104500,"photopath":"https://raw.githubusercontent.com/MWS003-GIS/MWS003-GIS.github.io/main/IWWRMP/Data/EXD/200_photo/MWS_115_1/Matipala golla paddy field_1.jpg"},"geometry":{"type":"Point","coordinates":[80.539747,7.361349]}},
{"type":"Feature","properties":{"No":19,"GND No.":362,"Scheme":"Dhodam madilla paddy field","N":7.356273,"E":80.54501,"Observation":"Anicut has been neglected and blocked. Canal banks are eroded.","Description":"Stream / canal  reservation protection by earth filling of  strip   of 1.5m to 2m wide  and average Depth of 0.5m\nVegetative cover improving for narrow strips (1.5m-2.0m wide) with Arecanut seedlings at 1.5m spacing in 2 rows, Betel plants VP at 3m spac","Amount (Rs.)":104500,"photopath":"https://raw.githubusercontent.com/MWS003-GIS/MWS003-GIS.github.io/main/IWWRMP/Data/EXD/200_photo/MWS_115_1/Dhodam madilla paddy field.jpg"},"geometry":{"type":"Point","coordinates":[80.54501,7.356273]}},
{"type":"Feature","properties":{"No":20,"GND No.":362,"Scheme":"Wakade paddy field","N":7.356604,"E":80.547414,"Observation":"banks are eroded. Sand accumulation in paddy fields. NO protective plants in reservation.","Description":"Stream / canal  reservation protection by earth filling of  strip   of 1.5m to 2m wide  and average Depth of 0.5m\nVegetative cover improving for narrow strips (1.5m-2.0m wide) with Arecanut seedlings at 1.5m spacing in 2 rows, Betel plants VP at 3m spac","Amount (Rs.)":143000,"photopath":"https://raw.githubusercontent.com/MWS003-GIS/MWS003-GIS.github.io/main/IWWRMP/Data/EXD/200_photo/MWS_115_1/Wakade paddy field_2.jpg"},"geometry":{"type":"Point","coordinates":[80.547414,7.356604]}},
{"type":"Feature","properties":{"No":21,"GND No.":362,"Scheme":"Watapal dheniyaya","N":7.354579,"E":80.546853,"Observation":"banks are eroded. Sand accumulation in paddy fields. NO protective plants in reservation.","Description":"Canal reservation protection by concrete lining  For  100mm thick , 0.3m  wide  and 0.3m high canal -double banking\nStream / canal  reservation protection by earth filling of  strip   of 1.5m to 2m wide  and average Depth of 0.5m\nVegetative cover improvement","Amount (Rs.)":852500,"photopath":"https://raw.githubusercontent.com/MWS003-GIS/MWS003-GIS.github.io/main/IWWRMP/Data/EXD/200_photo/MWS_115_1/Watapal dheniyaya_2.jpg"},"geometry":{"type":"Point","coordinates":[80.546853,7.354579]}},
{"type":"Feature","properties":{"No":22,"GND No.":362,"Scheme":"Hunudheniyaya","N":7.359161,"E":80.544099,"Observation":"Canal banks are not developed. No plantation in reservation area.","Description":"Canal reservation protection by concrete lining  For  100mm thick , 0.3m  wide  and 0.3m high canal -double banking\nStream / canal  reservation protection by earth filling of  strip   of 1.5m to 2m wide  and average Depth of 0.5m\nVegetative cover improvement","Amount (Rs.)":429000,"photopath":"https://raw.githubusercontent.com/MWS003-GIS/MWS003-GIS.github.io/main/IWWRMP/Data/EXD/200_photo/MWS_115_1/Hunudheniyaya_3.jpg"},"geometry":{"type":"Point","coordinates":[80.544099,7.359161]}},
{"type":"Feature","properties":{"No":23,"GND No.":363,"Scheme":"Pinutiwala anicut","N":7.363534,"E":80.542165,"Observation":"existing u drain for 50m. Except that other canal banks are damaged.","Description":"Canal reservation protection by concrete lining  For  100mm thick , 0.3m  wide  and 0.3m high canal -double banking\nStream / canal  reservation protection by earth filling of  strip   of 1.5m to 2m wide  and average Depth of 0.5m\nVegetative cover improvement","Amount (Rs.)":792000,"photopath":"https://raw.githubusercontent.com/MWS003-GIS/MWS003-GIS.github.io/main/IWWRMP/Data/EXD/200_photo/MWS_115_1/Pinutiwala anicut_2.jpg"},"geometry":{"type":"Point","coordinates":[80.542165,7.363534]}},
{"type":"Feature","properties":{"No":24,"GND No.":363,"Scheme":"Thalagaha pala anicut","N":7.365619,"E":80.545604,"Observation":"Canal banks is damaged. Access road has damaged. Sand accumulation in paddy fields.","Description":"Canal reservation protection by concrete lining  For  100mm thick , 0.3m  wide  and 0.3m high canal -double banking\nStream / canal  reservation protection by earth filling of  strip   of 1.5m to 2m wide  and average Depth of 0.5m\nVegetative cover improvement","Amount (Rs.)":2667500,"photopath":"https://raw.githubusercontent.com/MWS003-GIS/MWS003-GIS.github.io/main/IWWRMP/Data/EXD/200_photo/MWS_115_1/Thalagaha pala anicut_2.jpg"},"geometry":{"type":"Point","coordinates":[80.545604,7.365619]}},
{"type":"Feature","properties":{"No":25,"GND No.":363,"Scheme":"Wadhakandhayaya bank","N":7.363676,"E":80.542372,"Observation":"Canal banks are eroded. No Plantation in reservation area. Sand accumulation in paddy fields.","Description":"Canal reservation protection by concrete lining  For  100mm thick , 0.3m  wide  and 0.3m high canal -double banking\nStream / canal  reservation protection by earth filling of  strip   of 1.5m to 2m wide  and average Depth of 0.5m\nVegetative cover improvement","Amount (Rs.)":2255000,"photopath":"https://raw.githubusercontent.com/MWS003-GIS/MWS003-GIS.github.io/main/IWWRMP/Data/EXD/200_photo/MWS_115_1/Wadhakandhayaya bank_1.jpg"},"geometry":{"type":"Point","coordinates":[80.542372,7.363676]}}
]}