{"type":"FeatureCollection","name":"Landslides","crs":{"type":"name","properties":{"name":"urn:ogc:def:crs:OGC:1.3:CRS84"}},"features":[
{"type":"Feature","properties":{"No.":1,"GN Division No.":"504","GN Division":"Wetakepatha","Landslides":"Soil Erosion and Slinking - Demodara","N":7.08042,"E":80.80843,"NBRO Recommendation N/A":"Needs NBRO concern","Proposed Measures":"Actions should be taken having consulted NBRO","photopath":"Not_Available"},"geometry":{"type":"Point","coordinates":[80.80843,7.08042]}},
{"type":"Feature","properties":{"No.":3,"GN Division No.":"505","GN Division":"Napatawela","Landslides":"Landslide - Uda Gammadda","N":7.089839,"E":80.801494,"NBRO Recommendation N/A":"Needs NBRO concern","Proposed Measures":"Proper soil conservation is needed and heavy structures should not be constructed.","photopath":"https://raw.githubusercontent.com/MWS003-GIS/MWS003-GIS.github.io/main/IWWRMP/Data/EXD/200_photo/MWS_025/Landslide Gammadda.JPG"},"geometry":{"type":"Point","coordinates":[80.801494,7.089839]}},
{"type":"Feature","properties":{"No.":5,"GN Division No.":"505B","GN Division":"Ambagaspitiya","Landslides":"Irregular drainage - Both sides of the Ambagaspitiya Road","N":7.104688,"E":80.813648,"NBRO Recommendation N/A":"-","Proposed Measures":"Removal of filled soil from drains","photopath":"https://raw.githubusercontent.com/MWS003-GIS/MWS003-GIS.github.io/main/IWWRMP/Data/EXD/200_photo/MWS_025/Ambagaspitiya road.jpg"},"geometry":{"type":"Point","coordinates":[80.813648,7.104688]}},
{"type":"Feature","properties":{"No.":6,"GN Division No.":"505C","GN Division":"Galabada","Landslides":"Soil Erosion and Rolling stones - Dhulgolla","N":7.090656,"E":80.824336,"NBRO Recommendation N/A":"Needs NBRO concern","Proposed Measures":"Changing the land use planning, as appropriate and providing suitable lands for the affected people","photopath":"https://raw.githubusercontent.com/MWS003-GIS/MWS003-GIS.github.io/main/IWWRMP/Data/EXD/200_photo/MWS_025/Galaboda Landslide Area.JPG"},"geometry":{"type":"Point","coordinates":[80.824336,7.090656]}},
{"type":"Feature","properties":{"No.":7,"GN Division No.":"505C","GN Division":"Galabada","Landslides":"Soil Erosion - Dibbadda","N":7.089325,"E":80.823482,"NBRO Recommendation N/A":"Needs NBRO concern","Proposed Measures":"Changing the land use planning, as appropriate and providing suitable lands for the affected people","photopath":"Not_Available"},"geometry":{"type":"Point","coordinates":[80.823482,7.089325]}},
{"type":"Feature","properties":{"No.":8,"GN Division No.":"505C","GN Division":"Galabada","Landslides":"Sinking - Galabada","N":7.097019,"E":80.817677,"NBRO Recommendation N/A":"Needs NBRO concern","Proposed Measures":"Changing the land use planning, as appropriate and providing suitable lands for the affected people. Also, soil conservation practices should be adopted.","photopath":"Not_Available"},"geometry":{"type":"Point","coordinates":[80.817677,7.097019]}},
{"type":"Feature","properties":{"No.":9,"GN Division No.":"505C","GN Division":"Galabada","Landslides":"Soil Erosion and Rolling stones - Kopiwatta","N":7.088369,"E":80.814663,"NBRO Recommendation N/A":"Needs NBRO concern","Proposed Measures":"Changing the land use planning, as appropriate and providing suitable lands for the affected people","photopath":"Not_Available"},"geometry":{"type":"Point","coordinates":[80.814663,7.088369]}},
{"type":"Feature","properties":{"No.":10,"GN Division No.":"505D","GN Division":"Landupita","Landslides":"Landslide - Karavana Ella","N":7.11072,"E":80.80527,"NBRO Recommendation N/A":"Needs NBRO concern","Proposed Measures":"Proper soil conservation is needed and heavy structures should not be constructed.","photopath":"Not_Available"},"geometry":{"type":"Point","coordinates":[80.80527,7.11072]}},
{"type":"Feature","properties":{"No.":11,"GN Division No.":"505E","GN Division":"Wetekegama","Landslides":"Sinking - Alapaladeniya - Kethina Kandura","N":7.102363,"E":80.804682,"NBRO Recommendation N/A":"NBRO is aware","Proposed Measures":"Removal of risky houses and providing suitable lands/houses","photopath":"Not_Available"},"geometry":{"type":"Point","coordinates":[80.804682,7.102363]}},
{"type":"Feature","properties":{"No.":12,"GN Division No.":"506","GN Division":"Munwatta","Landslides":"Landslide - Kiravana Ella","N":7.11745,"E":80.81063,"NBRO Recommendation N/A":"Needs NBRO concern","Proposed Measures":"Changing the land use planning, as appropriate and providing suitable lands for the affected people under the supervision of NBRO","photopath":"https://raw.githubusercontent.com/MWS003-GIS/MWS003-GIS.github.io/main/IWWRMP/Data/EXD/200_photo/MWS_025/Kirawana Ella Landslide Area.jpg"},"geometry":{"type":"Point","coordinates":[80.81063,7.11745]}},
{"type":"Feature","properties":{"No.":13,"GN Division No.":"506","GN Division":"Munwatta","Landslides":"Landslide - Nelugolla Block","N":7.11586,"E":80.81263,"NBRO Recommendation N/A":"Needs NBRO concern","Proposed Measures":"Changing the land use planning, as appropriate and providing suitable lands for the affected people under the supervision of NBRO","photopath":"https://raw.githubusercontent.com/MWS003-GIS/MWS003-GIS.github.io/main/IWWRMP/Data/EXD/200_photo/MWS_025/Nelugolla Landslide.jpg"},"geometry":{"type":"Point","coordinates":[80.81263,7.11586]}},
{"type":"Feature","properties":{"No.":14,"GN Division No.":"506A","GN Division":"Unagolla","Landslides":"Landslide - Alawatta","N":7.11145,"E":80.818253,"NBRO Recommendation N/A":"Needs NBRO concern","Proposed Measures":"Removal of risky houses and providing lands/houses under the supervision and advice of NBRO","photopath":"https://raw.githubusercontent.com/MWS003-GIS/MWS003-GIS.github.io/main/IWWRMP/Data/EXD/200_photo/MWS_025/Disaster Alawaththa.jpg"},"geometry":{"type":"Point","coordinates":[80.818253,7.11145]}},
{"type":"Feature","properties":{"No.":15,"GN Division No.":"506A","GN Division":"Unagolla","Landslides":"Sinking - Unagolla","N":7.112566,"E":80.817893,"NBRO Recommendation N/A":"Needs NBRO concern","Proposed Measures":"Removal of risky houses and providing lands/houses under the supervision and advice of NBRO","photopath":"https://raw.githubusercontent.com/MWS003-GIS/MWS003-GIS.github.io/main/IWWRMP/Data/EXD/200_photo/MWS_025/Disaster Unagolla.jpg"},"geometry":{"type":"Point","coordinates":[80.817893,7.112566]}},
{"type":"Feature","properties":{"No.":16,"GN Division No.":"506A","GN Division":"Unagolla","Landslides":"Landslide - Duulgolla (Ambagaspitiya Border)","N":7.106656,"E":80.822991,"NBRO Recommendation N/A":"Needs NBRO concern","Proposed Measures":"Removal of risky houses and providing lands/houses under the supervision and advice of NBRO","photopath":"https://raw.githubusercontent.com/MWS003-GIS/MWS003-GIS.github.io/main/IWWRMP/Data/EXD/200_photo/MWS_025/Disaster Ambagaspitiya area.jpg"},"geometry":{"type":"Point","coordinates":[80.822991,7.106656]}},
{"type":"Feature","properties":{"No.":17,"GN Division No.":"507","GN Division":"Ukuthule","Landslides":"Landslide - Walahena","N":7.08304,"E":80.80962,"NBRO Recommendation N/A":"Needs NBRO concern","Proposed Measures":"Changing the land use planning, as appropriate and providing suitable lands for the affected people under the supervision of NBRO","photopath":"https://raw.githubusercontent.com/MWS003-GIS/MWS003-GIS.github.io/main/IWWRMP/Data/EXD/200_photo/MWS_025/Walahena Landslide.jpg"},"geometry":{"type":"Point","coordinates":[80.80962,7.08304]}},
{"type":"Feature","properties":{"No.":18,"GN Division No.":"507A","GN Division":"Ukuthule East","Landslides":"Landslide - Marabadda Village","N":7.07661,"E":80.814134,"NBRO Recommendation N/A":"NBRO is aware","Proposed Measures":"Recommended actions by NBRO should be taken","photopath":"https://raw.githubusercontent.com/MWS003-GIS/MWS003-GIS.github.io/main/IWWRMP/Data/EXD/200_photo/MWS_025/Landslide Marabadda.JPG"},"geometry":{"type":"Point","coordinates":[80.814134,7.07661]}},
{"type":"Feature","properties":{"No.":19,"GN Division No.":"507B","GN Division":"Yatiwella","Landslides":"Embankments Erosion - Mathurata - Padiyapelala Road","N":7.087122,"E":80.799755,"NBRO Recommendation N/A":"Needs NBRO concern","Proposed Measures":"Rehabilitation of Drainage system","photopath":"https://raw.githubusercontent.com/MWS003-GIS/MWS003-GIS.github.io/main/IWWRMP/Data/EXD/200_photo/MWS_025/Mathurata_Road Soil Erosion.JPG"},"geometry":{"type":"Point","coordinates":[80.799755,7.087122]}},
{"type":"Feature","properties":{"No.":20,"GN Division No.":"507B","GN Division":"Yatiwella","Landslides":"Embankments Erosion - Ukuthule Road","N":7.087238,"E":80.800805,"NBRO Recommendation N/A":"Needs NBRO concern","Proposed Measures":"Rehabilitation of Drainage system","photopath":"https://raw.githubusercontent.com/MWS003-GIS/MWS003-GIS.github.io/main/IWWRMP/Data/EXD/200_photo/MWS_025/Ukuthule Landslide Area.JPG"},"geometry":{"type":"Point","coordinates":[80.800805,7.087238]}}
]}