{"type":"FeatureCollection","name":"SWC_OFF","crs":{"type":"name","properties":{"name":"urn:ogc:def:crs:OGC:1.3:CRS84"}},"features":[
{"type":"Feature","properties":{"No.":1,"GND No.":"504","GND Name":"Wetakepatha","Key Activities proposed for Soil and Water conservation":"1. Renovation of natural drains - Mahapihilla Kandura","Priority based on Soil Erosion Hazard":"-","N":7.08271,"E":80.80379,"Quantity":"3 km","Proposed measure/s":"Clearing and planting some trees along the banks (Aracanut) and other conservation practices","Total_Cost":"300,000.00","Contribution (Local Community, LA, and the project)":"Labor and other basic services by the Local community/ Shramadana","Time frame for the implementation":"0.5 Years","photopath":"https://raw.githubusercontent.com/MWS003-GIS/MWS003-GIS.github.io/main/IWWRMP/Data/EXD/200_photo/MWS_025/Mahapeella kandura.jpg"},"geometry":{"type":"Point","coordinates":[80.80379,7.08271]}},
{"type":"Feature","properties":{"No.":2,"GND No.":"504","GND Name":"Wetakepatha","Key Activities proposed for Soil and Water conservation":"2. Establishing a side/retaining wall","Priority based on Soil Erosion Hazard":"-","N":7.08271,"E":80.80379,"Quantity":"110 x 0.3 m x 1.5 m","Proposed measure/s":"Retaining wall","Total_Cost":"99,000.00","Contribution (Local Community, LA, and the project)":"Labor and other basic services by the Local community","Time frame for the implementation":"0.25 Years","photopath":"https://raw.githubusercontent.com/MWS003-GIS/MWS003-GIS.github.io/main/IWWRMP/Data/EXD/200_photo/MWS_025/Mahapihilla Con. Wall.jpg"},"geometry":{"type":"Point","coordinates":[80.80379,7.08271]}},
{"type":"Feature","properties":{"No.":3,"GND No.":"504","GND Name":"Wetakepatha","Key Activities proposed for Soil and Water conservation":"3. Establishing a side/retaining wall","Priority based on Soil Erosion Hazard":"-","N":7.0808,"E":80.80415,"Quantity":"50 x 0.3 m x 1.5 m","Proposed measure/s":"Retaining wall","Total_Cost":"45,000.00","Contribution (Local Community, LA, and the project)":"Labor and other basic services by the Local community","Time frame for the implementation":"0.25 Years","photopath":"Not_Available"},"geometry":{"type":"Point","coordinates":[80.80415,7.0808]}},
{"type":"Feature","properties":{"No.":4,"GND No.":"504C","GND Name":"Alakolawewa","Key Activities proposed for Soil and Water conservation":"1. Renovation of natural drains - Kurundu Oya","Priority based on Soil Erosion Hazard":"-","N":7.07283,"E":80.813972,"Quantity":"2 km","Proposed measure/s":"Clearing and planting some trees along the banks and other conservation practices","Total_Cost":"200,000.00","Contribution (Local Community, LA, and the project)":"Labor and other basic services by the Local community/ Shramadana","Time frame for the implementation":"0.5 Years","photopath":"https://raw.githubusercontent.com/MWS003-GIS/MWS003-GIS.github.io/main/IWWRMP/Data/EXD/200_photo/MWS_025/Kurundu Oya Canal.JPG"},"geometry":{"type":"Point","coordinates":[80.813972,7.07283]}},
{"type":"Feature","properties":{"No.":7,"GND No.":"505","GND Name":"Napatawela","Key Activities proposed for Soil and Water conservation":"1. Renovation of natural drains - Gallinda Kandura","Priority based on Soil Erosion Hazard":"-","N":7.0962602,"E":80.803291,"Quantity":"2.5 km","Proposed measure/s":"Clearing and planting some trees along the banks (Aracanut) and other conservation practices","Total_Cost":"250,000.00","Contribution (Local Community, LA, and the project)":"Labor and other basic services by the Local community/ Shramadana","Time frame for the implementation":"0.5 Years","photopath":"https://raw.githubusercontent.com/MWS003-GIS/MWS003-GIS.github.io/main/IWWRMP/Data/EXD/200_photo/MWS_025/Gallinda Kandura.JPG"},"geometry":{"type":"Point","coordinates":[80.803291,7.0962602]}},
{"type":"Feature","properties":{"No.":8,"GND No.":"505","GND Name":"Napatawela","Key Activities proposed for Soil and Water conservation":"2. Renovation of natural drains - Goraka Maditta Kandura 1","Priority based on Soil Erosion Hazard":"-","N":7.09344,"E":80.803954,"Quantity":"1 km","Proposed measure/s":"Clearing and planting some trees along the banks (Aracanut) and other conservation practices","Total_Cost":"100,000.00","Contribution (Local Community, LA, and the project)":"Labor and other basic services by the Local community/ Shramadana","Time frame for the implementation":"0.5 Years","photopath":"https://raw.githubusercontent.com/MWS003-GIS/MWS003-GIS.github.io/main/IWWRMP/Data/EXD/200_photo/MWS_025/Goraka Maditta Kandura.JPG"},"geometry":{"type":"Point","coordinates":[80.803954,7.09344]}},
{"type":"Feature","properties":{"No.":9,"GND No.":"505","GND Name":"Napatawela","Key Activities proposed for Soil and Water conservation":"3. Renovation of natural drains - Goraka Maditta Kandura 2","Priority based on Soil Erosion Hazard":"-","N":7.093644,"E":80.804008,"Quantity":"1 km","Proposed measure/s":"Clearing and planting some trees along the banks (Aracanut) and other conservation practices","Total_Cost":"100,000.00","Contribution (Local Community, LA, and the project)":"Labor and other basic services by the Local community/ Shramadana","Time frame for the implementation":"0.5 Years","photopath":"https://raw.githubusercontent.com/MWS003-GIS/MWS003-GIS.github.io/main/IWWRMP/Data/EXD/200_photo/MWS_025/Goraka Maditta Kandura 2.JPG"},"geometry":{"type":"Point","coordinates":[80.804008,7.093644]}},
{"type":"Feature","properties":{"No.":10,"GND No.":"505","GND Name":"Napatawela","Key Activities proposed for Soil and Water conservation":"4. Renovation of natural drains - Devale Kandura 1","Priority based on Soil Erosion Hazard":"-","N":7.096433,"E":80.803774,"Quantity":"800 km","Proposed measure/s":"Clearing and planting some trees along the banks (Aracanut) and other conservation practices","Total_Cost":"80,000.00","Contribution (Local Community, LA, and the project)":"Labor and other basic services by the Local community/ Shramadana","Time frame for the implementation":"0.25 Years","photopath":"https://raw.githubusercontent.com/MWS003-GIS/MWS003-GIS.github.io/main/IWWRMP/Data/EXD/200_photo/MWS_025/Devale Kandura 1Place 2.JPG"},"geometry":{"type":"Point","coordinates":[80.803774,7.096433]}},
{"type":"Feature","properties":{"No.":11,"GND No.":"505","GND Name":"Napatawela","Key Activities proposed for Soil and Water conservation":"5. Renovation of natural drains - Devale Kandura 2","Priority based on Soil Erosion Hazard":"-","N":7.096874,"E":80.804158,"Quantity":"500 km","Proposed measure/s":"Clearing and planting some trees along the banks (Aracanut) and other conservation practices","Total_Cost":"50,000.00","Contribution (Local Community, LA, and the project)":"Labor and other basic services by the Local community/ Shramadana","Time frame for the implementation":"0.25 Years","photopath":"https://raw.githubusercontent.com/MWS003-GIS/MWS003-GIS.github.io/main/IWWRMP/Data/EXD/200_photo/MWS_025/Devale Kandura 2.JPG"},"geometry":{"type":"Point","coordinates":[80.804158,7.096874]}},
{"type":"Feature","properties":{"No.":14,"GND No.":"505A","GND Name":"Padiyapelella","Key Activities proposed for Soil and Water conservation":"1. Renovation of natural drains - Belihul Oya","Priority based on Soil Erosion Hazard":"-","N":7.096646,"E":80.801281,"Quantity":"1.5 km","Proposed measure/s":"Clearing and planting some trees along the banks and other conservation practices","Total_Cost":"150,000.00","Contribution (Local Community, LA, and the project)":"Labor and other basic services by the Local community/ Shramadana","Time frame for the implementation":"0.5 Years","photopath":"Not_Available"},"geometry":{"type":"Point","coordinates":[80.801281,7.096646]}},
{"type":"Feature","properties":{"No.":15,"GND No.":"505A","GND Name":"Padiyapelella","Key Activities proposed for Soil and Water conservation":"2. Renovation of natural drains - Kiri Elwala Kandura","Priority based on Soil Erosion Hazard":"-","N":7.087721,"E":80.802647,"Quantity":"1 km","Proposed measure/s":"Clearing and planting some trees along the banks (Aracanut) and other conservation practices","Total_Cost":"100,000.00","Contribution (Local Community, LA, and the project)":"Labor and other basic services by the Local community/ Shramadana","Time frame for the implementation":"0.5 Years","photopath":"https://raw.githubusercontent.com/MWS003-GIS/MWS003-GIS.github.io/main/IWWRMP/Data/EXD/200_photo/MWS_025/Kirielwala Kandura.JPG"},"geometry":{"type":"Point","coordinates":[80.802647,7.087721]}},
{"type":"Feature","properties":{"No.":16,"GND No.":"505A","GND Name":"Padiyapelella","Key Activities proposed for Soil and Water conservation":"3. Renovation of natural drains - Medagedara Kandura","Priority based on Soil Erosion Hazard":"-","N":7.098128,"E":80.801443,"Quantity":"1.5 km","Proposed measure/s":"Clearing and planting some trees along the banks (Aracanut) and other conservation practices","Total_Cost":"150,000.00","Contribution (Local Community, LA, and the project)":"Labor and other basic services by the Local community/ Shramadana","Time frame for the implementation":"0.5 Years","photopath":"https://raw.githubusercontent.com/MWS003-GIS/MWS003-GIS.github.io/main/IWWRMP/Data/EXD/200_photo/MWS_025/Medagedara Kandura.JPG"},"geometry":{"type":"Point","coordinates":[80.801443,7.098128]}},
{"type":"Feature","properties":{"No.":20,"GND No.":"505B","GND Name":"Ambagaspitiya","Key Activities proposed for Soil and Water conservation":"1. Renovation of natural drains - Maha Oya Kandura (Koppa Oya)","Priority based on Soil Erosion Hazard":"-","N":7.097785,"E":80.820749,"Quantity":"1.5 km","Proposed measure/s":"Clearing and planting some trees along the banks (Aracanut) and other conservation practices","Total_Cost":"150,000.00","Contribution (Local Community, LA, and the project)":"Labor and other basic services by the Local community/ Shramadana","Time frame for the implementation":"0.5 Years","photopath":"https://raw.githubusercontent.com/MWS003-GIS/MWS003-GIS.github.io/main/IWWRMP/Data/EXD/200_photo/MWS_025/Mahaoya Kandura.jpg"},"geometry":{"type":"Point","coordinates":[80.820749,7.097785]}},
{"type":"Feature","properties":{"No.":21,"GND No.":"505B","GND Name":"Ambagaspitiya","Key Activities proposed for Soil and Water conservation":"2. Renovation of natural drains - Goraka Maditta Kandura","Priority based on Soil Erosion Hazard":"-","N":7.097553,"E":80.813993,"Quantity":"1.2 km","Proposed measure/s":"Clearing and planting some trees along the banks (Aracanut) and other conservation practices","Total_Cost":"120,000.00","Contribution (Local Community, LA, and the project)":"Labor and other basic services by the Local community/ Shramadana","Time frame for the implementation":"0.5 Years","photopath":"https://raw.githubusercontent.com/MWS003-GIS/MWS003-GIS.github.io/main/IWWRMP/Data/EXD/200_photo/MWS_025/Gorakamadiththa Kandura.jpg"},"geometry":{"type":"Point","coordinates":[80.813993,7.097553]}},
{"type":"Feature","properties":{"No.":22,"GND No.":"505B","GND Name":"Ambagaspitiya","Key Activities proposed for Soil and Water conservation":"3. Renovation of natural drains - Palle Aswedduma Kandura","Priority based on Soil Erosion Hazard":"-","N":7.100328,"E":80.817496,"Quantity":"1.5 km","Proposed measure/s":"Clearing and planting some trees along the banks (Aracanut) and other conservation practices","Total_Cost":"150,000.00","Contribution (Local Community, LA, and the project)":"Labor and other basic services by the Local community/ Shramadana","Time frame for the implementation":"0.5 Years","photopath":"https://raw.githubusercontent.com/MWS003-GIS/MWS003-GIS.github.io/main/IWWRMP/Data/EXD/200_photo/MWS_025/Palleaswedduma kandura.jpg"},"geometry":{"type":"Point","coordinates":[80.817496,7.100328]}},
{"type":"Feature","properties":{"No.":26,"GND No.":"505C","GND Name":"Galabada","Key Activities proposed for Soil and Water conservation":"1. Renovation of natural drains - Canal from Kirona Madiththa Lake to Galabada Paddy Field","Priority based on Soil Erosion Hazard":"-","N":7.095068,"E":80.820101,"Quantity":"8 km","Proposed measure/s":"Clearing and planting some trees along the banks (Aracanut) and other conservation practices","Total_Cost":"800,000.00","Contribution (Local Community, LA, and the project)":"Labor and other basic services by the Local community/ Shramadana","Time frame for the implementation":"0.5 Years","photopath":"https://raw.githubusercontent.com/MWS003-GIS/MWS003-GIS.github.io/main/IWWRMP/Data/EXD/200_photo/MWS_025/Kironamadittha Canal.JPG"},"geometry":{"type":"Point","coordinates":[80.820101,7.095068]}},
{"type":"Feature","properties":{"No.":27,"GND No.":"505C","GND Name":"Galabada","Key Activities proposed for Soil and Water conservation":"2. Renovation of natural drains - Dikbadda Kandura","Priority based on Soil Erosion Hazard":"-","N":7.091876,"E":80.821692,"Quantity":"1 km","Proposed measure/s":"Clearing and planting some trees along the banks (Aracanut) and other conservation practices","Total_Cost":"100,000.00","Contribution (Local Community, LA, and the project)":"Labor and other basic services by the Local community/ Shramadana","Time frame for the implementation":"0.5 Years","photopath":"https://raw.githubusercontent.com/MWS003-GIS/MWS003-GIS.github.io/main/IWWRMP/Data/EXD/200_photo/MWS_025/Dikbedda Kandura.JPG"},"geometry":{"type":"Point","coordinates":[80.821692,7.091876]}},
{"type":"Feature","properties":{"No.":28,"GND No.":"505C","GND Name":"Galabada","Key Activities proposed for Soil and Water conservation":"3. Renovation of natural drains - Koppa Oya","Priority based on Soil Erosion Hazard":"-","N":7.09051,"E":80.824287,"Quantity":"1 km","Proposed measure/s":"Clearing and planting some trees along the banks (Aracanut) and other conservation practices","Total_Cost":"100,000.00","Contribution (Local Community, LA, and the project)":"Labor and other basic services by the Local community/ Shramadana","Time frame for the implementation":"0.5 Years","photopath":"https://raw.githubusercontent.com/MWS003-GIS/MWS003-GIS.github.io/main/IWWRMP/Data/EXD/200_photo/MWS_025/Koppa Oya.JPG"},"geometry":{"type":"Point","coordinates":[80.824287,7.09051]}},
{"type":"Feature","properties":{"No.":32,"GND No.":"505D","GND Name":"Landupita","Key Activities proposed for Soil and Water conservation":"1. Renovation of natural drains - Torrent at the Borahinna Pahala road","Priority based on Soil Erosion Hazard":"-","N":7.1088,"E":80.80962,"Quantity":"1 km","Proposed measure/s":"Clearing and planting some trees along the banks (Aracanut) and other conservation practices","Total_Cost":"100,000.00","Contribution (Local Community, LA, and the project)":"Labor and other basic services by the Local community","Time frame for the implementation":"0.5 Years","photopath":"Not_Available"},"geometry":{"type":"Point","coordinates":[80.80962,7.1088]}},
{"type":"Feature","properties":{"No.":33,"GND No.":"505D","GND Name":"Landupita","Key Activities proposed for Soil and Water conservation":"2. Renovation of natural drains - Nikapanwala Kandura 2","Priority based on Soil Erosion Hazard":"-","N":7.1105,"E":80.80991,"Quantity":"1.5 km","Proposed measure/s":"Clearing and planting some trees along the banks (Aracanut) and other conservation practices","Total_Cost":"150,000.00","Contribution (Local Community, LA, and the project)":"Labor and other basic services by the Local community/ Shramadana","Time frame for the implementation":"0.5 Years","photopath":"https://raw.githubusercontent.com/MWS003-GIS/MWS003-GIS.github.io/main/IWWRMP/Data/EXD/200_photo/MWS_025/Nikapanwela 2 kandura.jpg"},"geometry":{"type":"Point","coordinates":[80.80991,7.1105]}},
{"type":"Feature","properties":{"No.":34,"GND No.":"505D","GND Name":"Landupita","Key Activities proposed for Soil and Water conservation":"3. Renovation of natural drains - Alakolawatte Kandura","Priority based on Soil Erosion Hazard":"-","N":7.10659,"E":80.80846,"Quantity":"500 m","Proposed measure/s":"Clearing and planting some trees along the banks (Aracanut) and other conservation practices","Total_Cost":"50,000.00","Contribution (Local Community, LA, and the project)":"Labor and other basic services by the Local community/ Shramadana","Time frame for the implementation":"0.25 Years","photopath":"https://raw.githubusercontent.com/MWS003-GIS/MWS003-GIS.github.io/main/IWWRMP/Data/EXD/200_photo/MWS_025/Alakolawaththe kandura.jpg"},"geometry":{"type":"Point","coordinates":[80.80846,7.10659]}},
{"type":"Feature","properties":{"No.":35,"GND No.":"505D","GND Name":"Landupita","Key Activities proposed for Soil and Water conservation":"4. Renovation of natural drains - Egodawatta Kandura","Priority based on Soil Erosion Hazard":"-","N":7.10529,"E":80.80993,"Quantity":"1 km","Proposed measure/s":"Clearing and planting some trees along the banks (Aracanut) and other conservation practices","Total_Cost":"100,000.00","Contribution (Local Community, LA, and the project)":"Labor and other basic services by the Local community/ Shramadana","Time frame for the implementation":"0.5 Years","photopath":"https://raw.githubusercontent.com/MWS003-GIS/MWS003-GIS.github.io/main/IWWRMP/Data/EXD/200_photo/MWS_025/Egodawaththa kandura.jpg"},"geometry":{"type":"Point","coordinates":[80.80993,7.10529]}},
{"type":"Feature","properties":{"No.":36,"GND No.":"505D","GND Name":"Landupita","Key Activities proposed for Soil and Water conservation":"5. Renovation of natural drains - Egodawatta Kandura (Goduwana Kandura)","Priority based on Soil Erosion Hazard":"-","N":7.10658,"E":80.81001,"Quantity":"500 m","Proposed measure/s":"Clearing and planting some trees along the banks (Aracanut) and other conservation practices","Total_Cost":"50,000.00","Contribution (Local Community, LA, and the project)":"Labor and other basic services by the Local community/ Shramadana","Time frame for the implementation":"0.5 Years","photopath":"https://raw.githubusercontent.com/MWS003-GIS/MWS003-GIS.github.io/main/IWWRMP/Data/EXD/200_photo/MWS_025/Egodawaththa kandura.jpg"},"geometry":{"type":"Point","coordinates":[80.81001,7.10658]}},
{"type":"Feature","properties":{"No.":41,"GND No.":"505E","GND Name":"Wetekegama","Key Activities proposed for Soil and Water conservation":"1. Renovation of natural drains - Belihul Oya","Priority based on Soil Erosion Hazard":"-","N":7.101565,"E":80.802214,"Quantity":"5 km","Proposed measure/s":"Clearing and planting some trees along the banks and other conservation practices","Total_Cost":"100,000.00","Contribution (Local Community, LA, and the project)":"Labor and other basic services by the Local community","Time frame for the implementation":"0.5 Years","photopath":"https://raw.githubusercontent.com/MWS003-GIS/MWS003-GIS.github.io/main/IWWRMP/Data/EXD/200_photo/MWS_025/Belihul Oya.JPG"},"geometry":{"type":"Point","coordinates":[80.802214,7.101565]}},
{"type":"Feature","properties":{"No.":42,"GND No.":"505E","GND Name":"Wetekegama","Key Activities proposed for Soil and Water conservation":"2. Renovation of natural drains - Ulmolliya Kandura","Priority based on Soil Erosion Hazard":"-","N":7.101021,"E":80.805409,"Quantity":"1.5 km","Proposed measure/s":"Clearing and planting some trees along the banks (Aracanut) and other conservation practices","Total_Cost":"150,000.00","Contribution (Local Community, LA, and the project)":"Labor and other basic services by the Local community","Time frame for the implementation":"0.25 Years","photopath":"https://raw.githubusercontent.com/MWS003-GIS/MWS003-GIS.github.io/main/IWWRMP/Data/EXD/200_photo/MWS_025/Ulmulliya Kandura.JPG"},"geometry":{"type":"Point","coordinates":[80.805409,7.101021]}},
{"type":"Feature","properties":{"No.":43,"GND No.":"505E","GND Name":"Wetekegama","Key Activities proposed for Soil and Water conservation":"3. Renovation of natural drains - Kathina Kandura","Priority based on Soil Erosion Hazard":"-","N":7.102315,"E":80.804555,"Quantity":"1 km","Proposed measure/s":"Clearing and planting some trees along the banks (Aracanut) and other conservation practices","Total_Cost":"100,000.00","Contribution (Local Community, LA, and the project)":"Labor and other basic services by the Local community","Time frame for the implementation":"0.5 Years","photopath":"https://raw.githubusercontent.com/MWS003-GIS/MWS003-GIS.github.io/main/IWWRMP/Data/EXD/200_photo/MWS_025/Kathina Kandura.JPG"},"geometry":{"type":"Point","coordinates":[80.804555,7.102315]}},
{"type":"Feature","properties":{"No.":44,"GND No.":"505E","GND Name":"Wetekegama","Key Activities proposed for Soil and Water conservation":"4. Renovation of natural drains - Kahatapitiya Kandura","Priority based on Soil Erosion Hazard":"-","N":7.098687,"E":80.8028,"Quantity":"1 km","Proposed measure/s":"Clearing and planting some trees along the banks (Aracanut) and other conservation practices","Total_Cost":"100,000.00","Contribution (Local Community, LA, and the project)":"Labor and other basic services by the Local community","Time frame for the implementation":"0.5 Years","photopath":"https://raw.githubusercontent.com/MWS003-GIS/MWS003-GIS.github.io/main/IWWRMP/Data/EXD/200_photo/MWS_025/Kahatapitiya Kandura.JPG"},"geometry":{"type":"Point","coordinates":[80.8028,7.098687]}},
{"type":"Feature","properties":{"No.":45,"GND No.":"505E","GND Name":"Wetekegama","Key Activities proposed for Soil and Water conservation":"5. Renovation of natural drains - Gorok Kandura","Priority based on Soil Erosion Hazard":"-","N":7.100039,"E":80.804477,"Quantity":"1.1 km","Proposed measure/s":"Clearing and planting some trees along the banks (Aracanut) and other conservation practices","Total_Cost":"110,000.00","Contribution (Local Community, LA, and the project)":"Labor and other basic services by the Local community","Time frame for the implementation":"0.5 Years","photopath":"https://raw.githubusercontent.com/MWS003-GIS/MWS003-GIS.github.io/main/IWWRMP/Data/EXD/200_photo/MWS_025/Gorok Kandura.JPG"},"geometry":{"type":"Point","coordinates":[80.804477,7.100039]}},
{"type":"Feature","properties":{"No.":46,"GND No.":"505E","GND Name":"Wetekegama","Key Activities proposed for Soil and Water conservation":"6. Renovation of natural drains - Niyanda Ella Kandura","Priority based on Soil Erosion Hazard":"-","N":7.100788,"E":80.806173,"Quantity":"500 m","Proposed measure/s":"Clearing and planting some trees along the banks (Aracanut) and other conservation practices","Total_Cost":"50,000.00","Contribution (Local Community, LA, and the project)":"Labor and other basic services by the Local community","Time frame for the implementation":"0.5 Years","photopath":"https://raw.githubusercontent.com/MWS003-GIS/MWS003-GIS.github.io/main/IWWRMP/Data/EXD/200_photo/MWS_025/Niyadaella Kandura.JPG"},"geometry":{"type":"Point","coordinates":[80.806173,7.100788]}},
{"type":"Feature","properties":{"No.":47,"GND No.":"505E","GND Name":"Wetekegama","Key Activities proposed for Soil and Water conservation":"7. Renovation of natural drains - Atambe Kandura","Priority based on Soil Erosion Hazard":"-","N":7.103896,"E":80.805319,"Quantity":"500 m","Proposed measure/s":"Clearing and planting some trees along the banks (Aracanut) and other conservation practices","Total_Cost":"50,000.00","Contribution (Local Community, LA, and the project)":"Labor and other basic services by the Local community","Time frame for the implementation":"0.5 Years","photopath":"https://raw.githubusercontent.com/MWS003-GIS/MWS003-GIS.github.io/main/IWWRMP/Data/EXD/200_photo/MWS_025/Atambe Kandura.JPG"},"geometry":{"type":"Point","coordinates":[80.805319,7.103896]}},
{"type":"Feature","properties":{"No.":50,"GND No.":"506","GND Name":"Munwatta","Key Activities proposed for Soil and Water conservation":"1. Renovation of natural drains - Hetti Ella Kandura","Priority based on Soil Erosion Hazard":"-","N":7.1102,"E":80.81438,"Quantity":"600 m","Proposed measure/s":"Clearing and planting some trees along the banks (Aracanut) and other conservation practices","Total_Cost":"60,000.00","Contribution (Local Community, LA, and the project)":"Labor and other basic services by the Local community/ Shramadana","Time frame for the implementation":"0.5 Years","photopath":"https://raw.githubusercontent.com/MWS003-GIS/MWS003-GIS.github.io/main/IWWRMP/Data/EXD/200_photo/MWS_025/Hetti Ella Kandura.jpg"},"geometry":{"type":"Point","coordinates":[80.81438,7.1102]}},
{"type":"Feature","properties":{"No.":51,"GND No.":"506","GND Name":"Munwatta","Key Activities proposed for Soil and Water conservation":"2. Renovation of natural drains - Koppa Ela","Priority based on Soil Erosion Hazard":"-","N":7.11671,"E":80.81407,"Quantity":"2.5 km","Proposed measure/s":"Clearing and planting some trees along the banks (Aracanut) and other conservation practices","Total_Cost":"250,000.00","Contribution (Local Community, LA, and the project)":"Labor and other basic services by the Local community/ Shramadana","Time frame for the implementation":"0.5 Years","photopath":"https://raw.githubusercontent.com/MWS003-GIS/MWS003-GIS.github.io/main/IWWRMP/Data/EXD/200_photo/MWS_025/Koppa Oya.jpg"},"geometry":{"type":"Point","coordinates":[80.81407,7.11671]}},
{"type":"Feature","properties":{"No.":52,"GND No.":"506","GND Name":"Munwatta","Key Activities proposed for Soil and Water conservation":"3. Renovation of natural drains - Kuda Oya Kandura","Priority based on Soil Erosion Hazard":"-","N":7.1091,"E":80.81555,"Quantity":"1.5 km","Proposed measure/s":"Clearing and planting some trees along the banks (Aracanut) and other conservation practices","Total_Cost":"150,000.00","Contribution (Local Community, LA, and the project)":"Labor and other basic services by the Local community/ Shramadana","Time frame for the implementation":"0.5 Years","photopath":"https://raw.githubusercontent.com/MWS003-GIS/MWS003-GIS.github.io/main/IWWRMP/Data/EXD/200_photo/MWS_025/Kuda Oya Kandura.jpg"},"geometry":{"type":"Point","coordinates":[80.81555,7.1091]}},
{"type":"Feature","properties":{"No.":53,"GND No.":"506","GND Name":"Munwatta","Key Activities proposed for Soil and Water conservation":"4. Renovation of natural drains - Nelugolla Kandura","Priority based on Soil Erosion Hazard":"-","N":7.11546,"E":80.81277,"Quantity":"500 km","Proposed measure/s":"Clearing and planting some trees along the banks (Aracanut) and other conservation practices","Total_Cost":"50,000.00","Contribution (Local Community, LA, and the project)":"Labor and other basic services by the Local community/ Shramadana","Time frame for the implementation":"0.5 Years","photopath":"https://raw.githubusercontent.com/MWS003-GIS/MWS003-GIS.github.io/main/IWWRMP/Data/EXD/200_photo/MWS_025/Nelugolla Kandura.jpg"},"geometry":{"type":"Point","coordinates":[80.81277,7.11546]}},
{"type":"Feature","properties":{"No.":56,"GND No.":"506A","GND Name":"Unagolla","Key Activities proposed for Soil and Water conservation":"1. Renovation of natural drains - Belihul Oya","Priority based on Soil Erosion Hazard":"-","N":7.123304,"E":80.812647,"Quantity":"350 m","Proposed measure/s":"Planting some trees along the banks and other conservation practices","Total_Cost":"35,000.00","Contribution (Local Community, LA, and the project)":"Labor and other basic services by the Local community/ Shramadana","Time frame for the implementation":"0.25 Years","photopath":"https://raw.githubusercontent.com/MWS003-GIS/MWS003-GIS.github.io/main/IWWRMP/Data/EXD/200_photo/MWS_025/Belihuloya.jpg"},"geometry":{"type":"Point","coordinates":[80.812647,7.123304]}},
{"type":"Feature","properties":{"No.":57,"GND No.":"506A","GND Name":"Unagolla","Key Activities proposed for Soil and Water conservation":"2. Renovation of natural drains - Alawatta Maha Kandura","Priority based on Soil Erosion Hazard":"-","N":7.109132,"E":80.819071,"Quantity":"1 km","Proposed measure/s":"Clearing and planting some trees along the banks (Aracanut) and other conservation practices","Total_Cost":"100,000.00","Contribution (Local Community, LA, and the project)":"Labor and other basic services by the Local community/ Shramadana","Time frame for the implementation":"0.5 Years","photopath":"https://raw.githubusercontent.com/MWS003-GIS/MWS003-GIS.github.io/main/IWWRMP/Data/EXD/200_photo/MWS_025/Alawaththa mahakandura.jpg"},"geometry":{"type":"Point","coordinates":[80.819071,7.109132]}},
{"type":"Feature","properties":{"No.":58,"GND No.":"506A","GND Name":"Unagolla","Key Activities proposed for Soil and Water conservation":"3. Renovation of natural drains - Koppa Oya","Priority based on Soil Erosion Hazard":"-","N":7.111421,"E":80.817422,"Quantity":"2 km","Proposed measure/s":"Planting some trees along the banks and other conservation practices","Total_Cost":"200,000.00","Contribution (Local Community, LA, and the project)":"Labor and other basic services by the Local community","Time frame for the implementation":"0.5 Years","photopath":"https://raw.githubusercontent.com/MWS003-GIS/MWS003-GIS.github.io/main/IWWRMP/Data/EXD/200_photo/MWS_025/Koppaoya.jpg"},"geometry":{"type":"Point","coordinates":[80.817422,7.111421]}},
{"type":"Feature","properties":{"No.":62,"GND No.":"507","GND Name":"Ukuthule","Key Activities proposed for Soil and Water conservation":"1. Renovation of natural drains - Hel Arawa Kandura","Priority based on Soil Erosion Hazard":"-","N":7.08378,"E":80.80959,"Quantity":"1.25 km","Proposed measure/s":"Clearing and planting some trees along the banks (Aracanut) and other conservation practices","Total_Cost":"125,000.00","Contribution (Local Community, LA, and the project)":"Labor and other basic services by the Local community/ Shramadana","Time frame for the implementation":"0.5 Years","photopath":"https://raw.githubusercontent.com/MWS003-GIS/MWS003-GIS.github.io/main/IWWRMP/Data/EXD/200_photo/MWS_025/Hel Arawa Kandura.jpg"},"geometry":{"type":"Point","coordinates":[80.80959,7.08378]}},
{"type":"Feature","properties":{"No.":63,"GND No.":"507","GND Name":"Ukuthule","Key Activities proposed for Soil and Water conservation":"2. Soil conservation practices - Hapukotuwa (60d - 70d)","Priority based on Soil Erosion Hazard":"-","N":7.085677,"E":80.808583,"Quantity":"3 ha","Proposed measure/s":"Live fencing/SALT and/or stone terracing/lock and spills, as applied","Total_Cost":"750,000.00","Contribution (Local Community, LA, and the project)":"Labor and other basic services by the Local community","Time frame for the implementation":"0.5 Years","photopath":"https://raw.githubusercontent.com/MWS003-GIS/MWS003-GIS.github.io/main/IWWRMP/Data/EXD/200_photo/MWS_025/Hapukotuwa Land.jpg"},"geometry":{"type":"Point","coordinates":[80.808583,7.085677]}},
{"type":"Feature","properties":{"No.":64,"GND No.":"507","GND Name":"Ukuthule","Key Activities proposed for Soil and Water conservation":"3. Soil conservation practices - Dunukewatta (50d -60d)","Priority based on Soil Erosion Hazard":"-","N":7.088483,"E":80.807633,"Quantity":"2.5 ha","Proposed measure/s":"Live fencing/SALT and/or stone terracing/lock and spills, as applied","Total_Cost":"625,000.00","Contribution (Local Community, LA, and the project)":"Labor and other basic services by the Local community","Time frame for the implementation":"0.5 Years","photopath":"Not_Available"},"geometry":{"type":"Point","coordinates":[80.807633,7.088483]}},
{"type":"Feature","properties":{"No.":65,"GND No.":"507","GND Name":"Ukuthule","Key Activities proposed for Soil and Water conservation":"4. Soil conservation practices - Veralugolla (60d - 70d)","Priority based on Soil Erosion Hazard":"-","N":7.08899,"E":80.80727,"Quantity":"1 ha","Proposed measure/s":"Live fencing/SALT and/or stone terracing/lock and spills, as applied","Total_Cost":"250,000.00","Contribution (Local Community, LA, and the project)":"Labor and other basic services by the Local community","Time frame for the implementation":"0.5 Years","photopath":"https://raw.githubusercontent.com/MWS003-GIS/MWS003-GIS.github.io/main/IWWRMP/Data/EXD/200_photo/MWS_025/Veralugolla Land 1.jpg"},"geometry":{"type":"Point","coordinates":[80.80727,7.08899]}},
{"type":"Feature","properties":{"No.":66,"GND No.":"507","GND Name":"Ukuthule","Key Activities proposed for Soil and Water conservation":"5. Soil conservation practices - Veralugolla (50d -60d)","Priority based on Soil Erosion Hazard":"-","N":7.08863,"E":80.80472,"Quantity":"1 ha","Proposed measure/s":"Live fencing/SALT and/or stone terracing/lock and spills, as applied","Total_Cost":"250,000.00","Contribution (Local Community, LA, and the project)":"Labor and other basic services by the Local community","Time frame for the implementation":"0.5 Years","photopath":"https://raw.githubusercontent.com/MWS003-GIS/MWS003-GIS.github.io/main/IWWRMP/Data/EXD/200_photo/MWS_025/Veralugolla Land 2.jpg"},"geometry":{"type":"Point","coordinates":[80.80472,7.08863]}},
{"type":"Feature","properties":{"No.":67,"GND No.":"507A","GND Name":"Ukuthule East","Key Activities proposed for Soil and Water conservation":"1. Renovation of natural drains - Ukuthul Oya","Priority based on Soil Erosion Hazard":"-","N":7.080456,"E":80.809617,"Quantity":"2 km","Proposed measure/s":"Planting some trees along the banks and other conservation practices","Total_Cost":"200,000.00","Contribution (Local Community, LA, and the project)":"Labor and other basic services by the Local community/ Shramadana","Time frame for the implementation":"0.5 Years","photopath":"https://raw.githubusercontent.com/MWS003-GIS/MWS003-GIS.github.io/main/IWWRMP/Data/EXD/200_photo/MWS_025/Ukuthale Oya 1.JPG"},"geometry":{"type":"Point","coordinates":[80.809617,7.080456]}},
{"type":"Feature","properties":{"No.":68,"GND No.":"507A","GND Name":"Ukuthule East","Key Activities proposed for Soil and Water conservation":"2. Renovation of natural drains - Kalamulla Oya","Priority based on Soil Erosion Hazard":"-","N":7.081037,"E":80.810017,"Quantity":"3 km","Proposed measure/s":"Planting some trees along the banks and other conservation practices","Total_Cost":"300,000.00","Contribution (Local Community, LA, and the project)":"Labor and other basic services by the Local community/ Shramadana","Time frame for the implementation":"0.5 Years","photopath":"https://raw.githubusercontent.com/MWS003-GIS/MWS003-GIS.github.io/main/IWWRMP/Data/EXD/200_photo/MWS_025/Kalamulla Oya.JPG"},"geometry":{"type":"Point","coordinates":[80.810017,7.081037]}},
{"type":"Feature","properties":{"No.":71,"GND No.":"507B","GND Name":"Yatiwella","Key Activities proposed for Soil and Water conservation":"1. Renovation of natural drains - Atalaha Kandura","Priority based on Soil Erosion Hazard":"-","N":7.085288,"E":80.80008,"Quantity":"3.5 km","Proposed measure/s":"Clearing and planting some trees along the banks (Aracanut) and other conservation practices","Total_Cost":"350,000.00","Contribution (Local Community, LA, and the project)":"Labor and other basic services by the Local community/ Shramadana","Time frame for the implementation":"0.25 Years","photopath":"https://raw.githubusercontent.com/MWS003-GIS/MWS003-GIS.github.io/main/IWWRMP/Data/EXD/200_photo/MWS_025/Aalaha Kandura.JPG"},"geometry":{"type":"Point","coordinates":[80.80008,7.085288]}},
{"type":"Feature","properties":{"No.":72,"GND No.":"507B","GND Name":"Yatiwella","Key Activities proposed for Soil and Water conservation":"2. Renovation of natural drains - Ukuthul Oya","Priority based on Soil Erosion Hazard":"-","N":7.086968,"E":80.802122,"Quantity":"1 km","Proposed measure/s":"Clearing and planting some trees along the banks (Aracanut) and other conservation practices","Total_Cost":"100,000.00","Contribution (Local Community, LA, and the project)":"Labor and other basic services by the Local community/ Shramadana","Time frame for the implementation":"0.5 Years","photopath":"https://raw.githubusercontent.com/MWS003-GIS/MWS003-GIS.github.io/main/IWWRMP/Data/EXD/200_photo/MWS_025/Ukuthule Oya.JPG"},"geometry":{"type":"Point","coordinates":[80.802122,7.086968]}},
{"type":"Feature","properties":{"No.":73,"GND No.":"507B","GND Name":"Yatiwella","Key Activities proposed for Soil and Water conservation":"3. Renovation of natural drains - Kalapitiya Kandura","Priority based on Soil Erosion Hazard":"-","N":7.085601,"E":80.800023,"Quantity":"1 km","Proposed measure/s":"Clearing and planting some trees along the banks (Aracanut) and other conservation practices","Total_Cost":"100,000.00","Contribution (Local Community, LA, and the project)":"Labor and other basic services by the Local community/ Shramadana","Time frame for the implementation":"0.5 Years","photopath":"https://raw.githubusercontent.com/MWS003-GIS/MWS003-GIS.github.io/main/IWWRMP/Data/EXD/200_photo/MWS_025/Kalapitiya Kandura.JPG"},"geometry":{"type":"Point","coordinates":[80.800023,7.085601]}},
{"type":"Feature","properties":{"No.":74,"GND No.":"507B","GND Name":"Yatiwella","Key Activities proposed for Soil and Water conservation":"4. Renovation of natural drains - Ampitiya Oya","Priority based on Soil Erosion Hazard":"-","N":7.081316,"E":80.794453,"Quantity":"1 km","Proposed measure/s":"Clearing and planting some trees along the banks (Aracanut) and other conservation practices","Total_Cost":"100,000.00","Contribution (Local Community, LA, and the project)":"Labor and other basic services by the Local community/ Shramadana","Time frame for the implementation":"0.5 Years","photopath":"https://raw.githubusercontent.com/MWS003-GIS/MWS003-GIS.github.io/main/IWWRMP/Data/EXD/200_photo/MWS_025/Ampiti Oya.JPG"},"geometry":{"type":"Point","coordinates":[80.794453,7.081316]}},
{"type":"Feature","properties":{"No.":75,"GND No.":"507B","GND Name":"Yatiwella","Key Activities proposed for Soil and Water conservation":"5. Renovation of natural drains - Belihul Oya","Priority based on Soil Erosion Hazard":"-","N":7.081579,"E":80.793247,"Quantity":"2 km","Proposed measure/s":"Clearing and planting some trees along the banks (Aracanut) and other conservation practices","Total_Cost":"200,000.00","Contribution (Local Community, LA, and the project)":"Labor and other basic services by the Local community/ Shramadana","Time frame for the implementation":"0.5 Years","photopath":"https://raw.githubusercontent.com/MWS003-GIS/MWS003-GIS.github.io/main/IWWRMP/Data/EXD/200_photo/MWS_025/Belihul Oya.JPG"},"geometry":{"type":"Point","coordinates":[80.793247,7.081579]}},
{"type":"Feature","properties":{"No.":76,"GND No.":"507B","GND Name":"Yatiwella","Key Activities proposed for Soil and Water conservation":"6. Renovation of natural drains - Galkanda Kandura","Priority based on Soil Erosion Hazard":"-","N":7.083947,"E":80.796935,"Quantity":"500 m","Proposed measure/s":"Clearing and planting some trees along the banks (Aracanut) and other conservation practices","Total_Cost":"50,000.00","Contribution (Local Community, LA, and the project)":"Labor and other basic services by the Local community/ Shramadana","Time frame for the implementation":"0.25 Years","photopath":"https://raw.githubusercontent.com/MWS003-GIS/MWS003-GIS.github.io/main/IWWRMP/Data/EXD/200_photo/MWS_025/Galkanda Kandura.JPG"},"geometry":{"type":"Point","coordinates":[80.796935,7.083947]}}
]}